{"type":"FeatureCollection","features":[{"type":"Feature","properties":{"interval":15,"stationId":"10814394643","profile":"peak"},"geometry":{"type":"Polygon","coordinates":[[[126.618126699491,37.6458641005815],[126.62739189919081,37.6378821996409],[126.6393004966994,37.6399922985261],[126.6444523996786,37.6337828972171],[126.6518576995224,37.640574797913004],[126.6426911021953,37.645862101455805],[126.6330080009851,37.644020500848],[126.6350305999934,37.6506281982105],[126.6366371990821,37.6479553001615],[126.6288923007002,37.6537498998637],[126.618126699491,37.6458641005815]]]}},{"type":"Feature","properties":{"interval":30,"stationId":"10814394643","profile":"peak"},"geometry":{"type":"Polygon","coordinates":[[[126.6048699981843,37.6454571991949],[126.61597329907599,37.6410121990109],[126.6128796006185,37.6358492012965],[126.6235179956731,37.6344575974222],[126.6307185001511,37.6265674985639],[126.63191549972821,37.6322128945302],[126.64199069546619,37.6278563983413],[126.6502816997549,37.632271294133],[126.65521989481671,37.6295588968454],[126.6616683002499,37.6382526975041],[126.66925479831221,37.6327662005885],[126.67157260098341,37.6359978993517],[126.67918449940791,37.6336212988691],[126.6928221988119,37.6496504977978],[126.6995179986897,37.649034199515],[126.69872000106109,37.653211999152504],[126.6881973010503,37.6537803013885],[126.68021162403271,37.6635937027039],[126.6716978015525,37.661756101021595],[126.6656457003135,37.653405102229904],[126.6505796004322,37.652486700812794],[126.6278501045353,37.6640985027085],[126.6126458019097,37.6580722011427],[126.6048699981843,37.6454571991949]]]}},{"type":"Feature","properties":{"interval":60,"stationId":"10814394643","profile":"peak"},"geometry":{"type":"Polygon","coordinates":[[[126.5812973993061,37.648357501414104],[126.5919432963332,37.6437931995899],[126.58923009939329,37.6275045997671],[126.6263276986968,37.6075266989271],[126.6447696982555,37.6091641986812],[126.6380143054484,37.6165878013354],[126.6454922979704,37.6202852976379],[126.6515562970756,37.616296097721],[126.65046059710251,37.6073968024893],[126.6612400990086,37.6212744945542],[126.6740472974309,37.6116178995704],[126.6756156003303,37.615147395744096],[126.6790766002094,37.610729402839894],[126.6904728985567,37.612726795795496],[126.6985300992734,37.6060277976953],[126.7013164002767,37.6098533932077],[126.70757539812729,37.5965477007767],[126.7240781964031,37.5871089005663],[126.7337386003757,37.5942331957652],[126.7360440985714,37.5889783009726],[126.7542965984956,37.5912840999375],[126.7547190973456,37.581349799293996],[126.7603930005004,37.5906033966823],[126.76671569923131,37.582147999631694],[126.7868633978976,37.590268895498],[126.7975181986948,37.5825880994332],[126.7954923997577,37.575665202439204],[126.7901986994585,37.5765489007222],[126.7936973959229,37.5670304024866],[126.7993937003088,37.5758302957253],[126.8043332988424,37.5680287006308],[126.7984198005241,37.563155202025094],[126.8139417975667,37.5471032001008],[126.8187901014091,37.5515962990425],[126.8273420987229,37.5500368989101],[126.84421429915531,37.5278729997973],[126.8497535994511,37.5262643993399],[126.8537326005076,37.531148000060504],[126.8466395003572,37.5366486000469],[126.8444435006343,37.5506438003853],[126.85728679803,37.5510389004121],[126.8586853991794,37.5449983013293],[126.8700532994333,37.5395614999169],[126.8864058999179,37.539170298591],[126.8812763010718,37.5427282007861],[126.8861292977481,37.546200497523195],[126.8595211088125,37.567348303588],[126.83036540168591,37.579425299494],[126.82509760045171,37.576797003044],[126.8136434008056,37.586629497532],[126.79020080012299,37.5880433010252],[126.7873887030048,37.5978881971098],[126.7905296986759,37.6045697983111],[126.7945952988113,37.6012887993087],[126.7926822029774,37.604568998202296],[126.7495330103501,37.6257048129676],[126.73458530363041,37.6259087997377],[126.7322577072408,37.636029311645494],[126.7104103006216,37.641336901388996],[126.7092955029372,37.6471675971324],[126.7195121927205,37.6551438891561],[126.7186265008873,37.659258699058604],[126.719512197369,37.6551439056519],[126.7091753057203,37.6472156146569],[126.6747056082085,37.665990112339905],[126.66113421735551,37.6798017042796],[126.6537604983382,37.6695775008873],[126.6458362021247,37.6723534024999],[126.6415528009296,37.680443601971895],[126.629180200799,37.669328101222],[126.6271820995188,37.6738588975859],[126.6309869988554,37.6715592993603],[126.6271821022698,37.6738589003157],[126.63236260044849,37.6800144986828],[126.6083991001972,37.6827541014861],[126.6081670993773,37.6755590012294],[126.60043020125761,37.6751259019338],[126.585421300913,37.6615077005043],[126.5883889003112,37.651768401640204],[126.5812973993061,37.648357501414104]]]}}]}