{"type":"FeatureCollection","features":[{"type":"Feature","properties":{"interval":15,"stationId":"12119884931","profile":"peak"},"geometry":{"type":"Polygon","coordinates":[[[127.1425327989835,37.6206422996782],[127.1562472003799,37.6182808993177],[127.1603931002059,37.6271007005484],[127.1470531996955,37.6299938021506],[127.1425327989835,37.6206422996782]]]}},{"type":"Feature","properties":{"interval":30,"stationId":"12119884931","profile":"peak"},"geometry":{"type":"Polygon","coordinates":[[[127.1310868994265,37.619807900346],[127.1362564991687,37.609810099997596],[127.1425236000728,37.6113960994923],[127.1531056994094,37.6051856997584],[127.1660281002039,37.6126961995822],[127.1689072015171,37.6246925979349],[127.16492000018259,37.636339999485195],[127.1480841041991,37.642250001464],[127.14848659646479,37.6380726023982],[127.1405643021887,37.6387164003696],[127.1322927015533,37.6304112051078],[127.1362084013044,37.6328752968534],[127.1434763957339,37.6279286989778],[127.1401620992705,37.6194175058117],[127.1310868994265,37.619807900346]]]}},{"type":"Feature","properties":{"interval":60,"stationId":"12119884931","profile":"peak"},"geometry":{"type":"Polygon","coordinates":[[[127.1073784988397,37.6214867990313],[127.11972019785091,37.6202501963105],[127.1174414993983,37.6112383999904],[127.1216099980378,37.6049534013686],[127.1156865999028,37.6017099021493],[127.11992819621601,37.5954601021392],[127.14741449882099,37.5852680010129],[127.1513990007557,37.590758198590606],[127.1701044001807,37.5892528995947],[127.1735856998165,37.5979333993518],[127.1873389981929,37.604642998598806],[127.193967697113,37.5989748989205],[127.20295589944031,37.6024926986942],[127.18103840096141,37.611018700582605],[127.18055370127901,37.6147727971562],[127.187172398467,37.610186299918304],[127.18055370113301,37.6147728009214],[127.1888844035477,37.6253345994226],[127.1744111019192,37.62650260089],[127.1863414006449,37.6335033971097],[127.1866550036932,37.637875399287196],[127.1806474030867,37.6346487038886],[127.1772372040779,37.640919700342295],[127.17782440332411,37.6473887960582],[127.186787099547,37.6496279992378],[127.1790031008438,37.6572214000944],[127.1793081975183,37.652026400923],[127.172880000031,37.6500900006158],[127.1724770022069,37.653578499348],[127.1693186002743,37.6455354026843],[127.1679733020441,37.6563464990251],[127.1664243985784,37.6499621012576],[127.161963803039,37.6527031985165],[127.16391930118,37.6589804986588],[127.15283910164639,37.6614481000051],[127.1382460966223,37.657429505903096],[127.1359272008492,37.6515002042944],[127.12825830019,37.6544301004897],[127.12646579975261,37.648299200279496],[127.1163022996593,37.642528800604204],[127.1202599973243,37.639047099768796],[127.1073784988397,37.6214867990313]]]}}]}