{"type":"FeatureCollection","features":[{"type":"Feature","properties":{"interval":15,"stationId":"1906684759","profile":"peak"},"geometry":{"type":"Polygon","coordinates":[[[127.03854229857811,37.515578100266],[127.04965809802731,37.4995871999162],[127.0458130996448,37.4939171007331],[127.0545666987033,37.492756700760204],[127.0449025000894,37.489145200943504],[127.0432032991687,37.483149700001995],[127.0489592994615,37.4889595989927],[127.0523550985608,37.480258401162],[127.06473529796989,37.479256698697704],[127.08059430024821,37.4911139991023],[127.0821699004664,37.4941353990478],[127.07408120051609,37.4984465001586],[127.05611450054651,37.4997703006255],[127.04649830005779,37.508108100281504],[127.0439564013377,37.516944800245696],[127.03854229857811,37.515578100266]]]}},{"type":"Feature","properties":{"interval":30,"stationId":"1906684759","profile":"peak"},"geometry":{"type":"Polygon","coordinates":[[[126.9776389994216,37.4842558000703],[126.9872836987424,37.4859698988282],[127.0012478998937,37.475785498921],[127.00550329972761,37.480637099279],[127.01641189792589,37.4751301978561],[127.0287000986133,37.482525000852],[127.03049929930451,37.4740025996556],[127.0347439992513,37.4755123983386],[127.0312787999857,37.4712417003151],[127.0342080988504,37.4643132996289],[127.04509469891251,37.4635679991531],[127.0568640006681,37.4735769953871],[127.060049398262,37.4690968997581],[127.07069539954071,37.4721506964607],[127.0725028023107,37.4783282977552],[127.0775220995895,37.479349895706704],[127.0781203989912,37.4748685001881],[127.0995805001282,37.4777619978276],[127.1068384995663,37.4736629996195],[127.1097692016812,37.483148998978194],[127.1166719980354,37.483360899221],[127.1168602982807,37.4661116009408],[127.1134904999831,37.4656172003601],[127.1260508984112,37.4657021986118],[127.1210428994371,37.451835200522],[127.1239716967933,37.441797402598596],[127.11981930094571,37.442326102069906],[127.1195983983402,37.438045499474],[127.12336309941931,37.4394174984129],[127.12387869938121,37.4294939003455],[127.1296706996256,37.4262297975637],[127.14473680012621,37.4393772988076],[127.1343232005511,37.4361646003729],[127.1384890999149,37.450567999605],[127.12875530071359,37.4571718010455],[127.12969340384899,37.4646595007053],[127.1330217005207,37.467423797941],[127.1493471976286,37.4540059971162],[127.1541581003969,37.4583681994564],[127.14830229979229,37.458371102601504],[127.1439642016116,37.4671040986087],[127.12493020018549,37.4701223004118],[127.1280041995669,37.475466499396006],[127.13573870016211,37.4753889998783],[127.13036080048491,37.4895976998004],[127.1362372994934,37.4958691982091],[127.1425036997234,37.4904201014277],[127.14816690081061,37.4938429994479],[127.1393654003581,37.4958831005509],[127.13072580066839,37.5105621002563],[127.1347973999831,37.513563399655105],[127.1335493031817,37.5201137991674],[127.1213314995881,37.510940401251304],[127.11875220239911,37.501495001119096],[127.1104958001695,37.5145481990879],[127.1168464007091,37.5183622997965],[127.1094796001708,37.516605602738196],[127.1085480000634,37.5229632996775],[127.1014410944636,37.524417908986905],[127.0916510003219,37.5385335003135],[127.091718898509,37.5325175999488],[127.1014410926962,37.52441790795881],[127.09962359929091,37.5165605002449],[127.0717714014153,37.5181995004133],[127.07193359975689,37.527671591950096],[127.077964299605,37.528531899687394],[127.0738614004362,37.537020899706704],[127.080076899696,37.54526739886],[127.07544870079799,37.5491013001681],[127.08402099967941,37.5545682995041],[127.0825836002176,37.560640899923605],[127.0764103007194,37.560101001076106],[127.0729616998658,37.5498925007012],[127.063599398949,37.542930301196805],[127.0521000013499,37.5456917008533],[127.0494123997548,37.5549099989184],[127.0428137003036,37.5567674005843],[127.04371450098179,37.5683861010533],[127.0145616995426,37.5655187003311],[127.0294875994699,37.562026099642196],[127.02561039969301,37.5566886008744],[127.01976499985071,37.5575537004372],[127.01884479922559,37.552196199807696],[127.0358125999042,37.5571302998041],[127.0413756983269,37.553828700190394],[127.0356009996136,37.544250500050595],[127.0428564992157,37.5313979997789],[127.0266951000463,37.5325993003323],[127.0269854996531,37.5240900000154],[127.0173336003382,37.5231827004446],[126.9944851995833,37.5042987006136],[127.0008098984942,37.5010613003978],[126.9977325015716,37.5007005007586],[127.0023303994018,37.4961005999122],[126.9998347980805,37.4919399008442],[126.99082100063589,37.4922110002642],[126.9884119994746,37.4867594015509],[126.9776389994216,37.4842558000703]]]}},{"type":"Feature","properties":{"interval":60,"stationId":"1906684759","profile":"peak"},"geometry":{"type":"Polygon","coordinates":[[[126.83383199977361,37.5685339998635],[126.8385951988476,37.5620414001057],[126.848408999041,37.5634893998846],[126.8500687990589,37.554367899340804],[126.8593915992736,37.5535607976543],[126.8672459994432,37.537739299847395],[126.890837498739,37.5323865992233],[126.8844953998921,37.5317644004838],[126.88751599940251,37.5279039026978],[126.87868410069021,37.533092400114],[126.8686821003109,37.5299219009365],[126.863514401126,37.5344644995949],[126.8514221004846,37.5280785003736],[126.8518743002913,37.533915900018094],[126.84283809921389,37.5355041004947],[126.8424985994717,37.5294314999162],[126.849020899192,37.5273146993449],[126.85271439793439,37.5187565999934],[126.8810541983594,37.515623498462],[126.8721287998537,37.4992930999985],[126.8797102979216,37.498049700897504],[126.8752328970244,37.4803870011713],[126.8726215996357,37.477687503870804],[126.8540112007601,37.4837383005588],[126.8489743998475,37.481715201277694],[126.85123419966229,37.4752519000937],[126.8613837997503,37.4774224974255],[126.8676197996698,37.4696656997425],[126.8739681007856,37.4763731988726],[126.8824229987021,37.4722606996475],[126.8965026991062,37.4785055995454],[126.9176816986881,37.4710585989473],[126.9260571994181,37.460798999717],[126.92601400195299,37.4645074965997],[126.93167779628921,37.4633338977733],[126.9322987972411,37.4578674003973],[126.9544532995599,37.4592745986639],[126.95509510005809,37.4559695012785],[126.96421030053901,37.4636722942827],[126.9707581995144,37.4544832991409],[126.9806033997507,37.4710080979516],[126.9884666994664,37.4660825001595],[126.9922611956211,37.4535594021874],[126.9861209954412,37.4448022044625],[126.9910699944234,37.4427248977064],[126.983280997883,37.435180700960395],[126.98432599671439,37.4267266005386],[126.9783457996721,37.4234011012143],[126.9825392995857,37.423704296526395],[126.9849637980892,37.416961700387205],[127.0023616020531,37.4267750961354],[127.0175520996458,37.4266281999717],[127.0205826024949,37.4357224991005],[127.0129600027971,37.4441875005584],[127.01440980115319,37.4513853966309],[127.03701379591159,37.450556294364304],[127.03260519802471,37.4357200019242],[127.04285779749519,37.427885095779494],[127.0660149005543,37.4347978984222],[127.0709975986133,37.429791600886205],[127.0681134014975,37.427481803196],[127.06672070289021,37.432978797699],[127.0667227969891,37.4269859008566],[127.0752233981361,37.4244846943103],[127.07197930296779,37.4249974004287],[127.0807237973805,37.4311709885492],[127.0719894029564,37.435428102570604],[127.0674286024856,37.4511892984112],[127.0735510983713,37.4495310983807],[127.0754488009816,37.4578265987655],[127.083929898995,37.4612956986216],[127.0751493994079,37.4595885030554],[127.0706757012502,37.4635264000485],[127.06854149771159,37.4591990058429],[127.06162410364,37.4689519961506],[127.077111598348,37.4750565942953],[127.0874826987002,37.4704252991839],[127.0854170988005,37.4617762011394],[127.100258495386,37.4570836988555],[127.10476059793871,37.448035599094396],[127.1179704905194,37.4517759956982],[127.1167570002008,37.4293677028343],[127.1001491988783,37.4276639026699],[127.11053269911149,37.4069922001871],[127.1037247998645,37.405589902712],[127.09929679999621,37.414468900719704],[127.0955892992816,37.4085976014495],[127.10032819901011,37.397639500960096],[127.0903041994589,37.402410701836594],[127.0920665961845,37.3941537991541],[127.0872831000861,37.388520500253996],[127.0927488982234,37.365875502918804],[127.0855468000199,37.3453351001723],[127.0889652976339,37.3400950998061],[127.0813101000449,37.338896400270706],[127.0867214994573,37.334244400208604],[127.0806928985053,37.327422300826605],[127.0838941965154,37.3254699006849],[127.0663182003677,37.3203516004784],[127.0633462001127,37.2909853002176],[127.0683539987766,37.2880682999958],[127.0787918994207,37.291833497733705],[127.0831116000266,37.2958618981382],[127.0810116998189,37.301024599611],[127.09708690060049,37.3141082985589],[127.1058301989958,37.3059608015991],[127.1024039997898,37.302980401687805],[127.10413319965531,37.2929488012515],[127.1107379000689,37.2936973994131],[127.105855501042,37.304596700070995],[127.11939440125181,37.3179759896799],[127.1211275011456,37.338162397532],[127.1272258997052,37.3400378996621],[127.1271169996613,37.3621402976621],[127.14473210010429,37.3735901990023],[127.143412202207,37.3812515959044],[127.1498173983847,37.3822221974676],[127.1413861055956,37.3908833013815],[127.1496505030108,37.403501497245095],[127.1563259990027,37.404425799337],[127.1583247996642,37.4135882962534],[127.1534516000975,37.4169920010405],[127.160750198874,37.423771698243506],[127.15419060597101,37.4292006986526],[127.17541560108259,37.4303072983472],[127.1833455980488,37.443364397922],[127.1815082004988,37.466142897668504],[127.1781276035225,37.4720979974253],[127.1673296087463,37.4725703009786],[127.17636110161399,37.4889473976869],[127.16111810464399,37.4964304988573],[127.1705216013715,37.5061615985048],[127.1636836014143,37.509315600225],[127.1593668017382,37.5328886983121],[127.1628879018731,37.5427229993205],[127.15744890385581,37.5459042969648],[127.16957340044621,37.544145198442706],[127.1776498008601,37.5509236994889],[127.1834833998632,37.5483070994291],[127.18629160110011,37.5538504995652],[127.1959271997482,37.5500284002824],[127.2008302994668,37.5346706001205],[127.2298675995607,37.5374786991976],[127.22435730079769,37.54435140120739],[127.2145779013059,37.5448493999496],[127.2016806005392,37.5699030998713],[127.1928602002987,37.5740477002235],[127.1865961006084,37.5743890005785],[127.1814604991065,37.5660846011571],[127.1728566010907,37.5682810004089],[127.1684739020016,37.564625300527105],[127.1587574010443,37.5695881000593],[127.1536222001515,37.5622759027787],[127.1353438011298,37.566412399974496],[127.1259341948053,37.5589419073938],[127.0969278049465,37.5635443999243],[127.1128874994961,37.5756930999964],[127.1075785026304,37.5971895967448],[127.11367260114581,37.608510599208905],[127.10166250043271,37.612991201133006],[127.0978076009687,37.6079293019233],[127.0929230021868,37.6120210003099],[127.09893740018539,37.6144160999054],[127.0969165001907,37.6251872973374],[127.0843974057159,37.6291195000627],[127.0712039006961,37.6550335001624],[127.07876210095671,37.660893800277194],[127.0733665997072,37.6647190006151],[127.0685835006097,37.661013700556595],[127.05775780095401,37.672925099352604],[127.06071300126031,37.6789550957684],[127.0553544002777,37.6835338007753],[127.0464475001447,37.6808854002729],[127.0535243995505,37.6736153988962],[127.0505705983884,37.6618064996501],[127.0580147001125,37.655101900449395],[127.0489133998982,37.6534751000488],[127.0453245005533,37.6579848002034],[127.0424308999879,37.651874801567004],[127.0356931010451,37.6554432006954],[127.0179954001054,37.644395800997195],[127.0112562002227,37.6579067003185],[127.0114702992823,37.6282895022255],[126.9964492988119,37.6183019015663],[126.9999596983327,37.6060681986513],[127.0047952975977,37.6064662979415],[127.0036126987803,37.600301804105996],[126.9914290007423,37.6010732998107],[126.986656398752,37.589019803133205],[126.97986730132159,37.589877102112006],[126.9795457996229,37.583859599859196],[126.9732932003652,37.5836735001154],[126.9755423994377,37.5896346967167],[126.96985740470639,37.5909128994247],[126.9595816003259,37.5803758015988],[126.9567812022768,37.5875377986597],[126.9495428020279,37.5889020006692],[126.9488319003069,37.5965256005447],[126.9392513016591,37.5964834009501],[126.93622960263541,37.621665100129],[126.9217609002224,37.625192700254196],[126.9131809000764,37.6215841001413],[126.91509189994709,37.6091704999053],[126.92289219973311,37.613108699601895],[126.9358275996694,37.58173700058779],[126.94580379831099,37.5802202995503],[126.9454843984354,37.573597600244696],[126.9509792974001,37.5709677997412],[126.9342264996388,37.5652931005489],[126.9150356004165,37.5702191011095],[126.91420719951181,37.5609074005188],[126.9077026001623,37.5614711001843],[126.9004145001753,37.572305300392394],[126.9049692007242,37.5795846989853],[126.8938522008703,37.5801576009486],[126.8913603997938,37.577756201027604],[126.89951949977839,37.5725312996205],[126.90282859924231,37.551512701186006],[126.9075008992766,37.5468732000047],[126.9037013034173,37.5429679034095],[126.8872783006537,37.5467203004895],[126.8820485013364,37.5499050010797],[126.883853900275,37.5532879981182],[126.8676559013536,37.553595499919],[126.8595211022663,37.5673482968238],[126.84630410101819,37.5664982021561],[126.8439458033927,37.5751408066471],[126.83383199977361,37.5685339998635]]]}}]}