{"type":"FeatureCollection","features":[{"type":"Feature","properties":{"interval":15,"stationId":"1918413725","profile":"peak"},"geometry":{"type":"Polygon","coordinates":[[[126.9176640996155,37.5552652005178],[126.9262459994523,37.5527916995652],[126.92849029940771,37.5469455002492],[126.9400012000164,37.545622899828],[126.9854868003628,37.5653323993999],[126.98365100088509,37.568534900117406],[126.9517231000698,37.5618354005405],[126.93869210019629,37.5647198001531],[126.9242892997982,37.5623321003731],[126.9176640996155,37.5552652005178]]]}},{"type":"Feature","properties":{"interval":30,"stationId":"1918413725","profile":"peak"},"geometry":{"type":"Polygon","coordinates":[[[126.8766173988958,37.5036109992251],[126.8788977987341,37.5009756979715],[126.8845289998175,37.505287498888904],[126.8892005995351,37.493909299965395],[126.8952542992907,37.4918754001344],[126.89792400192721,37.5120165997715],[126.9040490996058,37.5146342991726],[126.91252629933919,37.510183398409005],[126.9152626996543,37.517784599086],[126.9247312989072,37.5112303002832],[126.9342327005854,37.5206454987366],[126.9402922993024,37.520865799674006],[126.9479947009248,37.5345044990151],[126.9640429989554,37.5313218987394],[126.96104199924231,37.52527710011319],[126.96914479909539,37.519940400273605],[126.9768134001379,37.5214529988716],[126.9679798012762,37.5271948998531],[126.9803209003361,37.5342520997768],[126.9729330012391,37.539570898540504],[126.9738175002496,37.5457287994564],[126.9830756998686,37.5484502993127],[126.9857408994027,37.5557382996146],[127.0050389995024,37.5543735991752],[127.0053244993717,37.548301899980196],[127.0150523985216,37.549076799622505],[127.0172795005879,37.5390733996873],[127.02497530034469,37.5534123998747],[127.04093399968839,37.556743598381594],[127.0470659991461,37.544386900207996],[127.0501343002416,37.5457115988878],[127.0445687006084,37.5499330992297],[127.04864220052501,37.5541888996395],[127.046919599953,37.5515630005442],[127.0408013010469,37.558517999690096],[127.0469443998423,37.5654426990117],[127.00458549994191,37.5770347009981],[127.00380319992269,37.5878925990376],[127.01060050049959,37.5892604995729],[127.00498399970769,37.5914183006225],[126.9938401004853,37.572091700561],[126.987361400387,37.5830955999924],[126.97079620002239,37.5807930003328],[126.96345100009361,37.574530400676004],[126.9570452004141,37.5769955006229],[126.9542432997996,37.5756510004343],[126.9596116992028,37.573024100302696],[126.95209460071369,37.5703076023705],[126.940117801009,37.574176901014894],[126.9375948000016,37.5681998018159],[126.9236617008997,37.5739335007149],[126.906787801562,37.572328400964906],[126.90759560064319,37.5786606989895],[126.91638520019319,37.5828942994829],[126.9163800001586,37.6012551000747],[126.9007313995927,37.5825221002938],[126.8921706012937,37.583900800731705],[126.8878745990058,37.5798243006005],[126.8997304992935,37.569557700701296],[126.8925468004778,37.5679579005614],[126.8918947997951,37.5631579004132],[126.8985115985441,37.5580554990047],[126.90352539751771,37.5430219011375],[126.88795400065149,37.544904800074],[126.8908374974314,37.532386601541106],[126.8827901003325,37.524809201225],[126.87854709964381,37.5117192006905],[126.89195339942161,37.508590600255495],[126.8766173988958,37.5036109992251]]]}},{"type":"Feature","properties":{"interval":60,"stationId":"1918413725","profile":"peak"},"geometry":{"type":"Polygon","coordinates":[[[126.6909162989073,37.463481600052404],[126.6972748992982,37.4612882996487],[126.7019066992936,37.4670543984775],[126.7107542000241,37.4619039995926],[126.7192323007898,37.4835914972681],[126.7448403978709,37.481684298074796],[126.7449437012146,37.4896429006999],[126.7624944972913,37.475740200880395],[126.7667091014014,37.478523798923895],[126.7785005954918,37.4717542971964],[126.7793121006265,37.475916896602705],[126.7841688993208,37.4706835973194],[126.7911570012989,37.4720643978824],[126.80088590039159,37.4625359982381],[126.8015625005672,37.4713697995148],[126.8075945993438,37.4755931989087],[126.8207396989581,37.4737447974614],[126.8305117007993,37.4849576949153],[126.8455307981613,37.4698507987759],[126.8433745003176,37.4673878012389],[126.8705347965238,37.4619579974243],[126.869258199238,37.458719099902304],[126.88143559536441,37.4537959986657],[126.88077609743061,37.4461941001559],[126.89477169783561,37.4424996990805],[126.8965502991605,37.435509101465094],[126.8988991003516,37.4378832986212],[126.8967346991612,37.418915403225],[126.881048002753,37.429509502408],[126.8707860999517,37.419172402878],[126.8737692960407,37.4156341016025],[126.8838790989566,37.4101425999305],[126.8832787964489,37.406220000431496],[126.888986400894,37.412303598765604],[126.89406659824711,37.408337799038],[126.8937568010343,37.4180385986079],[126.91302779907879,37.407373999077194],[126.92042099953771,37.394489999759195],[126.9302315992495,37.3937233989314],[126.9262927977046,37.3839589006771],[126.9402167991941,37.3755575006937],[126.9387485994634,37.3673977997615],[126.94883409977889,37.366636099842204],[126.9497082001242,37.3730225991127],[126.9404358046019,37.37998850271531],[126.9415402022791,37.3869040009848],[126.9317080023808,37.391809101433104],[126.93276040387781,37.403529398309],[126.9261869992708,37.4028232063769],[126.9209173016541,37.410550397744196],[126.918479101306,37.4074844032378],[126.92018979984411,37.4141869992049],[126.91459860274341,37.424083297504],[126.9023088002529,37.423295100240495],[126.91425680079871,37.433209598823694],[126.9140010004557,37.439818797498695],[126.9075529008877,37.443747400851],[126.91370169988281,37.450047499598995],[126.9116588015393,37.4637933994011],[126.9183515988413,37.46542379859601],[126.93059029894961,37.4557102025545],[126.9503329991648,37.452740799562804],[126.9616958030535,37.4632708946841],[126.97436260043851,37.4622457964732],[126.9806033997507,37.4710080979516],[126.9884666994664,37.4660825001595],[126.9914109989426,37.4451236991351],[127.00218269653341,37.441126500316905],[126.9885764995879,37.4358206022313],[126.98402499964361,37.4259624998618],[126.9875316980801,37.4214929988801],[126.9867452024668,37.4264797989389],[126.9902737992703,37.426710099328],[126.99329179972909,37.4217927991511],[127.01089329783811,37.4295621982843],[127.01782110278211,37.441856196458],[127.012154403076,37.444976502589704],[127.0150043993806,37.4574452986298],[127.0005726042313,37.4616383018114],[127.00637860262,37.4759685972568],[127.0172239994496,37.471869297766],[127.0271905001229,37.4837784995985],[127.03132019904889,37.462620201507505],[127.045029699191,37.4594362009147],[127.050566101559,37.4621404996674],[127.04835920266419,37.469352797971304],[127.0539288998697,37.4769063992007],[127.0640735998707,37.4769753983638],[127.07018909660309,37.4825540952299],[127.0676148991773,37.4775614002226],[127.07018910077379,37.4825540973749],[127.08063599748439,37.477255997612495],[127.09019460199531,37.4855064958298],[127.10567370009589,37.4795444996165],[127.1077086006096,37.4886707975346],[127.1090855992326,37.485917400287995],[127.1135979991515,37.4910371975037],[127.1277107998603,37.4753427995197],[127.1304795004804,37.480988100279],[127.1266815999287,37.4925959990943],[127.1406690993711,37.4943108984462],[127.14218119514939,37.4884456032979],[127.1545636995746,37.4928772995649],[127.15390620004669,37.4977508006655],[127.1457606003958,37.4958127001643],[127.13591960043169,37.5059963994513],[127.1378990998231,37.5152791991897],[127.1485770992531,37.5164169987091],[127.14576030040901,37.5217416999011],[127.1536101015229,37.5301216971848],[127.149063002881,37.5300000000366],[127.1497300028323,37.551579997717404],[127.16798869886,37.5568623973142],[127.1661632024442,37.5598682993434],[127.1389966009696,37.554719801072004],[127.13058170043459,37.5609883011656],[127.1108693002797,37.558368800816396],[127.1089020994998,37.5543793033887],[127.10191370120539,37.561322000195595],[127.0958701049719,37.5573508014131],[127.0962059041593,37.5686982996006],[127.1038248010868,37.578736799819005],[127.0980281017461,37.5864171991951],[127.11367260114581,37.608510599208905],[127.10166250043271,37.612991201133006],[127.0872689000751,37.6053964017424],[127.0879045000806,37.6120746972697],[127.09912280029991,37.614321498703],[127.0969165001907,37.6251872973374],[127.0742465998749,37.629456400098505],[127.0753636998407,37.6387113980201],[127.0671740026726,37.6442525979938],[127.0863240972889,37.6614255944825],[127.08842200093889,37.6729738004489],[127.07896230303331,37.6778346009675],[127.0714572974438,37.6679067048642],[127.05571460036221,37.6693474001632],[127.0507473009534,37.6642580011673],[127.0488129001691,37.67603869783],[127.0579053000861,37.6748844995039],[127.0450945007481,37.6945804998379],[127.0388401996533,37.6798243068075],[127.04193049922381,37.674337700973005],[127.0233162996781,37.6542832023233],[127.00598720153461,37.665405805019304],[127.00793319615799,37.6549953037494],[127.00290149397539,37.645694504484],[127.00604769717489,37.638034703971],[127.00163429336611,37.622182504386004],[126.99489300010741,37.620419406149104],[126.99101949733789,37.6124990059333],[126.99367579704361,37.603237500748],[126.9701006006201,37.594857102026396],[126.9624020006611,37.600910500578095],[126.95198520173379,37.5993556015784],[126.9430022005684,37.604849903652195],[126.949208701883,37.6275272975063],[126.9375318065229,37.628642801004],[126.94147420258051,37.632233497413296],[126.9350758991507,37.633792501757696],[126.91998200121361,37.6587581014478],[126.91950889967289,37.6549730031293],[126.9051507008996,37.653748204348005],[126.90157350254769,37.6612274019879],[126.8923553012121,37.6632783999594],[126.888628999351,37.654725302053],[126.8765213030343,37.6570035008639],[126.8628691998546,37.6525430001373],[126.8685451975295,37.6433046010614],[126.8781368992852,37.644448498767105],[126.8826485006425,37.650519898080496],[126.91066669654069,37.640880799808095],[126.9071369933941,37.6248349014332],[126.8956392995192,37.61284110096],[126.90121089663289,37.611796496682395],[126.9014158975142,37.5982735012405],[126.8959227030074,37.595952703561295],[126.88481520207061,37.607841200110606],[126.8854710002973,37.6144075005541],[126.8785353018823,37.6211631987784],[126.8818714989349,37.6219004984379],[126.8597099991277,37.6208432016169],[126.8622934961774,37.6128716037522],[126.8486847010613,37.632298698232496],[126.8443336001,37.6272952034382],[126.8383783033406,37.631684400854596],[126.8491910011532,37.64930789590429],[126.85453289991709,37.647528998973996],[126.8491910054277,37.649307905266696],[126.8458898046778,37.6582751997724],[126.8500450005226,37.6607621972854],[126.8331022000411,37.6604585000552],[126.828708999289,37.654616302463104],[126.83210229946991,37.6479955994846],[126.8170074002547,37.6383127006835],[126.8136590973088,37.6267812018579],[126.8028845988651,37.6188040018537],[126.8108894978684,37.6095863998414],[126.8115995946542,37.6002448977958],[126.8274720948983,37.593520291500404],[126.8310088003069,37.594307797744],[126.82833480179109,37.600493699527],[126.83906559968119,37.6048205993203],[126.835974299918,37.5990962003379],[126.8538324977267,37.5967857980785],[126.85592079909831,37.5849039028751],[126.867936198147,37.587404198809104],[126.8632768993635,37.5783285000214],[126.8562156993531,37.578259100301594],[126.8641757976413,37.5739832002595],[126.859521102296,37.5673483068944],[126.8348612077972,37.5787932067942],[126.8168942009732,37.580768501483796],[126.8136434008056,37.586629497532],[126.81806789916341,37.584668898115794],[126.7943831005098,37.5860876008325],[126.7887793993929,37.579745603523506],[126.7963111998215,37.5843892975929],[126.79951389937669,37.5789520999992],[126.7868125023315,37.5761432007323],[126.7936973959229,37.5670304024866],[126.7904878991324,37.566374703142294],[126.7993937003088,37.5758302957253],[126.8035801992859,37.5713500991522],[126.7984198005241,37.563155202025094],[126.8194892989236,37.544674200163904],[126.8188018982283,37.535377100744796],[126.8131419009055,37.530191202541],[126.8115929004717,37.5362712996297],[126.8071816052651,37.5386832021212],[126.80320320046489,37.532873201413295],[126.8002576020609,37.5373081996672],[126.7924971000356,37.5294755028578],[126.7979377982714,37.5255966999051],[126.7874188006638,37.5239530005464],[126.79857569524741,37.5142985025197],[126.79314050068261,37.5125769042413],[126.7925729006822,37.516993399825395],[126.7903804999785,37.509662004502],[126.7835132000073,37.5151361004925],[126.76886350046,37.5108069011848],[126.76948919972959,37.507474601396105],[126.7526158004964,37.513241300420894],[126.7489375992337,37.5082167995033],[126.7372466997599,37.5080862008341],[126.7206956010749,37.5105371999888],[126.7273513012083,37.5165542974362],[126.72188080055989,37.5226684994705],[126.7321765007857,37.5354024976497],[126.7451208997425,37.5397794985426],[126.7478755015519,37.5524108995492],[126.7556050005136,37.5606857003481],[126.74654670038629,37.5763379995878],[126.7312398001654,37.5793932005919],[126.72072349599861,37.5678139005231],[126.7249591952398,37.5631748022126],[126.7386299977669,37.5655134937293],[126.7420816943152,37.5592202000226],[126.71674229942151,37.5410172008463],[126.71540379929121,37.52790150064],[126.721900797499,37.5210849015615],[126.7158212001485,37.5183838014609],[126.7212520997728,37.5146472010697],[126.7205478996972,37.5075017004433],[126.7154922034486,37.509264199952796],[126.7188967972073,37.5033690988705],[126.7165329979226,37.4934796995173],[126.7071420996863,37.4859413011713],[126.7070173981466,37.478896302103],[126.6949060013879,37.4767205015327],[126.69565099891639,37.4657505020624],[126.6909162989073,37.463481600052404]]]}}]}