{"type":"FeatureCollection","features":[{"type":"Feature","properties":{"interval":15,"stationId":"1994680392","profile":"peak"},"geometry":{"type":"Polygon","coordinates":[[[126.88839779836651,37.5401801016756],[126.8988998985376,37.5304109993631],[126.893765200187,37.5261552008028],[126.89594359865569,37.5233294008789],[126.90065009982999,37.5302716988032],[126.90775790035309,37.5303403990383],[126.9030677998412,37.5386311036075],[126.9048235992562,37.5358988000377],[126.88839779836651,37.5401801016756]]]}},{"type":"Feature","properties":{"interval":30,"stationId":"1994680392","profile":"peak"},"geometry":{"type":"Polygon","coordinates":[[[126.7958203993537,37.577875000399295],[126.8043332988424,37.5680287006308],[126.7984198005241,37.563155202025094],[126.8095167001976,37.5544741994389],[126.8173668991082,37.5606905983936],[126.826136098584,37.5556451988986],[126.839557500179,37.5560824995491],[126.8450464998187,37.5476609002966],[126.8534942993295,37.5461552996598],[126.861895798729,37.532140600437096],[126.8490577995907,37.5236696010793],[126.854520899394,37.520486099296896],[126.8676185995804,37.524442798143504],[126.869812599412,37.5185841003278],[126.8789135988076,37.518654899130205],[126.88656679925819,37.5078218005272],[126.8746891002027,37.5051611017091],[126.8751694977728,37.499973402181304],[126.8846531997422,37.498971599097494],[126.8864754997325,37.4928594995244],[126.8957525005247,37.4904196987139],[126.9012371005323,37.4977684994308],[126.89977690027531,37.5065425996108],[126.9164510994031,37.5101628992991],[126.9200884974921,37.5089702999364],[126.9171420991926,37.4972815002613],[126.92113250028329,37.4933298992089],[126.9182697000919,37.4951661011217],[126.9306174002143,37.5131784981899],[126.93024750014749,37.507806000421105],[126.939149199444,37.5036245975637],[126.9546224006981,37.509132098517505],[126.9800486984619,37.5007714993622],[126.9621734067801,37.5108909062009],[126.9594866030375,37.517484002239904],[126.95660999996,37.513893103695594],[126.9353520013257,37.5139606002099],[126.9410875000617,37.5197192995229],[126.9383537064542,37.5256633080965],[126.9433087014992,37.534791498968296],[126.9496583996829,37.5349199992197],[126.9526847004962,37.540451699723],[126.960571499452,37.5358576993637],[126.9663650003925,37.5380131998826],[126.95688060081811,37.5420620996644],[126.9573010003828,37.548433699920594],[126.9715472002056,37.5623729998643],[126.9792470005134,37.563478099376496],[126.9712921003663,37.5628556008248],[126.96906560019049,37.567950199429],[126.9507395001543,37.5602816006321],[126.9167909999737,37.568824900553004],[126.9152482991538,37.5639729003939],[126.90678780158001,37.572328400031104],[126.90925270050819,37.5816473992109],[126.9152997998244,37.5833230997429],[126.9176186999972,37.5991968995166],[126.9054960001948,37.587186000406],[126.9053759000531,37.580806601080305],[126.89233659907639,37.5771466005779],[126.9002577989828,37.5695018012433],[126.8931276001488,37.563355100789906],[126.90193619927079,37.5504200998692],[126.8992705019365,37.544340105949196],[126.8875372068166,37.5485215060093],[126.883853906023,37.5532880054524],[126.8870128018739,37.559434099442996],[126.8785532998584,37.5528588007853],[126.8623439059897,37.5637587071776],[126.8595211088125,37.567348303588],[126.8642369026165,37.573749398970094],[126.859521102296,37.5673483068944],[126.8348612077972,37.5787932067942],[126.8335961990398,37.5742725019593],[126.8141115014902,37.5810707010191],[126.7958203993537,37.577875000399295]]]}},{"type":"Feature","properties":{"interval":60,"stationId":"1994680392","profile":"peak"},"geometry":{"type":"Polygon","coordinates":[[[126.6198901991667,37.6449980010901],[126.6444523996786,37.6337828972171],[126.6550909004885,37.6411922992868],[126.6632758986954,37.635489200327505],[126.6761547994886,37.6347741000382],[126.6928221988119,37.6496504977978],[126.6973807974466,37.642054101095006],[126.6881518006493,37.6398006027779],[126.6859661007549,37.6320657029662],[126.6967914963039,37.620481701253],[126.7124421959923,37.6167503995152],[126.7088765973581,37.607501202401004],[126.7147196994604,37.600573397732],[126.7288316965801,37.5930293989412],[126.7465606984454,37.5994473984111],[126.75429539656291,37.5853551036506],[126.7603930005004,37.5906033966823],[126.77386079716669,37.574167897695496],[126.78730799317759,37.5671271998009],[126.7936973998185,37.5670303991262],[126.7993937003088,37.5758302957253],[126.8043332988424,37.5680287006308],[126.7984198005241,37.563155202025094],[126.8139417975667,37.5471032001008],[126.80312890001551,37.5376786020303],[126.7994732003299,37.546560800415904],[126.7995404992929,37.5427321016693],[126.7893451009179,37.541672003289996],[126.79724069599351,37.53790510039801],[126.7859471011206,37.5384869000914],[126.7870517972544,37.5339478011687],[126.77945670232799,37.5331853018226],[126.76909380075179,37.5215029005072],[126.75900469992301,37.5182376014118],[126.7290629008652,37.5210453009051],[126.7500058981755,37.5382016985273],[126.7456811013962,37.5430098007418],[126.7478755015519,37.5524108995492],[126.75179019988481,37.558545697645705],[126.7612608987706,37.5587983992307],[126.7565846003789,37.562726101009495],[126.7591438000487,37.572307297398496],[126.7558009992496,37.5737991014928],[126.7533707002529,37.567738401363805],[126.74673870296239,37.5727140981436],[126.7496760017519,37.5787639963494],[126.736841901402,37.5840218006685],[126.7265262009761,37.5826658017624],[126.7285618963427,37.577788800779004],[126.7203728969074,37.5710666027768],[126.7082184002496,37.5703152007487],[126.7203728963492,37.5710665972704],[126.7193553975581,37.5606022007854],[126.7286296983745,37.556236498431595],[126.71258570076121,37.5438244006611],[126.7149379985583,37.536897499907504],[126.7100314992978,37.5290263998947],[126.7161062972855,37.521251901340904],[126.70961239860439,37.5175975012683],[126.7038001008667,37.5204388006219],[126.6930294014701,37.510061503481396],[126.7025571913346,37.498671001093804],[126.7143292974283,37.4999549977775],[126.7165329979226,37.4934796995173],[126.7098563011516,37.493895998103596],[126.70548320038931,37.4812802012605],[126.69859220139749,37.4760017020635],[126.6932970002311,37.4774660019327],[126.6924140003957,37.4657648012396],[126.69797559859751,37.4592108017262],[126.69152079967621,37.4592588010244],[126.69875549955131,37.452130101098895],[126.6951188001505,37.4336727002444],[126.6985771987413,37.4321346006898],[126.706044300042,37.453970399143],[126.71686410036189,37.4625355984424],[126.7196117017151,37.4806764961976],[126.7351730991511,37.4850967983761],[126.7449527998876,37.4826785990057],[126.7478633001463,37.484600098806204],[126.74410420205409,37.4907021996406],[126.7624944972913,37.475740200880395],[126.78242799699319,37.4671090975135],[126.7804161987659,37.4509789024338],[126.7680769010679,37.4433312041684],[126.7747081977094,37.44024379916],[126.7739463978327,37.431170900696195],[126.7851322992967,37.4258770996572],[126.7942376987,37.427156197007896],[126.8115741001028,37.4460711998851],[126.8065729061458,37.453327201905694],[126.81453240017271,37.4604965967093],[126.8116414016939,37.4663622999344],[126.8175964014266,37.4742022968612],[126.822669098958,37.471275697901],[126.8305117007993,37.4849576949153],[126.83712479462069,37.4805566989843],[126.84435049880051,37.462501500446905],[126.86334479891079,37.463102897390705],[126.8793406978747,37.4412639006664],[126.8823293026545,37.444952997101495],[126.89477169783561,37.4424996990805],[126.8884521990543,37.437326102273],[126.8988130974718,37.4283050013932],[126.8948794999116,37.4114302052163],[126.911095499863,37.4015048985005],[126.91419499977911,37.3927972002654],[126.92417069862391,37.3900652995014],[126.92319809907619,37.38009200163],[126.9359679976534,37.3783305981884],[126.9363894983409,37.3659448996288],[126.9484677985,37.36405769969689],[126.9492709987904,37.3531037002728],[126.94272489917161,37.344141699287604],[126.95704700077991,37.3546066004075],[126.9477452023504,37.3620558997061],[126.9523269015705,37.3730902998269],[126.9405650049958,37.379772899981],[126.94846419770231,37.382120298852996],[126.9474658006182,37.3885241981261],[126.9499843987643,37.3857951006935],[126.98191699994939,37.3963639977692],[126.9822344021524,37.405284098796706],[126.9701833007586,37.4059496004893],[126.9664386998902,37.397014602564695],[126.9598922998375,37.3991859003544],[126.95692359902169,37.3931393004386],[126.9465550002165,37.3929975007718],[126.9455395986574,37.3893018010612],[126.93867650131119,37.3925483010307],[126.9345043025281,37.4063916968879],[126.9213905017351,37.4109928020107],[126.91642020148501,37.4347735979771],[126.9112123032444,37.437081500236],[126.9170423978194,37.4402146973634],[126.9084406023389,37.444598401117],[126.9166384993361,37.4479951998365],[126.91656930116851,37.4621542996615],[126.9298776996622,37.458694799569905],[126.9332299976285,37.452547399735],[126.93837779783709,37.4569597960189],[126.94997629949741,37.4518485997899],[126.96421030053901,37.4636722942827],[126.96825479649449,37.458810399144596],[126.97436260043851,37.4622457964732],[126.9806033997507,37.4710080979516],[126.9884666994664,37.4660825001595],[126.9922611956211,37.4535594021874],[126.9861209954412,37.4448022044625],[126.9903535951192,37.4442587997392],[126.9814583987687,37.4286541063735],[126.98432599671439,37.4267266005386],[126.9783458007439,37.4234011008263],[126.9861415988222,37.416932700028994],[127.0008698996473,37.4263129987175],[127.00995859981441,37.4245705000201],[127.0203435002391,37.4359149998075],[127.0121255031049,37.449066798499395],[127.0194626019258,37.454383994465594],[127.0166114017522,37.4534218015253],[127.0184179025893,37.4592349992039],[127.0058475064104,37.4623663998264],[127.00411000401219,37.46852230110169],[127.0089985987954,37.473225397817494],[127.0212210986114,37.4693816991922],[127.0179179041973,37.471109100270496],[127.02500479882251,37.4744296987761],[127.0317461981781,37.458786200293396],[127.03921030112619,37.4627195990104],[127.0469078998096,37.4567538000083],[127.0493805951982,37.440232799981295],[127.045416799162,37.4390298011843],[127.0660149005543,37.4347978984222],[127.0633288021466,37.4427550944741],[127.0666571047806,37.4464462969966],[127.06261900197019,37.4490596009629],[127.06657650081729,37.4542935996749],[127.0613804018369,37.459063699559],[127.0556185003975,37.4553953019535],[127.05103800349781,37.4672066977513],[127.0553494002602,37.474360999690305],[127.06963869923929,37.475017699179304],[127.07018910077379,37.4825540973749],[127.08063599748439,37.477255997612495],[127.0908916993322,37.4783679985403],[127.0842864028462,37.481388799151496],[127.09019460199531,37.4855064958298],[127.1059203992554,37.478558297819404],[127.1095969003108,37.4895017989347],[127.12161709802129,37.478271498830196],[127.12514159758811,37.4724867004053],[127.1207237988663,37.4692654019831],[127.12811719990121,37.4635101988161],[127.13343530070391,37.4680930982736],[127.1257756003489,37.4743382989176],[127.1319144995622,37.475110097748804],[127.1288600005213,37.4928319987864],[127.1487183010422,37.4924814990373],[127.1340818004126,37.502079000276304],[127.13671990100231,37.513921800547095],[127.1445085001187,37.5168883986865],[127.1536101015229,37.5301216971848],[127.1520368021863,37.5341937982302],[127.1421762012008,37.5326008006748],[127.1405814004783,37.5397184012585],[127.12177010120891,37.542369900879294],[127.1176446993221,37.5259340009853],[127.12698179922269,37.5290670993163],[127.1264770992798,37.522855802274705],[127.1207595999451,37.5174458011546],[127.1080166019817,37.52774629966439],[127.10376870067991,37.5242208011971],[127.09590470633671,37.5334048021913],[127.1012975009439,37.5365157990803],[127.0970298004237,37.542253400128],[127.0838934002537,37.5437685003969],[127.09566960095479,37.5498217004083],[127.0866876002439,37.5587219002143],[127.09054660062489,37.5828760004488],[127.0847839000554,37.582008100438706],[127.07285059921199,37.5600953021058],[127.0715786000832,37.5664559000389],[127.062220000901,37.566920000470105],[127.0570419003835,37.5744454997532],[127.0616912998758,37.5775955996016],[127.057978500454,37.5822959999522],[127.06954619934811,37.5921460992268],[127.07827360005071,37.5878402991464],[127.0856359990557,37.5920055990695],[127.0875655000776,37.5861143995362],[127.0904867999918,37.5876562997648],[127.08694180082671,37.5927972996917],[127.0958499004676,37.596164799798096],[127.0966714004481,37.601490700161996],[127.0796668005207,37.6042500006253],[127.0742724004362,37.6006212006236],[127.0647436998743,37.6081638008698],[127.05586959991169,37.5965938002794],[127.0419459006515,37.593819601875104],[127.0453813000789,37.6028120994024],[127.0768814001111,37.616379299600396],[127.070188001811,37.618927300643605],[127.0365114005467,37.6072858998319],[127.0394737999944,37.6125281991945],[127.0314406004579,37.6218758001275],[127.0289580005918,37.6426618006729],[127.018440399903,37.6385901003908],[127.0159799999234,37.634043200771],[127.0219783996226,37.6326250000678],[127.0171214995385,37.6231476008779],[127.0005008989584,37.6112853006571],[127.00574259905271,37.6072815991847],[127.0065626994337,37.5964715018723],[126.9961809005812,37.599567400824895],[126.9893304995195,37.588648802239504],[126.98193630034311,37.5912798021521],[126.9749579990518,37.5830084008759],[126.9755423994377,37.5896346967167],[126.96985740472779,37.5909128995959],[126.9579265019656,37.5844816004213],[126.9519852017889,37.5993555976258],[126.9412271023435,37.6060236024785],[126.9437588066903,37.618373298963],[126.9500527003964,37.6206099967263],[126.949208701883,37.6275272975063],[126.9375318065229,37.628642801004],[126.94147420258051,37.632233497413296],[126.9375232004257,37.6286755034613],[126.9351578007355,37.6315823003756],[126.927255500681,37.6501429987295],[126.9215328008404,37.6541917015457],[126.9051507008996,37.653748204348005],[126.90157350254769,37.6612274019879],[126.86355449921251,37.6508506010579],[126.8721416991852,37.644760798006104],[126.8826484982567,37.6505198987384],[126.894905097868,37.6446063999143],[126.9027178011591,37.647124398086305],[126.91066669654069,37.640880799808095],[126.9071369933941,37.6248349014332],[126.8956392995192,37.61284110096],[126.90121089663289,37.611796496682395],[126.9014158975142,37.5982735012405],[126.8959227030074,37.595952703561295],[126.88504800393359,37.5993286002842],[126.885127900384,37.6133497997074],[126.8785353018823,37.6211631987784],[126.8637473989306,37.6204560999426],[126.8622934961774,37.6128716037522],[126.8573492011217,37.6149767016471],[126.8469884027576,37.629713700817504],[126.83864230122241,37.6300435000519],[126.8408992992243,37.6392051983912],[126.8324301002864,37.6433246005707],[126.82295530069051,37.637937301843095],[126.8214743996449,37.6297601009273],[126.8077935022003,37.628043701166696],[126.81003090199471,37.6465240973917],[126.7989635040246,37.6521482993392],[126.8038047000971,37.6627290979389],[126.7914409006938,37.6670453004119],[126.7932416017547,37.6757878986159],[126.7801431007822,37.678145500229796],[126.7762495996715,37.6690396002902],[126.7862467987681,37.6671662992172],[126.78797650035379,37.655765000434904],[126.77603480260541,37.658725803021],[126.774974800628,37.6652498998147],[126.7686682998018,37.665237701413],[126.763437400165,37.6756650002059],[126.75395210004751,37.673445700069],[126.75789899935829,37.6647723001983],[126.7674109994467,37.665924199643],[126.76821609982811,37.6512464002753],[126.779007597275,37.6425680972671],[126.7805624980969,37.6356842003832],[126.78602379881609,37.6372661960781],[126.7930650990564,37.627381701435404],[126.80560259784271,37.624078900977004],[126.80199619899571,37.6180094013764],[126.8128266986778,37.607233500235196],[126.81159959977619,37.6002449047759],[126.81911449920119,37.598436399730794],[126.8073883995498,37.587257003130404],[126.79839460083629,37.599756201244105],[126.7927768975955,37.5959507043649],[126.7888521008477,37.598669000845504],[126.7884906002154,37.605631297562496],[126.7913474978581,37.6024902003907],[126.7932960028179,37.6060217974609],[126.77031050375459,37.6178859990016],[126.76124349948891,37.619695101408304],[126.7548461016774,37.614386104213395],[126.75374070278279,37.6186448999546],[126.7402739995525,37.6236004005625],[126.7327409042299,37.6206222023691],[126.7317838004739,37.635786200243096],[126.7317492001275,37.6301051031947],[126.7259583045587,37.6341441002325],[126.7307601997568,37.636361598015],[126.71452960354101,37.635259601096095],[126.720837997543,37.6383739979847],[126.7193997017697,37.6421420987271],[126.7104103006216,37.641336901388996],[126.7089067003888,37.6457074014602],[126.70515160225139,37.642516802194],[126.7003402003352,37.6540288996342],[126.6881973010503,37.6537803013885],[126.6782225070735,37.664347911797],[126.67097700019919,37.662893601170296],[126.6724503976997,37.653851700484296],[126.65634840019379,37.6527822002277],[126.6575497987193,37.6444621000462],[126.6532964985533,37.6425219020456],[126.6419249004642,37.6497909001065],[126.6400046986856,37.644059902194904],[126.6271629006543,37.653392800441196],[126.6198901991667,37.6449980010901]]]}}]}