{"type":"FeatureCollection","features":[{"type":"Feature","properties":{"interval":15,"stationId":"1996430673","profile":"peak"},"geometry":{"type":"Polygon","coordinates":[[[126.9129892986739,37.5266712010013],[126.9187316988843,37.5248498007663],[126.92003499821939,37.5213674003474],[126.914276200249,37.5185091009131],[126.9170918995697,37.5162877002508],[126.924297897605,37.5180072990924],[126.91962960074119,37.517015200682806],[126.92331469931881,37.5075935014615],[126.9199958986179,37.5008526004474],[126.92936019772121,37.513179498801],[126.9393995998559,37.5051786008074],[126.9678837009965,37.5077981991189],[126.9560014012205,37.5190756025993],[126.932975800552,37.5132577016351],[126.9292930019701,37.5171359978646],[126.93547390015931,37.5169832986604],[126.9291432009295,37.524727400304506],[126.9219520007646,37.524510501345496],[126.9191866011102,37.5304069988704],[126.9129892986739,37.5266712010013]]]}},{"type":"Feature","properties":{"interval":30,"stationId":"1996430673","profile":"peak"},"geometry":{"type":"Polygon","coordinates":[[[126.8486526990111,37.5201320989825],[126.8552675997828,37.5171510994639],[126.8676185995804,37.524442798143504],[126.87212849959741,37.519417999767505],[126.8817089996464,37.5213465989328],[126.87436939973051,37.507698800614],[126.8751694977728,37.499973402181304],[126.8687782001329,37.4997372000842],[126.8681822002773,37.494741600649995],[126.87668580043581,37.495551499257594],[126.8740352999246,37.4974786002466],[126.8788977987341,37.5009756979715],[126.8868780985875,37.49627069958439],[126.87571979951309,37.4800978002892],[126.8806031999173,37.475783499977496],[126.8842091015546,37.476713498402205],[126.88339639963209,37.4860631985084],[126.8875275993156,37.4803158982888],[126.9081716996178,37.4917996994291],[126.9064305993815,37.4867297016043],[126.91204649990661,37.4830933998736],[126.92097939959409,37.486132499411],[126.93405119955369,37.4664266996092],[126.94600539996661,37.468423198438096],[126.940393801038,37.4723409006242],[126.9417091006207,37.4787480994382],[126.956283599947,37.479824698587905],[126.9540115003817,37.485154700823905],[126.948331800139,37.4821264006545],[126.9399552004189,37.4861728005446],[126.9349391015212,37.4913424003577],[126.9391225002117,37.4962555990687],[126.95605519942309,37.489239100134895],[126.96219630020211,37.4967521988545],[126.9765776996909,37.496429097129],[126.9669443975733,37.4833217026362],[126.9755418997467,37.4814773996669],[126.9726563998299,37.4759226004746],[126.97771329978501,37.4718435994476],[126.9857053003744,37.472919397576405],[126.99063509941291,37.4848644971965],[126.995468798221,37.4793514973263],[127.0014982008648,37.4801569986762],[126.99671860203189,37.4904262002755],[127.00343650015971,37.49592409924281],[127.0007404999514,37.4917716009009],[127.0130780994017,37.4798340996361],[127.0242354001889,37.483377099558595],[127.0253334005636,37.4905602973865],[127.0270451989532,37.4836498001483],[127.03752249965869,37.478056599736306],[127.04802219950831,37.483122300022096],[127.0461685988233,37.4891188009699],[127.0345041005973,37.4889724001267],[127.0426998001265,37.502226399868796],[127.0401920003145,37.5041507993764],[127.0500370993886,37.5023043977573],[127.05235570058251,37.506889000600104],[127.04811890013441,37.5106119995665],[127.0555928994103,37.508457399635596],[127.0599956986873,37.5123402980903],[127.06411559894079,37.506903199659604],[127.0667995005643,37.5154215999136],[127.0557289003064,37.5221283001493],[127.0420981009161,37.5218369005126],[127.0425218002981,37.529179299935],[127.03876860009309,37.5293715003324],[127.036623699716,37.520879300565795],[127.0173336003382,37.5231827004446],[127.0098483003845,37.5174556010221],[127.0026083070568,37.5251630954391],[127.00690610056989,37.5327432002645],[127.0033516990347,37.527220304870106],[127.0079280944322,37.5191792055936],[126.99668870047661,37.5253320006342],[126.9852753009248,37.5199647005145],[126.97023180214809,37.525180299297105],[126.9679798012762,37.5271948998531],[126.9803209003361,37.5342520997768],[126.9729330012391,37.539570898540504],[126.9738175002496,37.5457287994564],[126.9804300003766,37.5462699979821],[126.9820877008706,37.5556769995878],[126.9969784994618,37.558507298636606],[127.00058540094071,37.566867699385504],[127.0074469999357,37.563039999775704],[127.0171915003361,37.572810998405004],[126.995842198897,37.572014700725],[126.9838027002895,37.5775006002497],[126.9604640999445,37.569135900164696],[126.9584458993821,37.5613470998476],[126.95191509872589,37.5577046014269],[126.9308602001885,37.5581255006268],[126.9235806999112,37.5633319002384],[126.9165920003066,37.5570725009678],[126.9074140004314,37.55984250057],[126.9037013034173,37.5429679034095],[126.87002749973,37.5514583008749],[126.86452140088011,37.5616555995393],[126.85101450090521,37.5639263000976],[126.8628354996142,37.545092499452004],[126.8751685977734,37.5407643999071],[126.8734249994603,37.53823770084821],[126.8910430972258,37.5353755985521],[126.8827901003325,37.524809201225],[126.8734848004407,37.529748501163894],[126.8683934996802,37.5262388001204],[126.86404140044341,37.5310100006012],[126.8528224001545,37.5273915001853],[126.8486526990111,37.5201320989825]]]}},{"type":"Feature","properties":{"interval":60,"stationId":"1996430673","profile":"peak"},"geometry":{"type":"Polygon","coordinates":[[[126.6279161994519,37.4791301997035],[126.6413485994114,37.4611210989848],[126.6525282005045,37.4669735992559],[126.6687918991259,37.4665380995595],[126.6718117992693,37.4625975997345],[126.6806821998054,37.465429399678],[126.6745071983663,37.458014400107906],[126.6790413987681,37.453828000026505],[126.69322799809761,37.4543327993114],[126.6963495999708,37.4432214994788],[126.69240079981,37.434939300848505],[126.69894079945,37.4231615993353],[126.7109385999141,37.4523100988973],[126.72594650051231,37.455122299524696],[126.73140859890209,37.4502134998817],[126.7361266013973,37.4548891990327],[126.7210290010107,37.4575316999156],[126.71879080136239,37.4685414989866],[126.733251201073,37.4845864988864],[126.7785005954918,37.4717542971964],[126.78870499633189,37.4632408987812],[126.7827513010965,37.4576330034383],[126.7858348955625,37.4508168034105],[126.7752542998067,37.4440520024986],[126.7748397988926,37.4341472004717],[126.7910954994581,37.4301303986514],[126.8042346992371,37.440476499652405],[126.8072206013717,37.4660270003497],[126.8145516995707,37.4713103972945],[126.8265096994063,37.467720898044305],[126.8258877044498,37.4747840982769],[126.8311376991998,37.4790031940578],[126.84071309888961,37.4627551005535],[126.8653131968417,37.4579177960488],[126.8655033990965,37.452512101102],[126.86624550115461,37.4564520955258],[126.87133489606519,37.4544254975524],[126.8782476982246,37.4382407994333],[126.8823293026545,37.444952997101495],[126.8917591956967,37.4415018004921],[126.86694699926059,37.4157593071759],[126.87975349030461,37.4126149956445],[126.8869665986028,37.4051790968542],[126.888986400894,37.412303598765604],[126.9011625978716,37.401940699751094],[126.9079796986971,37.4017662952864],[126.9135037987254,37.3905495989017],[126.92003939890249,37.3920703982487],[126.9208287979718,37.376825000241595],[126.92319809867779,37.3800919963336],[126.9359679976534,37.3783305981884],[126.920707597163,37.3457280009981],[126.9269046001738,37.3427710975395],[126.9298065020927,37.350350198646105],[126.94139969933181,37.3558840977719],[126.93831489977339,37.341958900337204],[126.9617191998818,37.3515805997096],[126.95436860161949,37.362569698853704],[126.9577637002677,37.369068999930704],[126.9474628030015,37.379640698463],[126.957370399105,37.378799299947],[126.9903604009859,37.3923855982506],[126.9843868031083,37.4040808014809],[126.9863965987482,37.4111849965334],[126.9960927989773,37.4123801989597],[126.9971658990431,37.4177019946315],[127.0026190944363,37.4154924965929],[127.01656469939691,37.4232389974703],[127.02157499844199,37.4214947983539],[127.0165118017939,37.4285273000164],[127.02912090150899,37.4409486966955],[127.0354298952,37.4411109965332],[127.0449703978874,37.429604098281],[127.0660149005543,37.4347978984222],[127.0728058984057,37.4269733991232],[127.0674286024856,37.4511892984112],[127.0785054996827,37.459709199369],[127.0685415018764,37.4591990044355],[127.06162410364,37.4689519961506],[127.077111598348,37.4750565942953],[127.1056311994042,37.4710866004475],[127.11340869893509,37.4783527975366],[127.11874399728681,37.4766816984144],[127.11347360068831,37.4659773010191],[127.127031498002,37.4635682000864],[127.1210428994371,37.451835200522],[127.1239716967933,37.441797402598596],[127.11981930094571,37.442326102069906],[127.1195983983402,37.438045499474],[127.12821399742,37.4257381996226],[127.13791959830661,37.4282337990664],[127.14688010064141,37.4404579983402],[127.14058580084999,37.4397997006547],[127.1370669005581,37.4449087008375],[127.1399506003827,37.4506358997275],[127.1296142998546,37.4564874017299],[127.1330217005207,37.467423797941],[127.1383440993053,37.455616399994994],[127.1446251955351,37.455750996324],[127.155275600756,37.440827798709904],[127.1616214994513,37.4410838995082],[127.16751510005331,37.4509005998197],[127.14645950087241,37.46867310020539],[127.1340516016438,37.471266400372095],[127.13869050001989,37.4760665996491],[127.1372127008008,37.4841341001229],[127.15972140061079,37.495377599734],[127.1433154998695,37.4993708009632],[127.1411786017233,37.5058698994553],[127.1472341976598,37.5049671000045],[127.146749202067,37.5110168988216],[127.1564442993416,37.5143013988411],[127.1569168017656,37.5214497970552],[127.1510777046666,37.526560098562896],[127.1602526961374,37.529942098948396],[127.1605774020413,37.5357329964104],[127.1462654001685,37.5406975005672],[127.144346802396,37.5532011007782],[127.1385630007025,37.5462318009307],[127.1387427003032,37.5523604992879],[127.1305451016111,37.558605200272105],[127.11916409474131,37.5473863077548],[127.1039889999643,37.5579017996874],[127.0958701049719,37.5573508014131],[127.0962059041593,37.5686982996006],[127.10491160243289,37.578555794560096],[127.10343180203449,37.589736298528095],[127.11558940239391,37.603859198586804],[127.0988923016351,37.6144879017685],[127.0917561994769,37.6085031014788],[127.0847134021457,37.609098799640996],[127.0923716995721,37.616045398133195],[127.0917691028555,37.6226165998003],[127.0742465998749,37.629456400098505],[127.065964004056,37.6486485990914],[127.0805266012665,37.662242399418],[127.0776374011061,37.665773200054396],[127.08211180086461,37.6725157996909],[127.0757940014702,37.672894201435],[127.07692539950169,37.6660552010141],[127.0489133998982,37.6534751000488],[127.0446758005799,37.6610324985514],[127.04860650004281,37.6642069982225],[127.0441852013551,37.6734719000304],[127.0492952995709,37.6783635990035],[127.0464624010102,37.683868499768906],[127.0366557995807,37.6661103003955],[127.0444127989941,37.660583598705],[127.0426665007404,37.657042402246205],[127.0265967992829,37.6537170001938],[127.02144730019,37.6478987001643],[127.0149945014117,37.6497145000596],[127.01661989996289,37.655525999362304],[127.0112845003058,37.6586070007368],[127.01224299850959,37.630173900341106],[126.9964492988119,37.6183019015663],[126.9982923991464,37.604719500309],[126.98562479805129,37.5942809015659],[126.96985740387889,37.5909129021537],[126.9637879012836,37.5944957999632],[126.9611550002016,37.5840366026036],[126.9519852017889,37.5993555976258],[126.94300220140579,37.604849899936895],[126.9446836990751,37.623571494801794],[126.932013001249,37.6300508010319],[126.9279379008682,37.6399921012424],[126.9131685000765,37.6529271000192],[126.9149082957584,37.6391517017291],[126.9082230992158,37.6339509996738],[126.918051297166,37.6324799983879],[126.9176192991598,37.628686201169096],[126.91448360077,37.6295873004919],[126.9159887972977,37.624592402323096],[126.9071370014022,37.624834901135905],[126.91003689724229,37.6225357993818],[126.90511460013781,37.61747720151801],[126.905352097384,37.608127303285],[126.8986621991816,37.606388602090306],[126.9014158975142,37.5982735012405],[126.896412700233,37.5895893018735],[126.8924440008183,37.595771400154],[126.8786611000841,37.5988580007525],[126.8819628013185,37.6044708980107],[126.878074101216,37.6188542992832],[126.86612310346139,37.6152553036742],[126.863559000113,37.618285801849304],[126.86229349961441,37.6128716045845],[126.8497998026328,37.6264132998823],[126.81989850022529,37.6206720004039],[126.81242190112171,37.6242181002181],[126.8077648971134,37.6148150009216],[126.8131292973951,37.617377896473],[126.8125392983502,37.6081567014297],[126.8192629998515,37.5989041995322],[126.83906559968119,37.6048205993203],[126.8427022990495,37.5999594981906],[126.8481512020243,37.6067744965375],[126.8576943978416,37.5998446016879],[126.85347260128741,37.599942300590804],[126.85890909859961,37.5886268005357],[126.8753121990416,37.5898780981279],[126.87648699929049,37.585180798565304],[126.8676216002662,37.5790485009978],[126.85442570221369,37.5796600015728],[126.8470022003363,37.572538409249496],[126.8168942009732,37.580768501483796],[126.8117658018776,37.5868703997591],[126.8023700006216,37.5831982002402],[126.8019699008579,37.5893229011527],[126.7934705997233,37.583896702431794],[126.7898682003568,37.5864119010623],[126.78661289800979,37.5787482034993],[126.79695499925799,37.5843018977194],[126.79891689954789,37.577712100643],[126.7868125023315,37.5761432007323],[126.7936973959229,37.5670304024866],[126.7993937003088,37.5758302957253],[126.8035801992859,37.5713500991522],[126.7984198005241,37.563155202025094],[126.8139417975667,37.5471032001008],[126.815482000446,37.549886799277104],[126.81899909730289,37.5436702983637],[126.8119085005382,37.536198804605604],[126.8204751985976,37.5322700989636],[126.825509499706,37.519993401988195],[126.8188326008427,37.5196585031835],[126.8063522022269,37.533930400552805],[126.79705940000599,37.529672300171804],[126.7920347012204,37.5145417022771],[126.7846792004064,37.5189764998933],[126.7760734010922,37.5114831035615],[126.7722748999858,37.5151052006268],[126.7624517007482,37.5111795012285],[126.7536854003791,37.5152961004895],[126.74722470033771,37.511438303343205],[126.745848901416,37.514772400122496],[126.73638030025009,37.5134995011905],[126.737300699627,37.519533199815],[126.7313900015591,37.5259729981388],[126.7363726003624,37.5290466997629],[126.7354672011008,37.538283399578],[126.7440511997219,37.542532699531],[126.7498365011131,37.5555386996037],[126.74673870296239,37.5727140981436],[126.7370236014085,37.5772304006557],[126.73806639918939,37.5711310007219],[126.7319684026506,37.5754868960924],[126.7212435008094,37.571114602574],[126.72686359851531,37.5633875001771],[126.7423027997789,37.5640787951414],[126.7410945010522,37.551437801863806],[126.71258570076121,37.5438244006611],[126.7134962987313,37.536805000202],[126.70723809949409,37.5305173010354],[126.713512099097,37.5239346007805],[126.6930294014701,37.510061503481396],[126.7025571913346,37.498671001093804],[126.7143292974283,37.4999549977775],[126.7149676994879,37.4907882022088],[126.7060054002333,37.4959260003456],[126.7038743987415,37.4854045003834],[126.6955992994387,37.4789655026736],[126.68989570272359,37.4870799955983],[126.68006750026241,37.4875169002244],[126.6797887981176,37.4795474013966],[126.6703462992272,37.4706858021748],[126.6547982007025,37.474748901141105],[126.64963859967371,37.471442701422596],[126.6370018002323,37.4809713002247],[126.6279161994519,37.4791301997035]]]}}]}