{"type":"FeatureCollection","features":[{"type":"Feature","properties":{"interval":15,"stationId":"2028067305","profile":"peak"},"geometry":{"type":"Polygon","coordinates":[[[127.0016435998835,37.5588567004265],[127.0150523985216,37.549076799622505],[127.0111310996664,37.5411147003973],[127.0242701989571,37.5312611997403],[127.0093262988953,37.5087853011333],[127.016650199476,37.5139970991657],[127.02335140057069,37.508873398801896],[127.0255628005833,37.5165256987557],[127.0322212987292,37.5129618995065],[127.035772600971,37.5290168992419],[127.023166703849,37.5335236004976],[127.0234068006872,37.5439053995368],[127.0176618008774,37.5446678003865],[127.01958230080899,37.5502131005388],[127.0135216008822,37.5517453999011],[127.0117623004256,37.558026500255096],[127.0016435998835,37.5588567004265]]]}},{"type":"Feature","properties":{"interval":30,"stationId":"2028067305","profile":"peak"},"geometry":{"type":"Polygon","coordinates":[[[126.95191509872589,37.5577046014269],[126.9557713992391,37.5518277999482],[126.9626846001686,37.5573376993692],[126.9718487994333,37.5542833000529],[126.9648600991634,37.5451372002093],[126.9724616003723,37.537435702124],[126.96445989958309,37.5304383008836],[126.96965559926869,37.5189335001967],[126.9768134001379,37.5214529988716],[126.9679798012762,37.5271948998531],[126.9792269001756,37.5341477987745],[126.9733818003362,37.5452646995546],[126.9804300003766,37.5462699979821],[126.983927301164,37.555538399848004],[126.9917134968075,37.5560080959839],[127.0018499952113,37.5480673000837],[126.9916012999217,37.538076700457],[126.9864138005114,37.5412955005043],[126.98683649963249,37.5348408007076],[126.9934863988306,37.5280898998628],[127.0023863973126,37.5320903953955],[127.00705359502301,37.5187428055594],[126.98253579971649,37.5021375021887],[126.98579069974079,37.4914316009038],[126.9645176991199,37.4859579025415],[126.9677529976743,37.4799693995598],[126.9768272992898,37.4796275998769],[126.97520159912871,37.4741261007459],[126.98180909935701,37.4739567990225],[126.9900479983605,37.4820609988369],[127.0011617990126,37.4759358996163],[127.0042291008538,37.4819785995059],[127.01654579777771,37.4778570985953],[127.0271905001229,37.4837784995985],[127.0288143990059,37.47677139952879],[127.0355201994053,37.473951299861604],[127.0323370011389,37.472606200812905],[127.0347543996317,37.4640025002402],[127.04509469891251,37.4635679991531],[127.0439013011097,37.4803771991756],[127.0704229999981,37.490108599813496],[127.0645126999449,37.4918864013365],[127.05767270057069,37.5047934989557],[127.0880521003759,37.5121079996038],[127.0796653003776,37.5116858009945],[127.0778713016561,37.5156177007614],[127.07772659816601,37.5119652001614],[127.067560200307,37.5101598007169],[127.0591598028011,37.5231685984635],[127.0759749994112,37.5292401985136],[127.0735812014516,37.536166697892206],[127.0786659002038,37.5454724993831],[127.0752624010172,37.5510716984155],[127.0823693002083,37.5591326003766],[127.07580009997419,37.5588291006399],[127.0767854996057,37.551935100715504],[127.06409270027291,37.5437302005368],[127.05905710075841,37.5328134003298],[127.0630166008814,37.522088607897],[127.0383513034738,37.5321804055922],[127.03660710263,37.5397172992319],[127.0335122989885,37.534467506073696],[127.020321908255,37.5376219039081],[127.027948199214,37.545732397947695],[127.0352145998374,37.544301099909596],[127.0302524995802,37.555937198423905],[127.0414413002967,37.5567979995769],[127.041720000422,37.562259999513],[127.0563748008723,37.5666014000859],[127.0235086008196,37.5708309996432],[127.0302941002126,37.5775079996192],[127.0239836006099,37.5829382993507],[127.0382314000371,37.5870738996723],[127.0369900002842,37.5931600012406],[127.0252424000079,37.587300701529],[127.01843500070059,37.595844400085795],[127.0020057998454,37.5923921004066],[126.99543899961,37.5850099018332],[126.995842198897,37.572014700725],[126.9880937997111,37.583533602044504],[126.9777909001609,37.5786478004282],[126.97074889985501,37.5819969005505],[126.9656358998727,37.5743473007189],[126.9717461996643,37.5680379005398],[126.96552589992581,37.5689504000523],[126.9642307992627,37.5635283002673],[126.95191509872589,37.5577046014269]]]}},{"type":"Feature","properties":{"interval":60,"stationId":"2028067305","profile":"peak"},"geometry":{"type":"Polygon","coordinates":[[[126.79658169934801,37.561461700198905],[126.8084173993357,37.555516399937005],[126.8152090011199,37.560931098157596],[126.8313013988772,37.5551396000663],[126.8269324001547,37.5505195005037],[126.82805929924821,37.538831699973706],[126.8341896991022,37.5284173000571],[126.8605025989507,37.5060400997037],[126.8380056991311,37.4910043019662],[126.82143349947779,37.4977200004588],[126.8229236983616,37.493087802261996],[126.8100845002302,37.490396401214504],[126.80404089984691,37.4828956003197],[126.8164878992378,37.4829134989482],[126.8215841998919,37.4907350996285],[126.8239834990126,37.4873090996835],[126.8306667991894,37.4899723996133],[126.8494825989247,37.4709928005819],[126.8558302002187,37.4738189979871],[126.8703936998319,37.4644037988686],[126.9121303998044,37.4792756978929],[126.9110960999161,37.4722506015418],[126.93167779628921,37.4633338977733],[126.9333380989607,37.457287700579705],[126.9544532995599,37.4592745986639],[126.95509510005809,37.4559695012785],[126.96421030053901,37.4636722942827],[126.968676296073,37.462033995921004],[126.9660403987089,37.4565765013785],[126.97480109595709,37.4587189957643],[126.9806033997507,37.4710080979516],[126.9884666994664,37.4660825001595],[126.9922611956211,37.4535594021874],[126.981562200902,37.4492647057559],[126.98549339595789,37.440431300105],[126.9766589997389,37.433895903323204],[126.97408039832011,37.4236057012122],[126.9845770975479,37.4229187973119],[126.9829581996086,37.4122927021804],[126.971408200464,37.4115490011068],[126.958510099924,37.399502002717895],[126.9421847005443,37.3935533027407],[126.9424352982926,37.3846985997134],[126.9552316991722,37.3825367001452],[126.9623806997933,37.388659398954104],[126.968590999434,37.385211499767294],[126.9845545997496,37.392120297161604],[126.987843699563,37.397010896301495],[126.9809268028508,37.3991004012141],[126.98423649999539,37.4152978965845],[126.9876929973965,37.4130337985723],[126.9960808986362,37.420816698560905],[126.993136400287,37.4148483024272],[127.0031705013169,37.4216594970288],[127.0126726001301,37.4216143997037],[127.0122910042737,37.4249157983232],[127.01956159877311,37.4237539988475],[127.0248279014996,37.4362627985253],[127.0129600027971,37.4441875005584],[127.01440980115319,37.4513853966309],[127.03701379591159,37.450556294364304],[127.03260519802471,37.4357200019242],[127.04285779749519,37.427885095779494],[127.0660149005543,37.4347978984222],[127.0709975986133,37.429791600886205],[127.0681134014975,37.427481803196],[127.06672070289021,37.432978797699],[127.0667227969891,37.4269859008566],[127.0752233981361,37.4244846943103],[127.07197930296779,37.4249974004287],[127.0807237973805,37.4311709885492],[127.0719894029564,37.435428102570604],[127.0674286024856,37.4511892984112],[127.0735510983713,37.4495310983807],[127.0754488009816,37.4578265987655],[127.08152129856751,37.4588035001169],[127.0802615004216,37.462667600875406],[127.0751493994079,37.4595885030554],[127.0706757012502,37.4635264000485],[127.06854149771159,37.4591990058429],[127.06162410364,37.4689519961506],[127.0865052017244,37.475355996908796],[127.0979551988038,37.4725652981078],[127.1078904997832,37.462021900052605],[127.11579469763069,37.462988797790196],[127.1194203996765,37.4533250997183],[127.1241496977556,37.4591378962324],[127.1165560000184,37.428051200613496],[127.1241473992545,37.4313582991433],[127.12368449897549,37.4180922015248],[127.1172491004954,37.4106958022306],[127.1112985999056,37.4142349009844],[127.11053269911149,37.4069922001871],[127.1037247998645,37.405589902712],[127.0994178025707,37.411137400586504],[127.0936509002261,37.4082496006059],[127.10032819901011,37.397639500960096],[127.0903041994589,37.402410701836594],[127.09285999932371,37.3909040013623],[127.08954919773389,37.387733600786895],[127.0964493992781,37.386976495251005],[127.101756798501,37.3716639032058],[127.09327519932319,37.3709129010861],[127.0937327995395,37.3655941043823],[127.0891116018607,37.364455804338505],[127.097092495353,37.3618020952956],[127.0979067945387,37.355956301141404],[127.0930121977114,37.3493268029417],[127.0859710040196,37.3521936001918],[127.088088699593,37.3301316027348],[127.0812038989616,37.3239314000222],[127.07445780045441,37.3244068005052],[127.0759666973361,37.3206686037544],[127.06631820013409,37.3195837005802],[127.0701380974662,37.310610402752005],[127.0634400004772,37.3041080070212],[127.0633462001127,37.2909853002176],[127.08219510094311,37.295630498369604],[127.08062310038859,37.3024197986048],[127.09708690060049,37.3141082985589],[127.1048693989197,37.3128092991239],[127.1058301989958,37.3059608015991],[127.1127269987367,37.3066527977307],[127.1247075014933,37.3407902991571],[127.11977240337791,37.3453854991581],[127.12766470436479,37.353283297908504],[127.12444380083,37.3566795004987],[127.1307328006376,37.3651656991231],[127.1281932001886,37.3733840001434],[127.1433262010066,37.3879603989556],[127.143120003409,37.395179998087],[127.1322664026935,37.403553200121095],[127.1403118996498,37.409388298920305],[127.13816320234899,37.4250912936042],[127.15317829818059,37.441106397360905],[127.1645382990385,37.4390680990611],[127.170391201724,37.4518499987756],[127.1664041004765,37.4604468997053],[127.1546241986127,37.462243803515605],[127.1422929011419,37.473999600031696],[127.14426300068689,37.4835815998088],[127.1584109983907,37.4883092991181],[127.1611296006496,37.498174901436],[127.14332400148491,37.5032124013234],[127.1500999003983,37.513962197805704],[127.1580533985344,37.5143512967841],[127.1553404012737,37.517341100346904],[127.1596831994954,37.5201346985783],[127.1510777040553,37.526560100746394],[127.1602526961374,37.529942098948396],[127.15649760031589,37.549149597875],[127.16683849928219,37.5480022001533],[127.17443930092631,37.557203198990194],[127.1702538997782,37.5624096003809],[127.1497605016788,37.5632577018159],[127.1489863003175,37.558843603535905],[127.1448429037372,37.5619093021659],[127.1399924016646,37.5560290052629],[127.1323601014561,37.562574900426604],[127.12390139518689,37.556838308906705],[127.0969278049465,37.5635443999243],[127.1144081001722,37.5789841971999],[127.1069367021586,37.5882577036415],[127.11367260114581,37.608510599208905],[127.1030161019914,37.6158086010858],[127.1010003045033,37.628273098971704],[127.08285840033291,37.632462904165],[127.0828841003072,37.639644896983],[127.07645000655809,37.644447996786695],[127.0893609053328,37.6734226998373],[127.07896230303331,37.6778346009675],[127.0668543990362,37.6692429019294],[127.0454720021179,37.6988974998472],[127.0417465977,37.6908346032287],[127.0364363030103,37.6925146015487],[127.0367731985414,37.6798513062888],[127.0427387984155,37.676375698935004],[127.03035129973071,37.6690776006087],[127.0286604994587,37.6592247008719],[127.01319650479621,37.663031003056396],[127.00752180662981,37.6704251044102],[127.0025713962918,37.6587418069018],[127.00793319207929,37.654995298365606],[127.00110819576871,37.6426454075331],[127.0052995953808,37.6374406026207],[127.0004802002002,37.633627306434],[127.00299369328981,37.6252988039026],[126.9950004012831,37.6265685026329],[126.98835739825749,37.618432300505106],[126.9895122966206,37.6000199059049],[126.9712928007825,37.594600502023496],[126.9638430005659,37.601312200234304],[126.95377409994491,37.5969814039526],[126.94773620271289,37.6101892071471],[126.9496179983373,37.6076441022373],[126.9430022005684,37.604849903652195],[126.9446837032188,37.6235714985866],[126.9375318065229,37.628642801004],[126.9350503021369,37.6425562980177],[126.9225070039402,37.6545622976209],[126.9051507008996,37.653748204348005],[126.90157350254769,37.6612274019879],[126.8939200022077,37.661252000278196],[126.8894616997582,37.654891401981196],[126.8695561023487,37.6542407040935],[126.86355449921251,37.6508506010579],[126.868277697797,37.645300899065106],[126.87786159988481,37.6451095996563],[126.8826484982567,37.6505198987384],[126.8948934000117,37.64476169984469],[126.90709479678209,37.6461310990796],[126.91066669654069,37.640880799808095],[126.9071369933941,37.6248349014332],[126.8999969993615,37.6182778018414],[126.9012210975491,37.586897800947],[126.8826043993655,37.5834155008817],[126.8908786974366,37.569251799445105],[126.8838539020941,37.5532880073865],[126.8623439059897,37.5637587071776],[126.8595211088125,37.567348303588],[126.8642369026165,37.573749398970094],[126.8558023060148,37.567675706567],[126.8384187063841,37.5774975065542],[126.8329604998203,37.5733520001838],[126.80554960140151,37.5749774014241],[126.8025646998194,37.5729095001307],[126.80747119700169,37.570790699437204],[126.79658169934801,37.561461700198905]]]}}]}