{"type":"FeatureCollection","features":[{"type":"Feature","properties":{"interval":15,"stationId":"2102704507","profile":"peak"},"geometry":{"type":"Polygon","coordinates":[[[127.04986939929171,37.4952747980576],[127.0532938994486,37.4944257988044],[127.0496566996879,37.4888950002234],[127.0574353995174,37.4839657002073],[127.0659767987089,37.4890795978183],[127.0862732950425,37.4790287982093],[127.09075730024351,37.496926899063396],[127.06615940084241,37.5031438009071],[127.0588393990879,37.494358201423104],[127.0545815014353,37.4935339007514],[127.0530125008669,37.498358800941],[127.04986939929171,37.4952747980576]]]}},{"type":"Feature","properties":{"interval":30,"stationId":"2102704507","profile":"peak"},"geometry":{"type":"Polygon","coordinates":[[[126.9950000994851,37.5033144009843],[127.0099619990026,37.4987207988122],[127.0021844985824,37.4901915015002],[127.0076290994497,37.4781265010257],[127.0168005999398,37.4758992998669],[127.0287000986133,37.482525000852],[127.03049929930451,37.4740025996556],[127.0360411993848,37.4749391000684],[127.03187669973819,37.4699015007073],[127.0350406993454,37.464555699687],[127.046080600206,37.463217199735304],[127.0483523007868,37.475285199238],[127.0654296999013,37.4777348980513],[127.07018909660309,37.4825540952299],[127.0676148991773,37.4775614002226],[127.08454369452289,37.4727825945993],[127.0921277006373,37.4773468984669],[127.1068384995663,37.4736629996195],[127.1165813981436,37.479354698497104],[127.1168602982807,37.4661116009408],[127.127031498002,37.4635682000864],[127.1205479003614,37.4490460004505],[127.1239716967933,37.441797402598596],[127.11981930094571,37.442326102069906],[127.12387869938121,37.4294939003455],[127.1296706996256,37.4262297975637],[127.1365777999449,37.4323643997202],[127.1373129000589,37.449845899337],[127.12599990081749,37.4580030999597],[127.12969340384899,37.4646595007053],[127.1330217005207,37.467423797941],[127.13847289550979,37.460086699383],[127.1528461006086,37.455241197271306],[127.1439642016116,37.4671040986087],[127.12493020018549,37.4701223004118],[127.1400180006511,37.4952770990338],[127.1340189002006,37.5169517997392],[127.1275551005931,37.5183743001425],[127.1278318998027,37.5132808022496],[127.1186519005781,37.5087635007753],[127.1177907021576,37.5213391988239],[127.103482400421,37.523272100302],[127.0938134000003,37.5369879001126],[127.1023254987745,37.517700400272204],[127.0929209010113,37.511815001176096],[127.086626600786,37.515802301430995],[127.06867150057619,37.5154836009063],[127.03468260022359,37.5312325005223],[127.034119899218,37.5225846004555],[127.009950800282,37.5173902010875],[126.9950000994851,37.5033144009843]]]}},{"type":"Feature","properties":{"interval":60,"stationId":"2102704507","profile":"peak"},"geometry":{"type":"Polygon","coordinates":[[[126.8345469996138,37.568986200046496],[126.8386028988154,37.5686843989628],[126.8389914986251,37.5633222001313],[126.845756698353,37.5648203996839],[126.8506213994873,37.5541765989749],[126.86046429820091,37.5531536980614],[126.8680896996939,37.538474899411696],[126.8910430972258,37.5353755985521],[126.88461300050041,37.5270623004416],[126.8775485002408,37.532968900092],[126.85017860015641,37.5269281010136],[126.8533584990481,37.5191972998932],[126.8676185995804,37.524442798143504],[126.869812599412,37.5185841003278],[126.8789135988076,37.518654899130205],[126.8751694977728,37.499973402181304],[126.8819352994357,37.4954352000698],[126.8726215996357,37.477687503870804],[126.86773120287279,37.4809568002508],[126.86199379978439,37.478210101425496],[126.8572395031113,37.483398701255204],[126.85099189999579,37.4811883008125],[126.85231829959109,37.474945600121195],[126.8613837997503,37.4774224974255],[126.8680228996165,37.4700060999434],[126.8750424000481,37.4779008985603],[126.8821358997155,37.4728982999091],[126.89701739941789,37.483838798013004],[126.90104569853959,37.4786407003782],[126.9264619973801,37.471927699998105],[126.9242147997599,37.4659152001367],[126.9301047978622,37.4607651003421],[126.9472518991328,37.459424898690905],[126.96421030053901,37.4636722942827],[126.97480109595709,37.4587189957643],[126.9806033997507,37.4710080979516],[126.9884666994664,37.4660825001595],[126.9922611956211,37.4535594021874],[126.9861209954412,37.4448022044625],[126.9903535951192,37.4442587997392],[126.9814583987687,37.4286541063735],[126.98432599671439,37.4267266005386],[126.9783458007439,37.4234011008263],[126.9861415988222,37.416932700028994],[127.0008698996473,37.4263129987175],[127.00995859981441,37.4245705000201],[127.0171662010502,37.429505499480896],[127.0203435002391,37.4359149998075],[127.0129600027971,37.4441875005584],[127.01440980115319,37.4513853966309],[127.03701379591159,37.450556294364304],[127.03260519802471,37.4357200019242],[127.04285779749519,37.427885095779494],[127.0660149005543,37.4347978984222],[127.0709975986133,37.429791600886205],[127.0681134014975,37.427481803196],[127.06672070289021,37.432978797699],[127.0667227969891,37.4269859008566],[127.0752233981361,37.4244846943103],[127.07197930296779,37.4249974004287],[127.0807237973805,37.4311709885492],[127.0719894029564,37.435428102570604],[127.0723027017981,37.442386196871205],[127.0666571054002,37.4464463004604],[127.0674286024856,37.4511892984112],[127.0735510983713,37.4495310983807],[127.0754488009816,37.4578265987655],[127.0900818985798,37.4609764965685],[127.1051899978218,37.4534476970949],[127.104094798917,37.4500063005363],[127.1083079980818,37.4523752983926],[127.1073327988114,37.4486580997547],[127.1179704905194,37.4517759956982],[127.1167570002008,37.4293677028343],[127.10067399947519,37.4274170002469],[127.1076603990945,37.4102376002073],[127.1139486979035,37.4094372003687],[127.1049349986543,37.40539540290651],[127.0994178025707,37.411137400586504],[127.0936509002261,37.4082496006059],[127.10032819901011,37.397639500960096],[127.0903041994589,37.402410701836594],[127.09285999932371,37.3909040013623],[127.08954919773389,37.387733600786895],[127.09993299610379,37.3746979008583],[127.0891116018607,37.364455804338505],[127.097092495353,37.3618020952956],[127.0979067945387,37.355956301141404],[127.0930121977114,37.3493268029417],[127.0859710040196,37.3521936001918],[127.088088699593,37.3301316027348],[127.0812038989616,37.3239314000222],[127.07445780045441,37.3244068005052],[127.0759666973361,37.3206686037544],[127.06631820013409,37.3195837005802],[127.0701380974662,37.310610402752005],[127.0634400004772,37.3041080070212],[127.0661571987748,37.2890354999348],[127.08219510094311,37.295630498369604],[127.08062310038859,37.3024197986048],[127.09708690060049,37.3141082985589],[127.1048693989197,37.3128092991239],[127.1058301989958,37.3059608015991],[127.1127269987367,37.3066527977307],[127.1247075014933,37.3407902991571],[127.11977240337791,37.3453854991581],[127.12766470436479,37.353283297908504],[127.12564310042461,37.3597804001262],[127.1447320989594,37.3735901993708],[127.143412202207,37.3812515959044],[127.1494043004131,37.3829842992379],[127.1413861055956,37.3908833013815],[127.1496505030108,37.403501497245095],[127.1563259990027,37.404425799337],[127.1583247996642,37.4135882962534],[127.1534516000975,37.4169920010405],[127.1579941995928,37.4212543994054],[127.1541906043256,37.429200694018405],[127.17541560108259,37.4303072983472],[127.17737890168259,37.4416466990891],[127.18301270033291,37.4455609978034],[127.1768587012689,37.471201300896695],[127.1673296087463,37.4725703009786],[127.1689518007758,37.480795797962806],[127.17599750025889,37.4846679962533],[127.1701544058017,37.482520902605096],[127.16835660759949,37.4860355990904],[127.1753152006409,37.4894638956621],[127.16111810464399,37.4964304988573],[127.1705216013715,37.5061615985048],[127.1636836014143,37.509315600225],[127.1593668017382,37.5328886983121],[127.1628879013925,37.5427229985941],[127.15744890385581,37.5459042969648],[127.16957340044621,37.544145198442706],[127.1878442995474,37.5542157991999],[127.19815719754159,37.5518427993806],[127.2017788995413,37.5349346997524],[127.2165555001953,37.5408739995884],[127.2162087995916,37.537114700342094],[127.229867599141,37.5374786998438],[127.2239815008727,37.5444653013031],[127.2162884000059,37.5421588005804],[127.2150444990871,37.5503303976961],[127.1929674001352,37.573396100363496],[127.1694480010275,37.563786201366206],[127.15686890069681,37.569307700501206],[127.1511847002546,37.5621201029535],[127.1353438011298,37.566412399974496],[127.1259341948053,37.5589419073938],[127.11510870397959,37.5613228044222],[127.1155311035572,37.5647197010253],[127.1103823983572,37.5610083998902],[127.0966863057247,37.564156500537806],[127.1020837052608,37.5772690958468],[127.1077941995503,37.576745296370596],[127.1034059014064,37.5962172990274],[127.11132440069031,37.6009669992404],[127.11367260114581,37.608510599208905],[127.1011183997,37.6107911009142],[127.10121960042429,37.603379400362805],[127.0899983017579,37.6080677004354],[127.0879045017247,37.6120746992734],[127.09747110037651,37.615374198762],[127.0913513006879,37.616491401158],[127.0917691028555,37.6226165998003],[127.08177860048481,37.6309523004863],[127.0738423008944,37.6318591023439],[127.0766049006737,37.6372630990983],[127.0634388031845,37.654073198564],[127.0661217011386,37.6576363000483],[127.0578958009209,37.6627618993999],[127.0634371000975,37.664797299446896],[127.0583367003253,37.6684075002162],[127.0534043998264,37.666048000999304],[127.0605897990438,37.657195699179205],[127.05457730031131,37.6539608008343],[127.0569733991806,37.647802400795904],[127.0495333018951,37.6469486051768],[127.0458806024981,37.6569753992447],[127.0424308999879,37.651874801567004],[127.04761759899729,37.6419465993788],[127.0591517987877,37.6401841997239],[127.05283089809511,37.6293345004876],[127.0564126980222,37.621381601504396],[127.0390228999764,37.60844810146509],[127.0314406004579,37.6218758001275],[127.0313495002367,37.641743300010404],[127.01682460050341,37.6433824007243],[127.01429189996941,37.641374000701695],[127.01946389978731,37.6376467001054],[127.0143865998119,37.635445000498194],[127.012903997733,37.622129801946905],[127.0009870008546,37.6188914004169],[126.99885089926329,37.6122900011125],[127.0056704989465,37.5981079003708],[126.9961809005812,37.599567400824895],[126.9893304995195,37.588648802239504],[126.98190440054711,37.5888412009381],[126.97827950069559,37.583410000396704],[126.9693505019615,37.587890500570204],[126.9595816003259,37.5803758015988],[126.9388540001492,37.5964856004067],[126.9340324006164,37.6127725998099],[126.9280549005834,37.6128296013785],[126.9250130985645,37.609688999886906],[126.9329368991956,37.604340300278594],[126.9271465003291,37.6014833008823],[126.9384606987241,37.596144298404695],[126.9417434980823,37.582463699441796],[126.9492116985897,37.5822828981615],[126.9533527997801,37.5672080012203],[126.9180918001557,37.5636536003496],[126.914004100534,37.5593029003384],[126.9007722018202,37.5669698003706],[126.9075008992766,37.5468732000047],[126.9037013034173,37.5429679034095],[126.8790312009415,37.5490401014357],[126.881089499455,37.5524252993592],[126.8746962053692,37.5549892091139],[126.8676559013536,37.553595499919],[126.8595211022663,37.5673482968238],[126.84690290092891,37.5660389003785],[126.84036880069709,37.573299400513406],[126.8345469996138,37.568986200046496]]]}}]}