{"type":"FeatureCollection","features":[{"type":"Feature","properties":{"interval":15,"stationId":"2244637619","profile":"peak"},"geometry":{"type":"Polygon","coordinates":[[[127.0008098984942,37.5010613003978],[127.01088609986269,37.5034723995165],[127.0101801001623,37.5076836000854],[127.0174479977299,37.5067203982276],[127.0308425988974,37.490998200262],[127.03847369993309,37.5011696993603],[127.0289525011116,37.5006385003921],[127.03596130020729,37.5049958986271],[127.03519680121849,37.5110271997171],[127.0411481992214,37.5130363993745],[127.0427155996599,37.508004799904604],[127.0467807005402,37.516888698179],[127.0317891003611,37.520795899552404],[127.0355691007136,37.529867700131994],[127.023166703849,37.5335236004976],[127.0234068006872,37.5439053995368],[127.0176618008774,37.5446678003865],[127.0227893996794,37.5481889991785],[127.01657060062199,37.550548800385],[127.01420760089121,37.5597366983567],[127.0062545003379,37.5617332003663],[127.0024250991806,37.558017499635895],[127.0150523985216,37.549076799622505],[127.0111310996664,37.5411147003973],[127.0228724984799,37.533976696129095],[127.020312400826,37.5244799007828],[127.0026756998476,37.5095701002768],[127.0008098984942,37.5010613003978]]]}},{"type":"Feature","properties":{"interval":30,"stationId":"2244637619","profile":"peak"},"geometry":{"type":"Polygon","coordinates":[[[126.9329155996015,37.503804199868696],[126.94631250003951,37.4992732997515],[126.9530822997835,37.490295799898895],[126.9588368004826,37.494122998796705],[126.9620847975258,37.4907064010982],[126.96681199533151,37.4828641998867],[126.96042700045399,37.4797075005265],[126.9607158994591,37.4735083001109],[126.96926569983519,37.477541399153196],[126.9829779976254,37.4699935010146],[126.9924097986437,37.4796569966876],[126.99976239768219,37.474400599268606],[127.00876239959989,37.4782600986038],[127.01641189792589,37.4751301978561],[127.02534229978191,37.4832729993108],[127.0287000986133,37.482525000852],[127.03132019904889,37.462620201507505],[127.045029699191,37.4594362009147],[127.050566101559,37.4621404996674],[127.0456829017922,37.4646264996201],[127.0518443003799,37.4741797991949],[127.0481906009325,37.4795653994199],[127.0611157971012,37.4806802989007],[127.0842644999738,37.494806799092096],[127.07062540164189,37.4989341013938],[127.0717563004636,37.505398995189196],[127.11484950025651,37.4976490991452],[127.1111472003286,37.5101895998082],[127.10537740084119,37.5096746006692],[127.10585420004739,37.52074789955],[127.0946393012654,37.5326937007111],[127.0968100000222,37.5355097993119],[127.0830581999592,37.540292300656894],[127.07544870079799,37.5491013001681],[127.0812208996804,37.552640799641],[127.0931812997618,37.550424599493496],[127.0854016010107,37.560124299950296],[127.09054660062489,37.5828760004488],[127.0847839000554,37.582008100438706],[127.0765869999483,37.5616499011091],[127.05922189852869,37.5614495005955],[127.07271469886051,37.558950599396205],[127.0635380989063,37.5463336011348],[127.0497373002123,37.5498418004061],[127.0494123997548,37.5549099989184],[127.0428137003036,37.5567674005843],[127.0496647991755,37.565576998576795],[127.0545995992435,37.5640424989903],[127.0540763003453,37.5686072001154],[127.0249190007791,37.569720500558304],[127.0398705997187,37.578548299187204],[127.0245715997456,37.579302100843],[127.0260520998883,37.5827473986834],[127.04094220002091,37.5912748994052],[127.03575360022161,37.595207599983304],[127.0252423995169,37.5873007015405],[127.0206539002,37.5959988998382],[127.0145546008593,37.596592800722306],[127.0026761002243,37.593540101334796],[126.99446089994751,37.5817211005357],[126.9732932003652,37.5836735001154],[126.96483699974651,37.5753791019543],[126.95618659985199,37.5771379014127],[126.9420956005553,37.5900965000437],[126.95615339843211,37.5712172999116],[126.9595419988045,37.574180999538804],[126.9642307992627,37.5635283002673],[126.95191510051639,37.5577046008818],[126.945617501017,37.5599688995563],[126.9447418994783,37.555298899377796],[126.95098779885669,37.556613799412204],[126.9550104991945,37.551776000602295],[126.9650722984843,37.5566526000261],[126.97315879929249,37.5522607002546],[126.9649103995003,37.543479900661],[126.9533652000317,37.5454758000415],[126.94896699964289,37.5420060003068],[126.955278199424,37.5420752990033],[126.9596300988633,37.5355893992949],[126.9724615982749,37.5374356995841],[126.96445989958309,37.5304383008836],[126.9661891985402,37.5216305011772],[126.97686179984619,37.5201279996973],[126.9679798012762,37.5271948998531],[126.97891520048731,37.5340094989128],[126.9729330012391,37.539570898540504],[126.9738175002496,37.5457287994564],[126.9804300003766,37.5462699979821],[126.97840840082951,37.548848699627904],[126.9889120996089,37.5564184955735],[127.0018499952113,37.5480673000837],[126.992340700105,37.5400202005128],[126.9864200000097,37.541760100402996],[126.98683649963249,37.5348408007076],[127.00705359431791,37.5187428035754],[127.0030453953418,37.5141234067652],[126.9961536022336,37.515376105512495],[126.987980300565,37.5024320029736],[126.9721374023538,37.5056941999739],[126.972444899148,37.5005586000174],[126.9823615974622,37.5000263985115],[126.97361209954799,37.4914894019737],[126.9562594999034,37.4961261005813],[126.9490271014158,37.5085729995316],[126.9439549006525,37.505219301173604],[126.9426812001442,37.5137423002356],[126.9359292994227,37.513223000737604],[126.9329155996015,37.503804199868696]]]}},{"type":"Feature","properties":{"interval":60,"stationId":"2244637619","profile":"peak"},"geometry":{"type":"Polygon","coordinates":[[[126.7887998999116,37.4832939000402],[126.79619869999891,37.4785191993042],[126.8070367002707,37.4846793988336],[126.8266661995469,37.4836579999595],[126.8332433993655,37.488281896268],[126.85068479914429,37.4661426978922],[126.86421489993009,37.4671958987313],[126.8705347965238,37.4619579974243],[126.8775823997256,37.4650987992962],[126.8841907986653,37.4609881993166],[126.88392779792669,37.451676802042904],[126.8937942979367,37.446299400427904],[126.8966561006637,37.4530147979356],[126.9022960999382,37.4498167995368],[126.90640429962721,37.4550676992869],[126.9039779007522,37.4610493998101],[126.9083210998364,37.4726775980718],[126.9173280985125,37.4697345997929],[126.93059029894961,37.4557102025545],[126.9484793989632,37.4536036005803],[126.95853350574531,37.459023493561304],[126.9702725963907,37.4536241958752],[126.9806033997507,37.4710080979516],[126.9884666994664,37.4660825001595],[126.9922611956211,37.4535594021874],[126.97899939520731,37.4471788005145],[126.9814512961624,37.4405363025133],[126.9725524994337,37.435361102002204],[126.976586695385,37.430315099053004],[126.9698715001188,37.4207978016766],[126.9796630981629,37.4232867963],[126.9813691964568,37.4167955027913],[126.9384231006849,37.3966688009624],[126.9371935996878,37.3822735007292],[126.9307533002506,37.3875988001317],[126.9373723993673,37.380042199521895],[126.9347219992894,37.3676851010319],[126.9402364995242,37.3648274993112],[126.92986770045711,37.3643926002417],[126.9252092007562,37.344726899034896],[126.92686350223529,37.350628800516006],[126.94139969933181,37.3558840977719],[126.9415681002487,37.3622599997285],[126.95349759983951,37.368956599136595],[126.9405650049958,37.379772899981],[126.9450377005231,37.3827037970501],[126.957370399105,37.378799299947],[126.9903604009859,37.3923855982506],[126.9843868031083,37.4040808014809],[126.9863965987482,37.4111849965334],[126.9960927989773,37.4123801989597],[126.9971658990431,37.4177019946315],[127.0026190944363,37.4154924965929],[127.01656469939691,37.4232389974703],[127.02157499844199,37.4214947983539],[127.0165118017939,37.4285273000164],[127.0233913023436,37.4335323937841],[127.03341119351721,37.434615093458305],[127.04035298950619,37.423664601294],[127.0548408979841,37.4335890925844],[127.0597292958178,37.429682497292],[127.06672069699121,37.4329787948637],[127.06310500010329,37.4222741002956],[127.0752233981361,37.4244846943103],[127.07676859870499,37.419993399145305],[127.07197930296779,37.4249974004287],[127.08459640316299,37.4335100987688],[127.0719894029564,37.435428102570604],[127.0754488009816,37.4578265987655],[127.08082299930119,37.455653598395195],[127.08810799874071,37.4627002970561],[127.0762917000974,37.4665142007781],[127.0751493994079,37.4595885030554],[127.0707625011634,37.463639199935706],[127.06854149771159,37.4591990058429],[127.06162410364,37.4689519961506],[127.077111598348,37.4750565942953],[127.090420796136,37.4670207992167],[127.0989707992683,37.4672998997395],[127.1067976990508,37.4595278002671],[127.11579469763069,37.462988797790196],[127.1194199939955,37.4589331016612],[127.1167570002008,37.4293677028343],[127.1180142989456,37.4249128988922],[127.1227744004935,37.4295577980036],[127.1239106994108,37.4259320008978],[127.1163820000447,37.4200953016544],[127.1195402976323,37.4149606030549],[127.1086517976848,37.4140250002379],[127.106622099427,37.4104897001136],[127.11332519852701,37.4100126997932],[127.11053269911149,37.4069922001871],[127.1037247998645,37.405589902712],[127.0979253007022,37.4172646004219],[127.0914071983567,37.4101352005997],[127.09730949906209,37.4078203992008],[127.10032819901011,37.397639500960096],[127.09342360023639,37.4033797013049],[127.08542680316779,37.3986209049287],[127.0903041977693,37.4024106950179],[127.0824569001319,37.389419400524304],[127.09118579805771,37.3836270007574],[127.0925983969973,37.3719990107432],[127.0859709982461,37.3521936035811],[127.0814194027977,37.353325502449195],[127.0828877013294,37.356433199341495],[127.081419399622,37.3533255020799],[127.0843868962391,37.349515501262005],[127.0777483994058,37.328266501368],[127.0609249997416,37.320432500722],[127.0658958974944,37.2973407992284],[127.06077860057741,37.2924813012904],[127.0533452021228,37.307726600121704],[127.04621020016151,37.310008199796],[127.0471664991471,37.3026015995001],[127.03528370016349,37.3014400005318],[127.0356989985927,37.294279000257006],[127.0386881989222,37.2968131969991],[127.0396563000742,37.2864805029573],[127.0533376988381,37.2797657984583],[127.070618200084,37.285366599241804],[127.09579399964329,37.304051099652305],[127.096043699851,37.2893663023743],[127.106828297544,37.293813998003294],[127.1041218999068,37.283415101711796],[127.1005161993946,37.2890664006593],[127.0990990998722,37.285871400944096],[127.104963099719,37.2762355000433],[127.1035681982552,37.2574443004681],[127.114494099677,37.271325998963505],[127.13712990119531,37.2657854980538],[127.1291443008099,37.269328099793604],[127.1311840004723,37.274062099208905],[127.12428290287019,37.2728346029633],[127.1222534015971,37.290432200816],[127.11598350287589,37.2924387002574],[127.11866780132989,37.297391399449204],[127.1142924063538,37.3112017964541],[127.1269555005927,37.3293035998948],[127.120475301521,37.3347167003903],[127.1282483997245,37.338539397434104],[127.1264527065543,37.346072903497706],[127.1320295009775,37.3511917983788],[127.12718220742379,37.358809798518806],[127.14615060205149,37.383337796352],[127.139571300923,37.3869193991113],[127.14624910019941,37.3948056991846],[127.1367145006202,37.3964503022606],[127.13570610179539,37.4010904984761],[127.1456492011573,37.4121632986741],[127.1373578031544,37.4178439008516],[127.13816320234899,37.4250912936042],[127.14589869983,37.4268713991989],[127.15603159674451,37.439537696796705],[127.15882089841979,37.434335698526496],[127.16765389915871,37.4365412001316],[127.1729227982797,37.4473401976693],[127.1706532006669,37.4617115001108],[127.15591030275681,37.4653474035249],[127.1561728003327,37.472386899497295],[127.14780210008561,37.4764850007222],[127.1507867004911,37.4842556975496],[127.1677512012006,37.4847620960337],[127.16111810464399,37.4964304988573],[127.1642300002354,37.5067292000544],[127.1579646036256,37.5066505023894],[127.1632300008483,37.515951798871605],[127.1593668017382,37.5328886983121],[127.1633478009813,37.5392130989448],[127.1577932996438,37.5494838972441],[127.16683849928219,37.5480022001533],[127.1775989003499,37.5577712976529],[127.1567723022262,37.56539380099],[127.1399924016646,37.5560290052629],[127.1396582019988,37.562111899179996],[127.133748700433,37.5647580003227],[127.1259341948053,37.5589419073938],[127.11510870397959,37.5613228044222],[127.1155311035572,37.5647197010253],[127.10520480353479,37.561066599831996],[127.1043380058825,37.5696255968896],[127.1172505998954,37.5751505977571],[127.1108507029626,37.5951664981541],[127.11367260114581,37.608510599208905],[127.11100060092059,37.6122102999877],[127.10851960039159,37.609575302162405],[127.0972866061777,37.6334250004084],[127.0901133009782,37.629182212028105],[127.0840961008402,37.6404973001455],[127.07645000561959,37.6444480010963],[127.0899685044806,37.674304299402806],[127.0819956021565,37.678802099851396],[127.0632104029615,37.6731875993105],[127.0659757994333,37.680621797442996],[127.0455470020429,37.6976782010665],[127.0417465977,37.6908346032287],[127.0364363030103,37.6925146015487],[127.034007499152,37.6774257008266],[127.04269089846339,37.6750263002844],[127.02985940100791,37.6698455009043],[127.02967649972389,37.662457700586295],[127.01319650479621,37.663031003056396],[127.0039110013071,37.6714942025626],[127.0025713962918,37.6587418069018],[127.00793319207929,37.654995298365606],[127.00110819576871,37.6426454075331],[127.0052995953808,37.6374406026207],[127.0004802002002,37.633627306434],[127.00299369328981,37.6252988039026],[126.9950004012831,37.6265685026329],[126.9866148982834,37.6189374066207],[126.9897691963637,37.6039255019993],[126.98588440024851,37.5980129079119],[126.95198520173379,37.5993556015784],[126.94773620271289,37.6101892071471],[126.9496179983373,37.6076441022373],[126.9430022005684,37.604849903652195],[126.9479025021502,37.6221580984519],[126.9375318065229,37.628642801004],[126.9322377011751,37.6495873995251],[126.9251066013406,37.650778101405095],[126.9199023000797,37.6587175000406],[126.91950889967289,37.6549730031293],[126.9051507008996,37.653748204348005],[126.90157350254769,37.6612274019879],[126.8921434001082,37.6638321000576],[126.888628999351,37.654725302053],[126.8627670003179,37.6519085004312],[126.8685451975295,37.6433046010614],[126.8781368992852,37.644448498767105],[126.8826485006425,37.650519898080496],[126.91066669654069,37.640880799808095],[126.9071369933941,37.6248349014332],[126.8999969993615,37.6182778018414],[126.9012210975491,37.586897800947],[126.8826043993655,37.5834155008817],[126.8908786974366,37.569251799445105],[126.8843737996202,37.5623871008698],[126.883853899773,37.5532880087933],[126.8623439059897,37.5637587071776],[126.8595211088125,37.567348303588],[126.8642369026165,37.573749398970094],[126.859521102296,37.5673483068944],[126.8384187063841,37.5774975065542],[126.8329604998203,37.5733520001838],[126.8289614021511,37.5786130983033],[126.8194697005203,37.5733202025798],[126.8144286008405,37.5799588993267],[126.8021358997962,37.574724800561796],[126.8042669989087,37.5688747997847],[126.7970553001239,37.562509900990804],[126.8092432002735,37.5548605996136],[126.8152090011199,37.560931098157596],[126.8229610988912,37.5590225993833],[126.83060839907391,37.5423652999388],[126.8280181987873,37.537738500517406],[126.83910639941121,37.521334000739],[126.86124689855579,37.5047571003877],[126.8357666997748,37.494264200442004],[126.8278494012095,37.4992810006132],[126.82143349947779,37.4977200004588],[126.8229236983616,37.493087802261996],[126.8103147004125,37.4916109001583],[126.80106580052761,37.4831517010406],[126.79393400243119,37.4876297020735],[126.7887998999116,37.4832939000402]]]}}]}