{"type":"FeatureCollection","features":[{"type":"Feature","properties":{"interval":15,"stationId":"2360117049","profile":"peak"},"geometry":{"type":"Polygon","coordinates":[[[126.7154921974465,37.5092642001872],[126.72950079974359,37.4964092997818],[126.73631660036109,37.5026571982044],[126.7468265006528,37.501283598365404],[126.74221060159111,37.504793899824904],[126.7452772998593,37.5101836992117],[126.7333907004907,37.5171190999633],[126.7154921974465,37.5092642001872]]]}},{"type":"Feature","properties":{"interval":30,"stationId":"2360117049","profile":"peak"},"geometry":{"type":"Polygon","coordinates":[[[126.66173639610359,37.5046234968077],[126.67154569815699,37.4946312012912],[126.6676504985997,37.4891013000553],[126.67362420017831,37.483564098577205],[126.6710491023679,37.486084499235396],[126.676296200837,37.4956642987254],[126.6884613007616,37.505230999435405],[126.7021321971189,37.4936812981381],[126.7143292974283,37.4999549977775],[126.7149676994879,37.4907882022088],[126.7062290994802,37.4859263012288],[126.7070173981466,37.478896302103],[126.6972637991398,37.4716301003959],[126.7017299997078,37.460741200247604],[126.6914783007494,37.464157700463],[126.6989962995779,37.458692900041704],[126.7007015985265,37.4467651999429],[126.7086572992478,37.456969999026],[126.7033888005569,37.463893499312],[126.7092218992854,37.46047019852001],[126.7157203996039,37.4632702994833],[126.71231760250801,37.469987598120106],[126.7198221008895,37.476315499420195],[126.7175836020281,37.4807171999593],[126.7426133992032,37.4838965993579],[126.7465087996495,37.4916293987134],[126.7544955994119,37.4878376996809],[126.7682822003413,37.493565099297],[126.7765958992522,37.4896382999365],[126.8028582002663,37.497887497695395],[126.80332870129699,37.5015040965168],[126.808916198527,37.4967670975616],[126.8148759015725,37.505041798704],[126.82256530019109,37.5060001994446],[126.8170635025909,37.5057288026912],[126.8155244030164,37.5137781992361],[126.8083719989026,37.5120059019224],[126.8035344006543,37.5160883003097],[126.7903804999785,37.509662004502],[126.7873000012953,37.515599300232196],[126.7610420024052,37.518496000233],[126.75896110004359,37.5153301029075],[126.73962369952119,37.5234181008275],[126.7336410998704,37.5363665989162],[126.7440511997219,37.542532699531],[126.74576410067951,37.5576098011473],[126.7378031996211,37.549823501239004],[126.7140521005973,37.5437326003169],[126.71436659840691,37.533805600629],[126.70932929967029,37.5289211008255],[126.7153161991262,37.5250619995122],[126.71033420012121,37.5202168013931],[126.7048960019779,37.5234665000268],[126.6990391989567,37.520377100626696],[126.6988281992376,37.5143816028428],[126.69135680159529,37.5162034009417],[126.6930293995279,37.510061503312],[126.6853342008947,37.5085470013821],[126.67889800134,37.5131914018029],[126.67678670098819,37.518239699585],[126.6823054001441,37.5243236979034],[126.67679360094999,37.5292832993904],[126.6695129004855,37.526145100897104],[126.66983929949431,37.516316099543],[126.66173639610359,37.5046234968077]]]}},{"type":"Feature","properties":{"interval":60,"stationId":"2360117049","profile":"peak"},"geometry":{"type":"Polygon","coordinates":[[[126.6013746990065,37.4749933003261],[126.6147109961439,37.4748105992862],[126.62985839759091,37.4643637978252],[126.6286773991367,37.4556015003099],[126.6417564993784,37.4514157977872],[126.64402199708461,37.446497001366204],[126.6398013013053,37.445406802456404],[126.6448795969764,37.440639901412304],[126.65633779863771,37.440806797593694],[126.6577828021104,37.444533798673],[126.65951719908469,37.4410421003384],[126.66131800162839,37.4469694985232],[126.6762072991649,37.4365420995987],[126.6722987016164,37.426470904302796],[126.6594023023152,37.43554490109619],[126.64727259867219,37.4284209009957],[126.65174549880061,37.420413000174506],[126.66574849925831,37.4217910997151],[126.6696860978469,37.4164068992081],[126.6636811999984,37.4130602003309],[126.6634595023341,37.3963242020086],[126.6553281013486,37.398139200995004],[126.6441753001634,37.3931194011976],[126.6331797016273,37.4001432977303],[126.6275251005343,37.4118423984272],[126.6253306987917,37.408526202140294],[126.6298486997862,37.3819071001328],[126.63786069945911,37.3762903000187],[126.6373505976199,37.3715334998288],[126.65167129856191,37.3680402992094],[126.6565358032262,37.3771525970255],[126.66246149730051,37.377027097151],[126.6607759995169,37.3736310002658],[126.67573400103251,37.382999997337905],[126.6773685006662,37.3937389948772],[126.6995157991328,37.398394698823395],[126.70252409801901,37.3923433009307],[126.7151371999847,37.397749098696195],[126.7371346993357,37.397593598990504],[126.7388009014329,37.4040296975947],[126.7169514017229,37.407606703383806],[126.713433204263,37.4140047990241],[126.7214903013629,37.4218741999208],[126.71790130221959,37.4380230984327],[126.7284343976079,37.4415466969007],[126.727438298604,37.4359709024765],[126.735295398999,37.4324362957982],[126.7328500001073,37.4360786970794],[126.7419691980672,37.441543097703196],[126.7600749987503,37.427143299589694],[126.7647960004308,37.4337765958735],[126.7711046990936,37.428966899947],[126.7942376987,37.427156197007896],[126.81205919961769,37.4461526998036],[126.8129266001111,37.451895895276394],[126.8065729061458,37.453327201905694],[126.81453240017271,37.4604965967093],[126.8175964014266,37.4742022968612],[126.8219075997427,37.466895899982696],[126.88143559536441,37.4537959986657],[126.88077609743061,37.4461941001559],[126.89477169783561,37.4424996990805],[126.8965502991605,37.435509101465094],[126.8988991003516,37.4378832986212],[126.898848998589,37.4238380998643],[126.90433209240261,37.4203745985408],[126.9015229958696,37.41109630454039],[126.91306519961181,37.407879199851806],[126.9209726999672,37.4003988999359],[126.9182037997477,37.3956748002961],[126.92876949959211,37.393511999814],[126.9330378998837,37.398271099432904],[126.9307688015707,37.4047208016417],[126.918479101306,37.4074844032378],[126.9141923004063,37.423949700133605],[126.9023088002529,37.423295100240495],[126.909635902557,37.431275494592],[126.9132993999278,37.4290934996769],[126.9140010004557,37.439818797498695],[126.9063552006507,37.4467663983893],[126.91328920082299,37.4531865987528],[126.9117719004748,37.470430400347],[126.9065845014175,37.4690978998295],[126.9079124002534,37.4785551987773],[126.9164855994422,37.475631399454095],[126.922967697886,37.480083198233906],[126.9314336977145,37.4654033008463],[126.9398395997875,37.4692935991549],[126.9484157000089,37.4665939992132],[126.9404292006403,37.473728599652304],[126.94689119872899,37.4766043974092],[126.9645911981063,37.4706913989268],[126.9765473992335,37.4726534986764],[126.9905087969335,37.4850606973749],[126.99881700008041,37.479693598652396],[126.99569360061659,37.490744900282806],[126.9645988010963,37.4894043002317],[126.9623984037292,37.495606701093905],[126.9562594999034,37.4961261005813],[126.9561909010835,37.512640898697],[126.94141299984899,37.515881700449704],[126.9319007090502,37.5303241059243],[126.9126051002786,37.5319285006457],[126.91107730006391,37.5259397002293],[126.90633240354799,37.53662949795039],[126.9105571008771,37.5439333912341],[126.9172155011718,37.5449635987852],[126.94218889963821,37.5441606996272],[126.94390459970259,37.535494100038],[126.9724615982749,37.5374356995841],[126.96104199924231,37.52527710011319],[126.9678257000685,37.524871799008],[126.9702783002418,37.5335196988994],[126.9769050999996,37.5332696993653],[126.9733818003362,37.5452646995546],[126.963392701018,37.543356900784],[126.9586078000051,37.550796098775],[126.9658088001246,37.557665799820704],[126.9639297996311,37.5522630001727],[126.9691141994498,37.5481196993913],[126.9737708003447,37.556244799846],[126.9662944008858,37.5585169007334],[126.9682381014746,37.5615674001529],[126.95191509872589,37.5577046014269],[126.9472315002894,37.562004199901395],[126.9346984007346,37.5606700002222],[126.9243931001495,37.5726712002291],[126.91053790145969,37.5741617994972],[126.9192707000746,37.5920524998731],[126.91749260019981,37.602009000014704],[126.9021806997647,37.5863431007477],[126.8815672004027,37.5835376007596],[126.8920335996363,37.5729936976144],[126.891501999445,37.5654449992421],[126.90477919951319,37.559317399779594],[126.9047467996372,37.5500136003249],[126.9095846988684,37.5456904994996],[126.90483569886561,37.5378461051218],[126.90290900079229,37.5422386007293],[126.8896622004458,37.541233600588996],[126.8908374974314,37.532386601541106],[126.88146569866491,37.5243569027959],[126.8764237013856,37.5285408002343],[126.8793982001469,37.5295825996522],[126.8695106004631,37.5299849010006],[126.8509079003332,37.54094710086979],[126.85428160030499,37.5490560997389],[126.8645428993839,37.5409358993681],[126.8841409993375,37.5411755982374],[126.8863237987604,37.5377612999112],[126.8818278005203,37.5423054012089],[126.8861292977481,37.546200497523195],[126.8595211088125,37.567348303588],[126.8642369026165,37.573749398970094],[126.8558023060148,37.567675706567],[126.8348612077972,37.5787932067942],[126.8168942009732,37.580768501483796],[126.8144506027807,37.583393799390905],[126.81806789916341,37.584668898115794],[126.800210601008,37.5940990996382],[126.7943188993671,37.5863947012447],[126.78819420155011,37.589722397974796],[126.7887793993929,37.579745603523506],[126.78454190103949,37.584805800297296],[126.78103519719751,37.572320804131],[126.7904878988427,37.566374692500794],[126.7993937003088,37.5758302957253],[126.8043332988424,37.5680287006308],[126.7984198005241,37.563155202025094],[126.8139417975667,37.5471032001008],[126.80718159838241,37.538683202811605],[126.8003281007449,37.540236699222504],[126.7994732003299,37.546560800415904],[126.7974655001456,37.5420716012281],[126.78812860213439,37.5425009024611],[126.7941960988055,37.541196197719],[126.7945499983914,37.535873100789004],[126.7859471011206,37.5384869000914],[126.7870517972544,37.5339478011687],[126.76973199991511,37.5317966013577],[126.762097002002,37.5366477012614],[126.7647737010854,37.544112195101704],[126.76868159717749,37.543236395977495],[126.763171907198,37.5480223020011],[126.7689654044873,37.556239496704194],[126.7742317992209,37.5547663981773],[126.7683969012387,37.562460699646905],[126.7647736978362,37.5441122031982],[126.7456342014431,37.5427395010121],[126.75179019988481,37.558545697645705],[126.7612608987706,37.5587983992307],[126.7624988005072,37.562889597798296],[126.75625560173481,37.567019898673095],[126.760922399187,37.5723925961111],[126.76433889577049,37.5693663991373],[126.7609224010694,37.572392600749],[126.7533707002529,37.567738401363805],[126.74673870296239,37.5727140981436],[126.75142789827319,37.575113395744296],[126.7496760016272,37.5787639999911],[126.73569300035109,37.5876118013665],[126.7194680997681,37.578059006149005],[126.7203728969074,37.5710666027768],[126.7087587009086,37.5715312017186],[126.7095974993136,37.5601154017561],[126.7060372020546,37.5616349004922],[126.7030933006167,37.556430404302105],[126.6876953021319,37.5726123001105],[126.6936519968611,37.5792816940002],[126.6929636033014,37.5860622981507],[126.6964818997831,37.5855902986227],[126.6966904013064,37.5948317998727],[126.6864987016261,37.588339606392495],[126.6658365048674,37.6021164019243],[126.6735859000622,37.610631998961004],[126.6592660009827,37.6149504008783],[126.6532533005943,37.6065367038696],[126.6501796018466,37.612408202360896],[126.6318683976115,37.6033558015705],[126.6251433998811,37.6046653017885],[126.6194997006074,37.596543002036796],[126.61311070082829,37.600768700723904],[126.613005099474,37.5930952017708],[126.6185986982048,37.587870199992196],[126.6224965989021,37.5907700971081],[126.6375233979499,37.5862611007993],[126.6404770982145,37.5943758979367],[126.65118659625121,37.5830869980364],[126.65536419796999,37.584887696858004],[126.6569081986167,37.579525199998],[126.6584362003054,37.582932396039496],[126.6628596987343,37.5789201994299],[126.663982599179,37.5685656002312],[126.6696335985972,37.568390900900795],[126.65285830595161,37.561948906865396],[126.6498149006666,37.566665801351405],[126.6494455989969,37.552908702296506],[126.6458733980021,37.5510308022462],[126.6479563015329,37.5535060986571],[126.6500167974262,37.5468442028815],[126.6448742984952,37.5423902999811],[126.6495021997717,37.5332530000802],[126.64045009984,37.5251673007901],[126.6489644977274,37.523738799158],[126.64876399928269,37.5165935018287],[126.641759699211,37.5143184014817],[126.6459174990378,37.509261100001304],[126.641658800013,37.4991464043482],[126.6479311941453,37.4961889990325],[126.64562199645451,37.486981808239705],[126.633470104467,37.484565410314],[126.6226459043081,37.489022901393604],[126.6013746990065,37.4749933003261]]]}}]}