{"type":"FeatureCollection","features":[{"type":"Feature","properties":{"interval":15,"stationId":"287321417","profile":"peak"},"geometry":{"type":"Polygon","coordinates":[[[126.9950816993792,37.5809926007285],[127.0005903995898,37.5775243993762],[127.0139673980779,37.5827293005693],[127.0145101992846,37.5740434998633],[127.0041914000133,37.572665900828795],[127.0060530992347,37.5623340001628],[127.0299553003733,37.5750155997079],[127.0251809007595,37.5807853006455],[127.0334562007383,37.5876560001048],[127.0241430004198,37.5892728998679],[127.0237584022115,37.5979121988004],[127.0335142999256,37.604358099614196],[127.0346904003625,37.6153491995303],[127.02919060007311,37.619009500027396],[127.0253354993246,37.614183600021796],[127.0285367978758,37.6111115992205],[127.0172012015152,37.606729201851195],[127.0095961013092,37.616660500836204],[127.0219382983493,37.6180053001608],[127.0203660998075,37.627473799552796],[127.0103780994049,37.6211585017456],[127.00871199905261,37.6140185013879],[127.00231119922479,37.6146984000652],[127.0094501971125,37.596481499990006],[126.9988144995815,37.5929946012619],[126.9950816993792,37.5809926007285]]]}},{"type":"Feature","properties":{"interval":30,"stationId":"287321417","profile":"peak"},"geometry":{"type":"Polygon","coordinates":[[[126.942187799521,37.5567064003975],[126.95098779885669,37.556613799412204],[126.9550104991945,37.551776000602295],[126.9585466001255,37.556060999810796],[126.9711195001626,37.5550632992729],[126.9715770983601,37.5495150013446],[126.96530250011841,37.5467123006189],[126.9661928993998,37.5404121004067],[126.9724615982749,37.5374356995841],[126.96445989958309,37.5304383008836],[126.96645769906311,37.5254251991815],[126.97936210078531,37.5346144993742],[126.9729330012391,37.539570898540504],[126.9738175002496,37.5457287994564],[126.9804300003766,37.5462699979821],[126.97840840082951,37.548848699627904],[126.9889120996089,37.5564184955735],[127.001849998973,37.5480673022729],[126.9997052995851,37.5380873011332],[126.9846773003454,37.535010000487],[126.9945264993791,37.530950998652905],[127.0058960989918,37.535316099232205],[127.00959780105009,37.5472924994944],[127.01380829788219,37.5440879995049],[127.0112415003116,37.5416006010175],[127.0201214960419,37.5374208005529],[127.0234068006872,37.5439053995368],[127.0185392011835,37.545054299693],[127.02893230040189,37.552676299665805],[127.03947839787,37.5543485001981],[127.04373799941901,37.5397429002748],[127.0470660008212,37.5443868985204],[127.0596468989673,37.5423646000327],[127.04820410211131,37.551965599231],[127.0561773004919,37.565732499491105],[127.0457665008982,37.5703855997977],[127.0708407991771,37.592601099484604],[127.0854968997101,37.5944619999234],[127.078642300447,37.5983339003243],[127.0828928004718,37.6028727000188],[127.08156540072011,37.616708099280395],[127.0957663999932,37.615428699572504],[127.09011890011249,37.6222632994795],[127.0762890004855,37.6232001000946],[127.07241430009981,37.6276645003932],[127.0674254998189,37.616953200350096],[127.0597029014404,37.6249385999378],[127.06083580045471,37.615809001486],[127.0462395004504,37.6160078002058],[127.0361822015832,37.6246618976147],[127.03873250047499,37.6393426998589],[127.0434344015948,37.646551498684204],[127.05224679993381,37.64324649915989],[127.0514284042237,37.6521253975715],[127.0644603989621,37.651003798257],[127.0781454989756,37.6563279993031],[127.0825346004513,37.6729191001073],[127.0757940014702,37.672894201435],[127.0757040981644,37.6657673026991],[127.060309399696,37.6622700002343],[127.0580147001125,37.655101900449395],[127.0489133998982,37.6534751000488],[127.0446758005799,37.6610324985514],[127.0204797006779,37.6500875019236],[127.0175699015782,37.6614723994428],[127.00598720153461,37.665405805019304],[127.0081908972402,37.6272587001143],[126.99489300010741,37.620419406149104],[126.99963219940899,37.6111483999932],[126.9911158000038,37.6117165003614],[126.9963571973186,37.6014656017719],[126.9864574000191,37.5968317004705],[126.986656398752,37.589019803133205],[126.9937016986013,37.5871792992153],[126.9945329986113,37.5804279004985],[126.98514180049489,37.583338399954904],[126.9794212996473,37.5769978007765],[126.9717480999939,37.5800501002739],[126.9679961995736,37.575454200031004],[126.9721023990938,37.5717191000303],[126.96332890026889,37.5692096000836],[126.9642307992627,37.5635283002673],[126.942187799521,37.5567064003975]]]}},{"type":"Feature","properties":{"interval":60,"stationId":"287321417","profile":"peak"},"geometry":{"type":"Polygon","coordinates":[[[126.8117547996041,37.567793200630696],[126.8370416996449,37.5548203002351],[126.830178399482,37.548992200132],[126.8473139996708,37.5211261996986],[126.864622698794,37.5175641995829],[126.86696019906519,37.5143852019339],[126.862656899035,37.510339399638596],[126.8713616986163,37.5154149991453],[126.8792434976033,37.5138901003506],[126.8711197019362,37.5122479009613],[126.8726803982772,37.503237900925505],[126.8647991999584,37.5017433007361],[126.86650369833549,37.4931213016352],[126.8596138009151,37.4930528011124],[126.8552048995666,37.4991643008285],[126.84837100062,37.496415401330296],[126.8579882992264,37.4887070994617],[126.8807133996567,37.4920033997191],[126.8738909983663,37.4792622022961],[126.8624328999561,37.4775378006663],[126.86322319947719,37.4738646999497],[126.86949629941249,37.4727115999942],[126.8757389993515,37.4781338983273],[126.8821359002871,37.4728982993624],[126.8854678013754,37.4812134973912],[126.90400129931591,37.486142299171895],[126.9254049985791,37.478496298550205],[126.930819298792,37.474335700923696],[126.9314336977145,37.4654033008463],[126.9398395997875,37.4692935991549],[126.9484157000089,37.4665939992132],[126.9419211006453,37.4709068005009],[126.9447729988957,37.476809098078796],[126.9511186998564,37.4777814991414],[126.95092269994551,37.468208601734894],[126.9578834957586,37.4685551986163],[126.9583427997889,37.464635300080495],[126.9600976006984,37.4682039985829],[126.95371620421301,37.4703374008129],[126.9562774016518,37.4741764969738],[126.9743625967139,37.4622457998686],[126.9806033997507,37.4710080979516],[126.9884666994664,37.4660825001595],[126.9914109989426,37.4451236991351],[127.00218269653341,37.441126500316905],[126.9880821006249,37.4336636014174],[126.9843259971324,37.426726601927506],[126.9874099982018,37.422144098229],[126.9867452024668,37.4264797989389],[126.9961643003858,37.4235902988028],[127.0036226997615,37.4282905993869],[127.0024591004803,37.4331829975106],[127.0130932997606,37.4299568984081],[127.0097647019445,37.4316980986914],[127.0158692972541,37.4348400951984],[127.01782110278211,37.441856196458],[127.012154403076,37.444976502589704],[127.0150043993806,37.4574452986298],[127.0043290015185,37.4585221038443],[126.9978308028175,37.467128899988296],[127.0089985987954,37.473225397817494],[127.01667359378591,37.4696353001366],[127.02500479882251,37.4744296987761],[127.0255285992084,37.4649231005437],[127.0340083990076,37.4580471993357],[127.0425040993009,37.4615442997938],[127.0469078998096,37.4567538000083],[127.0493805951982,37.440232799981295],[127.045416799162,37.4390298011843],[127.0620130928278,37.4343131992759],[127.0660149005543,37.4347978984222],[127.0633288021466,37.4427550944741],[127.0666571047806,37.4464462969966],[127.06261900197019,37.4490596009629],[127.0663218999333,37.4539269983758],[127.05103800349781,37.4672066977513],[127.0556096012544,37.4740512995257],[127.06963869923929,37.475017699179304],[127.07018910077379,37.4825540973749],[127.08651039924739,37.4758742996626],[127.0952370999135,37.4824089977078],[127.1059203992554,37.478558297819404],[127.1077086006096,37.4886707975346],[127.1228673999007,37.4764226999373],[127.1207237988663,37.4692654019831],[127.1260938989396,37.462042001612595],[127.1312411023013,37.467115798249004],[127.13861179937601,37.460158300955605],[127.1435428010737,37.4615515979772],[127.1272182003307,37.471195200986294],[127.13378870012569,37.4808618997139],[127.1288677002139,37.491127299630605],[127.1406690993711,37.4943108984462],[127.14218119514939,37.4884456032979],[127.1544861993859,37.4933370994645],[127.1547503006842,37.4969208994803],[127.14276390033571,37.4967155007311],[127.1351962004868,37.50304589962769],[127.1378990998231,37.5152791991897],[127.1485770992531,37.5164169987091],[127.1404062024662,37.522817699422895],[127.1517181034149,37.5277717995347],[127.149063002881,37.5300000000366],[127.15684090051701,37.536713199834104],[127.1577932996438,37.5494838972441],[127.16683849928219,37.5480022001533],[127.1775989003499,37.5577712976529],[127.1567723022262,37.56539380099],[127.1399924016646,37.5560290052629],[127.1396582019988,37.562111899179996],[127.1378271995348,37.5594014011172],[127.1341229004633,37.5635960998439],[127.1259341948053,37.5589419073938],[127.0969278049465,37.5635443999243],[127.1020837052608,37.5772690958468],[127.1077941995503,37.576745296370596],[127.12178230212221,37.6008481976732],[127.1391715992002,37.5911743995207],[127.149018199243,37.5916283992727],[127.1584418008253,37.5947659985577],[127.1500507022525,37.6010036991627],[127.1672410998788,37.6044299976761],[127.1720444001395,37.613985198700504],[127.1618489001896,37.618583800761606],[127.14339369951871,37.6117591024555],[127.1379278019404,37.6164122989757],[127.1217836021147,37.604786902837404],[127.12013140194381,37.6135791995295],[127.11558939922901,37.6038592038603],[127.1112167007045,37.613561298636704],[127.1132613003149,37.6235713985442],[127.1271955001964,37.6286839995119],[127.12267440192299,37.633938298764996],[127.12807689907869,37.636476599222604],[127.1287433000461,37.645993399919],[127.1405642990525,37.6387163996601],[127.1432454991006,37.643651697737],[127.148137396814,37.6410202994505],[127.15350880081739,37.6503521989038],[127.146376700228,37.6582226006986],[127.1382461017081,37.6574295022319],[127.1322628995386,37.6493950041453],[127.1284483013307,37.654919801040805],[127.121397300769,37.647526201637405],[127.1137485005272,37.649332200083606],[127.11603119993039,37.6439234992095],[127.1098248005674,37.639455301850205],[127.1046884003434,37.642054201242495],[127.0972866019932,37.6334250072858],[127.0910915029478,37.6412103015658],[127.0939326066385,37.6525927951481],[127.1043517998927,37.6599043974933],[127.1251245001086,37.6548507989905],[127.1288377007053,37.663348399409095],[127.1153585000673,37.6790532019047],[127.1020563035128,37.680688506307305],[127.0959332040278,37.688907403454095],[127.0635903041739,37.6914701031819],[127.065913201851,37.7008708937811],[127.0578292033554,37.7172215986063],[127.06927229863179,37.7287202992154],[127.0637159028288,37.7328997989304],[127.0628389036184,37.7427431985297],[127.07674139628351,37.7456657981179],[127.075478000233,37.7502987000188],[127.0848684989104,37.749954599087005],[127.0823295997822,37.7355619003413],[127.08859959929019,37.7314542983504],[127.0913740997635,37.737783799712005],[127.0848057010253,37.7461041006261],[127.0882469008034,37.749825699465504],[127.0790998011108,37.7594980037468],[127.0463783003416,37.7525072009743],[127.04606680379031,37.7597639005356],[127.04013690063269,37.7625523001697],[127.0423216990381,37.7548553013782],[127.0231492000827,37.7433151013391],[127.0270787967734,37.7411053000269],[127.02789229736611,37.726776301132595],[127.0333967955883,37.724724699544005],[127.027348297491,37.7074294030065],[127.02943279681139,37.6959804040845],[127.0235952003394,37.6885522032541],[127.02692929415541,37.6851189009279],[127.02192239916229,37.676616909429896],[127.0105741054889,37.6858081031134],[127.0005826942498,37.671500002636],[126.99369190114061,37.6740818000542],[126.9940968971661,37.6662259028214],[126.9884558004028,37.6636100027014],[126.99332609129151,37.6485120985817],[126.98067539869419,37.6396553023468],[126.97571909560051,37.617233405518604],[126.9651970996239,37.6048253004016],[126.97362369571711,37.601388301468106],[126.9600992995621,37.598882500110804],[126.96054559937271,37.5935663044123],[126.9430022005684,37.604849903652195],[126.9446836990751,37.623571494801794],[126.932013001249,37.6300508010319],[126.9351959000938,37.6375015996602],[126.9199023000797,37.6587175000406],[126.91950889967289,37.6549730031293],[126.9051507008996,37.653748204348005],[126.90157350254769,37.6612274019879],[126.8921434001082,37.6638321000576],[126.888628999351,37.654725302053],[126.8627670003179,37.6519085004312],[126.8685451975295,37.6433046010614],[126.8781368992852,37.644448498767105],[126.8826485006425,37.650519898080496],[126.91066669654069,37.640880799808095],[126.9014990003501,37.6167990028066],[126.905352096353,37.608127297844],[126.9012210975491,37.586897800947],[126.8826043993655,37.5834155008817],[126.8908786974366,37.569251799445105],[126.8843737996202,37.5623871008698],[126.883853899773,37.5532880087933],[126.8676559013536,37.553595499919],[126.8595211022663,37.5673482968238],[126.84630410101819,37.5664982021561],[126.8439458033927,37.5751408066471],[126.8117547996041,37.567793200630696]]]}}]}