{"type":"FeatureCollection","features":[{"type":"Feature","properties":{"interval":15,"stationId":"287525731","profile":"peak"},"geometry":{"type":"Polygon","coordinates":[[[127.02045539974961,37.495743300608],[127.029877999862,37.4927894984707],[127.04711969932869,37.4993146977881],[127.04947759811941,37.4960244004436],[127.0461799995746,37.495594500534004],[127.0545666987033,37.492756700760204],[127.0496566996879,37.4888950002234],[127.0565349996115,37.4836906997682],[127.0659767987089,37.4890795978183],[127.05930270138741,37.4862990020169],[127.0558111002818,37.501415899429595],[127.0676453990179,37.5003977995268],[127.0765839009624,37.509117598778005],[127.08793500151211,37.5081629986998],[127.0912239999024,37.513277199215494],[127.08441400144669,37.5164780002954],[127.07398830139219,37.5114023000258],[127.07508010016889,37.515116399624794],[127.06292380000879,37.517848800257305],[127.05071580009101,37.513104401484306],[127.04456480009141,37.5198022997856],[127.0383413994061,37.5193989004451],[127.0282806995118,37.5140474010567],[127.0377314986505,37.5139356995987],[127.0386952989365,37.507568199988604],[127.03029879957799,37.5027839004943],[127.0249955003279,37.5062595001007],[127.02045539974961,37.495743300608]]]}},{"type":"Feature","properties":{"interval":30,"stationId":"287525731","profile":"peak"},"geometry":{"type":"Polygon","coordinates":[[[126.9362400997843,37.484600899714295],[126.9400302996069,37.4784365997657],[126.9460103003438,37.4803214999171],[126.9751209996036,37.4687687989966],[126.9924097986437,37.4796569966876],[127.00236629558191,37.471743699492094],[127.0099042997272,37.4789807990072],[127.0271905001229,37.4837784995985],[127.0288143990059,37.47677139952879],[127.0349254992663,37.473812899932796],[127.0317755982619,37.4659809001703],[127.0452111997267,37.4620976003097],[127.04801229980299,37.475608199591306],[127.0628928978483,37.476441797762405],[127.07018909660309,37.4825540952299],[127.0676148991773,37.4775614002226],[127.07018910077379,37.4825540973749],[127.0856558006175,37.4800323989964],[127.0853036993897,37.5007904971674],[127.09695879993019,37.4923539001437],[127.0929371013565,37.4917728003762],[127.0937260984638,37.481477299859],[127.1060139999064,37.4789021996561],[127.1095969003108,37.4895017989347],[127.119440198064,37.4860542994968],[127.1271358995289,37.4752630993846],[127.1279847000629,37.4860199995892],[127.123687500228,37.4910760997381],[127.1302799994243,37.4944899989461],[127.1272603001715,37.4944209006994],[127.131633300424,37.5059884002215],[127.1198083994429,37.4975893007353],[127.1155273013613,37.5055466993057],[127.14303189948549,37.5174648988946],[127.1344675022403,37.5215920010755],[127.1228548013812,37.519263700726],[127.1251217001379,37.5249731978423],[127.1374733994412,37.5250487982596],[127.1374020004661,37.5285501970492],[127.1309829002961,37.5283864006241],[127.13882219947531,37.5336061990424],[127.1359137002361,37.5391434004401],[127.1276343016756,37.5418185995562],[127.1346344004988,37.5471237991363],[127.13100950134191,37.5555703999584],[127.12475180002279,37.5547977000562],[127.121874699727,37.544218801115704],[127.1119299997808,37.534940001211],[127.11242439893519,37.5289469998657],[127.1067685009402,37.52612190167],[127.1022414033739,37.5355960968785],[127.1059494020455,37.5490564002452],[127.0955658993459,37.5433081003426],[127.07544870079799,37.5491013001681],[127.083700399153,37.5540723997118],[127.0869981009993,37.5678176997668],[127.0732376001636,37.5594601003323],[127.07363629938061,37.550427400396394],[127.0617583003512,37.5460243007392],[127.044295700505,37.5584130001693],[127.05683980011831,37.5678835998822],[127.0249190007791,37.569720500558304],[127.0170485005404,37.5745640998216],[127.0024907001947,37.5670918002986],[126.9884165004295,37.566239200320496],[127.00033950002529,37.566221899569804],[127.0039365994228,37.5589789006093],[127.0090272996204,37.5621066996028],[127.0092538997102,37.5526064995172],[127.0183319983191,37.5567766995892],[127.0129698004229,37.5409469010401],[127.0228724984799,37.533976696129095],[127.023425099596,37.525656400822804],[126.99179219975261,37.5055375013887],[126.9698137972098,37.5023714025915],[126.9823615974622,37.5000263985115],[126.9825145996086,37.496545400756204],[126.9881530012277,37.501890599935],[126.9928118992609,37.4939251011913],[126.97821659998489,37.4923211000341],[126.9723481010003,37.4864425012684],[126.96619590057931,37.488495900422095],[126.9631629991019,37.481084001339],[126.9551966004473,37.486667999793],[126.9362400997843,37.484600899714295]]]}},{"type":"Feature","properties":{"interval":60,"stationId":"287525731","profile":"peak"},"geometry":{"type":"Polygon","coordinates":[[[126.78907979920399,37.4849836996367],[126.79619869999891,37.4785191993042],[126.79765880156309,37.4830437990802],[126.8070367002707,37.4846793988336],[126.81777959805639,37.4818025978945],[126.8204615996041,37.490930898221805],[126.8266996991551,37.4889409995139],[126.8302749994326,37.4935727993086],[126.83637590065649,37.4819054018372],[126.8444975000931,37.482902597589806],[126.8487003995024,37.4734093997914],[126.8593112990624,37.4729788989578],[126.86654919917909,37.4666724002144],[126.89407129823759,37.474502999128696],[126.9030029997054,37.4687225991076],[126.9095197990477,37.4704299986446],[126.93059029894961,37.4557102025545],[126.9702725963907,37.4536241958752],[126.9702427964205,37.4498908996085],[126.9748010994056,37.458718988974304],[126.9824641917425,37.455020592672696],[126.978538397722,37.4391118019867],[126.9725524994337,37.435361102002204],[126.976586695385,37.430315099053004],[126.9736669963233,37.421283001191405],[126.9698715001188,37.4207978016766],[126.9796630981629,37.4232867963],[126.9813691964568,37.4167955027913],[126.9664639985219,37.4117835026574],[126.9538567986131,37.400398700776094],[126.9384231006849,37.3966688009624],[126.9394632979709,37.3901390009445],[126.9352059022283,37.3907326003509],[126.9380722987153,37.384644701163204],[126.9307533000684,37.3875988007566],[126.9391777998103,37.3644661998793],[126.9381030003776,37.361300000928],[126.9295366996435,37.364491400203],[126.9233961980039,37.3471406021492],[126.9259653986714,37.343761799115306],[126.9302141006287,37.3540061992304],[126.94139969933181,37.3558840977719],[126.94179220091159,37.362624999843405],[126.95349759983951,37.368956599136595],[126.9474628030015,37.379640698463],[126.9690798998133,37.3813137996462],[126.9807046971035,37.3909878976395],[126.98005739775081,37.387708800918595],[126.9825573017469,37.3917201975617],[126.9913462991981,37.390636197525204],[126.9843868031083,37.4040808014809],[126.9863965987482,37.4111849965334],[126.9950700977286,37.4113399010662],[126.9971658998895,37.4177019943834],[127.0026190944363,37.4154924965929],[127.0248972993464,37.4231409994366],[127.0165118017939,37.4285273000164],[127.0233913023436,37.4335323937841],[127.03341119351721,37.434615093458305],[127.0422931993333,37.4244861996027],[127.0548408979841,37.4335890925844],[127.0660149005543,37.4347978984222],[127.0709975986133,37.429791600886205],[127.0681134014975,37.427481803196],[127.06672070289021,37.432978797699],[127.0667227969891,37.4269859008566],[127.0752233981361,37.4244846943103],[127.07197930296779,37.4249974004287],[127.0807237973805,37.4311709885492],[127.0719894029564,37.435428102570604],[127.0674286024856,37.4511892984112],[127.0735510983713,37.4495310983807],[127.0754488009816,37.4578265987655],[127.083929898995,37.4612956986216],[127.0777452001763,37.4642643001085],[127.0751493994079,37.4595885030554],[127.0707625011634,37.463639199935706],[127.06854149771159,37.4591990058429],[127.06162410364,37.4689519961506],[127.077111598348,37.4750565942953],[127.08454369452289,37.4727825945993],[127.1060926002972,37.453842496925404],[127.1089652022979,37.4622800989042],[127.11579469763069,37.462988797790196],[127.11975629818231,37.4362048013147],[127.1108610993969,37.4222698000494],[127.11457519594211,37.415281501203],[127.1087120977716,37.4135616002786],[127.1139486979035,37.4094372003687],[127.1049349986543,37.40539540290651],[127.09929679999621,37.414468900719704],[127.09298320042511,37.4097229024379],[127.10032819901011,37.397639500960096],[127.0903041994589,37.402410701836594],[127.0920665961845,37.3941537991541],[127.08751880016379,37.3892161005436],[127.1012383973152,37.378782300198296],[127.0891116018607,37.364455804338505],[127.0813550010316,37.3391671008932],[127.0865846986912,37.3330848004598],[127.0814457008673,37.3308118005948],[127.0838941965154,37.3254699006849],[127.0644900001767,37.317626500582705],[127.0673533965638,37.3106375004917],[127.0633461992075,37.2909852999271],[127.06839909965669,37.2874298992052],[127.0787918994207,37.291833497733705],[127.0831116000266,37.2958618981382],[127.0813226996717,37.300972599441],[127.0930677986868,37.3053056997995],[127.09708690060049,37.3141082985589],[127.1058301989958,37.3059608015991],[127.100664700908,37.2943814011792],[127.110196298866,37.2934534993315],[127.105855501042,37.304596700070995],[127.11939440125181,37.3179759896799],[127.1211275011456,37.338162397532],[127.1275684998284,37.3398555991578],[127.1245162017873,37.345260899276],[127.13142310055501,37.3765935993539],[127.1395039988826,37.3762283000765],[127.1413861055956,37.3908833013815],[127.14624910019941,37.3948056991846],[127.1448230044851,37.404765598901996],[127.1501347001108,37.4079714977559],[127.1456492011573,37.4121632986741],[127.1519362999917,37.4159533997138],[127.14670940431641,37.4259422946183],[127.1512126998131,37.423843896716704],[127.15419060059051,37.4292006933157],[127.1715728996268,37.43157509886581],[127.176497900084,37.4378764981144],[127.1732075041714,37.4439955976511],[127.1790824988647,37.4443891994403],[127.1776888031569,37.467209395550604],[127.1705683999348,37.464593805119705],[127.1495365017413,37.483066698738604],[127.1677512012006,37.4847620960337],[127.16111810464399,37.4964304988573],[127.1659798002054,37.5139630989408],[127.1605774020413,37.5357329964104],[127.17180570042919,37.547427499197696],[127.1742073999027,37.5446208999376],[127.174341400229,37.5486796988338],[127.1858567000508,37.5498946999067],[127.18561590032161,37.553250198601404],[127.1959271997482,37.5500284002824],[127.20029709964611,37.5347911000407],[127.2234893997623,37.5353552993133],[127.2298591008231,37.5411475983472],[127.2164443007411,37.5444922000059],[127.2044116014192,37.5594846998028],[127.2019556008569,37.5701125002756],[127.1931589003659,37.5742711998593],[127.171555999828,37.564815500179805],[127.1587574010443,37.5695881000593],[127.1536222001515,37.5622759027787],[127.1479526005475,37.5656833002027],[127.1430426026123,37.5628965036991],[127.1278268997455,37.5722005007097],[127.12928049737499,37.5626744070862],[127.1117794019256,37.5670710026187],[127.10734450636049,37.573115896573796],[127.11440810061471,37.5789841971909],[127.1075785026304,37.5971895967448],[127.11367260114581,37.608510599208905],[127.10166250043271,37.612991201133006],[127.0978076009687,37.6079293019233],[127.0969165001907,37.6251872973374],[127.0866586034292,37.6269147019076],[127.0771401057792,37.6381066025793],[127.0718590004321,37.656514298598395],[127.0780127021483,37.6632769992561],[127.0703287998914,37.6629145006482],[127.059357500456,37.6723358003732],[127.06071300267821,37.6789550967491],[127.0553544002777,37.6835338007753],[127.04540570085891,37.6810969012225],[127.05185369991139,37.670943100860605],[127.05087629987099,37.6621494021086],[127.0580147001125,37.655101900449395],[127.035126600123,37.656828000308394],[127.0246609990671,37.6479049997926],[127.019302601855,37.6507502012609],[127.0175699015782,37.6614723994428],[127.0080348979523,37.6645939008119],[127.0072901981409,37.624157703215296],[126.99489300010741,37.620419406149104],[126.99963219940899,37.6111483999932],[126.9943825003056,37.6110095001388],[126.9963571973186,37.6014656017719],[126.98588440024851,37.5980129079119],[126.9834042988751,37.5903590030729],[126.9667379998243,37.5925653005405],[126.95787200118599,37.5848118013857],[126.95064500079489,37.5983475002636],[126.9412374999656,37.5989707025209],[126.93667090028539,37.623210299960796],[126.9207142019502,37.6301845973157],[126.9258818007111,37.6386001977644],[126.91702910044519,37.644150400689],[126.91140439942619,37.6342342015648],[126.9192716983476,37.628696599989595],[126.9123273009592,37.624352502563],[126.91387809973891,37.6064500997181],[126.9018759997156,37.587610901290205],[126.88915820130019,37.582672201208794],[126.89477049726311,37.5733598996338],[126.8838539020941,37.5532880073865],[126.8623439059897,37.5637587071776],[126.8595211088125,37.567348303588],[126.8642369026165,37.573749398970094],[126.8558023060148,37.567675706567],[126.8384187063841,37.5774975065542],[126.8335961990398,37.5742725019593],[126.8289614021511,37.5786130983033],[126.8118677018623,37.579955700944296],[126.80554959981701,37.5749774025824],[126.80001780209031,37.58135420101],[126.8042669989087,37.5688747997847],[126.7970553001239,37.562509900990804],[126.8095167001976,37.5544741994389],[126.81982289795761,37.5603314986344],[126.826136098584,37.5537226008212],[126.8260814999098,37.539346700608604],[126.8336977988445,37.533508599395596],[126.83381209945411,37.5278619999426],[126.8612468984759,37.5047570999],[126.8438866998953,37.4997333008542],[126.8393797998946,37.4912754002865],[126.8258476991946,37.4994489025777],[126.8229236983616,37.493087802261996],[126.8182203005901,37.495826900042495],[126.8160390995111,37.4898486011187],[126.810314699873,37.4916109010331],[126.80227910012951,37.4826755005838],[126.79393400243119,37.4876297020735],[126.78907979920399,37.4849836996367]]]}}]}