{"type":"FeatureCollection","features":[{"type":"Feature","properties":{"interval":15,"stationId":"355173026","profile":"peak"},"geometry":{"type":"Polygon","coordinates":[[[126.9364673996305,37.5893492000305],[126.9443099991557,37.581359198533605],[126.94940889839249,37.5820240984203],[126.9571904976992,37.5699478004299],[126.9634827001099,37.569746499748],[126.9619682013477,37.5782515004489],[126.9557507022591,37.57905330104],[126.9548739029502,37.5864960983548],[126.9456296006277,37.593302600714104],[126.9364673996305,37.5893492000305]]]}},{"type":"Feature","properties":{"interval":30,"stationId":"355173026","profile":"peak"},"geometry":{"type":"Polygon","coordinates":[[[126.9040826996306,37.5848005000066],[126.91461080000201,37.5813512993045],[126.9218746995318,37.597018299519],[126.93028529871249,37.583308700905505],[126.92861049983651,37.5770829000275],[126.9397173997537,37.5752935996613],[126.94424189942629,37.5640893006222],[126.9510661981759,37.5663979985099],[126.9546976990292,37.562767798174704],[126.9531406000097,37.557768700748],[126.9434714999861,37.5577346001887],[126.9447027995174,37.5544856001911],[126.95098779885669,37.556613799412204],[126.9519665995719,37.5505883996628],[126.9417602995724,37.5382821004788],[126.94427969988469,37.536620499268295],[126.9560729992972,37.5416866989494],[126.9650723006346,37.5566525992457],[126.97315879929249,37.5522607002546],[126.9669399000785,37.544985400691004],[126.97086189919901,37.5393880000961],[126.97473270064741,37.5497617999854],[126.9878311983921,37.5561638972448],[127.0040546999573,37.551715398629796],[127.0025771990923,37.5457785993758],[127.0121341985137,37.546896199890696],[127.0112415003116,37.5416006010175],[127.0201214960419,37.5374208005529],[127.0234068006872,37.5439053995368],[127.0185392011835,37.545054299693],[127.0248586003114,37.5551394987803],[127.0340958002312,37.555591099519],[127.0390687998512,37.5628919997326],[127.0247112004697,37.5672069000318],[127.0219464009987,37.572168199423],[127.0363803986663,37.5760478981682],[127.037006700445,37.580087800271905],[127.0032442008598,37.5784331004007],[127.0028462002541,37.5850992008338],[127.0096305005028,37.589937699742],[127.00297740045231,37.591031300527995],[126.9941759003571,37.579992100435796],[126.9866564026741,37.589019799629],[126.9792078000166,37.5832898003896],[126.96985740470639,37.5909128994247],[126.9591389025997,37.5869323022845],[126.950302401134,37.6032416997302],[126.9446339015104,37.6005665020531],[126.9412271023435,37.6060236024785],[126.94343190243609,37.6150200956001],[126.9369057992187,37.6155550023747],[126.9388650026805,37.621794096904104],[126.9296522014239,37.6278934007918],[126.9317704994571,37.6338406982943],[126.92072640070711,37.6540468994872],[126.9075273008483,37.6532374017694],[126.91344409846931,37.6503204983442],[126.9059230023195,37.6487635016595],[126.9149082957584,37.6391517017291],[126.90743889976851,37.6336248070641],[126.918051297166,37.6324799983879],[126.9159887972977,37.624592402323096],[126.9071370014022,37.624834901135905],[126.9090821995308,37.5892471001491],[126.9040826996306,37.5848005000066]]]}},{"type":"Feature","properties":{"interval":60,"stationId":"355173026","profile":"peak"},"geometry":{"type":"Polygon","coordinates":[[[126.737893496051,37.6784564011214],[126.73995209772549,37.6696655004559],[126.7456375985278,37.6706662971443],[126.7550466989418,37.661628199761104],[126.7572572991022,37.6649705995023],[126.7636090005621,37.6467809018442],[126.7712079980502,37.6470922011444],[126.7751082975853,37.6335036003373],[126.8036184976571,37.6272504983884],[126.8107867988972,37.6313318987316],[126.8136590973088,37.6267812018579],[126.8047653000835,37.6175663017252],[126.8058254987935,37.6138758004962],[126.81512999787209,37.6138473967391],[126.8155655994856,37.6037022003199],[126.82971879943119,37.600903099971596],[126.8323980006028,37.6125104995173],[126.8459911994004,37.611004001264504],[126.83676289948049,37.6048100001679],[126.8416654983796,37.6032815003583],[126.8550060998502,37.6112226981243],[126.86039319959231,37.5925650994474],[126.87459679691301,37.592212399269],[126.8726358022774,37.578892201578796],[126.8798984994415,37.580497499881],[126.8830505977901,37.5676950985544],[126.8710182991837,37.5535030012464],[126.8595211022663,37.5673482968238],[126.84630410101819,37.5664982021561],[126.8452120017902,37.573387899150504],[126.8204793026627,37.5733103011272],[126.81370650072209,37.5799714999874],[126.8025309996049,37.5747604999643],[126.8043332988424,37.5680287006308],[126.7984198005241,37.563155202025094],[126.80971429714299,37.5539131004016],[126.8152090011199,37.560931098157596],[126.826136098584,37.5556451988986],[126.8304420996155,37.5442923998088],[126.826934499978,37.5393695003439],[126.8427975992183,37.5187570002019],[126.8612629997139,37.509800898664004],[126.86974959990381,37.514058399770704],[126.8726707981662,37.505021999753495],[126.8645900992186,37.49778160051191],[126.86650369833549,37.4931213016352],[126.8596138009151,37.4930528011124],[126.8552048995666,37.4991643008285],[126.85209119945131,37.4912302004414],[126.8729655997522,37.4882032997941],[126.8777597999894,37.493137099460796],[126.8812284997405,37.4896167999577],[126.8726215996357,37.477687503870804],[126.8622027002302,37.477168800369],[126.86322319947719,37.4738646999497],[126.8759927990977,37.4781415983196],[126.8821358997155,37.4728982999091],[126.8854678013754,37.4812134973912],[126.90400129931591,37.486142299171895],[126.9208714991331,37.4823004986473],[126.9292357988692,37.4754909994087],[126.9297473991756,37.4682132005488],[126.9359360994796,37.4665901995338],[126.9406612996827,37.470767299377],[126.9486915999568,37.4670230997047],[126.940393801038,37.4723409006242],[126.9511186998564,37.4777814991414],[126.9743151991382,37.4645734984185],[126.9806033997507,37.4710080979516],[126.9884666994664,37.4660825001595],[126.9913226001676,37.4467341023807],[127.00218269653341,37.441126500316905],[126.998901099815,37.441116300327096],[127.0003112006052,37.434642101062096],[126.99534630022619,37.4385689005252],[126.986350699992,37.4306680008623],[126.9887939987377,37.4209298005632],[126.9872003020117,37.4269868984318],[126.9961643003858,37.4235902988028],[127.0036226997615,37.4282905993869],[127.0009738015757,37.433175597352],[127.0130932997606,37.4299568984081],[127.0097647019445,37.4316980986914],[127.0158692972541,37.4348400951984],[127.00957410596709,37.4389227993866],[127.01918900141419,37.441673096641104],[127.0129600027971,37.4441875005584],[127.0150043993806,37.4574452986298],[127.0043290015185,37.4585221038443],[126.9978308028175,37.467128899988296],[127.00482309933099,37.4714052981162],[127.01667359378591,37.4696353001366],[127.02500479882251,37.4744296987761],[127.0255285992084,37.4649231005437],[127.0469078998096,37.4567538000083],[127.0493805951982,37.440232799981295],[127.045416799162,37.4390298011843],[127.0660149005543,37.4347978984222],[127.0633288021466,37.4427550944741],[127.0666571047806,37.4464462969966],[127.06261900197019,37.4490596009629],[127.0663218999333,37.4539269983758],[127.0613804018369,37.459063699559],[127.05561849999509,37.4553953022687],[127.05103800349781,37.4672066977513],[127.0549053004441,37.4746114997495],[127.052355099889,37.480258399300794],[127.06473529796989,37.479256698697704],[127.07087350164281,37.4872191969418],[127.08063599748439,37.477255997612495],[127.09019460199531,37.4855064958298],[127.1073399005032,37.4853901981311],[127.09881840095,37.491963900846905],[127.0954001974687,37.4847840006196],[127.090194601094,37.4855065015096],[127.0907346000227,37.4992129977139],[127.1097625997086,37.501025198873904],[127.1116965994351,37.4910757004109],[127.1180483990643,37.4888278992498],[127.1261359991915,37.475774099988506],[127.1294403000369,37.4809532994442],[127.123687500228,37.4910760997381],[127.12641590057589,37.4960804997827],[127.1406690993711,37.4943108984462],[127.1425036996775,37.4904200980255],[127.1487183010422,37.4924814990373],[127.1451500005855,37.497350000706795],[127.13926340046011,37.4958713005627],[127.1344349015225,37.509062699369004],[127.1445085001187,37.5168883986865],[127.1404062024662,37.522817699422895],[127.1525938025392,37.5284840988224],[127.1480113005687,37.5346578996044],[127.1491999033624,37.5501896991077],[127.1594618988059,37.5550941982599],[127.1449019038579,37.5578681996733],[127.1408065995806,37.5516812008957],[127.1287981003126,37.5579725024143],[127.11916409474131,37.5473863077548],[127.1111680027374,37.5510545040866],[127.1128006011048,37.5580703970707],[127.0958701049719,37.5573508014131],[127.1013949988435,37.5762048967545],[127.0980281017461,37.5864171991951],[127.1023154006096,37.5969258992394],[127.1120146998452,37.6002073996044],[127.11367260114581,37.608510599208905],[127.101647500015,37.6128797001115],[127.10411329831629,37.6047469002358],[127.0825291005825,37.6066263015112],[127.0962174995092,37.6130234002508],[127.0931044004555,37.6273967000161],[127.0843974057159,37.6291195000627],[127.0841264995826,37.6247054024083],[127.0738941002274,37.6293755001794],[127.0671740026726,37.6442525979938],[127.0849512013729,37.6631028983227],[127.0877503006717,37.6724382005356],[127.07892770327409,37.677384299753],[127.0729704009175,37.6748094027065],[127.0714572974438,37.6679067048642],[127.0507473009534,37.6642580011673],[127.04663000196939,37.672669999766995],[127.0515760993394,37.6779514990479],[127.05733170057361,37.6756197992647],[127.0450945007481,37.6945804998379],[127.0410190984681,37.6898058999071],[127.0427387984155,37.676375698935004],[127.03498059972979,37.6676469006051],[127.0371924996989,37.6622124999624],[127.0233162996781,37.6542832023233],[127.00598720153461,37.665405805019304],[127.0058637977,37.6295126997025],[126.99101949733789,37.6124990059333],[126.9963571973186,37.6014656017719],[126.98588440024851,37.5980129079119],[126.97362370251581,37.6013883044927],[126.96459440294599,37.6201564941786],[126.954474306278,37.6196298054956],[126.9443500094388,37.634912296521506],[126.953473201128,37.6422033994384],[126.9420630042909,37.656996799429],[126.9464260998533,37.6584299985423],[126.93594660415299,37.6576939031384],[126.93460930523861,37.665862297444804],[126.92411350157701,37.667427608007],[126.9203097015402,37.6743620010389],[126.9112260010375,37.6674254042798],[126.8945900007013,37.6774690003202],[126.87915290113149,37.6772682004547],[126.8785135937638,37.6652817039075],[126.8713067982117,37.6600319029685],[126.84962780110189,37.6769015019604],[126.84255900191849,37.664895104301],[126.8331250040316,37.6699379027078],[126.8177807989283,37.665192402045],[126.8219593978103,37.6470799030874],[126.8172071001384,37.643710802221904],[126.80670020159769,37.6470581022114],[126.8060153001671,37.6603929978183],[126.8105516007188,37.6651232977379],[126.7835051003486,37.6783659009195],[126.7760376000923,37.6917850000542],[126.76598790031049,37.690898100334095],[126.7690843996848,37.691722799604804],[126.76443590009599,37.699206600545395],[126.7587080005026,37.693872300138004],[126.759359598944,37.6847705003813],[126.7645045997411,37.680438500366805],[126.755995101351,37.6796619003765],[126.754100399917,37.6850065002753],[126.737893496051,37.6784564011214]]]}}]}