{"type":"FeatureCollection","features":[{"type":"Feature","properties":{"interval":15,"stationId":"355173426","profile":"peak"},"geometry":{"type":"Polygon","coordinates":[[[126.8945979986416,37.5614879992066],[126.9134220994155,37.544048099847195],[126.9361719997692,37.5458099995801],[126.9329932016181,37.5510066007782],[126.9273423010062,37.5477189010317],[126.9207772000673,37.5507916008365],[126.9266694004599,37.559227400296095],[126.9060124005314,37.5669053009439],[126.9017238012428,37.5713591009979],[126.9059744993435,37.5742548985953],[126.9044427004486,37.5799097997076],[126.89864280016,37.5767752000874],[126.9012655985342,37.5716972995701],[126.89819850005121,37.5612025007589],[126.8945979986416,37.5614879992066]]]}},{"type":"Feature","properties":{"interval":30,"stationId":"355173426","profile":"peak"},"geometry":{"type":"Polygon","coordinates":[[[126.87877319859109,37.5169304996838],[126.87877969976739,37.5115689001503],[126.8917138989478,37.5132092989538],[126.8869950993951,37.5039557009446],[126.888965499508,37.4961252006147],[126.8948428000066,37.494882499228204],[126.89819060036871,37.500324399880895],[126.8923499005204,37.5027128001137],[126.8958485000267,37.5076559994667],[126.8929588009633,37.50994509998851],[126.8992597989098,37.5097851003528],[126.90398070016961,37.517707098948804],[126.9107325986705,37.5095406997416],[126.9152626996543,37.517784599086],[126.924297897605,37.5180072990924],[126.9243601993492,37.5121923007524],[126.9325441987189,37.517945597055],[126.92226720073039,37.5317869001895],[126.90841360037071,37.5309621007139],[126.9105571008771,37.5439333912341],[126.9256506931666,37.538223296385596],[126.9321079972325,37.5416509899353],[126.9286050995086,37.5269825006854],[126.93383969929019,37.524439300142795],[126.937363399875,37.524081699406004],[126.9422315960413,37.5353903903437],[126.9640429989554,37.5313218987394],[126.9616672996963,37.524701500180896],[126.9768134001379,37.5214529988716],[126.9679798012762,37.5271948998531],[126.9818925994374,37.5322782986074],[126.9742997002009,37.536743901048595],[126.97060000068211,37.5547299996062],[126.9999530999451,37.5661517998202],[126.9988519001177,37.5691726001454],[126.9744778007915,37.574080499905904],[126.9742704984239,37.569437199995306],[126.9616865999445,37.57026110061091],[126.9606800998749,37.5635132013131],[126.9546062012217,37.565944301219595],[126.947745101497,37.5622374026705],[126.92740310015081,37.5677298009265],[126.91835900052939,37.5753550993953],[126.924366399675,37.5767995996557],[126.92806400015871,37.59910909855],[126.9372737989448,37.596726599090694],[126.93622960263541,37.621665100129],[126.93031770040331,37.6246275008032],[126.92759049959929,37.619470901127706],[126.9191059003561,37.6233784001824],[126.9040416007523,37.6012686008459],[126.9012210975491,37.586897800947],[126.8881832002151,37.5866334002518],[126.8859871989747,37.5809598005995],[126.88582490050331,37.5634131022863],[126.90193619927079,37.5504200998692],[126.8992705019365,37.544340105949196],[126.8898162009891,37.5438811002888],[126.8908374974314,37.532386601541106],[126.8827901003325,37.524809201225],[126.8867495989079,37.5184294001652],[126.87877319859109,37.5169304996838]]]}},{"type":"Feature","properties":{"interval":60,"stationId":"355173426","profile":"peak"},"geometry":{"type":"Polygon","coordinates":[[[126.6964934986909,37.4759010000795],[126.6968798987711,37.466045099705404],[126.71066020003401,37.4630811995767],[126.7173464004062,37.4773456994605],[126.7113172046722,37.478831899691606],[126.7137173022721,37.481871996651506],[126.7296251999438,37.485337299499996],[126.7449527998876,37.4826785990057],[126.7478633001463,37.484600098806204],[126.74410420205409,37.4907021996406],[126.7531201995447,37.4879155993099],[126.7624944972913,37.475740200880395],[126.7687516993588,37.4786262988214],[126.7841688993208,37.4706835973194],[126.7911570012989,37.4720643978824],[126.80088590039159,37.4625359982381],[126.8040228001626,37.4735914992495],[126.8232460001619,37.476445799029],[126.8305117007993,37.4849576949153],[126.8398614985115,37.473665199191],[126.8449051970217,37.474417798859996],[126.8466426996726,37.4645249009218],[126.8705347965238,37.4619579974243],[126.88143559536441,37.4537959986657],[126.8825898997394,37.4462453987076],[126.89477169783561,37.4424996990805],[126.8966341003654,37.4458347975751],[126.898848998589,37.4238380998643],[126.90433209240261,37.4203745985408],[126.9015229958696,37.41109630454039],[126.9133490997161,37.4085328993463],[126.9208518000292,37.395655399081704],[126.9305119997196,37.395262398461],[126.9307917009335,37.404695799944996],[126.9184791024382,37.407484403066],[126.9126778020664,37.422402398938004],[126.90298139987681,37.4232893003929],[126.913544800712,37.4341683990412],[126.9140010004557,37.439818797498695],[126.9047923014132,37.444953300665205],[126.9114613011411,37.4515621993275],[126.908029301855,37.4594537998416],[126.9134108999395,37.4679188995204],[126.93059029894961,37.4557102025545],[126.9430196004971,37.457675696357406],[126.944165699351,37.4541902998428],[126.9594414012672,37.463472599027504],[126.9760630982995,37.4642565979892],[126.9806033997507,37.4710080979516],[126.9884666994664,37.4660825001595],[126.9913226001676,37.4467341023807],[127.00218269653341,37.441126500316905],[127.0003112006052,37.434642101062096],[126.99512320022309,37.438023000545904],[126.9855463998846,37.428738801929],[126.9874099982018,37.422144098229],[126.9867452024668,37.4264797989389],[126.9961642989816,37.423590299002],[127.0025324985869,37.4288018989045],[127.0009738015757,37.433175597352],[127.0094270984561,37.4301873980126],[127.0144235986998,37.435739494299],[127.00957410596709,37.4389227993866],[127.01918900141419,37.441673096641104],[127.0129600027971,37.4441875005584],[127.0112094029344,37.4588851003247],[127.0043290015185,37.4585221038443],[126.9978308028175,37.467128899988296],[127.00876239959989,37.4782600986038],[127.01641189792589,37.4751301978561],[127.0287000986133,37.482525000852],[127.0288143990059,37.47677139952879],[127.0355201994053,37.473951299861604],[127.03400839849701,37.4655859997727],[127.04509469891251,37.4635679991531],[127.0470730008616,37.4720533992654],[127.0423006015727,37.4788795002915],[127.052212701253,37.4856815992226],[127.0604494972849,37.481231398697],[127.0696430000414,37.4844994999645],[127.0826612004444,37.494292999807996],[127.0761282999449,37.4930618006969],[127.0758514994993,37.4980912984908],[127.06594390011689,37.4976089011105],[127.05937710033011,37.5041177993301],[127.0717562959537,37.505398997219096],[127.0681259026486,37.5056757008094],[127.0716458007976,37.5108370999241],[127.0849071991918,37.5023130006158],[127.09936300051609,37.502591199574795],[127.0879350016403,37.5081630000545],[127.0880702014403,37.514940100766495],[127.0789091010002,37.518031399928496],[127.0718884011582,37.51456490315],[127.06381430005311,37.519161400787304],[127.0665350976611,37.5287175922587],[127.09190819914511,37.5309909991002],[127.0963764946768,37.521841708249504],[127.0929209010113,37.511815001176096],[127.1103931000379,37.501846799768],[127.1050393015764,37.512131999031304],[127.1154691004476,37.516688099553],[127.1088430015422,37.5252470006772],[127.1028939015547,37.5253121001058],[127.1022414033739,37.5355960968785],[127.10268860066739,37.5428245994943],[127.1095440971516,37.5436036993219],[127.10887050022549,37.550322900274494],[127.09592410134131,37.5481995020752],[127.0995632990647,37.5526366990657],[127.0883733004913,37.559658900559704],[127.09054660062489,37.5828760004488],[127.0854971000653,37.5828665005017],[127.0834202993797,37.5713698000602],[127.0728128000831,37.5635212001409],[127.0725975006154,37.5689549001937],[127.05869320128079,37.5746683996003],[127.0613724001567,37.5801864999052],[127.0582434008435,37.5808622008837],[127.06954619934811,37.5921460992268],[127.07832429894721,37.586986699749595],[127.0863136996946,37.591613299478],[127.0848710996383,37.5884207002803],[127.0904867999918,37.5876562997648],[127.08694180082671,37.5927972996917],[127.0958499004676,37.596164799798096],[127.0966714004481,37.601490700161996],[127.0829993002294,37.6052449006309],[127.0827788023326,37.611190899418396],[127.09747110037651,37.615374198762],[127.0913513006879,37.616491401158],[127.0890647001782,37.6247130003631],[127.0785139003075,37.623747800816794],[127.0712392999787,37.6293490021006],[127.0670129998702,37.6205746002369],[127.0610959006198,37.6236978007233],[127.0549634991812,37.6179763019204],[127.0384890003189,37.616351704062104],[127.0334275029909,37.6206708990939],[127.03763309878529,37.6221321976326],[127.03369390248831,37.6228105018514],[127.0315697023269,37.6329563992527],[127.041902300497,37.6515799994636],[127.0490790999231,37.6517560953611],[127.0458806024981,37.6569753992447],[127.0424308999879,37.651874801567004],[127.0346875998753,37.654409900949496],[127.0267679992539,37.6485049001966],[127.02888329971,37.645818499910995],[127.0188140003428,37.6440531007568],[127.0131430001903,37.6522284012422],[127.0136894985714,37.6307976000926],[127.00978299803499,37.622904100508],[126.9983400001553,37.61805000079519],[127.0036126987803,37.600301804105996],[126.9923199998513,37.599670001214],[126.9834042988751,37.5903590030729],[126.96352880025911,37.594423400072394],[126.9633255988289,37.5914072017954],[126.9558751033638,37.595897796864804],[126.96322750097501,37.6066782000463],[126.94028740282201,37.6373729004384],[126.94229160081781,37.640582197229094],[126.93163390373759,37.6442854023956],[126.936629501098,37.6508602999278],[126.932120100629,37.6553817004382],[126.9225070049674,37.6545623003652],[126.92217480347729,37.6641961994417],[126.91795559855859,37.6638442016715],[126.91886879639989,37.659590703142506],[126.8986704036622,37.6642868031082],[126.899224603108,37.6688505985444],[126.8972510003179,37.6656179026825],[126.888318600936,37.6686606011748],[126.885724997681,37.6629251024467],[126.8713067982117,37.6600319029685],[126.85304000157869,37.647980006594594],[126.84776940684931,37.6534912010834],[126.84804170150039,37.6671172010368],[126.8293574992181,37.6628704006419],[126.8238560000933,37.6571329009104],[126.82870899745781,37.654616299917],[126.8251593995471,37.646544401907704],[126.8142160029911,37.6408767028341],[126.81287230194029,37.6491003985789],[126.8170053978072,37.6506404970388],[126.8078407050196,37.6577612974571],[126.81282689939191,37.6644412968387],[126.81077720012371,37.668559100082604],[126.8004521004545,37.6712542004806],[126.80223360033139,37.6774281996541],[126.79801450023159,37.681874799399104],[126.7820084007596,37.6814707013603],[126.78279840006141,37.687579098438],[126.77074650169091,37.6994632001858],[126.7618871999617,37.6999029005107],[126.7625165002005,37.716214899041795],[126.7592598001101,37.7172140001691],[126.75691829800199,37.711160999223495],[126.7624614975957,37.697616700565696],[126.7530390000652,37.690828000259906],[126.75871589910369,37.680355400364206],[126.74067000126679,37.6825152015012],[126.73995209772549,37.6696655004559],[126.7456375985278,37.6706662971443],[126.7552014998452,37.6620663995618],[126.7572572991022,37.6649705995023],[126.7637437998652,37.6467008000801],[126.7712079980502,37.6470922011444],[126.7751082975853,37.6335036003373],[126.8036184976571,37.6272504983884],[126.79523950139469,37.6222012023779],[126.8032240990806,37.6223960994418],[126.8115995946542,37.6002448977958],[126.8274720948983,37.593520291500404],[126.8310088003069,37.594307797744],[126.82833480179109,37.600493699527],[126.83906559968119,37.6048205993203],[126.835974299918,37.5990962003379],[126.8485646001214,37.5959339946225],[126.8573032994918,37.577046701615195],[126.8641757976413,37.5739832002595],[126.8558023060148,37.567675706567],[126.8348612077972,37.5787932067942],[126.8168942009732,37.580768501483796],[126.8136434008056,37.586629497532],[126.7975013001215,37.586112801031604],[126.7954923997577,37.575665202439204],[126.7901986994585,37.5765489007222],[126.7936973959229,37.5670304024866],[126.7993937003088,37.5758302957253],[126.8043332988424,37.5680287006308],[126.7984198005241,37.563155202025094],[126.820325499479,37.5458453000791],[126.8172645991389,37.5384101004285],[126.83444609685199,37.516908199731205],[126.8286675992297,37.5140024015041],[126.8354127989409,37.5133146985928],[126.83819369813031,37.5020909035455],[126.8212983029093,37.5072747009248],[126.8179472012507,37.5287457993128],[126.8070522035064,37.5363284002094],[126.7924971000356,37.5294755028578],[126.7979377982714,37.5255966999051],[126.7950780998856,37.523039400563704],[126.7874188006638,37.5239530005464],[126.79857569524741,37.5142985025197],[126.7670566014043,37.5078808010894],[126.75336460042669,37.5123752002821],[126.74523809932829,37.505081000053096],[126.7514577997446,37.497652000661105],[126.7374792992324,37.4899509019266],[126.7256268004696,37.5056951992715],[126.7308061990285,37.5019282004106],[126.7352193998753,37.5062990994441],[126.74299569878819,37.5036126967874],[126.7432546010132,37.50948789962651],[126.7170880984041,37.5077321015321],[126.7163828980727,37.4914214015756],[126.70812260017719,37.4868351005465],[126.7060280990281,37.476418601124806],[126.6964934986909,37.4759010000795]]]}}]}