{"type":"FeatureCollection","features":[{"type":"Feature","properties":{"interval":15,"stationId":"355173590","profile":"peak"},"geometry":{"type":"Polygon","coordinates":[[[127.1229216994449,37.4329527996718],[127.1452221998596,37.4290741993102],[127.1502148011441,37.4399671985001],[127.1591403994446,37.4415802995583],[127.16268700056031,37.453169100306695],[127.152841299322,37.447171101257396],[127.1541397977437,37.443704102203895],[127.1343119005806,37.4461058001786],[127.1229216994449,37.4329527996718]]]}},{"type":"Feature","properties":{"interval":30,"stationId":"355173590","profile":"peak"},"geometry":{"type":"Polygon","coordinates":[[[127.1034587994029,37.5051384993109],[127.1117658992135,37.4998320997856],[127.1212535972237,37.4742002981018],[127.11876029943221,37.4678867993872],[127.13668799870851,37.4650029991558],[127.137649397995,37.4556114004046],[127.12681740052629,37.4579628000921],[127.1210428994371,37.451835200522],[127.1239716967933,37.441797402598596],[127.11981930094571,37.442326102069906],[127.1156713010236,37.4286740035297],[127.11898649902781,37.4262661986467],[127.1241473992545,37.4313582991433],[127.1191682989616,37.4093770996221],[127.1253204982536,37.4036741999713],[127.1204236992849,37.388294101881804],[127.1108021002709,37.3795226009561],[127.109592598514,37.3751822012375],[127.1162256996797,37.3740799991807],[127.1231466000713,37.3841166984571],[127.135286800542,37.390040597569396],[127.1324410002913,37.406814497595704],[127.1403118994113,37.409388299422005],[127.13816320234899,37.4250912936042],[127.1526599995288,37.429144895353595],[127.15338879880001,37.423419901078596],[127.1566877020217,37.431465699423995],[127.1725134996764,37.4396736970106],[127.17436700057681,37.450188999753905],[127.1705431002244,37.4638698002115],[127.1546241986127,37.462243803515605],[127.1407592002144,37.472632499781305],[127.13524689881879,37.4678098008449],[127.12493020018549,37.4701223004118],[127.1342485002663,37.480969698883804],[127.1074325010105,37.5077748007817],[127.1034587994029,37.5051384993109]]]}},{"type":"Feature","properties":{"interval":60,"stationId":"355173590","profile":"peak"},"geometry":{"type":"Polygon","coordinates":[[[126.9669766994225,37.4874404998971],[126.9778346989694,37.48184470017021],[126.9711621997793,37.4762633003702],[126.9765473992335,37.4726534986764],[126.9845438991591,37.4762267988037],[126.9816760005986,37.478994800413105],[126.9885969982016,37.4861539973969],[126.987468700197,37.4795515010772],[127.0032521991141,37.4740317977119],[127.0167722975655,37.4738980990882],[127.0271905001229,37.4837784995985],[127.0277797989721,37.468779700541496],[127.0329860985645,37.4600894000738],[127.0450296990715,37.4594362000559],[127.04457879368509,37.4402141051215],[127.0548408938395,37.4335890969566],[127.0690338994925,37.4352209996961],[127.0633288021466,37.4427550944741],[127.0673938009706,37.453968497872005],[127.0608600022537,37.4610821989453],[127.0505938011873,37.460988699248205],[127.04891270252651,37.4659634980575],[127.0568640006681,37.4735769953871],[127.0671197982643,37.470260499162904],[127.077111598348,37.4750565942953],[127.08454369452289,37.4727825945993],[127.1012713000188,37.4538913006988],[127.1083079980818,37.4523752983926],[127.11579469763069,37.462988797790196],[127.1194199939955,37.4589331016612],[127.1167570002008,37.4293677028343],[127.1064523004712,37.4275601020656],[127.103297400502,37.4333909998574],[127.0907282984464,37.4296846013551],[127.09155019829561,37.4225574011227],[127.09839119608,37.422210795825706],[127.10032819901011,37.397639500960096],[127.09342360023639,37.4033797013049],[127.09285999932371,37.3909040013623],[127.0826835997853,37.3822556051905],[127.089362094749,37.3827694925223],[127.0925983915127,37.3719990032928],[127.0859709982461,37.3521936035811],[127.0814194027977,37.353325502449195],[127.0828877013294,37.356433199341495],[127.08115609627541,37.3531789015286],[127.0843868962391,37.349515501262005],[127.08040959879389,37.3261548009125],[127.0631537003977,37.3215929002327],[127.0646439991899,37.2937095003781],[127.0577837011887,37.2928318017546],[127.06029789998179,37.298526799772596],[127.0525746025954,37.2961936014664],[127.0381093017937,37.3034180037041],[127.0356989985927,37.294279000257006],[127.0415544976225,37.295320197993696],[127.0396563000742,37.2864805029573],[127.0501078982243,37.278783600530595],[127.0593899939713,37.281365098535005],[127.0625657006794,37.2873751990719],[127.0774386998365,37.2894531976292],[127.0909882999947,37.302589598594],[127.0954709982081,37.2823518002293],[127.1040085983986,37.279224897944204],[127.10363409867199,37.2553426007413],[127.11624709865069,37.266337294551406],[127.1141711020301,37.2702895004638],[127.12594759744991,37.2701592973315],[127.13902499982261,37.2619406997813],[127.14110579878131,37.273930296213805],[127.1470315975807,37.2733366977494],[127.1491794967566,37.2662799010893],[127.1563888007112,37.268136799637],[127.15055960099819,37.277754599333605],[127.1429011012189,37.280491400260104],[127.1380017996797,37.2722264010022],[127.1217654055226,37.2786375994946],[127.1212846066311,37.2874297913477],[127.1259738019419,37.288874489903],[127.1188120019204,37.2903440011701],[127.1230880003094,37.2964182983176],[127.1142924063538,37.3112017964541],[127.1162401044061,37.3169387907171],[127.1239144006995,37.3171615982809],[127.1265480020266,37.329171797694194],[127.12965029913819,37.3285220982065],[127.1263084016645,37.3387046972688],[127.1330070012014,37.3495705979215],[127.12718220742379,37.358809798518806],[127.13481899978699,37.3580987992298],[127.131095504844,37.363875294873296],[127.1438685013094,37.365020198304094],[127.1556377975946,37.3797327949923],[127.1550674046307,37.3873799974702],[127.1413861055956,37.3908833013815],[127.143120003409,37.395179998087],[127.1526612981681,37.4007465937841],[127.1613331965972,37.396510496785496],[127.1663832007039,37.410823694205],[127.1778869992143,37.4230932916658],[127.186902196622,37.422658997212906],[127.1869809027689,37.4313753996092],[127.19625770520081,37.445082200614],[127.1894841042984,37.4679785002762],[127.1858372992839,37.4639011073285],[127.1818523032689,37.46840960282],[127.1813454027771,37.4733489979634],[127.1875257996144,37.4775182995756],[127.1842521010086,37.4803127009114],[127.1697276004268,37.4787586037623],[127.1620242975424,37.4711008099394],[127.1495365017413,37.483066698738604],[127.1591046998256,37.4838948997905],[127.16438770060351,37.4899678996573],[127.1590076019737,37.5049376999943],[127.1469699012442,37.5079335992285],[127.1500999003983,37.513962197805704],[127.1564442993416,37.5143013988411],[127.1569168017656,37.5214497970552],[127.1510777046666,37.526560098562896],[127.1602526961374,37.529942098948396],[127.1535049005617,37.548371699993695],[127.16072970137141,37.5558938969438],[127.1682411984267,37.553440197578496],[127.1686437013816,37.5569517971906],[127.1775989003499,37.5577712976529],[127.1674682005349,37.5616628002431],[127.1399924016646,37.5560290052629],[127.1314801006672,37.5634192009921],[127.11916409474131,37.5473863077548],[127.10442480397711,37.556921700846296],[127.09504510104719,37.5555421010952],[127.0960477047943,37.560141898622],[127.0893047023066,37.5633640010568],[127.09250680018569,37.579675699747405],[127.0878807005151,37.584692000671296],[127.0834202993797,37.5713698000602],[127.0710442001666,37.5607266001113],[127.06960520035909,37.5687097005657],[127.0588619005674,37.5671679013684],[127.0520650001812,37.5731550001824],[127.0351538006883,37.5682428006561],[127.01566480090929,37.5739083003001],[127.0149734997077,37.566852900686],[127.007893600157,37.5727447000436],[127.0018604005033,37.5606509004157],[127.0064452993809,37.5514964005027],[127.0150523985216,37.549076799622505],[127.0112414995468,37.5416006006839],[127.0228724984799,37.533976696129095],[127.0224706996086,37.5243139013901],[126.9855941019248,37.5047644011581],[126.9698137972098,37.5023714025915],[126.9800486984619,37.5007714993622],[126.9837759000014,37.4951982987662],[126.98953200094739,37.4981999992255],[126.99765329950729,37.491631301046],[126.979928000188,37.489519700476706],[126.9765217984081,37.483550700696306],[126.9669766994225,37.4874404998971]]]}}]}