{"type":"FeatureCollection","features":[{"type":"Feature","properties":{"interval":15,"stationId":"355173433","profile":"peak"},"geometry":{"type":"Polygon","coordinates":[[[126.9064868989969,37.55521009979039],[126.9122129991013,37.5527610998981],[126.9114619991674,37.5456893998712],[126.9355809024277,37.5423235981157],[126.94370159875899,37.536879899426005],[126.95330420011571,37.538611099257395],[126.9616077996358,37.533115699724206],[126.9693233004151,37.538860999669495],[126.95703040030499,37.5450668001369],[126.9588827003385,37.5548219997509],[126.9534208999021,37.5500506004234],[126.946629401528,37.557387999260406],[126.9368213000057,37.556386100202296],[126.9263277000969,37.5488003003365],[126.9128107007635,37.5524020005419],[126.9110173003387,37.5578497997685],[126.9064868989969,37.55521009979039]]]}},{"type":"Feature","properties":{"interval":30,"stationId":"355173433","profile":"peak"},"geometry":{"type":"Polygon","coordinates":[[[126.85161939931061,37.5242207998318],[126.8720499994626,37.519859999980504],[126.8812871004219,37.5227568985897],[126.87877969976739,37.5115689001503],[126.88777689985801,37.512599898781296],[126.8884734997567,37.4967399003675],[126.89362799933221,37.4933204999853],[126.8985593003218,37.5002052998222],[126.8923499005204,37.5027128001137],[126.8958485000267,37.5076559994667],[126.8929588009633,37.50994509998851],[126.9029768006781,37.51417689963],[126.909980399451,37.507857899035095],[126.9200884974921,37.5089702999364],[126.91623419948381,37.495034501161],[126.9238855990292,37.4917368995991],[126.9267917999998,37.4925051996337],[126.9167261016355,37.4963969998908],[126.9280987982964,37.4985200995792],[126.9292930019701,37.5171359978646],[126.9419646993256,37.5072079987012],[126.9537716008508,37.510658198473905],[126.95310400049699,37.5146103004176],[126.9440776006822,37.5152960002341],[126.9524414009428,37.5276223974128],[126.97087809424279,37.516393193044706],[126.98961029851209,37.5176705995815],[127.00985489991089,37.5300810999017],[127.011435000393,37.5357905993071],[127.0040561005837,37.53947930019331],[127.00617260086,37.5423250992107],[127.01380829788219,37.5440879995049],[127.0112415003116,37.5416006010175],[127.0201214960419,37.5374208005529],[127.0234068006872,37.5439053995368],[127.0185392011835,37.545054299693],[127.0248586003114,37.5551394987803],[127.0340958002312,37.555591099519],[127.0376491007273,37.5645428991324],[127.03379369999661,37.5596624003003],[127.0225621011794,37.5583035005643],[127.0188066005487,37.5880552004357],[127.0058145005644,37.572026100350705],[126.9958189006298,37.5758838001343],[126.995842198897,37.572014700725],[126.9892809002324,37.57935410118311],[126.9792814003282,37.5804135001086],[126.96639230086299,37.5745307010301],[126.9570452007503,37.576995499842],[126.9585530003512,37.5711426005463],[126.9511500999161,37.564965901432096],[126.9332154003245,37.5645780008435],[126.9246775011129,37.567346200582605],[126.923317600138,37.5733584993041],[126.9116841998903,37.5716029017673],[126.90740840321749,37.5756043999828],[126.917009000393,37.579036498391],[126.9196216007544,37.5980593996445],[126.9318317997568,37.608258499708796],[126.9295690003748,37.613449200431596],[126.9110883996302,37.600679200519004],[126.9007313995927,37.5825221002938],[126.88915820130019,37.582672201208794],[126.88917449919019,37.575474300525805],[126.8992978992449,37.5721518000123],[126.8908787007912,37.5692518013563],[126.88978060092569,37.5629696011782],[126.9015176991965,37.5524730999016],[126.8992705019365,37.544340105949196],[126.8889704008606,37.5443307000371],[126.88835779965949,37.5275779007796],[126.8827901003325,37.524809201225],[126.8734281000567,37.52947850027],[126.8681504999232,37.5254699008893],[126.86404140053911,37.5310099997206],[126.85161939931061,37.5242207998318]]]}},{"type":"Feature","properties":{"interval":60,"stationId":"355173433","profile":"peak"},"geometry":{"type":"Polygon","coordinates":[[[126.6955143990693,37.4752316996845],[126.6981463987048,37.4655503999821],[126.7106942000305,37.462657899615806],[126.7192323007898,37.4835914972681],[126.7448403978709,37.481684298074796],[126.7449437012146,37.4896429006999],[126.75266929999559,37.4879746992508],[126.7624944972913,37.475740200880395],[126.7699449993582,37.4785463995949],[126.7753789985168,37.473160799282105],[126.7793121006265,37.475916896602705],[126.7841688993208,37.4706835973194],[126.7911570012989,37.4720643978824],[126.80088590039159,37.4625359982381],[126.8040228001626,37.4735914992495],[126.8207396969096,37.4737448005027],[126.8305117007993,37.4849576949153],[126.8398614985115,37.473665199191],[126.8449051970217,37.474417798859996],[126.8442294994626,37.468102600524105],[126.8705347965238,37.4619579974243],[126.87054609905209,37.4579525010326],[126.88143559536441,37.4537959986657],[126.88077609743061,37.4461941001559],[126.89477169783561,37.4424996990805],[126.8965502991605,37.435509101465094],[126.8988991003516,37.4378832986212],[126.8967346991612,37.418915403225],[126.89202790077721,37.423914699936795],[126.88565130346451,37.422809401843296],[126.8854166036992,37.4287187959339],[126.87101819976789,37.4188956002768],[126.8838790989566,37.4101425999305],[126.8832787964489,37.406220000431496],[126.888986400894,37.412303598765604],[126.89406659824711,37.408337799038],[126.8914945032966,37.4160568005897],[126.9043320928825,37.4203745963378],[126.9015229958696,37.41109630454039],[126.9133490997161,37.4085328993463],[126.92088099953999,37.3947370997529],[126.9279429986908,37.393798499812405],[126.9330378998837,37.398271099432904],[126.9307688015707,37.4047208016417],[126.9184791024382,37.407484403066],[126.9132252009671,37.4234133005364],[126.90298139987681,37.4232893003929],[126.909635902557,37.431275494592],[126.9132993999278,37.4290934996769],[126.9140010004557,37.439818797498695],[126.9047923014132,37.444953300665205],[126.9125443008868,37.4552807993316],[126.908029301855,37.4594537998416],[126.9143200006142,37.4670859988759],[126.93059029894961,37.4557102025545],[126.9500101984692,37.4545142990893],[126.96421030053901,37.4636722942827],[126.97480109595709,37.4587189957643],[126.9806033997507,37.4710080979516],[126.9884666994664,37.4660825001595],[126.9922611956211,37.4535594021874],[126.981562200902,37.4492647057559],[126.98549339595789,37.440431300105],[126.9766589997389,37.433895903323204],[126.97408039832011,37.4236057012122],[126.9845770975479,37.4229187973119],[126.9829581996086,37.4122927021804],[126.9680171010618,37.4105751008277],[126.9421847005443,37.3935533027407],[126.9438192973778,37.3878887994484],[126.93585709929101,37.3855855019114],[126.934933701619,37.3920602001118],[126.9286259002576,37.3901586007591],[126.9269869993698,37.382460001406905],[126.9426212982794,37.3777950003128],[126.93761189973449,37.3703079004176],[126.9457555996055,37.3660606987213],[126.9497082001242,37.3730225991127],[126.9404358046019,37.37998850271531],[126.94238900264871,37.3839420987617],[126.9549339990752,37.3814154993832],[126.9623806997933,37.388659398954104],[126.9691264995047,37.385080699515605],[126.9874067003268,37.3933123990151],[126.9878437012354,37.3970108992347],[126.9809268028508,37.3991004012141],[126.98423649999539,37.4152978965845],[126.9876929973965,37.4130337985723],[126.9960808986362,37.420816698560905],[126.993136400287,37.4148483024272],[127.0122910042737,37.4249157983232],[127.01956159877311,37.4237539988475],[127.0183982003931,37.4276449011346],[127.0263403000119,37.4346384998616],[127.0121255031049,37.449066798499395],[127.02138839417461,37.4488495991667],[127.02379660157949,37.4621519000475],[127.0122974061615,37.4621316025218],[127.0218220002932,37.4730109983686],[127.02500479882251,37.4744296987761],[127.0255285992084,37.4649231005437],[127.0315505985623,37.4601632013541],[127.0382131975398,37.4588680986479],[127.03921030112619,37.4627195990104],[127.0469078998096,37.4567538000083],[127.0493805951982,37.440232799981295],[127.045416799162,37.4390298011843],[127.0660149005543,37.4347978984222],[127.0633288021466,37.4427550944741],[127.0666571047806,37.4464462969966],[127.06261900197019,37.4490596009629],[127.0663218999333,37.4539269983758],[127.0613804018369,37.459063699559],[127.05561849999509,37.4553953022687],[127.05103800349781,37.4672066977513],[127.0549053004441,37.4746114997495],[127.052355099889,37.480258399300794],[127.06473529796989,37.479256698697704],[127.07087350164281,37.4872191969418],[127.08063599748439,37.477255997612495],[127.09019460199531,37.4855064958298],[127.1073399005032,37.4853901981311],[127.09881840095,37.491963900846905],[127.0954001974687,37.4847840006196],[127.090194601094,37.4855065015096],[127.0907346000227,37.4992129977139],[127.1097625997086,37.501025198873904],[127.1116965994351,37.4910757004109],[127.1180483990643,37.4888278992498],[127.1261359991915,37.475774099988506],[127.1294403000369,37.4809532994442],[127.123687500228,37.4910760997381],[127.12641590057589,37.4960804997827],[127.1406690993711,37.4943108984462],[127.1425036996775,37.4904200980255],[127.1487183010422,37.4924814990373],[127.1451500005855,37.497350000706795],[127.13926340046011,37.4958713005627],[127.1344349015225,37.509062699369004],[127.1445085001187,37.5168883986865],[127.1404062024662,37.522817699422895],[127.1525938025392,37.5284840988224],[127.1480113005687,37.5346578996044],[127.1491999033624,37.5501896991077],[127.1594618988059,37.5550941982599],[127.1449019038579,37.5578681996733],[127.1408065995806,37.5516812008957],[127.1287981003126,37.5579725024143],[127.11916409474131,37.5473863077548],[127.1111680027374,37.5510545040866],[127.1128006011048,37.5580703970707],[127.0958701049719,37.5573508014131],[127.1013949988435,37.5762048967545],[127.0980281017461,37.5864171991951],[127.1023154006096,37.5969258992394],[127.1120146998452,37.6002073996044],[127.11367260114581,37.608510599208905],[127.10166250043271,37.612991201133006],[127.1006434998625,37.62565149927649],[127.0771401057792,37.6381066025793],[127.0733370008941,37.6548901998096],[127.0817931006267,37.6616603998074],[127.078743502198,37.6658275997548],[127.0843910993304,37.6699246985281],[127.0825346004513,37.6729191001073],[127.0757940014702,37.672894201435],[127.0757040981644,37.6657673026991],[127.065720700045,37.666676900119796],[127.05775780095401,37.672925099352604],[127.06071300126031,37.6789550957684],[127.0553544002777,37.6835338007753],[127.0463343009792,37.6806176999859],[127.0535243995505,37.6736153988962],[127.0505705983884,37.6618064996501],[127.0580147001125,37.655101900449395],[127.0489133998982,37.6534751000488],[127.0446758005799,37.6610324985514],[127.0204797006779,37.6500875019236],[127.0175699015782,37.6614723994428],[127.00598720153461,37.665405805019304],[127.0058637977,37.6295126997025],[126.99101949733789,37.6124990059333],[126.9963571973186,37.6014656017719],[126.9836760994819,37.5958468015348],[126.9767604052773,37.5976038003295],[126.9749593987769,37.5905895024771],[126.96433520261249,37.5985630010072],[126.96054559937271,37.5935663044123],[126.95198520173379,37.5993556015784],[126.95109170054661,37.625033598951504],[126.9391626051874,37.6346298002825],[126.93152810054299,37.650009499873505],[126.9225070039402,37.6545622976209],[126.9051507008996,37.653748204348005],[126.90157350254769,37.6612274019879],[126.8939200022077,37.661252000278196],[126.8894616997582,37.654891401981196],[126.8627670003179,37.6519085004312],[126.8691043994408,37.6443787989258],[126.8826484982567,37.6505198987384],[126.894905097868,37.6446063999143],[126.90709479678209,37.6461310990796],[126.91066669654069,37.640880799808095],[126.9071369933941,37.6248349014332],[126.8983958021353,37.624057202210906],[126.8999835948517,37.6137810015191],[126.8956392995192,37.61284110096],[126.90121089663289,37.611796496682395],[126.9008392970045,37.6059978024811],[126.8939997999844,37.6013351015531],[126.8865133004295,37.6051524002483],[126.8785353018823,37.6211631987784],[126.8606058020722,37.6192630011357],[126.8622934961774,37.6128716037522],[126.8469884027576,37.629713700817504],[126.8383783033406,37.631684400854596],[126.84211570053009,37.647869196026804],[126.8544300000837,37.6479499997097],[126.8491910054277,37.649307905266696],[126.8458898046778,37.6582751997724],[126.8500450005226,37.6607621972854],[126.836552700704,37.6602387006748],[126.831039099945,37.6575382003321],[126.82888909952649,37.6425186022158],[126.8160284998185,37.6369173004443],[126.81535599818669,37.6278101027797],[126.8061422003093,37.6233978005259],[126.8028999990962,37.6160783019311],[126.8093457982212,37.6110618003081],[126.8115995946542,37.6002448977958],[126.8288064986656,37.592870500649795],[126.832096699219,37.594388597663205],[126.82833480179109,37.600493699527],[126.83906559968119,37.6048205993203],[126.835974299918,37.5990962003379],[126.8538324977267,37.5967857980785],[126.8564869994338,37.5850907998131],[126.867936198147,37.587404198809104],[126.8650419992466,37.5761249021186],[126.8590515007847,37.577871500521404],[126.8642368975802,37.5737494004933],[126.859521102296,37.5673483068944],[126.8348612077972,37.5787932067942],[126.8168942009732,37.580768501483796],[126.8136434008056,37.586629497532],[126.7969649996827,37.5847702010702],[126.79951389937669,37.5789520999992],[126.7901986994585,37.5765489007222],[126.791077495735,37.5710427051005],[126.7936973959229,37.5670304024866],[126.7993937003088,37.5758302957253],[126.8035801992859,37.5713500991522],[126.7984198005241,37.563155202025094],[126.8139417975667,37.5471032001008],[126.815482000446,37.549886799277104],[126.81899909730289,37.5436702983637],[126.8149934974532,37.5371487036557],[126.8207387993453,37.529018800075505],[126.8096516034385,37.5321390010049],[126.80722159996,37.5382313004519],[126.80638169880861,37.5342177019767],[126.7924971000356,37.5294755028578],[126.7979377982714,37.5255966999051],[126.7950780998856,37.523039400563704],[126.7874188006638,37.5239530005464],[126.79857569524741,37.5142985025197],[126.7903804999785,37.509662004502],[126.7855020013879,37.5144854006591],[126.7726166009912,37.512159001033694],[126.76948919972959,37.507474601396105],[126.7647089004937,37.512051899933006],[126.7638783977563,37.508219101633195],[126.75224279992621,37.5121508002705],[126.74512679943959,37.504940100194],[126.751053699876,37.4978273005286],[126.7339053010206,37.4906714997107],[126.7238879001566,37.5039354999912],[126.74299569878819,37.5036126967874],[126.7432546010132,37.50948789962651],[126.7154922034486,37.509264199952796],[126.7188967972073,37.5033690988705],[126.7149676994879,37.4907882022088],[126.70784729994699,37.486156400161896],[126.7060280990281,37.476418601124806],[126.6955143990693,37.4752316996845]]]}}]}