{"type":"FeatureCollection","features":[{"type":"Feature","properties":{"interval":15,"stationId":"355173399","profile":"peak"},"geometry":{"type":"Polygon","coordinates":[[[126.8409258998622,37.5320566004053],[126.8538713992537,37.5202057995064],[126.864622698794,37.5175641995829],[126.9094044001798,37.5211953991828],[126.905788200741,37.5271295001084],[126.8995637999205,37.523663902266],[126.89743750063549,37.529774099841],[126.88411020050279,37.5265218005405],[126.8775485002408,37.532968900092],[126.8707010999107,37.5305139010673],[126.8635596000434,37.5356022012858],[126.85237170078241,37.5281877004214],[126.84761660037539,37.5354118001344],[126.8409258998622,37.5320566004053]]]}},{"type":"Feature","properties":{"interval":30,"stationId":"355173399","profile":"peak"},"geometry":{"type":"Polygon","coordinates":[[[126.79658169934801,37.561461700198905],[126.8225277994423,37.5530760997298],[126.8293208992651,37.5282583998086],[126.8359783991552,37.526228699428394],[126.8391483987287,37.5171532004602],[126.8678662994316,37.5065082998771],[126.8751133000182,37.5069980997704],[126.87392990217529,37.5107440985137],[126.891995999379,37.508904799941305],[126.8772402983422,37.5012207990876],[126.8856044994243,37.5039392001114],[126.8933762000199,37.4925119994755],[126.898856000655,37.4992022994605],[126.8940447020121,37.5075357986134],[126.8987430005014,37.5085450993803],[126.91992139882221,37.5080413990283],[126.9195168991874,37.497540200777],[126.92936019772121,37.513179498801],[126.9393995998559,37.5051786008074],[126.9560772997671,37.5093079994427],[126.9571203013825,37.5132001991741],[126.9656522998474,37.5066259993528],[126.94735800225209,37.5166172999895],[126.9475760000259,37.5133928013248],[126.9348802004718,37.5131473008133],[126.9415569000759,37.519018598998805],[126.9448079039357,37.5337597983793],[126.95130129936659,37.5328402999804],[126.9526547998669,37.5399069994083],[126.9625501001243,37.5373059993426],[126.9638216003911,37.5405233995899],[126.95644310029161,37.543940899778],[126.96979110032619,37.5634681988313],[126.967017300331,37.5685995004685],[126.9487864003834,37.5575479008628],[126.92601180047039,37.5637153000948],[126.9127396005908,37.5592467006376],[126.9007722018202,37.5669698003706],[126.9070687991567,37.547545199694],[126.8881884024556,37.5345784015773],[126.8858244988651,37.5394588018828],[126.87310670131109,37.5416231006521],[126.87872060039929,37.5486008996984],[126.8757674005581,37.549447200501604],[126.8573533998201,37.5420422011113],[126.8526700007817,37.551589999345],[126.84618370067359,37.552748600880804],[126.8513699998005,37.5555288996241],[126.8413300008375,37.5683800006577],[126.8075727007375,37.5659834005438],[126.8067229996471,37.5626160003732],[126.8023424003764,37.5655729997089],[126.79658169934801,37.561461700198905]]]}},{"type":"Feature","properties":{"interval":60,"stationId":"355173399","profile":"peak"},"geometry":{"type":"Polygon","coordinates":[[[126.69011089914979,37.6336417993345],[126.6961500969453,37.6232154985192],[126.7085183983999,37.620946098190196],[126.7112340972004,37.6120594042062],[126.7215383980238,37.6017437004312],[126.7281284981415,37.6044402976195],[126.73002789989509,37.5979424012012],[126.7374454047259,37.604485696709695],[126.7514308984024,37.6036595972049],[126.7527244984561,37.5999166995227],[126.7562321984614,37.6039739964777],[126.75505619828189,37.5915192026432],[126.7661997955459,37.5870850006154],[126.7858981982519,37.591138800460605],[126.789910298262,37.5833568999122],[126.7887793993929,37.579745603523506],[126.78454190103949,37.584805800297296],[126.7810351955363,37.5723208032223],[126.7904878988427,37.566374692500794],[126.7993937003088,37.5758302957253],[126.8043332988424,37.5680287006308],[126.7984198005241,37.563155202025094],[126.8139417975667,37.5471032001008],[126.80718159838241,37.538683202811605],[126.797465502075,37.5420716006605],[126.7994939974746,37.532399502766694],[126.7905810017418,37.5370751009098],[126.7819712003371,37.5305502006329],[126.7837999989672,37.5161766999586],[126.77953639999859,37.511590701048696],[126.7752780018876,37.5146395004051],[126.7624517007482,37.5111795012285],[126.7638783977563,37.508219101633195],[126.752615800094,37.513241300476],[126.7459982010477,37.508014302415596],[126.7448792004038,37.5115578997993],[126.7217928005691,37.5103394001681],[126.7278326002415,37.5196583001105],[126.72188080055989,37.5226684994705],[126.7321765007857,37.5354024976497],[126.7448633987508,37.538322100983],[126.7478755015519,37.5524108995492],[126.7556050005136,37.5606857003481],[126.74654670038629,37.5763379995878],[126.7312398001654,37.5793932005919],[126.72767230135,37.571356305012195],[126.72037290168,37.571066602622004],[126.72443299576601,37.5671537982336],[126.7220697999128,37.5598529017504],[126.733804899574,37.566638090693296],[126.7420816943152,37.5592202000226],[126.71674229942151,37.5410172008463],[126.71540379929121,37.52790150064],[126.7220567990016,37.5228877005817],[126.7158212001485,37.5183838014609],[126.7212520997728,37.5146472010697],[126.7205478996972,37.5075017004433],[126.71405679959429,37.506444699675306],[126.7165329979226,37.4934796995173],[126.7070847991443,37.4858990000273],[126.7070173981466,37.478896302103],[126.6949060013879,37.4767205015327],[126.6961272984517,37.4646593001785],[126.6898375000316,37.463710400478796],[126.6964388984538,37.4622210986964],[126.7019066992936,37.4670543984775],[126.7107542000241,37.4619039995926],[126.7192323007898,37.4835914972681],[126.7448403978709,37.481684298074796],[126.7449437012146,37.4896429006999],[126.7479321007617,37.4888804986172],[126.7624944972913,37.475740200880395],[126.7667091014014,37.478523798923895],[126.7752098988436,37.471947099947805],[126.78284549709309,37.474154998364604],[126.7884837959429,37.466589299561406],[126.7858163991414,37.4471454999235],[126.7753233007721,37.4434716008983],[126.77531349988979,37.437025400025604],[126.7814468977195,37.430923900478305],[126.7912156999425,37.4311211995853],[126.8067016988207,37.4481161956743],[126.80364820190229,37.447346601694406],[126.8042301045711,37.4604435980174],[126.8100623993772,37.473714999311696],[126.8207396989581,37.4737447974614],[126.8305117007993,37.4849576949153],[126.84585719840629,37.4656837008073],[126.85972409863159,37.4613979989711],[126.8666794003792,37.4639781954041],[126.88143559536441,37.4537959986657],[126.88077609743061,37.4461941001559],[126.89477169783561,37.4424996990805],[126.90036119858331,37.4338827007402],[126.898848998589,37.4238380998643],[126.90433209240261,37.4203745985408],[126.9015229958696,37.41109630454039],[126.91302779907879,37.407373999077194],[126.9184696988973,37.394697299338894],[126.9286242998389,37.392201799911405],[126.925994199133,37.3806808994087],[126.9387438004102,37.3768162992345],[126.9387485994634,37.3673977997615],[126.950179400388,37.3700255990658],[126.9404358046019,37.37998850271531],[126.9449317009135,37.3864726998201],[126.9317080023808,37.391809101433104],[126.93276040387781,37.403529398309],[126.9261869992708,37.4028232063769],[126.9209173016541,37.410550397744196],[126.918479101306,37.4074844032378],[126.9201898003013,37.4141869994314],[126.91459860274341,37.424083297504],[126.9023088002529,37.423295100240495],[126.909635902557,37.431275494592],[126.9132993999278,37.4290934996769],[126.9140010004557,37.439818797498695],[126.9077401007005,37.4429530016454],[126.91370169988281,37.450047499598995],[126.9107413011596,37.4605726995176],[126.9146395996786,37.4654186987753],[126.93059029894961,37.4557102025545],[126.9503329991648,37.452740799562804],[126.9616958030535,37.4632708946841],[126.97436260043851,37.4622457964732],[126.9806033997507,37.4710080979516],[126.9884666994664,37.4660825001595],[126.9914109989426,37.4451236991351],[126.99926449990859,37.4401674999548],[126.9857636001485,37.43150140059],[126.9842731993068,37.4243019004084],[126.99028009988061,37.4211522995963],[127.01089330039461,37.4295621983145],[127.01782110278211,37.441856196458],[127.012154403076,37.444976502589704],[127.0150043993806,37.4574452986298],[127.0005726042313,37.4616383018114],[127.00637860262,37.4759685972568],[127.0172239994496,37.471869297766],[127.0271905001229,37.4837784995985],[127.0303690980388,37.4641277013209],[127.0482365000566,37.4600570989348],[127.04673349929371,37.4488476015003],[127.0525457949028,37.449517296588894],[127.0495687978798,37.4403905057157],[127.06235669965639,37.437334196979],[127.065408801141,37.450202096367896],[127.0497959002287,37.4596546997138],[127.052355099889,37.480258399300794],[127.0627051984657,37.4779543991446],[127.0751340008114,37.4848463982566],[127.0856558006175,37.4800323989964],[127.0852001010007,37.4874510004059],[127.0806819021557,37.4873690995773],[127.0869918010452,37.4949650999829],[127.08125160035401,37.499691499838896],[127.10350899955161,37.4974124996778],[127.1097625997086,37.501025198873904],[127.1102710005689,37.4901115019685],[127.11687739924571,37.488645899135605],[127.1228673999007,37.4764226999373],[127.12922589998229,37.4756391995881],[127.1294882996675,37.485360299708404],[127.1163478018189,37.503753000021106],[127.1168464003771,37.5183622991476],[127.1014410944636,37.524417908986905],[127.0945700013232,37.5403899999374],[127.08133879967049,37.5384403023561],[127.0789930005017,37.544006799186],[127.0824184996129,37.5451183992387],[127.0752624010172,37.5510716984155],[127.0842660986466,37.552397799302604],[127.0858351994906,37.5456235996627],[127.0961329008342,37.547790299294704],[127.1018522004311,37.5416804984699],[127.1095440985488,37.5436037007114],[127.1092443010177,37.5472335990751],[127.09592410134131,37.5481995020752],[127.0962523005288,37.5542569001872],[127.085618401117,37.560505899900605],[127.0875472008248,37.576522599798],[127.085611999848,37.5696619005036],[127.0720626007502,37.562201101320106],[127.07089670068511,37.568140601159996],[127.0549108004908,37.5762309003733],[127.0555956007052,37.5816259996158],[127.0682386002969,37.5909817998216],[127.0673384017631,37.6064043995841],[127.0620350996228,37.6040572005387],[127.06340020023191,37.5971066005055],[127.0481873995877,37.587967600298796],[127.04089480105111,37.5946307991888],[127.0451288002525,37.6037574990546],[127.0598458004025,37.6122059992911],[127.0383660006081,37.6050382008596],[127.0384516996745,37.597464000240805],[127.0240294004045,37.590584500229795],[127.0237584022115,37.5979121988004],[127.0336422006981,37.6043524995724],[127.0350529019012,37.614879499067804],[127.0266046998176,37.6172672007666],[127.0285367978758,37.6111115992205],[127.0194607998597,37.6060384025099],[127.0090458013855,37.6185652995719],[127.0229731003565,37.6213671993535],[127.01432110025,37.6225811002856],[127.0009001996992,37.611346099947696],[127.0062326994346,37.6077504004592],[127.00861529751761,37.594597800826804],[126.9995881009824,37.5964548006128],[126.9893304995195,37.588648802239504],[126.9665688995716,37.5909857013764],[126.9647932979204,37.5838181015647],[126.9579265019656,37.5844816004213],[126.9495428004813,37.588902000979395],[126.9484298002624,37.5981326995354],[126.94020740079951,37.6017986997914],[126.9446837032188,37.6235714985866],[126.932013001249,37.6300508010319],[126.9158567996173,37.6539353003136],[126.9092685994744,37.651978301887006],[126.91344409846931,37.6503204983442],[126.90893850096491,37.647879003175206],[126.9149082957584,37.6391517017291],[126.9082230992158,37.6339509996738],[126.918051297166,37.6324799983879],[126.9176192991598,37.628686201169096],[126.9071370016358,37.624834904116305],[126.905352097384,37.608127303285],[126.8986621991816,37.606388602090306],[126.8998854960372,37.593601702351],[126.8934395014202,37.5891805021057],[126.8785350002102,37.5990812005293],[126.8819628013185,37.6044708980107],[126.8750258009029,37.6155675997748],[126.85360450301461,37.6145250021534],[126.8556104001381,37.6200366995509],[126.8501556026704,37.6247682006614],[126.8346159002037,37.6213760004496],[126.8416040001149,37.6349848975541],[126.83714960034901,37.6439415001869],[126.8182825018591,37.6370570015418],[126.821867996848,37.6361950987199],[126.8166443990573,37.6276010028938],[126.81096790257479,37.628639101950704],[126.81156270324989,37.6466787010006],[126.80101680107249,37.6572930000318],[126.8035051009522,37.6667936986819],[126.7918552018076,37.669575199322296],[126.79429790083721,37.677385600118],[126.777021501174,37.6788150007413],[126.7749934004995,37.687950400325896],[126.7625717005248,37.6848884014268],[126.77672959897039,37.6785597003147],[126.7748722999244,37.6694482000518],[126.7840500996717,37.6652483998039],[126.7862118003665,37.6572709006943],[126.7775256011146,37.6582604034864],[126.7640226997392,37.676350300788606],[126.7554715001114,37.673789800609],[126.747898800558,37.6801891993541],[126.7512542994486,37.6799617000029],[126.7430002008558,37.6779986001034],[126.7461002998851,37.6728778998117],[126.743089199925,37.6728589007678],[126.7637286999359,37.665908799092094],[126.7793609980851,37.634234100554],[126.8036184976571,37.6272504983884],[126.80289999899139,37.6160783008145],[126.814087898747,37.6039130017326],[126.8266035988434,37.599322299788895],[126.83429389854591,37.607078297625996],[126.8460094971434,37.6019221004047],[126.8496385007403,37.608364995786],[126.8589414977086,37.6049388984213],[126.8599854956063,37.5920125018416],[126.87531219596299,37.5898781003857],[126.8726358022774,37.578892201578796],[126.8798984994415,37.580497499881],[126.88325999624001,37.5740700001561],[126.8673419052698,37.559770507924],[126.87086370174801,37.5695321981623],[126.8608727008848,37.578000700386696],[126.8573032994918,37.577046701615195],[126.8641757976413,37.5739832002595],[126.8558023060148,37.567675706567],[126.8218896997441,37.583948800437504],[126.8243651991955,37.5820150005486],[126.8168942009732,37.580768501483796],[126.81256160858979,37.5897968060066],[126.8002105996333,37.5940991008236],[126.79020080012299,37.5880433010252],[126.7843173011541,37.591910300724],[126.7845775031717,37.6101980993491],[126.7708486995936,37.6147200012951],[126.765887398632,37.6087440035864],[126.7590120017877,37.615216101441],[126.749196999932,37.607324502904994],[126.74999309913589,37.6115158987136],[126.7447331039633,37.611706303306505],[126.7480742006222,37.615491899520904],[126.7405321003013,37.621373500508994],[126.7327409042299,37.6206222023691],[126.73080910276241,37.62904529729],[126.713507605978,37.6324782025736],[126.713686303377,37.641486697522005],[126.70392940122221,37.6421414003754],[126.69011089914979,37.6336417993345]]]}}]}