{"type":"FeatureCollection","features":[{"type":"Feature","properties":{"interval":15,"stationId":"355173473","profile":"peak"},"geometry":{"type":"Polygon","coordinates":[[[127.1143403994393,37.5295883996851],[127.122414499173,37.525998298611796],[127.1273086002255,37.532814599699805],[127.13882219947531,37.5336061990424],[127.14160320062581,37.5416727995924],[127.131710801122,37.5383068004673],[127.1307958003447,37.541447299501904],[127.14527799982531,37.544463899528594],[127.14416350067161,37.5477311999352],[127.1381851006507,37.54803360083179],[127.1325162026355,37.5586037997313],[127.1248236011106,37.5571078018341],[127.1143403994393,37.5295883996851]]]}},{"type":"Feature","properties":{"interval":30,"stationId":"355173473","profile":"peak"},"geometry":{"type":"Polygon","coordinates":[[[127.0156682992154,37.5651837999051],[127.0262632997071,37.5625139995821],[127.02736299831679,37.5591431005033],[127.0181403999393,37.5584067003386],[127.0224487000397,37.5510033996662],[127.0530561975511,37.560363198671595],[127.0637528993361,37.5492226032736],[127.0644572987267,37.5448544007574],[127.0543283002381,37.5457168004741],[127.062582098929,37.5411098994697],[127.0601926997998,37.5323792000521],[127.0695862984232,37.5281631002693],[127.0772867999201,37.5357489997264],[127.09190819914511,37.5309909991002],[127.0963764946768,37.521841708249504],[127.0718884011582,37.51456490315],[127.0717714012752,37.518199499515404],[127.05171320024239,37.5228770001142],[127.0413735003255,37.5194950012838],[127.0383486998524,37.5183062004583],[127.04205119983,37.5041866999362],[127.0256820992314,37.496014099724896],[127.0475351997026,37.5022719987234],[127.0593026973429,37.4862990007544],[127.0530755002614,37.5012785993366],[127.0576726984531,37.504793499485196],[127.0781892996068,37.5056405991272],[127.0973634975215,37.4969399977402],[127.10976260040509,37.5010251988298],[127.1119742997853,37.495733501202],[127.1052480001258,37.494468500455504],[127.1060652984033,37.489853500806305],[127.09881840095,37.491963900846905],[127.09692859847159,37.484993699790294],[127.1044771989805,37.4831997985979],[127.1119469979607,37.489798498638],[127.125145699852,37.4669712999849],[127.1290344009596,37.4704798996579],[127.1224249003048,37.472563400328596],[127.1319144995622,37.475110097748804],[127.13378870012569,37.4808618997139],[127.13122820076279,37.489526899937005],[127.12850400141261,37.488089901191195],[127.1302799997827,37.4944899988604],[127.1487183010422,37.4924814990373],[127.1451500005855,37.497350000706795],[127.13926340046011,37.4958713005627],[127.1344349015225,37.509062699369004],[127.14303189948549,37.5174648988946],[127.1409963018761,37.5244418977987],[127.1454750973973,37.522695599544996],[127.1536101015229,37.5301216971848],[127.149063002881,37.5300000000366],[127.15649760031589,37.549149597875],[127.16683849928219,37.5480022001533],[127.1845527995265,37.5592986987509],[127.1497605016788,37.5632577018159],[127.1399924016646,37.5560290052629],[127.1353438011298,37.566412399974496],[127.11916409474131,37.5473863077548],[127.1111680027374,37.5510545040866],[127.1128006011048,37.5580703970707],[127.099355001487,37.556218002545904],[127.0961442051595,37.562269299015696],[127.0893047023066,37.5633640010568],[127.093998899902,37.5686465981511],[127.09104430378629,37.5738054985094],[127.097433003962,37.5789490972558],[127.08917650054309,37.59793940162],[127.0804329997,37.595278500378896],[127.0794657981876,37.5699867016331],[127.0747345002524,37.5661867002729],[127.0588619005674,37.5671679013684],[127.058550300387,37.5721755997749],[127.0483639002171,37.5741524002729],[127.033755300236,37.5649563002553],[127.0189223999947,37.5685529001966],[127.0156682992154,37.5651837999051]]]}},{"type":"Feature","properties":{"interval":60,"stationId":"355173473","profile":"peak"},"geometry":{"type":"Polygon","coordinates":[[[126.8821041980264,37.5249139022389],[126.8911080988112,37.52119319995],[126.89286539925,37.5122255994203],[126.9082264993229,37.5062529996162],[126.90628049929879,37.4974659001586],[126.914506098342,37.495770699703904],[126.91173710047809,37.490430100988895],[126.9103414005391,37.4936948001926],[126.9033783001873,37.4906782008346],[126.9041610988624,37.4834320000836],[126.9254049985791,37.478496298550205],[126.9315651951812,37.4643686004752],[126.9537161985458,37.470337397691296],[126.9583427997889,37.464635300080495],[126.9600976006984,37.4682039985829],[126.95371620421301,37.4703374008129],[126.9562774016518,37.4741764969738],[126.96207339824869,37.472514798523996],[126.96243729863271,37.464879800927996],[126.97436260043851,37.4622457964732],[126.9806033997507,37.4710080979516],[126.9884666994664,37.4660825001595],[126.9951239971146,37.444813701371],[127.00219919752331,37.4443427003369],[127.00228639863,37.435085400618796],[126.9928160008545,37.4344492001686],[126.9876772990487,37.4237836003161],[127.0009738015757,37.433175597352],[127.0094270964903,37.4301874000642],[127.00957410596709,37.4389227993866],[127.0156752998176,37.4418391981391],[127.0082606009928,37.4499855010898],[127.01046259974889,37.4563812981503],[126.9885779016484,37.457269300819],[127.0041100006939,37.468522294927396],[127.0212210986114,37.4693816991922],[127.0179179041973,37.471109100270496],[127.0218220002932,37.4730109983686],[127.0306644991221,37.4576815003359],[127.04246930018259,37.4582426966075],[127.0393775008116,37.4633291997054],[127.0419827998135,37.461828499886906],[127.0469078998096,37.4567538000083],[127.04457879368509,37.4402141051215],[127.0548408938395,37.4335890969566],[127.0660149005543,37.4347978984222],[127.0633288021466,37.4427550944741],[127.0673938009706,37.453968497872005],[127.0556312039646,37.4624398001842],[127.0568640006681,37.4735769953871],[127.0582848992472,37.4689288000353],[127.077111598348,37.4750565942953],[127.08454369452289,37.4727825945993],[127.105065098481,37.4561345993518],[127.1086604994529,37.4556317994964],[127.1089652022979,37.4622800989042],[127.11579469763069,37.462988797790196],[127.11975629818231,37.4362048013147],[127.11232149925479,37.4276913020086],[127.1165463968924,37.4274120949769],[127.11457519594211,37.415281501203],[127.1171726003181,37.418015496608106],[127.1193261984183,37.4118205011059],[127.10161270002851,37.397896701296794],[127.1084219982948,37.3898275010226],[127.1071135992571,37.3796507037844],[127.1001711997026,37.3820026014738],[127.1047420985982,37.3791314996987],[127.1049339989307,37.3655994997395],[127.0970924972279,37.3618021012042],[127.1042371989991,37.3637168980553],[127.1044523973015,37.3566222009038],[127.0981198968027,37.3498226048327],[127.1040746974578,37.3450417996719],[127.099327998439,37.3370541006391],[127.10902709982781,37.330369600001],[127.1171784005,37.336920999405194],[127.1098019012494,37.342512400591694],[127.11995049916891,37.3485258979306],[127.1191084002038,37.3542459989455],[127.112668101106,37.3556005008426],[127.1177709008019,37.3672211995742],[127.1267693998299,37.3693711998772],[127.12829169980431,37.3759676987399],[127.1373572000033,37.3788117991992],[127.1383539013194,37.388850898854],[127.1419606001175,37.3885241992221],[127.143120003409,37.395179998087],[127.13570610179539,37.4010904984761],[127.1460908001724,37.407954099639696],[127.1447912022269,37.4255324930609],[127.1711996937292,37.4304408964097],[127.1766559001026,37.4343430981804],[127.1732075041714,37.4439955976511],[127.1808956003718,37.444738998568],[127.176109500344,37.470062400466105],[127.1705683999348,37.464593805119705],[127.1673296030327,37.4725702971081],[127.1565713029954,37.4735745074657],[127.1495365017413,37.483066698738604],[127.1689517906149,37.4807958002444],[127.17599750025889,37.4846679962533],[127.17609020867181,37.4962394931263],[127.170578198796,37.4897827029745],[127.16111810464399,37.4964304988573],[127.1705216013715,37.5061615985048],[127.1636836014143,37.509315600225],[127.1667177996168,37.5143142992421],[127.1616733041787,37.520333699629504],[127.1605774020413,37.5357329964104],[127.1681627988804,37.534064398869496],[127.1643864990763,37.5288162013329],[127.1678863983577,37.5230964993043],[127.17075089989841,37.5329907967783],[127.189284395825,37.5334512984289],[127.1894175956918,37.5272250046552],[127.1931407000645,37.528296697891996],[127.19957339840701,37.519388798924304],[127.1990057043944,37.5253809994945],[127.2081852964007,37.525685199977296],[127.2074763971096,37.5225751030874],[127.2162344000214,37.5329634985082],[127.2274334994688,37.5247816989541],[127.22541079989921,37.5223940002212],[127.23881409115239,37.5258627954355],[127.24647930333481,37.5394326992166],[127.2387903020553,37.5468574987986],[127.2298172066172,37.5465848059837],[127.2119350019029,37.562188000056],[127.2105202005708,37.5693871991244],[127.2293107006301,37.5796030981763],[127.2248444036276,37.5839909997948],[127.2175877011341,37.5813796021276],[127.21026230607009,37.570307407715],[127.2059270059032,37.5757796042828],[127.215176701438,37.589646000009004],[127.2043802011506,37.5894646015141],[127.19875520278809,37.5818434075241],[127.1662802999948,37.5767326069441],[127.1710308001361,37.5733391988461],[127.1694480010275,37.563786201366206],[127.15691990367351,37.5717815995966],[127.1547888989848,37.5627120023426],[127.1430426026123,37.5628965036991],[127.1308289004829,37.584925399354205],[127.12321249889139,37.5836129009112],[127.1217731004862,37.578958704253104],[127.11713360466871,37.5806620026489],[127.11302070592511,37.587296801139395],[127.1183799005659,37.589582198854],[127.1145800033826,37.592489800281506],[127.1207375020342,37.5993352981937],[127.1243131995913,37.601379297142095],[127.13690799958171,37.5903147000324],[127.1526548998614,37.5909068000324],[127.1584418008253,37.5947659985577],[127.1500507022525,37.6010036991627],[127.1691766003407,37.6050463997155],[127.1741955003468,37.614090599333],[127.16364250176629,37.6190941002886],[127.1471483015087,37.6139875010745],[127.1467830005906,37.6172096001169],[127.14339369951871,37.6117591024555],[127.1379278019404,37.6164122989757],[127.1281663998442,37.6115874004097],[127.1184353012849,37.6157697044805],[127.11558939922901,37.6038592038603],[127.1040589042909,37.633687194413],[127.1127793002036,37.6343153986346],[127.11144090142281,37.6407660992359],[127.1193392970437,37.6422381988234],[127.11099999991191,37.6265420011909],[127.11326129730311,37.62357139880881],[127.1273919017736,37.6281958947095],[127.1298745018498,37.6402889966335],[127.1350083996185,37.6445320981916],[127.138866897988,37.6382756033321],[127.1432454991006,37.643651697737],[127.148137396814,37.6410202994505],[127.15350880081739,37.6503521989038],[127.146604704685,37.6589211988384],[127.1382461017081,37.6574295022319],[127.1359272008492,37.6515002042944],[127.1299468017877,37.6560328993889],[127.1228902006909,37.6481563007755],[127.1134766002653,37.6504703003528],[127.11113079963509,37.644006600454496],[127.1048877004565,37.6439784007402],[127.103911795368,37.63769080302],[127.0901133009782,37.629182212028105],[127.0813809016205,37.6548610987026],[127.0893609053328,37.6734226998373],[127.07896230303331,37.6778346009675],[127.0688903021378,37.6739725019552],[127.06887020215791,37.6811703947573],[127.060911301019,37.683874504467504],[127.0544843024407,37.695860599136005],[127.06006629685871,37.6993696956269],[127.0579685010433,37.7061007004202],[127.0521513001337,37.6977132011419],[127.0455470020429,37.6976782010665],[127.0525982000223,37.7049385993228],[127.04885420035059,37.7201560986665],[127.05512729978709,37.726571799317604],[127.04367570030729,37.732669900003195],[127.0390741997517,37.728658300165],[127.0453377990126,37.7183007997571],[127.03993840045409,37.7103508008922],[127.0449307998344,37.699765900671906],[127.03509829823321,37.6878873039803],[127.0436720990046,37.6714458009511],[127.0386364992164,37.6666672002913],[127.0421096992264,37.6609684002451],[127.0337463998267,37.6527504009261],[127.0247759995333,37.651212900193194],[127.0267628990452,37.6451406004255],[127.0140576002952,37.6444685002564],[127.012903996879,37.6221298007743],[126.9992192002151,37.6194470005151],[127.0036126987803,37.600301804105996],[126.9923199998513,37.599670001214],[126.9795457996229,37.583859599859196],[126.96935049952751,37.5878905018643],[126.9595816003259,37.5803758015988],[126.9485447009132,37.5946773995578],[126.9392513016591,37.5964834009501],[126.9343885010569,37.6211077006454],[126.9264284001422,37.6156685003356],[126.9273085004964,37.621781800151204],[126.9180616997238,37.6228255005786],[126.9174538995574,37.6146483998609],[126.9237341997413,37.6147231986449],[126.9282898993106,37.604774499570496],[126.9261649996927,37.6000935999282],[126.9348398994842,37.5949421995894],[126.9372938994859,37.5826348002194],[126.94706599897921,37.5799448003605],[126.9509792974001,37.5709677997412],[126.9404777002686,37.563640301211805],[126.9399994001986,37.5668165997074],[126.9205499002729,37.5660578003203],[126.9145381000009,37.5596413007095],[126.9080902004748,37.5597955003291],[126.90478709928739,37.5489352009876],[126.9098912985618,37.544698700491395],[126.90483569886561,37.5378461051218],[126.888975900177,37.541478601288794],[126.8932367986916,37.5324509000683],[126.8821041980264,37.5249139022389]]]}}]}