{"type":"FeatureCollection","features":[{"type":"Feature","properties":{"interval":15,"stationId":"355173436","profile":"peak"},"geometry":{"type":"Polygon","coordinates":[[[126.9032904997838,37.554482999486595],[126.9075008992766,37.5468732000047],[126.91737369692589,37.5426073923951],[126.9554316999385,37.5418509987851],[126.9453201016245,37.5522548002402],[126.93079500002091,37.552037000861],[126.9261553003525,37.5596489006077],[126.9182211001486,37.5553614004773],[126.9062247003881,37.559754400449],[126.9032904997838,37.554482999486595]]]}},{"type":"Feature","properties":{"interval":30,"stationId":"355173436","profile":"peak"},"geometry":{"type":"Polygon","coordinates":[[[126.848443099192,37.5235218009642],[126.85870749860739,37.5194027998005],[126.8676185995804,37.524442798143504],[126.869812599412,37.5185841003278],[126.8822530993613,37.5191105995481],[126.8798886993548,37.5128264010637],[126.88656679925819,37.5078218005272],[126.8746891002027,37.5051611017091],[126.8751694977728,37.499973402181304],[126.8844860995911,37.499038999272805],[126.8864754997325,37.4928594995244],[126.8957525005247,37.4904196987139],[126.900207400196,37.4944911997472],[126.89977690027531,37.5065425996108],[126.9119974996652,37.5068833991827],[126.9342327005854,37.5206454987366],[126.9408573992163,37.5194792983639],[126.9506568926053,37.5296867914091],[126.95794269715451,37.5318428956099],[126.9624935999414,37.5297387987452],[126.96187899935009,37.5228858003858],[126.9764938998777,37.5180913993712],[126.9815932995571,37.5218808989417],[126.9785810999399,37.5326246989802],[126.9852200004632,37.5323165999563],[126.9729330012391,37.539570898540504],[126.9738175002496,37.5457287994564],[126.9804300003766,37.5462699979821],[126.97835710033999,37.5526739998456],[126.9831265999594,37.5573098994578],[127.00040020004221,37.564981099512394],[127.0063761989192,37.5536416993091],[127.00126989794279,37.5406533013777],[126.9836724993927,37.5434699010061],[126.9934863988306,37.5280898998628],[127.0055138001852,37.5322188994761],[127.0036485022772,37.544275599426996],[127.0169997005025,37.5582770994972],[127.017191501028,37.5728109995734],[127.0092612999335,37.560622800259495],[127.0062545003379,37.5617332003663],[127.0108575001564,37.5651081997052],[127.0015568007644,37.5658770001894],[126.98676680109389,37.5759539006783],[126.97114410029451,37.5759428006513],[126.96805000003201,37.570084701225],[126.9613100005096,37.572250000301395],[126.947745101497,37.5622374026705],[126.9156588018252,37.5718283028685],[126.9135941009877,37.5752801992832],[126.9198499999164,37.5779299990521],[126.92282750059769,37.5903856991394],[126.9212252999164,37.5973031993146],[126.93429119990961,37.6070427995177],[126.93170620064129,37.6224151998901],[126.9298908995562,37.6167246994571],[126.9097259000292,37.6035829006041],[126.9018759997156,37.587610901290205],[126.88915820130019,37.582672201208794],[126.8929837990498,37.570630702363005],[126.88702260013869,37.561012500211795],[126.897370393746,37.5531941933068],[126.8898309993406,37.5443678009506],[126.8908374974314,37.532386601541106],[126.8844953998921,37.5317644004838],[126.8827214984387,37.526637702121505],[126.8655306005661,37.5325918000703],[126.848443099192,37.5235218009642]]]}},{"type":"Feature","properties":{"interval":60,"stationId":"355173436","profile":"peak"},"geometry":{"type":"Polygon","coordinates":[[[126.6894210991845,37.4579131005644],[126.69807039862411,37.4542564994815],[126.6951188001505,37.4336727002444],[126.6985771987413,37.4321346006898],[126.706044300042,37.453970399143],[126.7171096001164,37.4625818983961],[126.7148256013995,37.468107699171796],[126.7199397004807,37.472711599576996],[126.7196117017151,37.4806764961976],[126.7351730991511,37.4850967983761],[126.7449527998876,37.4826785990057],[126.7478633001463,37.484600098806204],[126.74410420205409,37.4907021996406],[126.74793479859879,37.4897961003914],[126.7624944972913,37.475740200880395],[126.7907420975813,37.4644829998141],[126.7858163991414,37.4471454999235],[126.77700150032669,37.442747100144196],[126.77701179897569,37.435759000526396],[126.7828426969661,37.4315887017144],[126.7930027995737,37.433119999610405],[126.79569640004999,37.4435535987294],[126.8024535999572,37.4448408984968],[126.80408970248321,37.4564187969084],[126.7970591023695,37.452914901451706],[126.79208920070391,37.4569474002617],[126.7930884024068,37.4657543972759],[126.7967263987688,37.4682696947606],[126.8031046007667,37.4586936995715],[126.8067014002741,37.4626567993906],[126.80088590130279,37.4625360006768],[126.8012095032287,37.4672205984285],[126.8156858014806,37.4725835994039],[126.8149241008029,37.4759656979949],[126.822669098958,37.471275697901],[126.8305117007993,37.4849576949153],[126.83712479462069,37.4805566989843],[126.84435049880051,37.462501500446905],[126.86334479891079,37.463102897390705],[126.8793406978747,37.4412639006664],[126.8823293026545,37.444952997101495],[126.89477169783561,37.4424996990805],[126.8884521990543,37.437326102273],[126.8988130974718,37.4283050013932],[126.8948794999116,37.4114302052163],[126.911095499863,37.4015048985005],[126.91419499977911,37.3927972002654],[126.9218405992325,37.3930237985917],[126.92319809907619,37.38009200163],[126.9359679976534,37.3783305981884],[126.9363894983409,37.3659448996288],[126.9484677985,37.36405769969689],[126.9492709987904,37.3531037002728],[126.9420264006134,37.347213401523],[126.945959299159,37.3441500980274],[126.95704700077991,37.3546066004075],[126.9477452023504,37.3620558997061],[126.9535983004397,37.3722760005397],[126.9405650049958,37.379772899981],[126.94846419770231,37.382120298852996],[126.9474658006182,37.3885241981261],[126.9499843987643,37.3857951006935],[126.98191699994939,37.3963639977692],[126.9822344021524,37.405284098796706],[126.9701833007586,37.4059496004893],[126.9664386998902,37.397014602564695],[126.9598922998375,37.3991859003544],[126.95692359902169,37.3931393004386],[126.9465550002165,37.3929975007718],[126.9455395986574,37.3893018010612],[126.93867650131119,37.3925483010307],[126.9345043025281,37.4063916968879],[126.9225713988191,37.4082946026982],[126.9230762009874,37.418551897676195],[126.917342002439,37.4215873013838],[126.91642020148501,37.4347735979771],[126.9112123032444,37.437081500236],[126.9170423978194,37.4402146973634],[126.9084406023389,37.444598401117],[126.9166384993361,37.4479951998365],[126.9174885002493,37.4627826990331],[126.9298776996622,37.458694799569905],[126.9332299976285,37.452547399735],[126.93837779783709,37.4569597960189],[126.94997629949741,37.4518485997899],[126.96421030053901,37.4636722942827],[126.97436260043851,37.4622457964732],[126.9806033997507,37.4710080979516],[126.9884666994664,37.4660825001595],[126.9922611956211,37.4535594021874],[126.9861209954412,37.4448022044625],[126.9903535951192,37.4442587997392],[126.9814583987687,37.4286541063735],[126.98432599671439,37.4267266005386],[126.9783458007439,37.4234011008263],[126.9861415988222,37.416932700028994],[127.0008698996473,37.4263129987175],[127.00995859981441,37.4245705000201],[127.0203435002391,37.4359149998075],[127.0121255031049,37.449066798499395],[127.0194626019258,37.454383994465594],[127.0166114017522,37.4534218015253],[127.0184179025893,37.4592349992039],[127.0058475064104,37.4623663998264],[127.0096195008647,37.4733925990042],[127.0271905001229,37.4837784995985],[127.03132019904889,37.462620201507505],[127.0459835990461,37.4596232998129],[127.0487933008188,37.4773216998589],[127.0537080999159,37.4810539994029],[127.06473529796989,37.479256698697704],[127.0744890004394,37.489853599159794],[127.08376909986029,37.490643299318805],[127.082395102665,37.496759000632196],[127.0745987006097,37.4977076010834],[127.0777597995764,37.503985796615304],[127.0973634975215,37.4969399977402],[127.1097625997086,37.501025198873904],[127.1119742997853,37.495733501202],[127.1088367002727,37.4959071001966],[127.1264156997203,37.4757567000174],[127.1272891008285,37.4876249007105],[127.1155273013613,37.5055466993057],[127.11704280051269,37.5193188988399],[127.1028939015547,37.5253121001058],[127.102143100187,37.5394043962779],[127.1123994013646,37.545001394850594],[127.1171807989518,37.5394136004303],[127.11714359965201,37.5247144997781],[127.1280046996453,37.5319908992891],[127.13376439935601,37.5233593001687],[127.1392775008659,37.528031696672],[127.1406974003623,37.539692301284596],[127.1276343016756,37.5418185995562],[127.1343663002681,37.5475480995757],[127.1296580013515,37.5556114999589],[127.1155311007613,37.542114600975594],[127.1091007011613,37.5460656002431],[127.1112615026439,37.553053302087804],[127.0973988011866,37.5535221019064],[127.0960477047943,37.560141898622],[127.0886536007449,37.564105400423806],[127.0969292002467,37.591144999798495],[127.1137885001019,37.6041634975823],[127.11367260114581,37.608510599208905],[127.1052785017167,37.6114840014909],[127.1011183997,37.6107911009142],[127.10121960042429,37.603379400362805],[127.0835046996069,37.606393101744395],[127.08616330021779,37.6133728969447],[127.09747110037651,37.615374198762],[127.0969165001907,37.6251872973374],[127.0738941002274,37.6293755001794],[127.0724717011336,37.6379381988287],[127.06244660016691,37.6491182008785],[127.0639047993709,37.6366069014129],[127.0561709028927,37.636900101163],[127.05283089809511,37.6293345004876],[127.0564126980222,37.621381601504396],[127.0456253007681,37.621191701009096],[127.0409901008218,37.616549202312],[127.0334275029909,37.6206708990939],[127.03809220035919,37.6281719998077],[127.03154350185079,37.628038499750204],[127.0315697023269,37.6329563992527],[127.0416730017518,37.6484497992284],[127.0460007990065,37.6495575991704],[127.0474911991237,37.6409980003274],[127.05356929787041,37.6404253992011],[127.05480749985949,37.6456306989193],[127.04571280124401,37.6574378010277],[127.0270418999438,37.651949100104105],[127.0238965004324,37.6465508007616],[127.018706899998,37.649509600996005],[127.0152910004913,37.6614883982349],[127.0080348979523,37.6645939008119],[127.00835259751119,37.629023000489696],[127.0072901981409,37.624157703215296],[126.99489300010741,37.620419406149104],[126.99963219940899,37.6111483999932],[126.9943825003056,37.6110095001388],[126.996357200833,37.601465600681195],[126.96985740387889,37.5909129021537],[126.96327890009191,37.597372400268696],[126.9580486011903,37.5916169011457],[126.95697540233431,37.5988802999024],[126.951161002558,37.6004391004949],[126.9526345000967,37.6067866991389],[126.9599699994329,37.6053908983242],[126.9556603016689,37.6140924001581],[126.9480518052125,37.6101291032515],[126.9531400012486,37.6257171999891],[126.9391626051874,37.6346298002825],[126.9391477004105,37.6424788001382],[126.93163390373759,37.6442854023956],[126.9336529001371,37.6500761989399],[126.9225070049674,37.6545623003652],[126.92461030163089,37.660635997974],[126.919909201009,37.6634662005836],[126.914837397372,37.6543257057942],[126.9083756015555,37.655006803855905],[126.909390100111,37.660029099461106],[126.8912815005374,37.6671013000975],[126.8844068998368,37.6562032037966],[126.87934490476471,37.659664901578005],[126.8549600002499,37.6479300002203],[126.8491910054277,37.649307905266696],[126.8458898046778,37.6582751997724],[126.8500450005226,37.6607621972854],[126.8458897980611,37.6582752048288],[126.8403589004436,37.6623158005327],[126.8281358997778,37.6572879005843],[126.83422369882089,37.6464956996601],[126.82107410000971,37.640357800915595],[126.8048782980217,37.6157366003417],[126.8108894978684,37.6095863998414],[126.8115995946542,37.6002448977958],[126.8294803993261,37.5928912999792],[126.82833480179109,37.600493699527],[126.83906559968119,37.6048205993203],[126.835974299918,37.5990962003379],[126.85086600017999,37.5970195978643],[126.85998709649989,37.586641798449],[126.867936198147,37.587404198809104],[126.8680188970974,37.5830128002978],[126.8544261000947,37.581638500611895],[126.8470022003363,37.572538409249496],[126.8218896997441,37.583948800437504],[126.8243651991955,37.5820150005486],[126.8168942009732,37.580768501483796],[126.8144506027807,37.583393799390905],[126.81806789916341,37.584668898115794],[126.800210601008,37.5940990996382],[126.7943188993671,37.5863947012447],[126.78819420155011,37.589722397974796],[126.7887793993929,37.579745603523506],[126.78454190103949,37.584805800297296],[126.78103519719751,37.572320804131],[126.7904878988427,37.566374692500794],[126.7993937003088,37.5758302957253],[126.8035801992859,37.5713500991522],[126.7984198005241,37.563155202025094],[126.8139417975667,37.5471032001008],[126.8131418999482,37.5301912029527],[126.8070522035064,37.5363284002094],[126.7924971000356,37.5294755028578],[126.7979377982714,37.5255966999051],[126.7898717999416,37.521014900564396],[126.79857569524741,37.5142985025197],[126.7903804999785,37.509662004502],[126.7855020013879,37.5144854006591],[126.7670566014043,37.5078808010894],[126.7556304012418,37.512077399838006],[126.74971269894141,37.5072011001616],[126.74348520096049,37.509799899616695],[126.7448545996526,37.5136950984749],[126.73596480156661,37.511425099760395],[126.72946290046521,37.522736099214306],[126.7226760005511,37.522422601714496],[126.7332844998595,37.5301718993279],[126.72929050175061,37.5351873996394],[126.7453173018876,37.5409122982673],[126.75303980045929,37.5614592999666],[126.7504947023525,37.5699841003082],[126.7322264001362,37.5795234004645],[126.72072349599861,37.5678139005231],[126.7249591952398,37.5631748022126],[126.7386299977669,37.5655134937293],[126.7420816943152,37.5592202000226],[126.719108600081,37.5453866009382],[126.7115045994112,37.5305782007202],[126.7192026986061,37.5239854003857],[126.70961239860439,37.5175975012683],[126.718788197516,37.516629899478396],[126.7103476000767,37.511484100646996],[126.7053466011142,37.516165199925204],[126.6985291000663,37.512420401126505],[126.6999078984798,37.508935702032204],[126.6929441000853,37.508826501235],[126.7027716999086,37.5003972992643],[126.7088408975657,37.5054393984491],[126.7165329979226,37.4934796995173],[126.7098563011516,37.493895998103596],[126.70548320038931,37.4812802012605],[126.69859220139749,37.4760017020635],[126.6932970002311,37.4774660019327],[126.6924140003957,37.4657648012396],[126.69797559859751,37.4592108017262],[126.6894210991845,37.4579131005644]]]}}]}