{"type":"FeatureCollection","features":[{"type":"Feature","properties":{"interval":15,"stationId":"355173383","profile":"peak"},"geometry":{"type":"Polygon","coordinates":[[[126.9103790995287,37.6067592004782],[126.9202001995984,37.596071099970004],[126.93721889912281,37.5982087995129],[126.9349766008869,37.6041649003938],[126.932091901387,37.602505101313604],[126.9367586034845,37.620131896542],[126.9311799997873,37.6225400010691],[126.92944709880341,37.6161818005991],[126.9171353000261,37.6197559009668],[126.9103790995287,37.6067592004782]]]}},{"type":"Feature","properties":{"interval":30,"stationId":"355173383","profile":"peak"},"geometry":{"type":"Polygon","coordinates":[[[126.8931380996935,37.5779180996921],[126.90514379936951,37.560539399642806],[126.90711780112099,37.578396699253496],[126.917009000393,37.579036498391],[126.9182845006038,37.5847755987369],[126.9277817002146,37.589459599095896],[126.9343652986659,37.5892000995117],[126.9358275996694,37.58173700058779],[126.94949759830381,37.5801133003311],[126.9585064997772,37.567114599909395],[126.9690118002073,37.5725331989376],[126.98851289929651,37.5694663996425],[126.99444349916381,37.5660829999892],[126.9934662996085,37.559260199768595],[126.9991609000583,37.5667509996945],[126.98574580023191,37.581905700184],[126.97192029969999,37.582326000668104],[126.96483699974651,37.5753791019543],[126.9495428020279,37.5889020006692],[126.9484298002624,37.5981326995354],[126.94020740079951,37.6017986997914],[126.9446837032188,37.6235714985866],[126.932013001249,37.6300508010319],[126.92072640070711,37.6540468994872],[126.9075273008483,37.6532374017694],[126.91344409846931,37.6503204983442],[126.9059230023195,37.6487635016595],[126.9149082957584,37.6391517017291],[126.90743889976851,37.6336248070641],[126.9148604979654,37.6342176986817],[126.9176192991598,37.628686201169096],[126.9071370016358,37.624834904116305],[126.90758929766889,37.6197773010664],[126.9014990003501,37.6167990028066],[126.903540100172,37.5826865006],[126.8931380996935,37.5779180996921]]]}},{"type":"Feature","properties":{"interval":60,"stationId":"355173383","profile":"peak"},"geometry":{"type":"Polygon","coordinates":[[[126.737893496051,37.6784564011214],[126.73995209772549,37.6696655004559],[126.7456375985278,37.6706662971443],[126.7550466989418,37.661628199761104],[126.7572572991022,37.6649705995023],[126.7636090005621,37.6467809018442],[126.7712079980502,37.6470922011444],[126.7751082975853,37.6335036003373],[126.8065414990611,37.6258604982184],[126.8028999990962,37.6160783019311],[126.81253929896519,37.608156699312005],[126.81159959977619,37.6002449047759],[126.8269051970824,37.595419100812],[126.83906559968119,37.6048205993203],[126.835974299918,37.5990962003379],[126.8547840967751,37.5948519000124],[126.8564869994338,37.5850907998131],[126.8712751980481,37.590263797689204],[126.8743537978139,37.5880059994124],[126.8707053991402,37.5802286007375],[126.880905299516,37.5798834999472],[126.88325999624001,37.5740700001561],[126.87536209915811,37.568696800519],[126.874696197746,37.5549892021671],[126.8710182991837,37.5535030012464],[126.8595211022663,37.5673482968238],[126.8439458033927,37.5751408066471],[126.8194697005203,37.5733202025798],[126.8141115014902,37.5810707010191],[126.8026879000014,37.5761422013008],[126.7987832004932,37.580562600463104],[126.8043332988424,37.5680287006308],[126.7984198005241,37.563155202025094],[126.8120899988992,37.5520232990114],[126.8286524992607,37.551251699409704],[126.8367783993188,37.529017099971696],[126.8571025995771,37.5075125996807],[126.8716892993529,37.507550599276904],[126.8710508008877,37.500590502382],[126.8647991999584,37.5017433007361],[126.86650369833549,37.4931213016352],[126.8596138009151,37.4930528011124],[126.8552048995666,37.4991643008285],[126.85209119945131,37.4912302004414],[126.8729655997522,37.4882032997941],[126.8777597999894,37.493137099460796],[126.8799515002653,37.4846159012729],[126.87573899879119,37.478133900600106],[126.8844807976551,37.47384679905149],[126.8823847021379,37.4789707990456],[126.9026531994787,37.487730399358],[126.9043706995007,37.4818157001258],[126.9324479989307,37.4762868996441],[126.9319410994796,37.4678137004671],[126.9379078999018,37.4697949997173],[126.9417090998563,37.4787480982883],[126.9641082000253,37.4742050994123],[126.9709494999483,37.4799709990768],[126.9727502993652,37.4742834999306],[126.9880996993199,37.4673458987297],[126.9874359988906,37.4609115005692],[126.9935691990338,37.4636874969525],[126.9920385023682,37.4685549003749],[126.983274801921,37.4710464992427],[126.9893190017345,37.478610997733604],[127.0011617990126,37.4759358996163],[127.00422909947291,37.4819785985694],[127.01654579777771,37.4778570985953],[127.0271905001229,37.4837784995985],[127.0288143990059,37.47677139952879],[127.0349254990698,37.4738129000381],[127.03400839849701,37.4655859997727],[127.04509469891251,37.4635679991531],[127.0439013011097,37.4803771991756],[127.07021859916661,37.490004699366],[127.0645126999449,37.4918864013365],[127.05824339990039,37.5037491991835],[127.06662509996559,37.5022701984648],[127.0716458007976,37.5108370999241],[127.0770082991753,37.5071970999384],[127.0831806998379,37.509812398834605],[127.0882245998486,37.5010163996556],[127.09987910003889,37.5021659996288],[127.0879350016403,37.5081630000545],[127.0880702015117,37.514940099337],[127.0824807992927,37.512257901051],[127.0627971004957,37.5185605011983],[127.0665350976611,37.5287175922587],[127.0756306003586,37.5304180988581],[127.0747941000685,37.533456398964596],[127.09318180095549,37.5324630999136],[127.10195379893301,37.518964399297204],[127.1079943006949,37.5190847973926],[127.0959047083552,37.5334047932379],[127.1008130997941,37.5421222966593],[127.1112136011858,37.54547259952879],[127.1091543006449,37.55140050001],[127.09592410134131,37.5481995020752],[127.0995632990647,37.5526366990657],[127.0883451003983,37.5628280996513],[127.0926925000113,37.5794230998068],[127.0890869010563,37.590478399664605],[127.0982328000568,37.5986749998198],[127.0938649007202,37.603077300547305],[127.07576680036719,37.6031226006096],[127.0702631003008,37.610680500235304],[127.072751900094,37.61317239945],[127.07958169983111,37.6078204994105],[127.0802109007557,37.616572399295706],[127.0863527995149,37.6168405992982],[127.0875910011022,37.6226870007158],[127.0628406040426,37.620674500137],[127.05907030112151,37.6297152003128],[127.0545796003839,37.6173028006735],[127.042340000014,37.614050000504896],[127.0334275029909,37.6206708990939],[127.03763309878529,37.6221321976326],[127.03154350185079,37.628038499750204],[127.0338410011489,37.6419119990883],[127.04031359983601,37.644840099398905],[127.041902300497,37.6515799994636],[127.0490790999231,37.6517560953611],[127.0458806024981,37.6569753992447],[127.0424308999879,37.651874801567004],[127.0346875998753,37.654409900949496],[127.0267679992539,37.6485049001966],[127.0285932988451,37.645729500009004],[127.0137912995761,37.6417347001573],[127.012903996879,37.6221298007743],[127.0018066004881,37.6195443006819],[126.99885089926329,37.6122900011125],[127.0047952974943,37.606466298888904],[127.0036126987803,37.600301804105996],[126.980966701071,37.5954789024544],[126.9703889014819,37.5985155997238],[126.9725186036209,37.607044998836],[126.9647174047505,37.6202811942613],[126.954474306278,37.6196298054956],[126.953473201128,37.6422033994384],[126.9420630042909,37.656996799429],[126.9464260998533,37.6584299985423],[126.93594660415299,37.6576939031384],[126.93460930523861,37.665862297444804],[126.92411350157701,37.667427608007],[126.9203097015402,37.6743620010389],[126.9112260010375,37.6674254042798],[126.8945900007013,37.6774690003202],[126.87915290113149,37.6772682004547],[126.8785135937638,37.6652817039075],[126.8713067982117,37.6600319029685],[126.84962780110189,37.6769015019604],[126.84255900191849,37.664895104301],[126.8331250040316,37.6699379027078],[126.8177807989283,37.665192402045],[126.8219593978103,37.6470799030874],[126.8172071001384,37.643710802221904],[126.80670020159769,37.6470581022114],[126.8060153001671,37.6603929978183],[126.8105516007188,37.6651232977379],[126.7835051003486,37.6783659009195],[126.7760376000923,37.6917850000542],[126.76598790031049,37.690898100334095],[126.7690843996848,37.691722799604804],[126.76443590009599,37.699206600545395],[126.7587080005026,37.693872300138004],[126.759359598944,37.6847705003813],[126.7645045997411,37.680438500366805],[126.755995101351,37.6796619003765],[126.754100399917,37.6850065002753],[126.737893496051,37.6784564011214]]]}}]}