{"type":"FeatureCollection","features":[{"type":"Feature","properties":{"interval":15,"stationId":"355173195","profile":"peak"},"geometry":{"type":"Polygon","coordinates":[[[126.9674713999043,37.544759000256896],[126.97312249971141,37.540315299244405],[126.9761008002462,37.552581798953],[126.9978720009078,37.558642899340505],[127.01363959950861,37.5523299998045],[127.00892020032511,37.559902100513],[127.0194833992607,37.5625922997752],[127.021258900324,37.5678574997902],[127.0133943005811,37.5666230999157],[127.01062610061,37.574895300120204],[127.00463689991379,37.5734866005254],[127.0036298009086,37.5675256019502],[126.9895190000579,37.5737252002415],[126.97534240028111,37.5646244004349],[126.9674713999043,37.544759000256896]]]}},{"type":"Feature","properties":{"interval":30,"stationId":"355173195","profile":"peak"},"geometry":{"type":"Polygon","coordinates":[[[126.9064868989969,37.55521009979039],[126.9119150994236,37.5522601001512],[126.9113885992408,37.545300000260596],[126.9355809024277,37.5423235981157],[126.95794269654411,37.5318428976955],[126.9586399987718,37.5220124002058],[126.9689243000292,37.5191301979616],[126.9732169990236,37.5065228002181],[126.98793119938411,37.498695799748],[126.9767787026211,37.505975200275],[126.9749499020465,37.515698899742596],[126.9847458009183,37.5230752997822],[126.9776460001405,37.5252147000923],[126.97302450124519,37.5216151004475],[126.9679798012762,37.5271948998531],[126.97799899953989,37.5276057999756],[126.97891520048731,37.5340094989128],[126.9835427998685,37.531094499463],[126.9729330012391,37.539570898540504],[126.9738175002496,37.5457287994564],[126.9869864993195,37.5410889999692],[126.9934863988306,37.5280898998628],[127.00878689984201,37.531806199272395],[127.007454000716,37.537698997541604],[127.0201214942982,37.537420798766],[127.0196209999826,37.5228816006684],[127.0006359995547,37.5064487009538],[127.0072666990179,37.5010048991401],[127.0101800997478,37.5076835985619],[127.0166164001243,37.5089808995466],[127.0267333003609,37.501720899244305],[127.0333710007243,37.525570198739494],[127.0391551996206,37.521546499909],[127.04719360030779,37.5263676994114],[127.0428565055,37.531398004729105],[127.0452592030973,37.536984499142605],[127.0741684999364,37.5386257991976],[127.0717120006319,37.5442593001802],[127.0621345004139,37.5433949007322],[127.0504316023376,37.5536902991443],[127.0530562003579,37.5603631992351],[127.0660522988911,37.5567384986676],[127.07173319925529,37.5604109997708],[127.0684657003391,37.5657943005189],[127.0457710000651,37.5726329000989],[127.0510656002296,37.580160899538704],[127.0475038000229,37.578201401150395],[127.0469984003121,37.5853546001633],[127.0404023999891,37.584339700216404],[127.0359752004681,37.5951909001452],[127.0313087000813,37.590547800320806],[127.0221762018532,37.590864399720104],[127.0362630005463,37.6100533989356],[127.0259480002395,37.631141200223404],[127.0185687994809,37.6212795000658],[127.01218579819229,37.6207261004324],[127.028218999261,37.620810999779],[127.0186964998891,37.60907310171],[127.01581060193219,37.6074471010305],[127.0084722003355,37.6173669998975],[127.0030744998672,37.613652200709595],[127.008781998932,37.6048269997986],[127.0061328988666,37.5954246019752],[126.9971589009418,37.5973947004406],[126.9792078000166,37.5832898003896],[126.9728267005379,37.586115598412],[126.9595816017639,37.5803758017868],[126.9454324004311,37.592381700320196],[126.9384572006803,37.5928659021999],[126.9579283978995,37.566962900201],[126.95229000001811,37.5663091005396],[126.9507395001543,37.5602816006321],[126.9448034001249,37.5638893003132],[126.9312515997035,37.5594064006259],[126.9220367001393,37.562297800071704],[126.9179636999682,37.550230300272204],[126.9110173003387,37.5578497997685],[126.9064868989969,37.55521009979039]]]}},{"type":"Feature","properties":{"interval":60,"stationId":"355173195","profile":"peak"},"geometry":{"type":"Polygon","coordinates":[[[126.77196139890249,37.4839999006344],[126.7799268998629,37.4770802996052],[126.787617701448,37.4810267973016],[126.7968903995631,37.4784387995209],[126.79765880156309,37.4830437990802],[126.8155669999598,37.4797473998016],[126.8302749994326,37.4935727993086],[126.83637590065649,37.4819054018372],[126.8444975000931,37.482902597589806],[126.8487003995024,37.4734093997914],[126.8593112990624,37.4729788989578],[126.86654919917909,37.4666724002144],[126.8787935985221,37.4708551003701],[126.8791524995013,37.4607497999871],[126.8854227988779,37.459442299777],[126.8820931997613,37.4519545017652],[126.8986383983611,37.444671898738],[126.8966561006637,37.4530147979356],[126.90420309984421,37.4512896995919],[126.9070793002255,37.465928899213004],[126.8962712015963,37.4771085999077],[126.8990269994479,37.478671300148804],[126.9121303998044,37.4792756978929],[126.9301047978622,37.4607651003421],[126.9463846988097,37.458115799476005],[126.96421030053901,37.4636722942827],[126.97480109595709,37.4587189957643],[126.9806033997507,37.4710080979516],[126.9884666994664,37.4660825001595],[126.9922611956211,37.4535594021874],[126.981562200902,37.4492647057559],[126.97408039832011,37.4236057012122],[126.9845770975479,37.4229187973119],[126.983052999072,37.4173489028818],[126.9792831985929,37.4110874024645],[126.9680170990609,37.410575101178004],[126.954562200631,37.3990753027036],[126.9431699010951,37.396456301712796],[126.9396383000368,37.383584601489495],[126.9307533000684,37.3875988007566],[126.92957659964131,37.3843720003757],[126.9373724003247,37.3800421987852],[126.94238899743081,37.383942098635096],[126.9687285000539,37.3837943998847],[126.9877334988459,37.3923274989931],[126.9878437012354,37.3970108992347],[126.9809268028508,37.3991004012141],[126.9859939990955,37.4152191963869],[126.9890441973524,37.4128518983331],[126.9960808986362,37.420816698560905],[126.993136400287,37.4148483024272],[127.0135352993252,37.420449698918],[127.0263645005639,37.434356393716996],[127.0129600027971,37.4441875005584],[127.01440980115319,37.4513853966309],[127.0234697998766,37.44589739911],[127.0194626048914,37.454383996984696],[127.0469598961949,37.4549525981866],[127.0407989974649,37.4382830070526],[127.0699220000119,37.4341684996747],[127.0718062004965,37.44301869936751],[127.0583114017997,37.4688550002095],[127.06963869923929,37.475017699179304],[127.0706953986091,37.4721507018952],[127.0725028023107,37.4783282977552],[127.1068384995663,37.4736629996195],[127.1127210987293,37.484146897980295],[127.1199958973128,37.4758475985713],[127.1168602996593,37.4661116020432],[127.127031498002,37.4635682000864],[127.1203112992871,37.4391640988814],[127.1267495994444,37.427439700000704],[127.13369339980869,37.428196199294504],[127.1366965001841,37.449446899589795],[127.12599990081749,37.4580030999597],[127.1330217005207,37.467423797941],[127.1383440993053,37.455616399994994],[127.1412048034204,37.460779794971195],[127.1554478996138,37.4542742996594],[127.1541397977437,37.443704102203895],[127.1608192996839,37.4443410984596],[127.1640769000021,37.4527823996563],[127.15657590067441,37.4531734017706],[127.1419558003739,37.469491800389],[127.12493020018549,37.4701223004118],[127.1256739004506,37.4735260997298],[127.1360449000114,37.4730068994439],[127.1366057003998,37.4831676993263],[127.1599527002013,37.487706099775096],[127.15995790064119,37.5011357005953],[127.1484228988779,37.5019430020488],[127.14420730204981,37.5077522000977],[127.1477400008046,37.5144610986443],[127.1546334000124,37.514969899813494],[127.1536101015229,37.5301216971848],[127.1602526961374,37.529942098948396],[127.1544373026868,37.5323049022055],[127.15676160198339,37.546079394090505],[127.1628640992998,37.5509622981504],[127.16911799998479,37.549256899614804],[127.1766339987316,37.5570014991919],[127.1707474014026,37.563373500223996],[127.1567723022262,37.56539380099],[127.1399924016646,37.5560290052629],[127.1396582019988,37.562111899179996],[127.133748700433,37.5647580003227],[127.1259341948053,37.5589419073938],[127.11510870397959,37.5613228044222],[127.1155311035572,37.5647197010253],[127.1101633985762,37.560822300076296],[127.0966863057847,37.564156501191704],[127.1020837052608,37.5772690958468],[127.1077941995503,37.576745296370596],[127.1052806029577,37.593775299355094],[127.1137885001019,37.6041634975823],[127.1050075004084,37.6168943988701],[127.1082920006968,37.625703599801],[127.1040589042909,37.633687194413],[127.1127793002036,37.6343153986346],[127.11144090142281,37.6407660992359],[127.1193392970437,37.6422381988234],[127.11099999991191,37.6265420011909],[127.11326129730311,37.62357139880881],[127.1273918948693,37.628195896636804],[127.12267440192299,37.633938298764996],[127.12807689907869,37.636476599222604],[127.1287433000461,37.645993399919],[127.1400385988283,37.639364798910805],[127.1432454991006,37.643651697737],[127.148137396814,37.6410202994505],[127.15350880081739,37.6503521989038],[127.146604704685,37.6589211988384],[127.1382461017081,37.6574295022319],[127.1322628995386,37.6493950041453],[127.1284483013307,37.654919801040805],[127.121397300769,37.647526201637405],[127.1133849998691,37.6494138007606],[127.1127726007557,37.641731401101],[127.1057415995195,37.6436432003788],[127.103911795368,37.63769080302],[127.0901133009782,37.629182212028105],[127.0831913053723,37.6366279043234],[127.0849363006157,37.6406428001521],[127.07645000561959,37.6444480010963],[127.0958514002108,37.6594587969246],[127.09601600042211,37.6696040942738],[127.0884260062677,37.6713272019328],[127.0905210038803,37.680848500273505],[127.0688702024786,37.6811704048554],[127.0484325019886,37.6948676985048],[127.06006629685871,37.6993696956269],[127.04995650115819,37.7105620001886],[127.0607646994322,37.7262317992708],[127.0549369008435,37.7422485002225],[127.0592473005967,37.746739598210695],[127.052911600828,37.7464534997387],[127.0402507005105,37.7627239003701],[127.03986179923899,37.746785401067],[127.0316570000059,37.745113000793104],[127.02954259833889,37.7376135007523],[127.0418969981693,37.7183549011595],[127.0423697980779,37.7125062987539],[127.03459019904919,37.7089953998313],[127.0385632942592,37.695570807451396],[127.0310832983495,37.693342402637995],[127.03058989849609,37.685140200616],[127.03531459544001,37.6861400975274],[127.0362548944997,37.6796971039704],[127.0299455003085,37.680639301915406],[127.0308672986919,37.670749802916006],[127.02152320209501,37.6626843054386],[127.0141516061514,37.6748352964362],[127.0033368000183,37.6770386007166],[126.99687689352011,37.650178505107],[127.00048019364729,37.6336273071627],[126.9842425052335,37.6267150064065],[126.98531469543751,37.607143704706104],[126.9813383997176,37.601807900167394],[126.9591558990753,37.6034706014811],[126.95537629917379,37.610615002158404],[126.9430022005684,37.604849903652195],[126.949208701883,37.6275272975063],[126.9375318065229,37.628642801004],[126.94147420258051,37.632233497413296],[126.93980640086039,37.643081799939594],[126.93163390373759,37.6442854023956],[126.9345867999033,37.6501677982707],[126.9225070049674,37.6545623003652],[126.92461030163089,37.660635997974],[126.9209182008169,37.6640498000719],[126.914837397372,37.6543257057942],[126.9083756015555,37.655006803855905],[126.9096355002956,37.658771100091606],[126.9083756008808,37.6550068038689],[126.9050448042588,37.6643456985262],[126.8891453991732,37.6676925009681],[126.882633601476,37.6594220018209],[126.871772799534,37.6593820006499],[126.8587533987794,37.6482168010469],[126.8491910054277,37.649307905266696],[126.8500902003936,37.6639697001969],[126.8458897980611,37.6582752048288],[126.8410524999126,37.6629631001341],[126.8274106996362,37.6581649014008],[126.8337812992571,37.64428879973],[126.8207046980113,37.6344341004809],[126.8298745997468,37.6221566997195],[126.809383698802,37.6180799009369],[126.8151299966091,37.6138473984022],[126.8160672994252,37.60402530057161],[126.8266199999836,37.5997613995609],[126.83429389854591,37.607078297625996],[126.8460094971434,37.6019221004047],[126.8496385007403,37.608364995786],[126.8589414977086,37.6049388984213],[126.8599854956063,37.5920125018416],[126.87459680071541,37.5922123976657],[126.8757875991256,37.5807052997657],[126.8811480995534,37.578754200636396],[126.8833558990886,37.5699178008988],[126.8724422029097,37.5571563082727],[126.8595211088125,37.567348303588],[126.8642369026165,37.573749398970094],[126.8558023060148,37.567675706567],[126.8384187063841,37.5774975065542],[126.8335961990398,37.5742725019593],[126.8289614021511,37.5786130983033],[126.797753900724,37.581619600590905],[126.79889969659271,37.5711715044937],[126.7993937003088,37.5758302957253],[126.8043332988424,37.5680287006308],[126.7984198005241,37.563155202025094],[126.81098919567499,37.5510347031301],[126.8146426998716,37.5539205988124],[126.82969249847379,37.5477742987092],[126.8260814999098,37.539346700608604],[126.8400922995175,37.5251715996888],[126.8405449994305,37.5194445998634],[126.8574408988966,37.505735301230494],[126.8457337002655,37.5031111007579],[126.8393797998946,37.4912754002865],[126.8258476991946,37.4994489025777],[126.8229236983616,37.493087802261996],[126.8032076996742,37.4923880014045],[126.8017636989573,37.485368300572695],[126.77196139890249,37.4839999006344]]]}}]}