{"type":"FeatureCollection","features":[{"type":"Feature","properties":{"interval":15,"stationId":"355173440","profile":"peak"},"geometry":{"type":"Polygon","coordinates":[[[126.98460469926941,37.5348383002833],[127.0002399994879,37.5261299996152],[127.0066496000647,37.5346946000355],[127.0036485022772,37.544275599426996],[127.01352160076921,37.5517453992247],[127.0185119004246,37.5670412000337],[127.0153212995052,37.5680221002509],[127.0002803967809,37.5445045036465],[126.9854131002101,37.5419843004924],[126.98460469926941,37.5348383002833]]]}},{"type":"Feature","properties":{"interval":30,"stationId":"355173440","profile":"peak"},"geometry":{"type":"Polygon","coordinates":[[[126.8903982991217,37.5249174001826],[126.8951862989559,37.520348901185],[126.89287459922299,37.514707700941],[126.8992167997884,37.516850498680796],[126.8958547014147,37.5218510993113],[126.8994319998603,37.5229776993963],[126.9296321998777,37.514511699552],[126.9305018005853,37.521871698819496],[126.9402922993024,37.520865799674006],[126.9448079039357,37.5337597983793],[126.9489194998241,37.5335195986195],[126.9573858986155,37.518534600541],[126.96703909548499,37.5199909997329],[126.97311039619859,37.5155713920348],[126.97574189973601,37.5027129994517],[126.98159289870159,37.50435229949],[126.9844740986223,37.4983321999454],[126.9910277000012,37.4981709998618],[126.9972045001134,37.5053925000452],[126.9944972993097,37.5018472009928],[126.987980300565,37.5024320029736],[126.9878444996744,37.5069301989923],[126.97944060039,37.505994700284106],[126.9794681016923,37.5181341985581],[126.9926999991474,37.5192799996453],[126.99020820100989,37.5164698019162],[126.9960469990133,37.5153342972491],[127.0030104066547,37.525774194828],[127.0116318002574,37.5284127937141],[127.0145379973512,37.5250393970875],[127.01312839958639,37.5340460972769],[127.0208889985318,37.5297236990806],[127.0208370991852,37.523268800497796],[127.0070242991286,37.5148277014726],[127.0026155984926,37.5033022000935],[127.0166164001243,37.5089808995466],[127.027931799574,37.5025407991455],[127.0292399997525,37.519578699178396],[127.0333710007243,37.525570198739494],[127.04351639979541,37.526353399407],[127.020321908255,37.5376219039081],[127.0269814008434,37.5493547989167],[127.0333880002415,37.548775297149],[127.02893230040189,37.552676299665805],[127.03947839787,37.5543485001981],[127.04373799941901,37.5397429002748],[127.0470660008212,37.5443868985204],[127.0596468989673,37.5423646000327],[127.0440025001991,37.5580321001548],[127.0563748008723,37.5666014000859],[127.0384258004151,37.5676635010004],[127.0306342006967,37.5733739999854],[127.0483831999289,37.5825022992017],[127.0372655007355,37.582460400006],[127.0424168001548,37.5867135994604],[127.03968210019849,37.5959894002717],[127.0598458004025,37.6122059992911],[127.0360683997108,37.603645000269],[127.03853809894859,37.5982496003417],[127.0344221987039,37.5942457005402],[127.0221762020661,37.5908644002522],[127.0198193007177,37.5973832010514],[127.016212200171,37.5964912006537],[127.0164329017092,37.604835299693],[127.0104128001499,37.6063255007769],[127.01234820032451,37.592931701930404],[126.9967651001823,37.584862800685805],[127.002194398396,37.577511100013304],[126.9938401004853,37.572091700561],[126.98714050022089,37.5830935000021],[126.97943669923069,37.5781564006088],[126.9717480999939,37.5800501002739],[126.96616529993901,37.5715679008417],[126.9570452004141,37.5769955006229],[126.958701999602,37.5679340001782],[126.94970519988459,37.559107800807396],[126.9349849000024,37.558530100396496],[126.9288250002171,37.564396300302995],[126.91333040120861,37.5598843004665],[126.90413980087999,37.5677372006743],[126.9056020006855,37.5781688001998],[126.8938522008703,37.5801576009486],[126.9012655985342,37.5716972995701],[126.8975149015004,37.566813702964694],[126.90089929932931,37.5532779007818],[126.910557097896,37.5439334012567],[126.8966128000277,37.5371335004735],[126.89743749907069,37.5297741004607],[126.8903982991217,37.5249174001826]]]}},{"type":"Feature","properties":{"interval":60,"stationId":"355173440","profile":"peak"},"geometry":{"type":"Polygon","coordinates":[[[126.7713979993222,37.5027401994856],[126.7951964990354,37.495107199355196],[126.8073142984032,37.5021708960531],[126.80744319762779,37.494328701267094],[126.8017289014788,37.4886739037141],[126.7897443008692,37.4908086005257],[126.7833760989919,37.4843075004743],[126.77196140004129,37.4839999005918],[126.7796910995331,37.4771147996535],[126.7909060985069,37.4786322005131],[126.79118000127589,37.4680064019404],[126.80088590039159,37.4625359982381],[126.7988862002242,37.4763982988146],[126.8210537999248,37.482422199619705],[126.8230204999756,37.488576698415905],[126.8332433993655,37.488281896268],[126.8383041987282,37.4845251992174],[126.8333789016454,37.4826398013344],[126.8453449972111,37.4778115997538],[126.84840729821981,37.471574700638],[126.858264998538,37.4720388990085],[126.8703936998319,37.4644037988686],[126.8784236988845,37.4684271990763],[126.878252999492,37.461821300329895],[126.8841907986653,37.4609881993166],[126.88392779792669,37.451676802042904],[126.8937942979367,37.446299400427904],[126.8966561006637,37.4530147979356],[126.9022960999382,37.4498167995368],[126.90640429962721,37.4550676992869],[126.9039779007522,37.4610493998101],[126.9078365003312,37.467281999571],[126.899594401148,37.4739538995859],[126.9169034994663,37.4730132969926],[126.9260571994181,37.460798999717],[126.92601400195299,37.4645074965997],[126.93167779628921,37.4633338977733],[126.9322987972411,37.4578674003973],[126.9544532995599,37.4592745986639],[126.95509510005809,37.4559695012785],[126.96421030053901,37.4636722942827],[126.9707581995144,37.4544832991409],[126.9806033997507,37.4710080979516],[126.9884666994664,37.4660825001595],[126.9922611956211,37.4535594021874],[126.97899939520731,37.4471788005145],[126.9814512961624,37.4405363025133],[126.9725524994337,37.435361102002204],[126.976586695385,37.430315099053004],[126.9698715001188,37.4207978016766],[126.9796630981629,37.4232867963],[126.9813691964568,37.4167955027913],[126.9384231006849,37.3966688009624],[126.9371935996878,37.3822735007292],[126.9307533002506,37.3875988001317],[126.9373723993673,37.380042199521895],[126.9347219992894,37.3676851010319],[126.9402364995242,37.3648274993112],[126.92986770045711,37.3643926002417],[126.9252092007562,37.344726899034896],[126.92686350223529,37.350628800516006],[126.94139969933181,37.3558840977719],[126.9415681002487,37.3622599997285],[126.95349759983951,37.368956599136595],[126.9405650049958,37.379772899981],[126.9450377005231,37.3827037970501],[126.957370399105,37.378799299947],[126.9807046971035,37.3909878976395],[126.98315409905419,37.3884783991117],[126.9825573017469,37.3917201975617],[126.9903604009859,37.3923855982506],[126.9843868031083,37.4040808014809],[126.9863965987482,37.4111849965334],[126.9960927989773,37.4123801989597],[126.9971658990431,37.4177019946315],[127.0026190944363,37.4154924965929],[127.01656469939691,37.4232389974703],[127.02157499844199,37.4214947983539],[127.0165118017939,37.4285273000164],[127.02912090150899,37.4409486966955],[127.0259857011346,37.4380428052662],[127.0214741006433,37.4486209004508],[127.0273870986161,37.4521082992146],[127.0243819044395,37.456232297228404],[127.0469598961949,37.4549525981866],[127.0407989974649,37.4382830070526],[127.04525319798391,37.4390508975025],[127.0435457996913,37.4359033006501],[127.0699220000119,37.4341684996747],[127.06547540633079,37.4372292057895],[127.0714377003685,37.4434428995758],[127.0568640027689,37.473576998628396],[127.0725028023107,37.4783282977552],[127.0848129997307,37.4747490980335],[127.10127179959301,37.4807742971058],[127.1051757989877,37.476377699091],[127.1123827990676,37.4846130975141],[127.1228673999007,37.4764226999373],[127.1207237988663,37.4692654019831],[127.1260938989396,37.462042001612595],[127.1312411023013,37.467115798249004],[127.13861179937601,37.460158300955605],[127.1435428010737,37.4615515979772],[127.1257756003489,37.4743382989176],[127.1319144995622,37.475110097748804],[127.13378870012569,37.4808618997139],[127.1288677002139,37.491127299630605],[127.1378799994281,37.4942599989024],[127.14218119514939,37.4884456032979],[127.1544861993859,37.4933370994645],[127.1547503006842,37.4969208994803],[127.14276390033571,37.4967155007311],[127.13569440041421,37.503921599855296],[127.13671990100231,37.513921800547095],[127.1485770992531,37.5164169987091],[127.1459639011635,37.5198087997447],[127.1536101015229,37.5301216971848],[127.1577932996438,37.5494838972441],[127.16683849928219,37.5480022001533],[127.1775989003499,37.5577712976529],[127.1567723022262,37.56539380099],[127.1399924016646,37.5560290052629],[127.1396582019988,37.562111899179996],[127.1378271995348,37.5594014011172],[127.1341229004633,37.5635960998439],[127.1259341948053,37.5589419073938],[127.0969278049465,37.5635443999243],[127.10491160243289,37.578555794560096],[127.1052959005688,37.597776199158396],[127.1137885001019,37.6041634975823],[127.1023793044842,37.623794498030804],[127.1061980006655,37.626547295278],[127.10850859835489,37.6226938991314],[127.1040589042909,37.633687194413],[127.1127793002036,37.6343153986346],[127.11144090142281,37.6407660992359],[127.1193392970437,37.6422381988234],[127.117811899141,37.6336031996331],[127.1119874009955,37.6297617031883],[127.11326129730311,37.62357139880881],[127.1271955001964,37.6286839995119],[127.12267440192299,37.633938298764996],[127.12807689907869,37.636476599222604],[127.1287433000461,37.645993399919],[127.1405642990525,37.6387163996601],[127.1432454991006,37.643651697737],[127.148137396814,37.6410202994505],[127.15350880081739,37.6503521989038],[127.146376700228,37.6582226006986],[127.1382461017081,37.6574295022319],[127.1322628995386,37.6493950041453],[127.1284483013307,37.654919801040805],[127.121397300769,37.647526201637405],[127.1137485005272,37.649332200083606],[127.11603119993039,37.6439234992095],[127.1098248005674,37.639455301850205],[127.1046884003434,37.642054201242495],[127.0901133009782,37.629182212028105],[127.0831913053723,37.6366279043234],[127.0848286002978,37.6432536002208],[127.07645000561959,37.6444480010963],[127.0814809005887,37.6463343992099],[127.0798559019573,37.6518553009482],[127.0899685044806,37.674304299402806],[127.060911301019,37.683874504467504],[127.0455470020429,37.6976782010665],[127.0417465977,37.6908346032287],[127.0364363030103,37.6925146015487],[127.034007499152,37.6774257008266],[127.04269089846339,37.6750263002844],[127.02985940100791,37.6698455009043],[127.02967649972389,37.662457700586295],[127.02152320209501,37.6626843054386],[127.0141516061514,37.6748352964362],[127.0009558018985,37.6715121038972],[127.005987192876,37.6654058002378],[126.9995024993607,37.658026307617305],[127.00793319207929,37.654995298365606],[127.00110819576871,37.6426454075331],[127.00299369328981,37.6252988039026],[126.9848982993442,37.6255581011569],[126.9897691963637,37.6039255019993],[126.98588440024851,37.5980129079119],[126.9701006006201,37.594857102026396],[126.96090740133779,37.598723300984105],[126.96054559937271,37.5935663044123],[126.9430022005684,37.604849903652195],[126.9479025021502,37.6221580984519],[126.9349501999759,37.6301744010217],[126.9351959000938,37.6375015996602],[126.9199023000797,37.6587175000406],[126.91950889967289,37.6549730031293],[126.9051507008996,37.653748204348005],[126.90157350254769,37.6612274019879],[126.8921434001082,37.6638321000576],[126.888628999351,37.654725302053],[126.87285250059689,37.6551587018846],[126.8626727967873,37.648623803751],[126.8685451975295,37.6433046010614],[126.8781368992852,37.644448498767105],[126.8826485006425,37.650519898080496],[126.91066669654069,37.640880799808095],[126.9014990003501,37.6167990028066],[126.8998854960372,37.593601702351],[126.8785350002102,37.5990812005293],[126.8819628013185,37.6044708980107],[126.8728707014675,37.6058365000015],[126.87831730180801,37.6127619991361],[126.8756088007531,37.6177377998243],[126.85360450301461,37.6145250021534],[126.8556104001381,37.6200366995509],[126.84584959943369,37.624421501249095],[126.8126686020584,37.619569203929004],[126.8155655994856,37.6037022003199],[126.8232971983139,37.6006248994984],[126.82971879943119,37.600903099971596],[126.8319012009386,37.6070415976627],[126.8589414977086,37.6049388984213],[126.8599854956063,37.5920125018416],[126.87459679691301,37.592212399269],[126.8697324997665,37.5812357004475],[126.880905299516,37.5798834999472],[126.88325999624001,37.5740700001561],[126.86510920575451,37.562336207196],[126.8595211088125,37.567348303588],[126.8642369026165,37.573749398970094],[126.8558023060148,37.567675706567],[126.8348612077972,37.5787932067942],[126.8168942009732,37.580768501483796],[126.8117658018776,37.5868703997591],[126.80785240181851,37.5822694041016],[126.7943831005098,37.5860876008325],[126.7891650996479,37.5795113002139],[126.7963111998215,37.5843892975929],[126.79951389937669,37.5789520999992],[126.7901986994585,37.5765489007222],[126.7954243956531,37.5683864026563],[126.7993937003088,37.5758302957253],[126.8043332988424,37.5680287006308],[126.7984198005241,37.563155202025094],[126.81098919567499,37.5510347031301],[126.8271570988528,37.5458785992804],[126.82018639881319,37.5388994012756],[126.82181399958971,37.5349448999533],[126.83510899933711,37.5171399997682],[126.8454061998046,37.5155441979366],[126.8490226998737,37.5056824995045],[126.8380056991311,37.4910043019662],[126.8277458008848,37.4980592995635],[126.8124966014132,37.4920773015521],[126.8088213000949,37.4981246986424],[126.82127390078129,37.5258153990639],[126.8096516034385,37.5321390010049],[126.8071816052651,37.5386832021212],[126.80638169880861,37.5342177019767],[126.7924971000356,37.5294755028578],[126.7979377982714,37.5255966999051],[126.7950780998856,37.523039400563704],[126.7874188006638,37.5239530005464],[126.79857569524741,37.5142985025197],[126.79314050068261,37.5125769042413],[126.7942731971318,37.5086246015864],[126.7902222001583,37.5056725039895],[126.7850605007339,37.5095312001595],[126.7807226995797,37.5040189004816],[126.7713979993222,37.5027401994856]]]}}]}