{"type":"FeatureCollection","features":[{"type":"Feature","properties":{"interval":15,"stationId":"355173360","profile":"peak"},"geometry":{"type":"Polygon","coordinates":[[[126.94095089861581,37.536248402847995],[126.9560730001341,37.5416866984364],[126.9631159998229,37.537369499602896],[126.95663650030521,37.5451018996177],[126.9625495006824,37.5536799994871],[126.98589220010429,37.566038099451],[126.98124360029,37.572224099945],[126.97263840034539,37.5757840001174],[126.9585530003512,37.5711426005463],[126.9481054992669,37.546678701482904],[126.9407228003688,37.549406300236804],[126.9441512999268,37.5431937003843],[126.94095089861581,37.536248402847995]]]}},{"type":"Feature","properties":{"interval":30,"stationId":"355173360","profile":"peak"},"geometry":{"type":"Polygon","coordinates":[[[126.8509299995367,37.5240525999036],[126.8907711994777,37.519673599193],[126.9028632997971,37.5093870004296],[126.9175497993568,37.5089058999882],[126.9167054981701,37.492443101016704],[126.9262531996473,37.492564098906804],[126.9167261016355,37.4963969998908],[126.9280987982964,37.4985200995792],[126.92950990032129,37.5140636987685],[126.9395103997451,37.5055482004378],[126.9571203001541,37.5132001981377],[126.9348802004718,37.5131473008133],[126.9506569017845,37.529686797935604],[126.9579426978494,37.5318428947132],[126.9682402006841,37.520213998916205],[126.9651209038826,37.5094379076345],[126.9602271993826,37.5079745005655],[126.9656522998474,37.5066259993528],[126.9708780965121,37.516393191570906],[126.9830335979017,37.5198066995862],[126.9773211004654,37.52637879892821],[126.9785810999399,37.5326246989802],[126.9832560989721,37.529224899751505],[126.9885130999688,37.5332926997587],[126.99943849976259,37.5263318997237],[127.00802850085459,37.5335962995474],[127.0039565000996,37.5394627000166],[127.0095536996153,37.5476898994101],[127.0201214960419,37.5374208005529],[127.0234068006872,37.5439053995368],[127.0185392011835,37.545054299693],[127.03841750106089,37.5565743977741],[127.0444381994492,37.5549659998628],[127.0448134987819,37.5451161005629],[127.0491170992462,37.545492498535005],[127.0445687006084,37.5499330992297],[127.04864220052501,37.5541888996395],[127.046919599953,37.5515630005442],[127.0417755001413,37.561556499876005],[127.0563748008723,37.5666014000859],[127.0237761002259,37.5710516003633],[127.0398705997187,37.578548299187204],[127.0181243998461,37.5775248003205],[127.0237614007436,37.5865984000996],[127.0189286006932,37.596226799918895],[127.0018828002096,37.5932682004498],[126.99446089994751,37.5817211005357],[126.9729637015829,37.5867513992746],[126.95459600216269,37.5808824017763],[126.94069590060609,37.59269410076],[126.9402834993356,37.5859360990549],[126.94940889839249,37.5820240984203],[126.95066529692009,37.574100299169295],[126.94556109910961,37.5654232001709],[126.9160619004342,37.5697084002578],[126.915249499647,37.5601396005076],[126.91220800129281,37.5606721003086],[126.90413980087999,37.5677372006743],[126.9057109005654,37.5775612996283],[126.8902377017164,37.5821812012843],[126.88943279810799,37.5770611009506],[126.8982907989671,37.573701799366205],[126.90089929932931,37.5532779007818],[126.910557097896,37.5439334012567],[126.88146569866491,37.5243569027959],[126.86404140044341,37.5310100006012],[126.8509299995367,37.5240525999036]]]}},{"type":"Feature","properties":{"interval":60,"stationId":"355173360","profile":"peak"},"geometry":{"type":"Polygon","coordinates":[[[126.6909162989073,37.463481600052404],[126.6972748992982,37.4612882996487],[126.7019066992936,37.4670543984775],[126.7107247000295,37.462273699630295],[126.7192323007898,37.4835914972681],[126.7448403978709,37.481684298074796],[126.7449437012146,37.4896429006999],[126.7624944972913,37.475740200880395],[126.7667091014014,37.478523798923895],[126.7785005977237,37.4717543003263],[126.7793121006265,37.475916896602705],[126.7841688993208,37.4706835973194],[126.7911570012989,37.4720643978824],[126.80088590039159,37.4625359982381],[126.8015625005672,37.4713697995148],[126.8075945993438,37.4755931989087],[126.8207396989581,37.4737447974614],[126.8332433993655,37.488281896268],[126.8472630971719,37.4686572989108],[126.8632231984073,37.4642695980778],[126.86421489993009,37.4671958987313],[126.87054609905209,37.4579525010326],[126.88143559536441,37.4537959986657],[126.88077609743061,37.4461941001559],[126.89477169783561,37.4424996990805],[126.8965502991605,37.435509101465094],[126.8988991003516,37.4378832986212],[126.8967346991612,37.418915403225],[126.881048002753,37.429509502408],[126.8707860999517,37.419172402878],[126.8737692960407,37.4156341016025],[126.8838790989566,37.4101425999305],[126.8832787964489,37.406220000431496],[126.888986400894,37.412303598765604],[126.89406659824711,37.408337799038],[126.8914945032966,37.4160568005897],[126.8969901978872,37.416935899809],[126.91306519961181,37.407879199851806],[126.92088099953999,37.3947370997529],[126.9279429990474,37.3937984993848],[126.9330378998837,37.398271099432904],[126.9307688015707,37.4047208016417],[126.918479101306,37.4074844032378],[126.9141923004063,37.423949700133605],[126.9023088002529,37.423295100240495],[126.91425680079871,37.433209598823694],[126.9140010004557,37.439818797498695],[126.9063552006507,37.4467663983893],[126.91328920082299,37.4531865987528],[126.9117719004748,37.470430400347],[126.93059029894961,37.4557102025545],[126.9484793989632,37.4536036005803],[126.9616958030535,37.4632708946841],[126.97480109595709,37.4587189957643],[126.9806033997507,37.4710080979516],[126.9884666994664,37.4660825001595],[126.9922611956211,37.4535594021874],[126.9861209954412,37.4448022044625],[126.9910699944234,37.4427248977064],[126.983280997883,37.435180700960395],[126.98432599671439,37.4267266005386],[126.9783457996721,37.4234011012143],[126.9825392995857,37.423704296526395],[126.9849637980892,37.416961700387205],[127.0023616020531,37.4267750961354],[127.0175520996458,37.4266281999717],[127.01918900369729,37.441673095885506],[127.0121255031049,37.449066798499395],[127.0214408992636,37.4603334997068],[127.0058475064104,37.4623663998264],[127.0081222041357,37.469623992568806],[127.02500479882251,37.4744296987761],[127.0255285992084,37.4649231005437],[127.0340083990076,37.4580471993357],[127.0425040993009,37.4615442997938],[127.0469078998096,37.4567538000083],[127.0493805951982,37.440232799981295],[127.045416799162,37.4390298011843],[127.0660149005543,37.4347978984222],[127.0633288021466,37.4427550944741],[127.0666571047806,37.4464462969966],[127.06261900197019,37.4490596009629],[127.0663218999333,37.4539269983758],[127.05103800349781,37.4672066977513],[127.05714659990909,37.4769412991598],[127.07018909660309,37.4825540952299],[127.0676148991773,37.4775614002226],[127.07018910077379,37.4825540973749],[127.08063599748439,37.477255997612495],[127.09019460199531,37.4855064958298],[127.1030282994549,37.481564098891],[127.1116358003112,37.490299199499304],[127.1261983002184,37.4760739021509],[127.1301464002147,37.48045419979589],[127.12385470040999,37.490189900221594],[127.12641590057589,37.4960804997827],[127.1406690993711,37.4943108984462],[127.14218119514939,37.4884456032979],[127.1544861993859,37.4933370994645],[127.1547503006842,37.4969208994803],[127.14276390033571,37.4967155007311],[127.1351962004868,37.50304589962769],[127.1378990998231,37.5152791991897],[127.1485770992531,37.5164169987091],[127.1404062024662,37.522817699422895],[127.1517181034149,37.5277717995347],[127.149063002881,37.5300000000366],[127.15684090051701,37.536713199834104],[127.1577932996438,37.5494838972441],[127.16683849928219,37.5480022001533],[127.1775989003499,37.5577712976529],[127.1567723022262,37.56539380099],[127.1399924016646,37.5560290052629],[127.1396582019988,37.562111899179996],[127.1378271995348,37.5594014011172],[127.1341229004633,37.5635960998439],[127.1259341948053,37.5589419073938],[127.0969278049465,37.5635443999243],[127.10491160243289,37.578555794560096],[127.1032352012079,37.596814599775705],[127.1120146998452,37.6002073996044],[127.11367260114581,37.608510599208905],[127.0999981014689,37.6185161014108],[127.10109350126791,37.6272895994299],[127.0771401057792,37.6381066025793],[127.0754500006847,37.6506899988365],[127.08383429998091,37.655490598399],[127.0899685044806,37.674304299402806],[127.0819956021565,37.678802099851396],[127.059357500456,37.6723358003732],[127.06071300267821,37.6789550967491],[127.0455470020429,37.6976782010665],[127.0417465977,37.6908346032287],[127.0364363030103,37.6925146015487],[127.034007499152,37.6774257008266],[127.04269089846339,37.6750263002844],[127.02985940100791,37.6698455009043],[127.02967649972389,37.662457700586295],[127.01319650479621,37.663031003056396],[127.00752180662981,37.6704251044102],[127.00299369328981,37.6252988039026],[126.99489300010741,37.620419406149104],[126.99101949733789,37.6124990059333],[126.99367579704361,37.603237500748],[126.98588440024851,37.5980129079119],[126.9767604032402,37.597603803682304],[126.9579191009326,37.6105885018843],[126.9480518052125,37.6101291032515],[126.9495228984324,37.6072681026133],[126.9430022005684,37.604849903652195],[126.949208701883,37.6275272975063],[126.9375318065229,37.628642801004],[126.94147420258051,37.632233497413296],[126.93980640086039,37.643081799939594],[126.93163390373759,37.6442854023956],[126.9345867999033,37.6501677982707],[126.9225070049674,37.6545623003652],[126.92461030163089,37.660635997974],[126.919909201009,37.6634662005836],[126.914837397372,37.6543257057942],[126.9083756015555,37.655006803855905],[126.9096355002956,37.658771100091606],[126.9083756008808,37.6550068038689],[126.9050448042588,37.6643456985262],[126.8891453991732,37.6676925009681],[126.882633601476,37.6594220018209],[126.871772799534,37.6593820006499],[126.8695560987939,37.6542407034293],[126.8522079024108,37.648049406525196],[126.84776940684931,37.6534912010834],[126.8500450009027,37.6607622000626],[126.8458897980611,37.6582752048288],[126.8410524999126,37.6629631001341],[126.82925849778839,37.6583688011969],[126.8320212994819,37.6462901000593],[126.8176800980216,37.628524001970796],[126.82329969934801,37.6251721002622],[126.80604819955441,37.6234318006471],[126.8028999990962,37.6160783019311],[126.81253929896519,37.608156699312005],[126.81159959977619,37.6002449047759],[126.8269051970824,37.595419100812],[126.8313467001861,37.5980685986238],[126.82833480179109,37.600493699527],[126.83906559968119,37.6048205993203],[126.835974299918,37.5990962003379],[126.8538324977267,37.5967857980785],[126.85592079909831,37.5849039028751],[126.867936198147,37.587404198809104],[126.86358290001729,37.5766755015621],[126.8573032994918,37.577046701615195],[126.8641757976413,37.5739832002595],[126.859521102296,37.5673483068944],[126.8348612077972,37.5787932067942],[126.8168942009732,37.580768501483796],[126.8136434008056,37.586629497532],[126.81806789916341,37.584668898115794],[126.7943831005098,37.5860876008325],[126.7891650996479,37.5795113002139],[126.7963111998215,37.5843892975929],[126.79951389937669,37.5789520999992],[126.7901986994585,37.5765489007222],[126.791077495735,37.5710427051005],[126.7936973959229,37.5670304024866],[126.7993937003088,37.5758302957253],[126.8035801992859,37.5713500991522],[126.7984198005241,37.563155202025094],[126.81857009773191,37.541451600582405],[126.8119085005382,37.536198804605604],[126.8149934977101,37.5371486983472],[126.81521359883381,37.530302802429404],[126.8071816052651,37.5386832021212],[126.80638169880861,37.5342177019767],[126.7924971000356,37.5294755028578],[126.7979377982714,37.5255966999051],[126.7950780998856,37.523039400563704],[126.7874188006638,37.5239530005464],[126.79857569524741,37.5142985025197],[126.79314050068261,37.5125769042413],[126.7942731971318,37.5086246015864],[126.7712521000461,37.504058500264],[126.7898276981924,37.4982466994077],[126.78913060010969,37.4951773005294],[126.7751126002072,37.492971400212404],[126.7571513013182,37.5000821001566],[126.73501660058099,37.4902989007311],[126.7217928005691,37.5103394001681],[126.72743940209729,37.5167582005627],[126.72188080055989,37.5226684994705],[126.72792290030739,37.5329543995399],[126.7453173018876,37.5409122982673],[126.7478755015519,37.5524108995492],[126.7550293997129,37.5580379996597],[126.7456686008781,37.5763683999696],[126.7322264001362,37.5795234004645],[126.72072349599861,37.5678139005231],[126.7249591952398,37.5631748022126],[126.7386299977669,37.5655134937293],[126.7420816943152,37.5592202000226],[126.71905649930359,37.5453896011568],[126.71540379929121,37.52790150064],[126.721900797499,37.5210849015615],[126.7158212001485,37.5183838014609],[126.7212520997728,37.5146472010697],[126.7205478996972,37.5075017004433],[126.7154922034486,37.509264199952796],[126.7188967972073,37.5033690988705],[126.7165329979226,37.4934796995173],[126.7092939004912,37.4887661005818],[126.70497599989,37.4766674010734],[126.6949060013879,37.4767205015327],[126.6968982987527,37.4666220991284],[126.6909162989073,37.463481600052404]]]}}]}