{"type":"FeatureCollection","features":[{"type":"Feature","properties":{"interval":15,"stationId":"355173370","profile":"peak"},"geometry":{"type":"Polygon","coordinates":[[[127.01761559926099,37.55340339991],[127.0414413002967,37.5567979995769],[127.044864300028,37.5608910997842],[127.0638256988718,37.5540630986443],[127.0709885005867,37.560181798165004],[127.07521609956761,37.5511046005956],[127.0695027004289,37.5486401006415],[127.075155599362,37.545008099064],[127.0779714003304,37.5527042990755],[127.08803619948891,37.546616399533995],[127.0955798005985,37.5515366994563],[127.0863408003482,37.558894700104304],[127.085246300984,37.5676368994638],[127.07285059921199,37.5600953021058],[127.0715786000832,37.5664559000389],[127.062220000901,37.566920000470105],[127.0543279008389,37.5751738000165],[127.0450313995481,37.5742734009684],[127.0424625000275,37.572391100118395],[127.04835799991669,37.570613599689004],[127.0384537000951,37.5703199003675],[127.03443010034809,37.5649141004041],[127.0278649999758,37.5659241002047],[127.0289899002932,37.5597821002622],[127.01761559926099,37.55340339991]]]}},{"type":"Feature","properties":{"interval":30,"stationId":"355173370","profile":"peak"},"geometry":{"type":"Polygon","coordinates":[[[126.95325219878059,37.556703799834104],[126.9556407990828,37.5511115001962],[126.95581710075841,37.555528200759795],[126.9680299995478,37.5575099990911],[126.9697126995931,37.5617202977202],[126.9726149989612,37.5537124002215],[126.998988198222,37.557535398629696],[127.0046509991474,37.5520757009143],[127.00126989794279,37.5406533013777],[126.9856943995485,37.5349345006509],[126.99483279983549,37.5303208998855],[127.00405429959561,37.5334234000293],[127.00023999945901,37.5261300013559],[127.0045384051267,37.5270260935761],[127.0098549001214,37.530081099714494],[127.0039565000996,37.5394627000166],[127.00952509764551,37.541499600570404],[127.0201214942982,37.537420798766],[127.0224706996086,37.5243139013901],[127.0280572994212,37.521793700007],[127.00702430113759,37.5148277021386],[127.00999359822801,37.5093180006006],[127.0026155992479,37.5033022007173],[127.0166164001243,37.5089808995466],[127.02452679930241,37.501661100112],[127.0351013995226,37.504739298983196],[127.0320017000163,37.4992091006927],[127.0357634994421,37.4979437994081],[127.0441979995215,37.5016166988352],[127.04947759811941,37.4960244004436],[127.0462910998889,37.494902700691796],[127.0545666987033,37.492756700760204],[127.0503160993406,37.4886885002065],[127.0565349999704,37.4836907009663],[127.0659767987089,37.4890795978183],[127.05930270138741,37.4862990020169],[127.06236029933349,37.4942101986829],[127.0561145011607,37.4997703001398],[127.0569962006765,37.5053888994046],[127.0740600977164,37.5094395989724],[127.064388600258,37.5111855017641],[127.0591598028011,37.5231685984635],[127.06268649927439,37.521906099726],[127.0665351014744,37.5287175997148],[127.08016090072529,37.5267911996867],[127.0942459998913,37.5330554993212],[127.10239749992799,37.5179972997031],[127.09625219911169,37.512741499969295],[127.109620599765,37.511947199374504],[127.1014599998968,37.5032960004077],[127.112391099793,37.4970054004184],[127.11517000000441,37.5130309991649],[127.1234294988883,37.4939637993859],[127.131508598439,37.4971410993654],[127.1425036985739,37.4904201018045],[127.1487183010422,37.4924814990373],[127.13322070063859,37.501807799444805],[127.1378990998231,37.5152791991897],[127.1436453996555,37.5165044996546],[127.1404062024662,37.522817699422895],[127.1525938025392,37.5284840988224],[127.1461956017759,37.5347817999451],[127.1466983008129,37.5508643995378],[127.1325162026355,37.5586037997313],[127.1248236011106,37.5571078018341],[127.11916409474131,37.5473863077548],[127.1023338023104,37.5591174008001],[127.0958701049719,37.5573508014131],[127.0928704018268,37.5703046011069],[127.1003506010444,37.579637296567604],[127.0974456004358,37.592514100364504],[127.08101810058339,37.6076889000627],[127.072514100263,37.6280577000896],[127.0728847992208,37.6194280008247],[127.0677536997929,37.6157534004653],[127.073733799332,37.6153624994429],[127.0762406987437,37.6072323999041],[127.0708407987747,37.5926011008562],[127.0766180996939,37.5901699998973],[127.077119800328,37.5727755020859],[127.0592497003762,37.5834069002473],[127.0678230000651,37.591872599969],[127.0650189001576,37.6057822004173],[127.06486629959831,37.5972304000069],[127.04044759984109,37.587649900338604],[127.036281300162,37.5947094006267],[127.0259987995792,37.589308000693904],[127.0142490002909,37.5957804006711],[127.0112496995133,37.5803627007622],[127.0027616005764,37.5761341007426],[127.00380319992269,37.5878925990376],[127.0103474002531,37.5893796998808],[127.0044339002578,37.5913503006905],[126.9963330005407,37.584815500963295],[127.002194398396,37.577511100013304],[126.9938401004853,37.572091700561],[126.99165920007731,37.5787440000252],[126.97392380094409,37.5782690001228],[126.9716454991456,37.5700634007568],[126.96167660033561,37.5686446006618],[126.96008169983611,37.560134000346196],[126.95325219878059,37.556703799834104]]]}},{"type":"Feature","properties":{"interval":60,"stationId":"355173370","profile":"peak"},"geometry":{"type":"Polygon","coordinates":[[[126.8112132993816,37.5677930992667],[126.82456569905099,37.5563318006236],[126.8351537978546,37.557196900227],[126.83663769922249,37.5535445004662],[126.8306331000431,37.5499717009901],[126.8345843993255,37.5455016998236],[126.8323337998724,37.5395446003756],[126.8382497993996,37.5371515995538],[126.83735330010771,37.5316589007281],[126.8457280998599,37.521178899879104],[126.8634166992944,37.5171471003444],[126.8608837004294,37.5105853011037],[126.8764632992053,37.514472499037794],[126.8779077979686,37.5116342012437],[126.8681672001335,37.51115570021631],[126.8726803982772,37.503237900925505],[126.8647991999584,37.5017433007361],[126.86650369833549,37.4931213016352],[126.8596138009151,37.4930528011124],[126.8556827000441,37.5002177003479],[126.8460146990323,37.4951476005156],[126.85639309925031,37.4876262994195],[126.8801304000714,37.4922288990232],[126.8738909983663,37.4792622022961],[126.8624328999561,37.4775378006663],[126.86322319947719,37.4738646999497],[126.8694962996581,37.472711599464596],[126.8757389993515,37.4781338983273],[126.8824229987021,37.4722606996475],[126.8972916001906,37.485317198904795],[126.9035557999009,37.4852607999298],[126.9254049985791,37.478496298550205],[126.930819298792,37.474335700923696],[126.9314336977145,37.4654033008463],[126.9477000987714,37.467032699225996],[126.9427875012636,37.473874199151496],[126.9511186998564,37.4777814991414],[126.95092269994551,37.468208601734894],[126.9578834957586,37.4685551986163],[126.9583427997889,37.464635300080495],[126.9600976006984,37.4682039985829],[126.95371620421301,37.4703374008129],[126.9562774016518,37.4741764969738],[126.96207339824869,37.472514798523996],[126.96243729863271,37.464879800927996],[126.9743625967139,37.4622457998686],[126.9806033997507,37.4710080979516],[126.9884666994664,37.4660825001595],[126.9914109989426,37.4451236991351],[127.00218269653341,37.441126500316905],[126.9885764995879,37.4358206022313],[126.98402499964361,37.4259624998618],[126.9886674969443,37.4196604007127],[126.9872003020117,37.4269868984318],[126.9942974997084,37.4218533996766],[127.00140559971379,37.429237798468606],[127.01089329783811,37.4295621982843],[127.01782110278211,37.441856196458],[127.012154403076,37.444976502589704],[127.0150043993806,37.4574452986298],[127.0005726042313,37.4616383018114],[127.0010135037904,37.4672230962266],[127.0096195008647,37.4733925990042],[127.0212210986114,37.4693816991922],[127.0217722002995,37.4618086012279],[127.02888009994129,37.4567845966761],[127.0469598961949,37.4549525981866],[127.0407989974649,37.4382830070526],[127.0548408938395,37.4335890969566],[127.0699220000119,37.4341684996747],[127.06547540633079,37.4372292057895],[127.0714377003685,37.4434428995758],[127.0608600031131,37.4610822006421],[127.061624102394,37.4689519938233],[127.077111598348,37.4750565942953],[127.0979551988038,37.4725652981078],[127.1078904996966,37.4620218978892],[127.11579469763069,37.462988797790196],[127.11793829528621,37.4561134033359],[127.1241496977556,37.4591378962324],[127.1182706986871,37.4305248016772],[127.1289507991358,37.423944298796904],[127.1189056002627,37.408507200869906],[127.10016449951331,37.4017105004989],[127.105889999472,37.3948992997314],[127.10365079992519,37.3867528000604],[127.11644199972591,37.381866800246094],[127.10654840014449,37.3765201007266],[127.10160570128569,37.3637409014346],[127.1059862983811,37.354204101852496],[127.0993892994689,37.3534809022583],[127.1005467996839,37.3427339020401],[127.0950243001286,37.3399542011659],[127.1028133987236,37.333197499666994],[127.11172240003741,37.3374167984373],[127.1099376011137,37.343559099545],[127.1180153001835,37.3519317988162],[127.11148740010461,37.3586086993284],[127.11897090061389,37.368440398500596],[127.1192439002043,37.3793249995149],[127.1378656997514,37.3917356995348],[127.1322664026935,37.403553200121095],[127.13808030073349,37.412731099720304],[127.1311566002656,37.422604398378894],[127.1471170996826,37.4295852991874],[127.1560316004209,37.4395376968569],[127.15882089841979,37.434335698526496],[127.16535649998251,37.435143299019],[127.1729227982797,37.4473401976693],[127.17158690038629,37.4615905992107],[127.15591030275681,37.4653474035249],[127.1495365017413,37.483066698738604],[127.1689517906149,37.4807958002444],[127.17599750025889,37.4846679962533],[127.17609020867181,37.4962394931263],[127.170578198796,37.4897827029745],[127.16111810464399,37.4964304988573],[127.1705216013715,37.5061615985048],[127.1636836014143,37.509315600225],[127.1667177996168,37.5143142992421],[127.1616733041787,37.520333699629504],[127.1605774020413,37.5357329964104],[127.1692154963374,37.5409618957987],[127.1712736980502,37.534585800647704],[127.1754150992596,37.541800897026796],[127.1867807002426,37.5454045956679],[127.19621119802119,37.5291366997046],[127.20536419991821,37.5305188971291],[127.20207240204091,37.5307877006698],[127.2049359000395,37.5346388972444],[127.21026979884971,37.5298459012544],[127.22125099978939,37.5342598975027],[127.2264298984356,37.5293818008937],[127.2376445000228,37.5405981991044],[127.20610450200489,37.5605848003857],[127.2071433012127,37.5723128973979],[127.2025870020118,37.5708842027052],[127.2137366994094,37.582845299999704],[127.214867700309,37.5895048001412],[127.21094000012529,37.5906714004597],[127.2043802011506,37.5894646015141],[127.2091108939307,37.583166995359],[127.2026857986612,37.5732646017481],[127.19992020142679,37.5760320989806],[127.199151899018,37.5691733011216],[127.1893227008709,37.5801352006906],[127.17640259878131,37.5728288014092],[127.1701388004064,37.5745609005033],[127.171555999828,37.564815500179805],[127.15891500037279,37.5700211007724],[127.1511847002546,37.5621201029535],[127.13305430176389,37.5679201058674],[127.1312051022955,37.5741014991684],[127.13052299939909,37.5708509025672],[127.1217731043215,37.5789587019554],[127.11910930251081,37.5983795980056],[127.1288599002272,37.598041699488405],[127.1383723999593,37.5905166993967],[127.1574103993596,37.5934202998571],[127.1601689011057,37.5947946996148],[127.1508645014387,37.602681597484796],[127.15767029892591,37.6024669001331],[127.15578189992459,37.5997111016928],[127.1672410998788,37.6044299976761],[127.1720444001395,37.613985198700504],[127.16364250176629,37.6190941002886],[127.15087479956169,37.6129953002632],[127.1467830005906,37.6172096001169],[127.14339369951871,37.6117591024555],[127.1379278019404,37.6164122989757],[127.1217836021147,37.604786902837404],[127.1251361996621,37.610575799562],[127.11952790254729,37.615336397772296],[127.11558939922901,37.6038592038603],[127.1072384012937,37.6148315012611],[127.1099165010057,37.62833020072],[127.1053885060976,37.6348586951016],[127.1127793002036,37.6343153986346],[127.11144090142281,37.6407660992359],[127.1193392970437,37.6422381988234],[127.117811899141,37.6336031996331],[127.1119874009955,37.6297617031883],[127.11326129730311,37.62357139880881],[127.1273918948693,37.628195896636804],[127.12267440192299,37.633938298764996],[127.12807689907869,37.636476599222604],[127.1287433000461,37.645993399919],[127.1328168980217,37.6446640992036],[127.13023230060631,37.6421341017336],[127.1396846988716,37.6421941996499],[127.13942489944199,37.6383036999719],[127.1432454991006,37.643651697737],[127.148137396814,37.6410202994505],[127.15350880081739,37.6503521989038],[127.146604704685,37.6589211988384],[127.1382461017081,37.6574295022319],[127.1322628995386,37.6493950041453],[127.1284483013307,37.654919801040805],[127.121397300769,37.647526201637405],[127.1133849998691,37.6494138007606],[127.1156358993016,37.6442873996447],[127.1098248005674,37.639455301850205],[127.1057416002209,37.6436432001112],[127.0972866019932,37.6334250072858],[127.08608740282689,37.6490713966373],[127.0897579015879,37.6780634002788],[127.0783332042364,37.681581804288996],[127.07388790398001,37.6775159039517],[127.0736857010078,37.6834957996115],[127.0688702024786,37.6811704048554],[127.06800540278131,37.6890935981607],[127.05710160653159,37.6946662002253],[127.05765450487439,37.702587101086905],[127.0455470020429,37.6976782010665],[127.0520271005069,37.7072047992357],[127.0474613003444,37.7191580996661],[127.0532979985052,37.7219310002873],[127.05406430016109,37.7280989997393],[127.04199700087149,37.73066970002],[127.0456999992699,37.7163182006295],[127.03993840045409,37.7103508008922],[127.0445098990537,37.702292300505704],[127.0310832983495,37.693342402637995],[127.03058989849609,37.685140200616],[127.03531459544001,37.6861400975274],[127.034007499152,37.6774257008266],[127.04269089846339,37.6750263002844],[127.0298593991932,37.669845500235304],[127.0321654996262,37.6602855003725],[127.0258221000647,37.658543300701],[127.0039110013071,37.6714942025626],[127.0025713962918,37.6587418069018],[127.00793319207929,37.654995298365606],[127.00110819576871,37.6426454075331],[127.00299369328981,37.6252988039026],[126.9950004012831,37.6265685026329],[126.9866148982834,37.6189374066207],[126.9895122966206,37.6000199059049],[126.96985740387889,37.5909129021537],[126.970146801146,37.594665899934604],[126.9648133017819,37.5973167990054],[126.9605456008518,37.593566303050196],[126.9430022005684,37.604849903652195],[126.94343190243609,37.6150200956001],[126.93978680045629,37.6132757033982],[126.936214899987,37.6186903994737],[126.94154549869761,37.6186981979757],[126.94023420242891,37.6225703959291],[126.929530701538,37.630463499646],[126.9332087989557,37.6395332980065],[126.9253433030767,37.6397888012776],[126.92754000032859,37.6457252992135],[126.9126827972483,37.653458705404],[126.90743889976851,37.6336248070641],[126.9126076989714,37.628436301460795],[126.90511460013781,37.61747720151801],[126.90803699937129,37.605690599801704],[126.9044385993179,37.5911324000374],[126.8959816007923,37.584221901013606],[126.8857577019712,37.585920199689596],[126.8804441999458,37.5810902000308],[126.8920335996363,37.5729936976144],[126.8898768990098,37.5587404001367],[126.88385390503281,37.5532880055891],[126.8676559013536,37.553595499919],[126.8595211022663,37.5673482968238],[126.84630410101819,37.5664982021561],[126.8439458033927,37.5751408066471],[126.8112132993816,37.5677930992667]]]}}]}