{"type":"FeatureCollection","features":[{"type":"Feature","properties":{"interval":15,"stationId":"355173021","profile":"peak"},"geometry":{"type":"Polygon","coordinates":[[[126.91506959975959,37.6207056001366],[126.9174538995737,37.6146484006107],[126.9241025996316,37.6153279993952],[126.9244013995543,37.5984717002523],[126.95278689944011,37.5796162992448],[126.9328683003628,37.6154733001256],[126.92654980017561,37.6156286003837],[126.92692920018871,37.621681200057296],[126.91506959975959,37.6207056001366]]]}},{"type":"Feature","properties":{"interval":30,"stationId":"355173021","profile":"peak"},"geometry":{"type":"Polygon","coordinates":[[[126.8834792995104,37.651085900216096],[126.8958450995232,37.645970999926],[126.90588200123801,37.6486695977506],[126.9115921956832,37.643608599679],[126.90743889976851,37.6336248070641],[126.9126076989714,37.628436301460795],[126.9044196978041,37.6141909998951],[126.90370339959689,37.583392499628204],[126.8938863996934,37.576233600186605],[126.89951949977839,37.5725312996205],[126.8997077994522,37.5626098014502],[126.90599780023689,37.561409999224104],[126.9007722018202,37.5669698003706],[126.90702810103741,37.5772614998375],[126.9157235995886,37.5791756998927],[126.9227172000289,37.5873831990371],[126.93452669891181,37.5841847998474],[126.9352523998361,37.57627969969],[126.9506652977141,37.5741002966087],[126.9634761996555,37.558512199732],[126.97744319924739,37.5618274991216],[126.9786749993603,37.558845500082796],[126.9703784001359,37.555053901116096],[126.9727756998702,37.5531624000706],[127.0015017995707,37.5586116991151],[127.0057411004764,37.5490662003738],[127.014604901255,37.551919599167896],[127.01420760089121,37.5597366983567],[127.0097546005603,37.5616043996766],[127.02058910022569,37.5733720995218],[127.0180907001712,37.5751529005614],[126.9969169010127,37.577836500691895],[126.99462319999691,37.5720246000271],[126.99309129999361,37.5806608989256],[126.98463190023,37.5867192009098],[126.9579265019656,37.5844816004213],[126.950302401134,37.6032416997302],[126.9430022005684,37.604849903652195],[126.94343190243609,37.6150200956001],[126.9369057992187,37.6155550023747],[126.94023420242891,37.6225703959291],[126.9339736027047,37.6264879005474],[126.93320880079881,37.6395332982694],[126.9216421027712,37.6498875991158],[126.9225070039402,37.6545622976209],[126.9051507008996,37.653748204348005],[126.8939200022077,37.661252000278196],[126.8834792995104,37.651085900216096]]]}},{"type":"Feature","properties":{"interval":60,"stationId":"355173021","profile":"peak"},"geometry":{"type":"Polygon","coordinates":[[[126.7348981968837,37.681867401014],[126.7378814992792,37.6679705001248],[126.7490410003566,37.6668034996609],[126.7503707985445,37.6603789012013],[126.765124099047,37.651210097415],[126.7610869987143,37.643744401404],[126.7692581972922,37.648236594974094],[126.7674154993084,37.6430213001514],[126.7739169974525,37.6316838014074],[126.79258729701489,37.6258029985962],[126.8036184976571,37.6272504983884],[126.80289999899139,37.6160783008145],[126.8241836968391,37.5979889005804],[126.83016239907731,37.599270397085],[126.83429389854591,37.607078297625996],[126.8397699998716,37.6063703986236],[126.8417044975633,37.6004807999583],[126.8481512020243,37.6067744965375],[126.8547689962411,37.6046109993671],[126.85890909859961,37.5886268005357],[126.8743537978139,37.5880059994124],[126.8707053991402,37.5802286007375],[126.880905299516,37.5798834999472],[126.88325999624001,37.5740700001561],[126.8673419052698,37.559770507924],[126.8401461982725,37.5753630021345],[126.8285322021458,37.5776775982778],[126.82047930131141,37.5733103030441],[126.8117000023181,37.581630000617295],[126.80271070188091,37.5777491007222],[126.7990552007873,37.5831599001311],[126.7954923997577,37.575665202439204],[126.8035801992859,37.5713500991522],[126.7984198005241,37.563155202025094],[126.8120899988992,37.5520232990114],[126.8286524992607,37.551251699409704],[126.8302437991401,37.5389079999699],[126.8453676994283,37.5199438994958],[126.86001519912651,37.516179800228905],[126.8615493994275,37.5091685992963],[126.87660380003109,37.5141717999306],[126.8707065983674,37.4940099002074],[126.8788977987341,37.5009756979715],[126.8803029990996,37.4882009994156],[126.8726216012694,37.4776875015747],[126.8624328999561,37.4775378006663],[126.86322319947719,37.4738646999497],[126.86954579995779,37.4720237997506],[126.872621598798,37.477687498743904],[126.8796215981958,37.478667297174496],[126.8844807976551,37.47384679905149],[126.8833902019,37.4806065976128],[126.890291499933,37.4788868991426],[126.9003299996303,37.4852954001042],[126.9046859991079,37.480668300092],[126.9324479989307,37.4762868996441],[126.93397759993651,37.4686045997196],[126.9417090998563,37.4787480982883],[126.9789128990182,37.4669156991565],[126.9806033997507,37.4710080979516],[126.9884666994664,37.4660825001595],[126.99016859954041,37.4565612994207],[126.99337640061471,37.4722495989852],[127.002366295811,37.471743701215594],[127.00761690170451,37.4765732976217],[127.0143377979471,37.4729863001096],[127.0271905001229,37.4837784995985],[127.033924197396,37.4626314999887],[127.0434919005153,37.4650151977059],[127.04674799923559,37.459720299903],[127.0530011995718,37.480631899547],[127.06473529796989,37.479256698697704],[127.0744890004394,37.489853599159794],[127.08376909986029,37.490643299318805],[127.082395102665,37.496759000632196],[127.07062540164189,37.4989341013938],[127.0717563004636,37.505398995189196],[127.0962528982419,37.497340400548296],[127.1052906988713,37.5033366988717],[127.112391099793,37.4970054004184],[127.1099483004827,37.5015192000956],[127.11704280051269,37.5193188988399],[127.1115618012349,37.5265457005601],[127.10376870067991,37.5242208011971],[127.1022414033739,37.5355960968785],[127.1066957048305,37.5429255933665],[127.1155310996016,37.5421145994899],[127.11798239898441,37.5264772004421],[127.1460208004506,37.5374457990709],[127.14415740197819,37.5526400990654],[127.1393221002512,37.542080800686904],[127.1307107002741,37.5387786005625],[127.1252094005188,37.543670900142104],[127.1299045009809,37.5533546997796],[127.12366940021239,37.551476200549004],[127.12448669950581,37.545032700306],[127.1155311007613,37.542114600975594],[127.1091007011613,37.5460656002431],[127.1112615026439,37.553053302087804],[127.0973988011866,37.5535221019064],[127.0960477047943,37.560141898622],[127.0886536007449,37.564105400423806],[127.0993280004273,37.5899296989114],[127.1155894000972,37.6038591978507],[127.0959453009103,37.6156769008515],[127.09401670191549,37.6255440001447],[127.0843974057159,37.6291195000627],[127.0841264995826,37.6247054024083],[127.0712180014339,37.631449600395904],[127.0724717011336,37.6379381988287],[127.0655437004203,37.648477900170704],[127.0817931006267,37.6616603998074],[127.078743502198,37.6658275997548],[127.0843911004397,37.669924699927],[127.0799764021614,37.6745613006512],[127.0757940003522,37.6728942018159],[127.0757040981644,37.6657673026991],[127.0634269007615,37.6615927006663],[127.0561368008028,37.664312300488795],[127.0603978992357,37.6575533988215],[127.05457730031131,37.6539608008343],[127.0464089019491,37.655141800723804],[127.0464490017968,37.671206498851],[127.0374431995977,37.6673581003796],[127.04042229954341,37.659029400847004],[127.0204797006779,37.6500875019236],[127.0175699015782,37.6614723994428],[127.0080348979523,37.6645939008119],[127.0072901981409,37.624157703215296],[126.99489300010741,37.620419406149104],[126.99963219940899,37.6111483999932],[126.9943825003056,37.6110095001388],[126.9963571973186,37.6014656017719],[126.9767604032402,37.597603803682304],[126.9647174047505,37.6202811942613],[126.954474306278,37.6196298054956],[126.9565539041984,37.6256687994566],[126.9509922074088,37.639437699176604],[126.95483180356919,37.641438297175995],[126.94430420270791,37.652746202795704],[126.9487372992955,37.6584283989331],[126.9334464064015,37.659341403965705],[126.93460930523861,37.665862297444804],[126.9213269043636,37.6694954059392],[126.9218499038406,37.6754009000337],[126.8969677021595,37.672848003938604],[126.88850820217121,37.6817126014983],[126.8785375999725,37.6787171021743],[126.8785135937638,37.6652817039075],[126.8713067982117,37.6600319029685],[126.8521722004857,37.6789332999805],[126.8356881014685,37.6680340046117],[126.82417430250159,37.669576006464396],[126.8177807989283,37.665192402045],[126.8018647005553,37.6698167007756],[126.7967695001984,37.6731773010299],[126.7988601002943,37.6770982998789],[126.7897816006995,37.67661550125],[126.78466560119,37.6837656988829],[126.78264949935891,37.6806966007741],[126.7760909996362,37.694127000323505],[126.7631230999953,37.7008758002888],[126.7549368999871,37.6933837001976],[126.7585248995323,37.692350298742504],[126.7560084989607,37.686219300709794],[126.7348981968837,37.681867401014]]]}}]}