{"type":"FeatureCollection","features":[{"type":"Feature","properties":{"interval":15,"stationId":"355173312","profile":"peak"},"geometry":{"type":"Polygon","coordinates":[[[127.1205125991269,37.539869599838106],[127.1316287997641,37.531422199506004],[127.13785059911079,37.532084799845],[127.15565479761679,37.5462579940058],[127.1528249015039,37.5517264984212],[127.1775989003499,37.5577712976529],[127.1566327001569,37.5605906000976],[127.14897999993049,37.5564135010034],[127.1436059011279,37.559761099873505],[127.13242059989871,37.549139500729005],[127.1324119986479,37.536026301397],[127.1205125991269,37.539869599838106]]]}},{"type":"Feature","properties":{"interval":30,"stationId":"355173312","profile":"peak"},"geometry":{"type":"Polygon","coordinates":[[[127.0387335991883,37.5659391004923],[127.0591230988985,37.560968599287605],[127.0604513979913,37.5561932010374],[127.0707975990619,37.556483999182994],[127.0729616998658,37.5498925007012],[127.0678202990889,37.538496100308905],[127.0751089999879,37.5386850998533],[127.0731053006148,37.5448717994684],[127.0786659002038,37.5454724993831],[127.0752624010172,37.5510716984155],[127.0812208996804,37.552640799641],[127.0926532994266,37.5384198996518],[127.0993125998706,37.5374810994764],[127.0994498011574,37.541960596821006],[127.1115261994896,37.536292098816496],[127.11346249884,37.5245459013333],[127.09698800044319,37.5127786006666],[127.109620599765,37.511947199374504],[127.1014599998968,37.5032960004077],[127.112391099793,37.4970054004184],[127.11517000000441,37.5130309991649],[127.1215223991076,37.5048996998812],[127.1220253999242,37.4942361000868],[127.1303703991323,37.4980333986829],[127.1425036985739,37.4904201018045],[127.1487183010422,37.4924814990373],[127.1371707014336,37.4975158992937],[127.1399312008363,37.499030898990505],[127.1339533002193,37.5011674003006],[127.13348260061099,37.5075592001347],[127.1525938025392,37.5284840988224],[127.1505923013517,37.5328259972106],[127.1571240997806,37.5345103981233],[127.1604083002661,37.541362197560005],[127.15744890385581,37.5459042969648],[127.16957340044621,37.544145198442706],[127.1878442995474,37.5542157991999],[127.19815719754159,37.5518427993806],[127.2017788995413,37.5349346997524],[127.2165555001953,37.5408739995884],[127.2162087995916,37.537114700342094],[127.229867599141,37.5374786998438],[127.2239815008727,37.5444653013031],[127.2162884000059,37.5421588005804],[127.2150444990871,37.5503303976961],[127.1929674001352,37.573396100363496],[127.1694480010275,37.563786201366206],[127.15686890069681,37.569307700501206],[127.1511847002546,37.5621201029535],[127.1333568999638,37.5672415003671],[127.1334143987889,37.5598546018198],[127.1248236011106,37.5571078018341],[127.11916409474131,37.5473863077548],[127.1107829031225,37.5545735005676],[127.0973988011866,37.5535221019064],[127.0956142004335,37.559587900554],[127.08872740043739,37.560957400121],[127.0926925000113,37.5794230998068],[127.0888743003407,37.584610499966296],[127.07285059921199,37.5600953021058],[127.06912130054221,37.5654225999078],[127.0576872998474,37.562918200433195],[127.05223430012289,37.570239900115595],[127.0495168985339,37.565845801245096],[127.0387335991883,37.5659391004923]]]}},{"type":"Feature","properties":{"interval":60,"stationId":"355173312","profile":"peak"},"geometry":{"type":"Polygon","coordinates":[[[126.9088152992559,37.5489220997001],[126.9391172994444,37.542485399525496],[126.92643219966169,37.524642701686],[126.9148294007409,37.529769800464095],[126.9203349983967,37.523777101072696],[126.9180985991855,37.5175423005886],[126.9142762006965,37.518509100966604],[126.924297897605,37.5180072990924],[126.9259406985062,37.510908799493],[126.9325441987189,37.517945597055],[126.9297038001113,37.528633598213],[126.93723840002829,37.523487699383],[126.9433087014992,37.534791498968296],[126.95077190035781,37.537811099391696],[126.9640429989554,37.5313218987394],[126.9612508995169,37.522169399705106],[126.9689243000292,37.5191301979616],[126.9651209038826,37.5094379076345],[126.94735800225209,37.5166172999895],[126.9475760000259,37.5133928013248],[126.931855801672,37.5136910012018],[126.9364863992418,37.5017465998699],[126.9480174990789,37.4990935999957],[126.9487488982206,37.4922283000993],[126.9575052993954,37.4892337998905],[126.9623020979212,37.4936934995411],[126.96681199533151,37.4828641998867],[126.9399050003358,37.4854506000968],[126.9402310997992,37.4791929992436],[126.9552386995692,37.4777258989695],[126.9587491987986,37.4725398022876],[126.9727734982507,37.4729453003235],[126.972777998596,37.4691785009623],[126.9829779973761,37.469993498966204],[126.9924097986437,37.4796569966876],[127.002366295811,37.471743701215594],[127.00874230002009,37.4786852995748],[127.0271905001229,37.4837784995985],[127.0288143990059,37.47677139952879],[127.0349254992663,37.473812899932796],[127.0311996986273,37.4691724015872],[127.0342395988189,37.4642637996784],[127.0452111997267,37.4620976003097],[127.04966569984421,37.4752264995414],[127.07250279773339,37.4783282958348],[127.0722516979845,37.4719978021653],[127.0906961983725,37.4744877979345],[127.1047632969446,37.4682166988201],[127.1078904996966,37.4620218978892],[127.11579469763069,37.462988797790196],[127.11793829528621,37.4561134033359],[127.1241496977556,37.4591378962324],[127.1182706986871,37.4305248016772],[127.1289507991358,37.423944298796904],[127.1051011990454,37.3977801015459],[127.1142068989488,37.3852063996146],[127.109592598514,37.3751822012375],[127.11318539918301,37.374778399196494],[127.1378656997514,37.3917356995348],[127.1322664026935,37.403553200121095],[127.13808030073349,37.412731099720304],[127.1311566002656,37.422604398378894],[127.1471170996826,37.4295852991874],[127.1560316004209,37.4395376968569],[127.15882089841979,37.434335698526496],[127.16535649998251,37.435143299019],[127.1729227982797,37.4473401976693],[127.17158690038629,37.4615905992107],[127.15591030275681,37.4653474035249],[127.1495365017413,37.483066698738604],[127.1689517906149,37.4807958002444],[127.17599750025889,37.4846679962533],[127.17609020867181,37.4962394931263],[127.170578198796,37.4897827029745],[127.16111810464399,37.4964304988573],[127.1705216013715,37.5061615985048],[127.1636836014143,37.509315600225],[127.1667177996168,37.5143142992421],[127.1593668017382,37.5328886983121],[127.1681627988804,37.534064398869496],[127.1643864990763,37.5288162013329],[127.1678863983577,37.5230964993043],[127.1824729990112,37.5279180972738],[127.1970506982025,37.513201001733705],[127.196768600877,37.5164335967432],[127.2176119006251,37.5221127966997],[127.2224240979501,37.5173801988111],[127.2388140913988,37.5258627896292],[127.24508999901231,37.5230650992102],[127.25442460247369,37.5360714986131],[127.2434118024408,37.5410271037059],[127.2425419027182,37.5461816986592],[127.2458518999186,37.5455166992853],[127.2396717003735,37.5530391006999],[127.2421228970136,37.550763499661805],[127.2338532051082,37.544725905132005],[127.2257901106443,37.5498653027032],[127.1998334058397,37.581132104849395],[127.169516004583,37.5782132993424],[127.1662802999948,37.5767326069441],[127.1710308001361,37.5733391988461],[127.1694480010275,37.563786201366206],[127.15691990367351,37.5717815995966],[127.1567722987624,37.565393801138704],[127.1511847002546,37.5621201029535],[127.1430426026123,37.5628965036991],[127.1369512012806,37.5805339990902],[127.1296409018437,37.5835866999983],[127.12321249889139,37.5836129009112],[127.1170065001271,37.5763453043167],[127.1108507029626,37.5951664981541],[127.11367260114581,37.608510599208905],[127.0999981014689,37.6185161014108],[127.0990113000794,37.6294692999479],[127.08285840033291,37.632462904165],[127.0828841003072,37.639644896983],[127.07645000561959,37.6444480010963],[127.0797500009612,37.650599997647895],[127.07632440079671,37.6567909988401],[127.0824197975642,37.661467794898996],[127.078743502198,37.6658275997548],[127.0851458997545,37.6698188969139],[127.08362770062399,37.6729578995818],[127.0671621006533,37.669040202258195],[127.0632104029615,37.6731875993105],[127.0659758013635,37.680621796145594],[127.042763200418,37.6961618000665],[127.0380253976654,37.686646500377],[127.0500053986256,37.6714864008696],[127.0397762995435,37.6678025004379],[127.0498624985331,37.6592500001405],[127.0321768983825,37.6524283010383],[127.02966529910451,37.646811399929],[127.0347260994564,37.643633499454],[127.0418271998458,37.6496628987869],[127.05393269876251,37.6389683993288],[127.0526503999951,37.6261650014905],[127.0578475980636,37.6226805020111],[127.0452322002473,37.6187799004761],[127.0371758000413,37.6085031003401],[127.0334091006384,37.6165344000293],[127.02736589982891,37.6179280004498],[127.02394430017729,37.6119407005187],[127.0285766983436,37.609099300953],[127.0194607998597,37.6060384025099],[127.0087395016918,37.6177343004029],[127.0229731003565,37.6213671993535],[127.01432110025,37.6225811002856],[127.0010303998698,37.6113689999771],[127.0062326994346,37.6077504004592],[127.00804529808761,37.5937792016454],[126.999588100567,37.596454799791495],[126.9878049011337,37.5855781020267],[126.9703765003705,37.5838436005366],[126.9627247005912,37.5770263016741],[126.9419910014527,37.5909051996989],[126.9571904976992,37.5699478004299],[126.9507395001543,37.5602816006321],[126.9448034001249,37.5638893003132],[126.9312515997035,37.5594064006259],[126.9220367001393,37.562297800071704],[126.9207714997377,37.5492852006713],[126.9140543002616,37.552639300323705],[126.9088152992559,37.5489220997001]]]}}]}