{"type":"FeatureCollection","features":[{"type":"Feature","properties":{"interval":15,"stationId":"3818491433","profile":"peak"},"geometry":{"type":"Polygon","coordinates":[[[126.9595857995101,37.5398792000015],[126.9689491999996,37.5373028979996],[126.963614699942,37.5272467011616],[126.96951450071731,37.5263995987807],[126.97936210078531,37.5346144993742],[126.9742997002009,37.536743901048595],[126.9738175002496,37.5457287994564],[126.98374819984839,37.5453145994397],[126.9791260005551,37.5527553999272],[126.9993810999323,37.5608305998372],[126.99872220029,37.5664703995348],[126.9847960006908,37.564675200657206],[126.9855032001891,37.5717183000715],[126.9757650007977,37.5694237008546],[126.96859259910529,37.5585018005422],[126.97315879929249,37.5522607002546],[126.9663138001576,37.551977300425996],[126.9595857995101,37.5398792000015]]]}},{"type":"Feature","properties":{"interval":30,"stationId":"3818491433","profile":"peak"},"geometry":{"type":"Polygon","coordinates":[[[126.8998511980728,37.5117881002285],[126.911033899819,37.505816999589],[126.9186581988151,37.5106349990747],[126.9179911987143,37.4927986996444],[126.926257201659,37.5085223982712],[126.9414580989533,37.503511099257494],[126.9456154989919,37.508097798295104],[126.9480268992633,37.5026915002791],[126.947337101377,37.5061873983863],[126.9567961985243,37.5086941989554],[126.956597899719,37.5052020998966],[126.97003099978281,37.5057517966196],[126.99133980007461,37.4968282994571],[126.9928516998723,37.5027502994351],[127.0065710988833,37.5019369990829],[127.0132476017775,37.5130343983728],[127.0247699002211,37.5098532995296],[127.0369197998238,37.5287342995245],[127.020321908255,37.5376219039081],[127.0302524995802,37.555937198423905],[127.03947839787,37.5543485001981],[127.04485549873989,37.5456218000572],[127.0424373993672,37.5418294001805],[127.0601675995021,37.543275699138604],[127.0477006002894,37.5502613000546],[127.0509432018609,37.5557831975997],[127.0421652002843,37.558102400364504],[127.0496647991755,37.565576998576795],[127.0555593994586,37.5644548992606],[127.0543169008377,37.5673549998044],[127.0351538006883,37.5682428006561],[127.0305447000895,37.5724308009432],[127.0483831999289,37.5825022992017],[127.0293567996385,37.5792766010651],[127.0273908003401,37.5817242997379],[127.0389380002788,37.5904126998729],[127.0222249013227,37.5896861999825],[127.0346231001386,37.6136704997277],[127.02691419962619,37.6156026005047],[127.0289731996035,37.609514299585],[127.0237956004323,37.6088270999783],[127.0205370003928,37.5984346004349],[127.01058929982351,37.6050788012467],[127.0125274990995,37.5974366017281],[126.9980453005735,37.5950829005429],[126.9935232995346,37.5836693003996],[126.9848619001984,37.5876290010866],[126.9803369992032,37.5819780006475],[126.97116960038069,37.585078400713],[126.9645834996401,37.577333402361],[126.9416284001648,37.59303710020129],[126.9403845995358,37.586907500456306],[126.94940889839249,37.5820240984203],[126.9579283978995,37.566962900201],[126.947745101497,37.5622374026705],[126.92116060002839,37.563195000144],[126.9171506997421,37.5543649002176],[126.9059755001208,37.5578978008423],[126.9112200997687,37.5448425997301],[126.9395666984419,37.539096401342896],[126.92657470023221,37.527619300838],[126.9136870000992,37.5307860001282],[126.9160942997556,37.523254700719],[126.9022645002556,37.5241247007987],[126.9084875998681,37.5146486009657],[126.8998511980728,37.5117881002285]]]}},{"type":"Feature","properties":{"interval":60,"stationId":"3818491433","profile":"peak"},"geometry":{"type":"Polygon","coordinates":[[[126.6964934986909,37.4759010000795],[126.6968798987711,37.466045099705404],[126.71066020003401,37.4630811995767],[126.7173464004062,37.4773456994605],[126.7113172046722,37.478831899691606],[126.7137173022721,37.481871996651506],[126.7296251999438,37.485337299499996],[126.7449527998876,37.4826785990057],[126.7478633001463,37.484600098806204],[126.74410420205409,37.4907021996406],[126.7531201995447,37.4879155993099],[126.7624944972913,37.475740200880395],[126.7687516993588,37.4786262988214],[126.7841688993208,37.4706835973194],[126.7911570012989,37.4720643978824],[126.80088590039159,37.4625359982381],[126.8040228001626,37.4735914992495],[126.8232460001619,37.476445799029],[126.8332433993655,37.488281896268],[126.8472630971719,37.4686572989108],[126.856868500348,37.470024499072004],[126.8703936998319,37.4644037988686],[126.87140029925601,37.458802200742],[126.88143559536441,37.4537959986657],[126.8825898997394,37.4462453987076],[126.8978500991494,37.443063100346805],[126.89819459894349,37.4387144010578],[126.8885215999306,37.4354215019046],[126.87628549892129,37.4368769000675],[126.8743378981628,37.429211704709104],[126.86711580025789,37.424543203411204],[126.87096079596411,37.4244088992897],[126.86694699926059,37.4157593071759],[126.8621100026995,37.4185248041345],[126.8571100997459,37.4150117998849],[126.8617840983499,37.4113135001242],[126.87381089624719,37.4153092929502],[126.8982154984083,37.4004794983853],[126.9133490997161,37.4085328993463],[126.9218385996661,37.400842499794706],[126.91906139914241,37.3961233995514],[126.9298087993405,37.394129299614704],[126.9325187010178,37.403341396937904],[126.9184791024382,37.407484403066],[126.9126778020664,37.422402398938004],[126.90298139987681,37.4232893003929],[126.913544800712,37.4341683990412],[126.9047923014132,37.444953300665205],[126.91230560029679,37.4518607990289],[126.9111436005064,37.469615698614696],[126.9173280985125,37.4697345997929],[126.93059029894961,37.4557102025545],[126.9553930988659,37.454714499790605],[126.95853350574531,37.459023493561304],[126.9702725963907,37.4536241958752],[126.9806033997507,37.4710080979516],[126.9884666994664,37.4660825001595],[126.9922611956211,37.4535594021874],[126.97899939520731,37.4471788005145],[126.9814512961624,37.4405363025133],[126.9725524994337,37.435361102002204],[126.97665899593869,37.4338959005835],[126.9730451995525,37.4334516010278],[126.976586695385,37.430315099053004],[126.9736669963233,37.421283001191405],[126.9796630981629,37.4232867963],[126.9813691964568,37.4167955027913],[126.9664639985219,37.4117835026574],[126.95385680002569,37.4003987009368],[126.9451823022091,37.400554599917896],[126.9352059022283,37.3907326003509],[126.93678759929661,37.385807901915605],[126.93390030055001,37.3908983985473],[126.92800899949201,37.3879067023905],[126.92738159960291,37.3811152997799],[126.9345518979212,37.381376198210695],[126.9387143986998,37.3757011997114],[126.93519809952389,37.3673820003031],[126.9468408992061,37.364227800208],[126.9522946988927,37.3746632988011],[126.9405650049958,37.379772899981],[126.96894989866959,37.3824337994237],[126.9773624994193,37.3896628985721],[126.98666229973671,37.3896930997316],[126.98982150041651,37.392860499632896],[126.9810458027318,37.4020217982927],[126.9839678002205,37.411488198659804],[126.98453209965619,37.408347901800106],[126.9971658989269,37.4177019946782],[127.0026190944363,37.4154924965929],[127.0224474991275,37.4226685988262],[127.0241140000476,37.425259399801604],[127.0165118017939,37.4285273000164],[127.02912090150899,37.4409486966955],[127.0228863029532,37.437558606286004],[127.02438190300519,37.456232295876006],[127.046766099131,37.4577625998488],[127.04457879368509,37.4402141051215],[127.0488167984358,37.4336321985964],[127.0698415000805,37.4345577996107],[127.06332880810889,37.4427551006878],[127.0676926035705,37.4543955999553],[127.0556312039646,37.4624398001842],[127.0568640027689,37.473576998628396],[127.06963869923929,37.475017699179304],[127.07018910077379,37.4825540973749],[127.0781203989912,37.4748685001881],[127.0865051997371,37.4753559967144],[127.0952370999135,37.4824089977078],[127.1059203992554,37.478558297819404],[127.1077086006096,37.4886707975346],[127.12161709802129,37.478271498830196],[127.12514159758811,37.4724867004053],[127.1207237988663,37.4692654019831],[127.12811719990121,37.4635101988161],[127.13343530070391,37.4680930982736],[127.1257756003489,37.4743382989176],[127.1319144995622,37.475110097748804],[127.1288600005213,37.4928319987864],[127.1487183010422,37.4924814990373],[127.13473210054899,37.5030421010239],[127.13671990100231,37.513921800547095],[127.14243449980269,37.514351999778604],[127.1536101015229,37.5301216971848],[127.15649760031589,37.549149597875],[127.16683849928219,37.5480022001533],[127.17443930092631,37.557203198990194],[127.1702538997782,37.5624096003809],[127.1497605016788,37.5632577018159],[127.1489863003175,37.558843603535905],[127.1448429037372,37.5619093021659],[127.1399924016646,37.5560290052629],[127.1323601014561,37.562574900426604],[127.12390139518689,37.556838308906705],[127.0969278049465,37.5635443999243],[127.10491160243289,37.578555794560096],[127.1014556014013,37.5927018000164],[127.11367260114581,37.608510599208905],[127.1030161019914,37.6158086010858],[127.1055036006944,37.6272447993025],[127.08285840033291,37.632462904165],[127.0828841003072,37.639644896983],[127.07645000655809,37.644447996786695],[127.0930275011644,37.6611040991243],[127.0884260069425,37.6713271979216],[127.0913458010103,37.678342199244504],[127.0783332042364,37.681581804288996],[127.0667717978484,37.6739071034175],[127.0461389022936,37.693173101694605],[127.0454720021179,37.6988974998472],[127.0417465977,37.6908346032287],[127.0364363030103,37.6925146015487],[127.0367731985414,37.6798513062888],[127.0427387984155,37.676375698935004],[127.0305154000167,37.6653940021563],[127.02152320209501,37.6626843054386],[127.0141516061514,37.6748352964362],[127.0052181053858,37.674056805548304],[127.0054225934406,37.6623568032868],[126.9995024993607,37.658026307617305],[127.00793319207929,37.654995298365606],[127.00110819576871,37.6426454075331],[127.00299369328981,37.6252988039026],[126.9848982993442,37.6255581011569],[126.9897691963637,37.6039255019993],[126.98588440024851,37.5980129079119],[126.9612744007567,37.6042116002052],[126.95108570205889,37.601962100950104],[126.9480518050932,37.610129099257904],[126.9495228984324,37.6072681026133],[126.9430022005684,37.604849903652195],[126.949208701883,37.6275272975063],[126.9375318065229,37.628642801004],[126.94147420258051,37.632233497413296],[126.93908070025991,37.640719200323296],[126.93163390373759,37.6442854023956],[126.9336529001371,37.6500761989399],[126.9225070049674,37.6545623003652],[126.92461030163089,37.660635997974],[126.919909201009,37.6634662005836],[126.914837397372,37.6543257057942],[126.9083756015555,37.655006803855905],[126.909390100111,37.660029099461106],[126.8912815005374,37.6671013000975],[126.8844068998368,37.6562032037966],[126.87934490476471,37.659664901578005],[126.8549600002499,37.6479300002203],[126.8491910054277,37.649307905266696],[126.8458898046778,37.6582751997724],[126.8500450005226,37.6607621972854],[126.8307261994274,37.6595988003386],[126.8281358997778,37.6572879005843],[126.83422369882089,37.6464956996601],[126.8176800980216,37.628524001970796],[126.829203699474,37.625724699524696],[126.8262986000569,37.6219896021251],[126.8127714008887,37.625953800723394],[126.8046059990078,37.6201729015194],[126.814087898747,37.6039130017326],[126.81159959977619,37.6002449047759],[126.8281601004948,37.5956285994836],[126.83906559968119,37.6048205993203],[126.84175179977339,37.598150098261],[126.8538324977267,37.5967857980785],[126.85998709649989,37.586641798449],[126.8712751980481,37.590263797689204],[126.8743537978139,37.5880059994124],[126.8707053991402,37.5802286007375],[126.880905299516,37.5798834999472],[126.8817687990719,37.5650692011803],[126.8762084000291,37.5669397009799],[126.8673419052698,37.559770507924],[126.8702719005918,37.5699986995335],[126.8621569001077,37.5772281999929],[126.85905150182121,37.5778715001292],[126.8642368975802,37.5737494004933],[126.8558023060148,37.567675706567],[126.81085570091011,37.5851057017647],[126.80069690174531,37.5803942017788],[126.79980450124869,37.586329500238996],[126.79951389937669,37.5789520999992],[126.7901986994585,37.5765489007222],[126.7971767953704,37.5697638028177],[126.7993937003088,37.5758302957253],[126.8035801992859,37.5713500991522],[126.7984198005241,37.563155202025094],[126.81098919567499,37.5510347031301],[126.8271570988528,37.5458785992804],[126.8201864006886,37.5388994018322],[126.839905098784,37.5141880996458],[126.8454061998046,37.5155441979366],[126.8417531975132,37.5049411026645],[126.8296670023198,37.5021342003559],[126.8317462002406,37.506484396005696],[126.8212983029093,37.5072747009248],[126.8168964010508,37.5288639998818],[126.8070522035064,37.5363284002094],[126.7924971000356,37.5294755028578],[126.7979377982714,37.5255966999051],[126.7898717999416,37.521014900564396],[126.79857569524741,37.5142985025197],[126.7903804999785,37.509662004502],[126.7855020013879,37.5144854006591],[126.7670566014043,37.5078808010894],[126.74949760046499,37.5103432008085],[126.745375699802,37.5046026003907],[126.7514577997446,37.497652000661105],[126.7374792992324,37.4899509019266],[126.7244472004139,37.5026315001154],[126.73822079957249,37.5065026995429],[126.74299569878819,37.5036126967874],[126.7432546010132,37.50948789962651],[126.7170880984041,37.5077321015321],[126.7163828980727,37.4914214015756],[126.70812260017719,37.4868351005465],[126.7060280990281,37.476418601124806],[126.6964934986909,37.4759010000795]]]}}]}