{"type":"FeatureCollection","features":[{"type":"Feature","properties":{"interval":15,"stationId":"3824606374","profile":"peak"},"geometry":{"type":"Polygon","coordinates":[[[127.02083499850731,37.5040718995457],[127.0261579998773,37.5007138999603],[127.03992769978791,37.506301799355],[127.04885559838219,37.5026937983016],[127.049477599097,37.496024401748606],[127.0560041000127,37.4953036989816],[127.05287839987909,37.5025279994185],[127.0585651996453,37.5065052992219],[127.0656262989339,37.504544299582896],[127.06880369906351,37.5129781978985],[127.0863932989104,37.5006901001004],[127.10133190027001,37.5030749995185],[127.09094910106191,37.508773599763195],[127.08447830029971,37.5072318005504],[127.0824157010663,37.5149699997032],[127.06867150057619,37.5154836009063],[127.0701396002913,37.518885299523],[127.0561096005479,37.524130800079604],[127.0476336003936,37.5191156008139],[127.0499619983912,37.5163447007669],[127.0398200998233,37.518629200467],[127.03805369942111,37.512473500450795],[127.02083499850731,37.5040718995457]]]}},{"type":"Feature","properties":{"interval":30,"stationId":"3824606374","profile":"peak"},"geometry":{"type":"Polygon","coordinates":[[[126.9698137987682,37.5023713996359],[126.98779740030591,37.496369099589],[126.98036930021341,37.5059658995577],[126.9855940969417,37.5047643973731],[126.9991457980572,37.4942431994489],[126.9884119992448,37.4867594014562],[126.9798002000665,37.4882432003632],[126.9781521996825,37.4823419995027],[126.9905087962898,37.4850606984902],[126.9893189988743,37.478611000121],[127.00114159862079,37.4747064996941],[127.0083715989671,37.481647199699395],[127.015919397374,37.4791833984022],[127.0271905001229,37.4837784995985],[127.03399529915541,37.473851000226404],[127.0341263997978,37.462560500071],[127.0452111995783,37.4620976001239],[127.0461724004285,37.4778558985244],[127.0530011995718,37.480631899547],[127.05815959898699,37.4763879005534],[127.07018909660309,37.4825540952299],[127.0676148991773,37.4775614002226],[127.07594540018009,37.483102999128],[127.0856558006175,37.4800323989964],[127.0858579002789,37.4913190993926],[127.0933868976139,37.4978886981016],[127.1042198995506,37.4910471006284],[127.0978321001357,37.4917441007451],[127.0954001974687,37.4847840006196],[127.1056648989086,37.482456397730196],[127.1119469979607,37.489798498638],[127.1216868995258,37.4743913022124],[127.1319144995622,37.475110097748804],[127.1324475008108,37.487144199659106],[127.1272603001715,37.4944209006994],[127.1331074003836,37.5043648997834],[127.1257212006326,37.508636598906506],[127.13643499966021,37.5097520989215],[127.1412259002077,37.518295197321294],[127.14347409976351,37.51611479946099],[127.1378277008163,37.531429899806],[127.13127900053101,37.5290105011195],[127.1288694006355,37.5206307029273],[127.1185591030554,37.5230237004528],[127.1181368007747,37.5264099985146],[127.1278321006112,37.529548900236904],[127.1259676008835,37.5356797990802],[127.134045900493,37.5347157990501],[127.125747200209,37.5424712006112],[127.1194392002695,37.5413831008985],[127.1157693990223,37.5245318002308],[127.1118433017139,37.5230727010337],[127.09590470633671,37.5334048021913],[127.0960690009608,37.5416238006296],[127.0789401001492,37.5402634003241],[127.0801368023271,37.5464210987866],[127.07544870079799,37.5491013001681],[127.0837003996939,37.5540723995009],[127.0869981009993,37.5678176997668],[127.0809447999826,37.5678867005075],[127.08092930009319,37.5612197015152],[127.07483070022441,37.560289700271696],[127.07477179931429,37.5541514000662],[127.0625484002675,37.5441271007373],[127.0534019002193,37.5452991010885],[127.0483018004334,37.553753899942194],[127.04594590092671,37.5514926006146],[127.04229480015299,37.5596493995291],[127.0453993008679,37.5685584999757],[127.01990240027261,37.5704403000679],[127.0141042998711,37.565849800689],[127.00467420004689,37.5667709003337],[127.0081484994529,37.5623604996119],[127.0143537992804,37.5640066001813],[127.00888349886189,37.5539295002183],[127.0144703003576,37.5529344999371],[127.0164076000421,37.5624597990707],[127.02736299831679,37.5591431005033],[127.01845999961971,37.5582978004475],[127.01884479922559,37.552196199807696],[127.0378498984,37.5565451992817],[127.0419446973262,37.5512666016939],[127.033932499697,37.5452391006852],[127.0428564992157,37.5313979997789],[127.0348859019531,37.535619197466396],[127.0245425024732,37.5325163015049],[127.0172795005342,37.5390734007608],[127.02062209969979,37.542003195618705],[127.0161794009986,37.5492351004416],[127.0111311001104,37.5411147004859],[127.0228724984799,37.533976696129095],[127.0224706996086,37.5243139013901],[127.0158841006743,37.52437880013],[126.99179219975261,37.5055375013887],[126.96916940051089,37.506816300312195],[126.9698137987682,37.5023713996359]]]}},{"type":"Feature","properties":{"interval":60,"stationId":"3824606374","profile":"peak"},"geometry":{"type":"Polygon","coordinates":[[[126.7769078992639,37.4837261001298],[126.7814648992999,37.4791109000287],[126.78992279931519,37.4831170994876],[126.7975433992844,37.478362699078595],[126.79765880156309,37.4830437990802],[126.8070367002707,37.4846793988336],[126.81777959805639,37.4818025978945],[126.8225508996716,37.4909234992758],[126.8239834990126,37.4873090996835],[126.8302749994326,37.4935727993086],[126.837049399983,37.4819125018301],[126.8423843996524,37.481628499205996],[126.8518196987659,37.4705818000278],[126.858074599281,37.4722284999752],[126.8685676989442,37.4651328998907],[126.877552601241,37.472799098056],[126.88586989715691,37.4706895987304],[126.89595219990349,37.4770462994169],[126.9200187983486,37.469910999259106],[126.9330299975603,37.4565477991624],[126.9414881015315,37.459278998396705],[126.9487224987201,37.4551150990688],[126.9544532995599,37.4592745986639],[126.9544199992268,37.455100000411704],[126.95853350574531,37.459023493561304],[126.9702725963907,37.4536241958752],[126.9806033997507,37.4710080979516],[126.9884666994664,37.4660825001595],[126.9922611956211,37.4535594021874],[126.9861209954412,37.4448022044625],[126.9910699944234,37.4427248977064],[126.9775242997279,37.423479000681],[126.9845770975479,37.4229187973119],[126.9842153990103,37.415512800637],[126.9993410978248,37.4196354980665],[127.0023616020531,37.4267750961354],[127.0075158968988,37.4233593995511],[127.01803389978521,37.4261017992633],[127.0217520016393,37.4337812997511],[127.01918900369729,37.441673095885506],[127.0129600027971,37.4441875005584],[127.01440980115319,37.4513853966309],[127.0273870986161,37.4521082992146],[127.03292539513609,37.4449206039733],[127.02912089799939,37.4409487023603],[127.0354298952,37.4411109965332],[127.03260519802471,37.4357200019242],[127.04285779749519,37.427885095779494],[127.0416264987265,37.4240888995757],[127.0548408979841,37.4335890925844],[127.0660149005543,37.4347978984222],[127.0709975986133,37.429791600886205],[127.0681134014975,37.427481803196],[127.06672070289021,37.432978797699],[127.0667227969891,37.4269859008566],[127.0752233981361,37.4244846943103],[127.07197930296779,37.4249974004287],[127.0807237973805,37.4311709885492],[127.0719894029564,37.435428102570604],[127.0674286024856,37.4511892984112],[127.0735510983713,37.4495310983807],[127.0754488009816,37.4578265987655],[127.0811830991548,37.456819299515],[127.0848729005206,37.4616023998345],[127.0777451997555,37.4642643006325],[127.0751493994079,37.4595885030554],[127.0707625011634,37.463639199935706],[127.06854149771159,37.4591990058429],[127.06162410364,37.4689519961506],[127.077111598348,37.4750565942953],[127.105065098481,37.4561345993518],[127.1086604994529,37.4556317994964],[127.1089652022979,37.4622800989042],[127.11579469763069,37.462988797790196],[127.11975629818231,37.4362048013147],[127.11232149925479,37.4276913020086],[127.1165463968924,37.4274120949769],[127.11457519594211,37.415281501203],[127.1087120977716,37.4135616002786],[127.1139486979035,37.4094372003687],[127.1049349986543,37.40539540290651],[127.0992930022049,37.4151886008518],[127.09314209997879,37.4081119004802],[127.0993454989031,37.407684899032],[127.10032819901011,37.397639500960096],[127.0903041994589,37.402410701836594],[127.0920665961845,37.3941537991541],[127.0863307007591,37.3910227006084],[127.1000630974011,37.3751147018762],[127.0891116018607,37.364455804338505],[127.0813550010316,37.3391671008932],[127.0865846982368,37.3330847980268],[127.0810555002644,37.3311539014966],[127.0838941965154,37.3254699006849],[127.0647093008946,37.319661901164],[127.0673533965638,37.3106375004917],[127.0633461992075,37.2909852999271],[127.03921840237149,37.3028847031463],[127.0372060001335,37.2966447017071],[127.04409799992281,37.2854440998299],[127.0589494004406,37.2835507978143],[127.0627778997216,37.2887423988703],[127.068726799329,37.2869026997324],[127.0831382000483,37.2940000998484],[127.07988420126469,37.2996827996491],[127.0889470999893,37.3026022985814],[127.09708690060049,37.3141082985589],[127.1058301989958,37.3059608015991],[127.100664700908,37.2943814011792],[127.110196298866,37.2934534993315],[127.108215099427,37.3061022981096],[127.1222665006915,37.3234227985535],[127.1194578008336,37.322289100967],[127.1211275011456,37.338162397532],[127.1273969008515,37.339013399525996],[127.1271170003752,37.3621402975365],[127.1330020005838,37.3713194997011],[127.12964770072021,37.3720050006337],[127.1454246990733,37.3874733988414],[127.1413861055956,37.3908833013815],[127.14624910019941,37.3948056991846],[127.1447912022269,37.4255324930609],[127.1711996937292,37.4304408964097],[127.176497900084,37.4378764981144],[127.1732075041714,37.4439955976511],[127.1808956003718,37.444738998568],[127.176109500344,37.470062400466105],[127.1705683999348,37.464593805119705],[127.1495365017413,37.483066698738604],[127.1677512012006,37.4847620960337],[127.16111810464399,37.4964304988573],[127.1659798002054,37.5139630989408],[127.1605774020413,37.5357329964104],[127.1692154951136,37.540961897196],[127.1712736980502,37.534585800647704],[127.1736351013682,37.5377863976629],[127.1680453019743,37.5421204004675],[127.17180570042919,37.547427499197696],[127.1730854997609,37.544505800018506],[127.17965739961,37.551096599673],[127.1856859003603,37.549342799803696],[127.1878442995474,37.5542157991999],[127.1959271997482,37.5500284002824],[127.2015878997293,37.5335221993931],[127.23100489897,37.5365432986741],[127.2262707010258,37.544586200891494],[127.21644430051421,37.5444922006901],[127.2044116014192,37.5594846998028],[127.2022198002388,37.5697743991563],[127.1876404999078,37.5756508004635],[127.1694480010275,37.563786201366206],[127.15686890069681,37.569307700501206],[127.1511847002546,37.5621201029535],[127.1384776001599,37.5666534003989],[127.1259341948053,37.5589419073938],[127.1190883016512,37.5657450005907],[127.10520480353479,37.561066599831996],[127.1043380058825,37.5696255968896],[127.11535399994939,37.5761651996487],[127.107578503024,37.5971895973113],[127.11193379891691,37.598872796293705],[127.11367260114581,37.608510599208905],[127.10166250043271,37.612991201133006],[127.0978076009687,37.6079293019233],[127.0969165001907,37.6251872973374],[127.0866586034292,37.6269147019076],[127.0771401057792,37.6381066025793],[127.07389380151449,37.6534368001143],[127.0801610003656,37.6625330997093],[127.0598135008571,37.672709000377395],[127.0639297010231,37.679741998593094],[127.0449337012052,37.6936324995406],[127.0411168996966,37.6880743006359],[127.0495366994193,37.6839297989678],[127.04479699896571,37.6779985006921],[127.0517650994065,37.6718036998959],[127.0489609996618,37.6660729018555],[127.0451145013345,37.67048650072],[127.0400884996552,37.6651403000083],[127.0519055988417,37.6650040992539],[127.0580147001125,37.655101900449395],[127.0393973001013,37.6565681001535],[127.02053649966061,37.645432401070096],[127.0112845003058,37.6586070007368],[127.01224299850959,37.630173900341106],[126.9964492988119,37.6183019015663],[127.0036126971662,37.600301803883696],[126.99119040248539,37.6015249017126],[126.986656398752,37.589019803133205],[126.981164401115,37.5927351006968],[126.9795457996229,37.583859599859196],[126.9732932003652,37.5836735001154],[126.9755423994377,37.5896346967167],[126.96985740470639,37.5909128994247],[126.9618299008838,37.5837243016585],[126.9495428004813,37.588902000979395],[126.9484298004125,37.5981326998387],[126.9375355028557,37.603974798920106],[126.9404354000471,37.6096692999084],[126.93622960263541,37.621665100129],[126.91909419967111,37.625756100557794],[126.9127875998015,37.6186681014387],[126.9144899999272,37.6058100006832],[126.9064792000381,37.6005895006454],[126.90187599934511,37.5876108992869],[126.8868803991068,37.580424800535006],[126.8908786974366,37.569251799445105],[126.8838539020941,37.5532880073865],[126.8623439059897,37.5637587071776],[126.8595211088125,37.567348303588],[126.8642369026165,37.573749398970094],[126.8558023060148,37.567675706567],[126.8348612077972,37.5787932067942],[126.8335961990398,37.5742725019593],[126.8294270009384,37.5797014997238],[126.818164200531,37.5765263011846],[126.81391840009971,37.581113201134094],[126.8026879026787,37.576142201417596],[126.80001780209031,37.58135420101],[126.8043332988424,37.5680287006308],[126.7984198005241,37.563155202025094],[126.80971429714299,37.5539131004016],[126.8152090011199,37.560931098157596],[126.82631089840919,37.555036799507],[126.8259353988784,37.54851450045631],[126.82969249847379,37.5477742987092],[126.8258800996054,37.5393409994049],[126.8336977988445,37.533508599395596],[126.8399754994377,37.519307999861404],[126.8604763990594,37.5037090008159],[126.8437819996742,37.5005875006048],[126.83450980082141,37.4914035009679],[126.82913050065841,37.498806098886],[126.8223682026741,37.498922303104294],[126.80381509954489,37.483367200476],[126.79393400243119,37.4876297020735],[126.7769078992639,37.4837261001298]]]}}]}