{"type":"FeatureCollection","features":[{"type":"Feature","properties":{"interval":15,"stationId":"3835922764","profile":"peak"},"geometry":{"type":"Polygon","coordinates":[[[127.01570199976601,37.624922599737495],[127.0215570996985,37.621098400256],[127.0174642994688,37.6031291007143],[127.021572299929,37.5983642995341],[127.03833639975791,37.606378499608596],[127.0397500997181,37.6126850990376],[127.0328641005634,37.619096001574896],[127.0298557012593,37.633296699659105],[127.0330102989331,37.6439391987487],[127.0407894001805,37.6490328999143],[127.0382523002109,37.652815999690205],[127.0293649999825,37.6495714004131],[127.03143519987121,37.643157300819],[127.0176791001751,37.6393997006559],[127.02040939974121,37.6338640000788],[127.01570199976601,37.624922599737495]]]}},{"type":"Feature","properties":{"interval":30,"stationId":"3835922764","profile":"peak"},"geometry":{"type":"Polygon","coordinates":[[[126.9682020996082,37.544528400172],[126.9717244996605,37.5409646006968],[126.97610079958079,37.5525817997799],[126.9992358991471,37.5570534985847],[127.0050389995024,37.5543735991752],[127.0053244993717,37.548301899980196],[127.0150523985216,37.549076799622505],[127.0172795005879,37.5390733996873],[127.01958230080899,37.5502131005388],[127.0148279007892,37.5528715991135],[127.01611680116841,37.5559764994456],[127.0236833994196,37.55296039945971],[127.0190891005266,37.5579914999994],[127.0233919002272,37.5629112992393],[127.038598100023,37.5582161991481],[127.0376491007342,37.564542900545696],[127.0352065996631,37.5623143006997],[127.0310615004048,37.5678604004348],[127.0512921000903,37.580824199910104],[127.0454834015267,37.5780398009847],[127.0494692000239,37.5835378986779],[127.0445306009519,37.5875322006639],[127.0431407007481,37.6004121994102],[127.0626657003116,37.61183839968341],[127.054567400372,37.612067101079695],[127.0448336026059,37.6251367014398],[127.0447781002441,37.6386442980327],[127.0539326998514,37.6389683985374],[127.0550837994342,37.6290791000509],[127.07041989772941,37.6307818986013],[127.0672812004851,37.6232815007088],[127.07094089892189,37.623726298331505],[127.0721315998761,37.6166111019573],[127.0657485993826,37.614481000525195],[127.0721641998624,37.616539199236996],[127.0795668998647,37.609068899471],[127.080203400389,37.619919698529294],[127.072651900918,37.6318454991966],[127.0695769007081,37.649201399821905],[127.0863240972889,37.6614255944825],[127.08542290189409,37.676505400198906],[127.0729704009175,37.6748094027065],[127.0714572974438,37.6679067048642],[127.0507473011583,37.664258000746095],[127.0487736007706,37.6734922998545],[127.05334199907941,37.6785624987752],[127.05733170057361,37.6756197992647],[127.0497168006942,37.690986699573806],[127.0420622009393,37.694537501333],[127.0388401996533,37.6798243068075],[127.04193049922381,37.674337700973005],[127.0293937001184,37.659658100285704],[127.0207010992871,37.6541452020373],[127.0175699006231,37.661472396757304],[127.0080348979523,37.6645939008119],[127.0081908972402,37.6272587001143],[126.9983400001553,37.61805000079519],[127.0036126987803,37.600301804105996],[126.99154900023521,37.595015700612095],[126.9941977990348,37.5774293010274],[126.9850565004849,37.5806070003877],[126.9785410997442,37.5727874001262],[126.9716162000031,37.5778019003384],[126.9768674989277,37.5659895996691],[126.9712921003663,37.5628556008248],[126.97315879929249,37.5522607002546],[126.9682020996082,37.544528400172]]]}},{"type":"Feature","properties":{"interval":60,"stationId":"3835922764","profile":"peak"},"geometry":{"type":"Polygon","coordinates":[[[126.8407880985619,37.5324618998981],[126.8520261987648,37.519397299954],[126.8760295992939,37.5175650992387],[126.8794135982975,37.5140855016115],[126.8721287998537,37.4992930999985],[126.8788977987341,37.5009756979715],[126.891746399081,37.4904193005015],[126.89966800014571,37.4891952991971],[126.9024494996096,37.5051041990711],[126.9045230996125,37.4955837006048],[126.9147269988215,37.4947360991009],[126.90878119900471,37.4855565003529],[126.91492430055129,37.4849993996084],[126.9185853998618,37.4905877990047],[126.9335727999208,37.4761203986985],[126.9429364993933,37.4783415998447],[126.9772968992246,37.465246799371805],[126.9806033997507,37.4710080979516],[126.9884666994664,37.4660825001595],[126.99016859954041,37.4565612994207],[126.99570889725949,37.4546053986619],[126.994640298814,37.448409499118796],[127.00218269753981,37.4411265035531],[127.00228639863,37.435085400618796],[126.9936893999811,37.434116500501304],[126.994663499099,37.4295163997408],[127.01043600127319,37.4342396961498],[127.012509902983,37.4436008963774],[127.0082606009928,37.4499855010898],[127.01046259974889,37.4563812981503],[126.9885779016484,37.457269300819],[126.9970105011338,37.471482498918704],[127.00761690170451,37.4765732976217],[127.0172239994496,37.471869297766],[127.0271905001229,37.4837784995985],[127.03132019904889,37.462620201507505],[127.0482365000566,37.4600570989348],[127.0530011995718,37.480631899547],[127.06473529796989,37.479256698697704],[127.0751340008114,37.4848463982566],[127.0856558006175,37.4800323989964],[127.0852001010007,37.4874510004059],[127.07873240194951,37.4876836996854],[127.08598080116481,37.495857200146105],[127.0791189010719,37.4947655009348],[127.0754001019361,37.503515997085096],[127.0788429005655,37.504106799245505],[127.0961560986661,37.499303100437],[127.1082982990425,37.501388698909096],[127.12035899965939,37.489929599701604],[127.11147580093069,37.5099977995515],[127.1200583991889,37.5141645986945],[127.1180051009064,37.5253486995759],[127.136707798044,37.5226674984773],[127.15065490010771,37.537741399851804],[127.1497300028323,37.551579997717404],[127.16798869886,37.5568623973142],[127.1661632024442,37.5598682993434],[127.1465223022667,37.5547198015747],[127.1449019038579,37.5578681996733],[127.1364968996826,37.5502520002672],[127.1295987995095,37.5561079009619],[127.1191641034235,37.5473863052194],[127.104250800174,37.557904699017],[127.0958701049719,37.5573508014131],[127.0962059041593,37.5686982996006],[127.10274989761531,37.5717620965368],[127.1020837052608,37.5772690958468],[127.1077941995503,37.576745296370596],[127.1052505038448,37.5906566012426],[127.1137885001019,37.6041634975823],[127.106995201916,37.6129748987628],[127.1099983002222,37.6178963995602],[127.1044011010148,37.6148672008973],[127.1099165010057,37.62833020072],[127.1053885060976,37.6348586951016],[127.1127793002036,37.6343153986346],[127.11144090142281,37.6407660992359],[127.1193392970437,37.6422381988234],[127.117811899141,37.6336031996331],[127.1119874009955,37.6297617031883],[127.11326129730311,37.62357139880881],[127.1273918948693,37.628195896636804],[127.12267440192299,37.633938298764996],[127.12807689907869,37.636476599222604],[127.1287433000461,37.645993399919],[127.1400385988283,37.639364798910805],[127.1432454991006,37.643651697737],[127.148137396814,37.6410202994505],[127.15350880081739,37.6503521989038],[127.146604704685,37.6589211988384],[127.1382461017081,37.6574295022319],[127.1353072016937,37.6714694986413],[127.12963430231581,37.6693316016827],[127.1197746101308,37.6750586023064],[127.0999610032562,37.6923615035062],[127.09555850081689,37.6889709073089],[127.0823755010658,37.6962628008136],[127.07328250313721,37.6940859018373],[127.07765810061679,37.7014449964649],[127.0644511047267,37.7063442064583],[127.0654900036878,37.7153831974193],[127.0752275997376,37.7268310989624],[127.0686162039973,37.7354791979676],[127.0730387016872,37.740685998693294],[127.0824639991384,37.727880399324995],[127.09607029974639,37.7294068993054],[127.096941500164,37.743137299638],[127.0914971029976,37.7516730969025],[127.0883987016789,37.7499762039462],[127.0886625023277,37.759316499366896],[127.0820734017723,37.758994105424804],[127.0802106036351,37.7632448011741],[127.07542220092631,37.7593528999512],[127.0608866017166,37.7611732014207],[127.0605382954284,37.755609803333],[127.0537215021145,37.7530291014855],[127.0495540027686,37.7654856960559],[127.056377704238,37.7690962994946],[127.05459020214121,37.784007200619996],[127.0331632001775,37.7839015000039],[127.0284858993827,37.772367600537805],[127.0348895947937,37.764213499165095],[127.02097860047071,37.7593466009856],[127.0320664992316,37.7491532004811],[127.01665630483319,37.743454606857],[127.0253164952197,37.737301301962496],[127.0246979957052,37.7273734014207],[127.0207248996783,37.7270192017749],[127.02370909699461,37.7106514063242],[127.02037139825501,37.7089950069673],[127.0237090984461,37.710651394060804],[127.0272228949323,37.703765600946596],[127.01903639939991,37.701327201366205],[127.0226168967319,37.6998271993163],[127.0197872974982,37.6918669020426],[127.0025080947875,37.6787118054229],[127.0005826942498,37.671500002636],[126.99369190114061,37.6740818000542],[126.9940968971661,37.6662259028214],[126.9884558004028,37.6636100027014],[126.9988631950044,37.6656435965211],[126.99950249460251,37.658026303748706],[126.9924957016093,37.6568711049039],[126.9869961023298,37.6622567999116],[126.99332609129151,37.6485120985817],[126.9842315997786,37.6412471007537],[126.9895939951349,37.6406337960126],[126.9894759952529,37.633121503524904],[126.982890901838,37.6360186006278],[126.9777514992621,37.626145601639],[126.9794016977131,37.6163720010246],[126.9720808991804,37.6074649003497],[126.98531469574131,37.6071436948316],[126.9813383997176,37.601807900167394],[126.96809039963179,37.5948448015727],[126.96273940021861,37.5982096008077],[126.96152689987049,37.594003802612704],[126.9430022005684,37.604849903652195],[126.94343190243609,37.6150200956001],[126.9369057992187,37.6155550023747],[126.94154549869761,37.6186981979757],[126.9339736027047,37.6264879005474],[126.93685929981899,37.6278994991358],[126.9320863010034,37.6265531025183],[126.9329585003201,37.636766299889096],[126.9278686009754,37.644938800716595],[126.91709030117549,37.653161300815704],[126.9092685994744,37.651978301887006],[126.91344409846931,37.6503204983442],[126.90893850096491,37.647879003175206],[126.9115921956832,37.643608599679],[126.90743889976851,37.6336248070641],[126.9126076989714,37.628436301460795],[126.9044196978041,37.6141909998951],[126.90576539974421,37.592344100758396],[126.8959816007923,37.584221901013606],[126.88871930136031,37.587837400934895],[126.8839601986442,37.5821532012623],[126.88813999883261,37.5730299988583],[126.89477049726311,37.5733598996338],[126.89112899911461,37.5611123001503],[126.90089929904451,37.5532778998631],[126.8992705019365,37.544340105949196],[126.8894750996778,37.5416285011389],[126.88765099992871,37.531014200749404],[126.8629575999027,37.5333003011375],[126.8540751002779,37.528384500372304],[126.8457579006617,37.5365482002263],[126.8407880985619,37.5324618998981]]]}}]}