{"type":"FeatureCollection","features":[{"type":"Feature","properties":{"interval":15,"stationId":"414684925","profile":"peak"},"geometry":{"type":"Polygon","coordinates":[[[126.8841101988274,37.5265217998943],[126.9116707001874,37.5143744009352],[126.924297897605,37.5180072990924],[126.9250208993393,37.512023200169104],[126.9342327005854,37.5206454987366],[126.9411491994906,37.51924219855],[126.9383537064542,37.5256633080965],[126.9430206002881,37.5349238998676],[126.9515670998807,37.538623899553095],[126.959437400437,37.5541264998999],[126.9531840997498,37.5538665004015],[126.9528920001228,37.5481625009638],[126.94136329998271,37.542605000174404],[126.9424605995451,37.5363059004316],[126.931900707666,37.5303241087723],[126.9235301021206,37.533441704781595],[126.91861089837471,37.5205025002983],[126.90676710089069,37.5263811009719],[126.8841101988274,37.5265217998943]]]}},{"type":"Feature","properties":{"interval":30,"stationId":"414684925","profile":"peak"},"geometry":{"type":"Polygon","coordinates":[[[126.821872298918,37.5684970002104],[126.8273841980448,37.5631273989289],[126.8237676016997,37.5599110004366],[126.8363836992019,37.5551868994419],[126.8305409998855,37.551140600531994],[126.8316412998646,37.5395221004555],[126.8376493991836,37.536705399053005],[126.8437252997319,37.522409800428996],[126.8634166992944,37.5171471003444],[126.8621416998782,37.5112470006953],[126.8810541983594,37.515623498462],[126.8751694977728,37.499973402181304],[126.88911139897671,37.5006996012312],[126.887797899782,37.495047600273],[126.8912114987226,37.495503898860505],[126.8838953991331,37.4841407004309],[126.8906587995142,37.4839997989751],[126.89205800011311,37.489868899132595],[126.8998136998471,37.4883923997631],[126.9015557001605,37.4945551998415],[126.8955974004904,37.501766600255],[126.90308429917211,37.5057323996512],[126.9055756995458,37.4944757998964],[126.9163728978028,37.4909208988712],[126.9099583991994,37.4865561002524],[126.9169793000406,37.4906563987777],[126.9227225996681,37.4879107994347],[126.9331786987337,37.4701369001538],[126.93805539960199,37.4760062994988],[126.93297850021851,37.4799145012297],[126.9352501005534,37.499502899938],[126.9512656002351,37.5020815995725],[126.95325050033969,37.507355499488305],[126.9849763002647,37.4984426990552],[126.9802738003447,37.505515699220496],[126.9621734067801,37.5108909062009],[126.9594866030375,37.517484002239904],[126.9560014012205,37.5190756025993],[126.95660999996,37.513893103695594],[126.9439275094567,37.520071704963506],[126.96121520127839,37.5323666973721],[126.9615205997085,37.5226342006374],[126.9768134001379,37.5214529988716],[126.9679798012762,37.5271948998531],[126.9818925994374,37.5322782986074],[126.9729330012391,37.539570898540504],[126.9768494993888,37.5457071994779],[126.9721256006301,37.5498195000301],[126.9773728009843,37.5535564991175],[126.9746184004652,37.5548638000617],[126.98089350019629,37.560718699034204],[126.9956606997235,37.557827999985804],[127.0009824003941,37.5610942995993],[127.0083523991847,37.5571768992038],[127.0037282990788,37.5479766016492],[127.0069513990753,37.5472824997917],[127.0234008002885,37.5650965991033],[127.012841800198,37.567951300659395],[127.0171915003361,37.572810998405004],[126.9958189001281,37.5758838004289],[126.995842198897,37.572014700725],[126.989513300085,37.580537200254405],[126.9713192004228,37.580369999954],[126.96345100009361,37.574530400676004],[126.9577955002427,37.5768374995965],[126.9585530003512,37.5711426005463],[126.947745101497,37.5622374026705],[126.9232519002712,37.5638655005506],[126.9165920003066,37.5570725009678],[126.9074140004314,37.55984250057],[126.9037013034173,37.5429679034095],[126.8978145005358,37.5422631014259],[126.8790312009415,37.5490401014357],[126.8838538980944,37.5532879986255],[126.86648170054839,37.5520062008562],[126.8582672002002,37.5661216999643],[126.8491029995075,37.5647307008829],[126.8444245005162,37.5725238997555],[126.83722630100999,37.572486301651004],[126.8385951990214,37.562041401412095],[126.8325341009199,37.559252801086906],[126.8281121003689,37.56002200172939],[126.82867840281911,37.5706467997952],[126.821872298918,37.5684970002104]]]}},{"type":"Feature","properties":{"interval":60,"stationId":"414684925","profile":"peak"},"geometry":{"type":"Polygon","coordinates":[[[126.6885669991253,37.457961499214505],[126.69807039862411,37.4542564994815],[126.69525729976479,37.4341269009346],[126.6985771987413,37.4321346006898],[126.7001839019427,37.4430524990587],[126.7171096001164,37.4625818983961],[126.71504990117519,37.4670578002217],[126.72292290170991,37.4806839974819],[126.7351730991511,37.4850967983761],[126.7448403978709,37.481684298074796],[126.7449437012146,37.4896429006999],[126.7479321007617,37.4888804986172],[126.7624944972913,37.475740200880395],[126.7907420975813,37.4644829998141],[126.7858163991414,37.4471454999235],[126.7766949994004,37.443180901189],[126.77601989995159,37.4384153016352],[126.7888125995625,37.4302703998679],[126.7963641002859,37.4417755000232],[126.80426659887331,37.442702799601],[126.8073481000678,37.4695324989661],[126.817212399954,37.47405749793],[126.822669098958,37.471275697901],[126.8305117007993,37.4849576949153],[126.83712479462069,37.4805566989843],[126.8453663992064,37.460878101382505],[126.84982909930109,37.4640348975816],[126.85959199884951,37.4582604003596],[126.86705859825459,37.4593822985355],[126.8793406978747,37.4412639006664],[126.8823293026545,37.444952997101495],[126.89477169783561,37.4424996990805],[126.8884521990543,37.437326102273],[126.8988130974718,37.4283050013932],[126.89558899897371,37.4084305008461],[126.91095849914991,37.4000053981721],[126.912829099164,37.3933458008499],[126.9238042989903,37.39211249745421],[126.9222742997682,37.381722002207205],[126.9359679976534,37.3783305981884],[126.9342122995988,37.3659448001166],[126.93939619909331,37.362799800475194],[126.92986770045711,37.3643926002417],[126.9233961980039,37.3471406021492],[126.94139969933181,37.3558840977719],[126.94475389924649,37.3630119990678],[126.94943429911929,37.3545064994585],[126.9429070998694,37.3427499991355],[126.9578269011302,37.3550140984933],[126.9506892008212,37.3576025006179],[126.9492726021297,37.3645063985143],[126.9547511996539,37.367927799304894],[126.9522947016027,37.3746632982539],[126.9405650049958,37.379772899981],[126.9670114991154,37.3899291993165],[126.9689746001538,37.394693498701905],[126.9798109999209,37.3942106992459],[126.98438679939079,37.4040807962337],[126.96975590060549,37.4069270002237],[126.9664386998902,37.397014602564695],[126.9597298005153,37.3995403018844],[126.9556162998346,37.3941838003046],[126.9405448005323,37.3917432009237],[126.93276040387781,37.403529398309],[126.9367069999129,37.4088672989528],[126.9307688005492,37.4047208044425],[126.9285082028098,37.410259698903594],[126.9213905017351,37.4109928020107],[126.922900302068,37.4205469989834],[126.917342002439,37.4215873013838],[126.91642020148501,37.4347735979771],[126.9112123032444,37.437081500236],[126.9170423978194,37.4402146973634],[126.9084406023389,37.444598401117],[126.9167118001865,37.4477865994779],[126.91894960095911,37.457141398942596],[126.94710409922351,37.4488092990266],[126.9610431037062,37.4627564951985],[126.968676296073,37.462033995921004],[126.96825479649449,37.458810399144596],[126.9806033997507,37.4710080979516],[126.9884666994664,37.4660825001595],[126.9922611956211,37.4535594021874],[126.9861209954412,37.4448022044625],[126.9910699944234,37.4427248977064],[126.983280997883,37.435180700960395],[126.98432599671439,37.4267266005386],[126.9783457996721,37.4234011012143],[126.9825392995857,37.423704296526395],[126.9849637980892,37.416961700387205],[127.0023616020531,37.4267750961354],[127.0175520996458,37.4266281999717],[127.01918900369729,37.441673095885506],[127.0121255031049,37.449066798499395],[127.0214408992636,37.4603334997068],[127.0058475064104,37.4623663998264],[127.00411000401219,37.46852230110169],[127.0089985987954,37.473225397817494],[127.0212210986114,37.4693816991922],[127.0179179041973,37.471109100270496],[127.02500479882251,37.4744296987761],[127.0255285992084,37.4649231005437],[127.0340083990076,37.4580471993357],[127.0425040993009,37.4615442997938],[127.0469078998096,37.4567538000083],[127.0493805951982,37.440232799981295],[127.045416799162,37.4390298011843],[127.0620130928278,37.4343131992759],[127.0660149005543,37.4347978984222],[127.0633288021466,37.4427550944741],[127.0666571047806,37.4464462969966],[127.06261900197019,37.4490596009629],[127.0663218999333,37.4539269983758],[127.05103800349781,37.4672066977513],[127.0556096012544,37.4740512995257],[127.06963869923929,37.475017699179304],[127.07018910077379,37.4825540973749],[127.08651039924739,37.4758742996626],[127.0952370999135,37.4824089977078],[127.1059203992554,37.478558297819404],[127.1077086006096,37.4886707975346],[127.1228673999007,37.4764226999373],[127.1207237988663,37.4692654019831],[127.1260938989396,37.462042001612595],[127.1312411023013,37.467115798249004],[127.13861179937601,37.460158300955605],[127.1435428010737,37.4615515979772],[127.1272182003307,37.471195200986294],[127.13378870012569,37.4808618997139],[127.1288677002139,37.491127299630605],[127.1406690993711,37.4943108984462],[127.14218119514939,37.4884456032979],[127.1544861993859,37.4933370994645],[127.1547503006842,37.4969208994803],[127.14276390033571,37.4967155007311],[127.1353904005292,37.5062325997638],[127.1378990998231,37.5152791991897],[127.1485770992531,37.5164169987091],[127.1459639011635,37.5198087997447],[127.1536101015229,37.5301216971848],[127.1482117023402,37.538468700104005],[127.1525299003776,37.5465792937057],[127.1497300028323,37.551579997717404],[127.16798869886,37.5568623973142],[127.1661632024442,37.5598682993434],[127.1465223022667,37.5547198015747],[127.1449019038579,37.5578681996733],[127.136146199403,37.5465497007122],[127.13184970022661,37.554754899615396],[127.1253157007133,37.5548712003145],[127.1191641034235,37.5473863052194],[127.1039889999643,37.5579017996874],[127.0958701049719,37.5573508014131],[127.0962059004804,37.5686982954582],[127.0927948000756,37.569262801041795],[127.1003506010444,37.579637296567604],[127.0974825003282,37.5891437987272],[127.1120146998452,37.6002073996044],[127.11367260114581,37.608510599208905],[127.10166250043271,37.612991201133006],[127.0987129999243,37.6071638003897],[127.08574269991419,37.6038274024253],[127.0841844006388,37.6126759991219],[127.09893740018539,37.6144160999054],[127.09299729998489,37.6173715014231],[127.0936478009768,37.6239016985152],[127.0712392999787,37.6293490021006],[127.0628405997781,37.6206745016901],[127.0601918008031,37.630027998742804],[127.0710431996374,37.6355982994741],[127.0696339006186,37.6387036006987],[127.0561709028927,37.636900101163],[127.04571280124401,37.6574378010277],[127.0332734998134,37.6560884003409],[127.021732700131,37.6471373000866],[127.01194060605211,37.6644360016514],[127.0072901981409,37.624157703215296],[126.99489300010741,37.620419406149104],[126.99963219940899,37.6111483999932],[126.9967604980954,37.6064032002986],[127.0007788974342,37.6041854997475],[126.9822794003255,37.5934319029506],[126.9767604052773,37.5976038003295],[126.9749593987769,37.5905895024771],[126.96985740387889,37.5909129021537],[126.9695249004061,37.5972271000808],[126.96090740133779,37.598723300984105],[126.96054559937271,37.5935663044123],[126.9430022005684,37.604849903652195],[126.9446836990751,37.623571494801794],[126.932013001249,37.6300508010319],[126.9351959000938,37.6375015996602],[126.9199023000797,37.6587175000406],[126.91950889967289,37.6549730031293],[126.9051507008996,37.653748204348005],[126.90157350254769,37.6612274019879],[126.8921434001082,37.6638321000576],[126.888628999351,37.654725302053],[126.87285250059689,37.6551587018846],[126.8626727967873,37.648623803751],[126.8685451975295,37.6433046010614],[126.8781368992852,37.644448498767105],[126.8826485006425,37.650519898080496],[126.91066669654069,37.640880799808095],[126.9014990003501,37.6167990028066],[126.8998854960372,37.593601702351],[126.8785350002102,37.5990812005293],[126.8819628013185,37.6044708980107],[126.8728707014675,37.6058365000015],[126.87831730180801,37.6127619991361],[126.8756088007531,37.6177377998243],[126.85360450301461,37.6145250021534],[126.8556104001381,37.6200366995509],[126.84584959943369,37.624421501249095],[126.8073665018151,37.619656303336406],[126.8077648971134,37.6148150009216],[126.8131292973951,37.617377896473],[126.8151299966091,37.6138473984022],[126.8155655994856,37.6037022003199],[126.82971879943119,37.600903099971596],[126.8319012009386,37.6070415976627],[126.8416654983796,37.6032815003583],[126.8496385007403,37.608364995786],[126.8589414977086,37.6049388984213],[126.8599854956063,37.5920125018416],[126.87459679691301,37.592212399269],[126.8743537969214,37.5880060022578],[126.8544261000947,37.581638500611895],[126.8470022003363,37.572538409249496],[126.8218896997441,37.583948800437504],[126.8243651991955,37.5820150005486],[126.8168942009732,37.580768501483796],[126.8144506027807,37.583393799390905],[126.81806789916341,37.584668898115794],[126.800210601008,37.5940990996382],[126.7943188993671,37.5863947012447],[126.78819420155011,37.589722397974796],[126.7887793993929,37.579745603523506],[126.78454190103949,37.584805800297296],[126.78103519719751,37.572320804131],[126.7904878988427,37.566374692500794],[126.7993937003088,37.5758302957253],[126.8043332988424,37.5680287006308],[126.7984198005241,37.563155202025094],[126.8139417975667,37.5471032001008],[126.80638169880861,37.5342177019767],[126.7924971000356,37.5294755028578],[126.7979377982714,37.5255966999051],[126.7950780998856,37.523039400563704],[126.7874188006638,37.5239530005464],[126.79857569524741,37.5142985025197],[126.7903804999785,37.509662004502],[126.7855020013879,37.5144854006591],[126.7726166009912,37.512159001033694],[126.76948919972959,37.507474601396105],[126.7652026004094,37.5119848999443],[126.7638783977563,37.508219101633195],[126.7525332000826,37.512822900418406],[126.7489375992337,37.5082167995033],[126.7452528010092,37.5134314981017],[126.7359648011912,37.5114251007091],[126.7325814009921,37.5203232001325],[126.7226760005511,37.522422601714496],[126.73391689981379,37.5296990998736],[126.7308072011976,37.5355663998424],[126.7400289999199,37.5356665999587],[126.7453173018876,37.5409122982673],[126.7478755015519,37.5524108995492],[126.7550293997129,37.5580379996597],[126.74314510181681,37.5783434004092],[126.7352063018759,37.580916102478504],[126.72767230135,37.571356305012195],[126.72037290168,37.571066602622004],[126.7249591952398,37.5631748022126],[126.733804899574,37.566638090693296],[126.7420816943152,37.5592202000226],[126.71905649930359,37.5453896011568],[126.71091579990839,37.5312984002708],[126.7163611996633,37.5239600006222],[126.71027330006089,37.5195392006776],[126.715662796708,37.5168263997601],[126.71341079896001,37.5126833039032],[126.7066230014225,37.5122924008809],[126.7053466011142,37.516165199925204],[126.6952398014106,37.5094049010532],[126.7026802998769,37.4996615990094],[126.7066847997218,37.5066000972884],[126.7165329979226,37.4934796995173],[126.70640329986091,37.4919706005037],[126.7047063006201,37.4815719013991],[126.69190579996,37.4789065001511],[126.69234179922219,37.4649846000364],[126.6979755983277,37.459210800238004],[126.6885669991253,37.457961499214505]]]}}]}