{"type":"FeatureCollection","features":[{"type":"Feature","properties":{"interval":15,"stationId":"4704699992","profile":"peak"},"geometry":{"type":"Polygon","coordinates":[[[126.9212761988258,37.5548967989941],[126.9341657996394,37.5425521001821],[126.9459452996179,37.545981499691],[126.9498268000177,37.5565141995118],[126.92814680026589,37.5604681003321],[126.9212761988258,37.5548967989941]]]}},{"type":"Feature","properties":{"interval":30,"stationId":"4704699992","profile":"peak"},"geometry":{"type":"Polygon","coordinates":[[[126.8821041980264,37.5249139022389],[126.887594299807,37.522526399611195],[126.8918711998674,37.510809800034494],[126.897740600429,37.5119290982088],[126.9099424003619,37.5214697995608],[126.90633240354799,37.53662949795039],[126.9105571008771,37.5439333912341],[126.9256506931666,37.538223296385596],[126.9321079972325,37.5416509899353],[126.9279866997831,37.5288879000734],[126.9361640982544,37.5233631996124],[126.9433087014992,37.534791498968296],[126.9496583996829,37.5349199992197],[126.9640429989554,37.5313218987394],[126.96136359967839,37.5248824003947],[126.9750380995066,37.5209402987668],[126.9679798012762,37.5271948998531],[126.9818925994374,37.5322782986074],[126.9729330012391,37.539570898540504],[126.97203850056539,37.5482073004506],[126.97803350027499,37.5551616992862],[127.0222124003041,37.5666394000746],[127.004750700608,37.567464800855106],[126.98979919991909,37.5746404002161],[126.95186550126739,37.566892301536],[126.94207180158149,37.570581699691495],[126.9360905000064,37.566987801207],[126.9218375999811,37.5775891004552],[126.9147260998557,37.5724192021442],[126.9196216007544,37.5980593996445],[126.9318317997568,37.608258499708796],[126.9264359998182,37.6126854002399],[126.926774699485,37.6090895003282],[126.9202653003533,37.6094462004581],[126.9195740993558,37.6042527997423],[126.9110883996302,37.600679200519004],[126.90575669981669,37.5895980005247],[126.89760549916839,37.5840072012283],[126.8859824017465,37.584141601468204],[126.88813999836081,37.573030001123605],[126.8919731000605,37.5752733977203],[126.8968985984102,37.5709917003929],[126.8945627986768,37.5595838011108],[126.9075008992766,37.5468732000047],[126.8917299008252,37.5395813010324],[126.8934667989106,37.5327458005633],[126.8821041980264,37.5249139022389]]]}},{"type":"Feature","properties":{"interval":60,"stationId":"4704699992","profile":"peak"},"geometry":{"type":"Polygon","coordinates":[[[126.6955143990693,37.4752316996845],[126.6981463987048,37.4655503999821],[126.7106942000305,37.462657899615806],[126.7192323007898,37.4835914972681],[126.7448403978709,37.481684298074796],[126.7449437012146,37.4896429006999],[126.75266929999559,37.4879746992508],[126.7624944972913,37.475740200880395],[126.7699449993582,37.4785463995949],[126.7753789985168,37.473160799282105],[126.7793121006265,37.475916896602705],[126.7841688993208,37.4706835973194],[126.7911570012989,37.4720643978824],[126.80088590039159,37.4625359982381],[126.8040228001626,37.4735914992495],[126.8207396969096,37.4737448005027],[126.8332433993655,37.488281896268],[126.8472630971719,37.4686572989108],[126.8632231984073,37.4642695980778],[126.86421489993009,37.4671958987313],[126.88143559536441,37.4537959986657],[126.88077609743061,37.4461941001559],[126.89477169783561,37.4424996990805],[126.90036119858331,37.4338827007402],[126.898848998589,37.4238380998643],[126.90433209240261,37.4203745985408],[126.9015229958696,37.41109630454039],[126.9133490997161,37.4085328993463],[126.92088099953999,37.3947370997529],[126.9279429986908,37.393798499812405],[126.9330378998837,37.398271099432904],[126.9307688015707,37.4047208016417],[126.9184791024382,37.407484403066],[126.9132252009671,37.4234133005364],[126.90298139987681,37.4232893003929],[126.909635902557,37.431275494592],[126.9132993999278,37.4290934996769],[126.9140010004557,37.439818797498695],[126.9047923014132,37.444953300665205],[126.9114613011411,37.4515621993275],[126.908029301855,37.4594537998416],[126.91325780015309,37.4680119999069],[126.93167779628921,37.4633338977733],[126.9322987972411,37.4578674003973],[126.94820410047039,37.4572966992045],[126.960595398846,37.464914198558404],[126.9743625967139,37.4622457998686],[126.9806033997507,37.4710080979516],[126.9884666994664,37.4660825001595],[126.9913226001676,37.4467341023807],[127.00218269653341,37.441126500316905],[126.998901099815,37.441116300327096],[127.0003112006052,37.434642101062096],[126.99534630022619,37.4385689005252],[126.986350699992,37.4306680008623],[126.9887939987377,37.4209298005632],[126.9872003020117,37.4269868984318],[126.9961643003858,37.4235902988028],[127.0036226997615,37.4282905993869],[127.0009738015757,37.433175597352],[127.0130932997606,37.4299568984081],[127.0097647019445,37.4316980986914],[127.0158692972541,37.4348400951984],[127.00957410596709,37.4389227993866],[127.01918900141419,37.441673096641104],[127.0129600027971,37.4441875005584],[127.0150043993806,37.4574452986298],[127.0043290015185,37.4585221038443],[126.9978308028175,37.467128899988296],[127.00876239959989,37.4782600986038],[127.01641189792589,37.4751301978561],[127.0287000986133,37.482525000852],[127.0288143990059,37.47677139952879],[127.0349254990698,37.4738129000381],[127.03400839849701,37.4655859997727],[127.04509469891251,37.4635679991531],[127.0450917001589,37.479443499636304],[127.06473529796989,37.479256698697704],[127.0744890004394,37.489853599159794],[127.0841925002763,37.4907955994195],[127.0754001019361,37.503515997085096],[127.0785654997605,37.505347298891394],[127.09680569938871,37.4999931996876],[127.1012448989253,37.5058548995518],[127.1195236993549,37.4916595996762],[127.11157560079539,37.502935100882304],[127.1112364997433,37.5127165986777],[127.12015460052751,37.515720100177205],[127.1169424002649,37.5243768991433],[127.1284433002154,37.5297857985275],[127.13702430000069,37.523284199874],[127.141829300982,37.536977899246494],[127.1276343016756,37.5418185995562],[127.1346343996662,37.5471237995252],[127.1296580013515,37.5556114999589],[127.12322070000711,37.5541522001668],[127.121874699727,37.544218801115704],[127.1155311007613,37.542114600975594],[127.1091007011613,37.5460656002431],[127.1112615026439,37.553053302087804],[127.0973988011866,37.5535221019064],[127.0960477047943,37.560141898622],[127.0886536007449,37.564105400423806],[127.09687250007241,37.579297699848],[127.0964390000907,37.588940699968],[127.104438500081,37.598430899529596],[127.1120146998452,37.6002073996044],[127.11367260114581,37.608510599208905],[127.101647500015,37.6128797001115],[127.10411329831629,37.6047469002358],[127.08574269991419,37.6038274024253],[127.0841844006388,37.6126759991219],[127.0962174995092,37.6130234002508],[127.09503680181881,37.616855399673],[127.0913513006879,37.616491401158],[127.0890647001782,37.6247130003631],[127.0788214002303,37.6245646005222],[127.0742466011847,37.6294564002861],[127.0628406019794,37.6206745023778],[127.0601918008031,37.630027998742804],[127.0709386993784,37.635837199779495],[127.0662896003558,37.6398633001018],[127.0642820004515,37.6335072013813],[127.06262529960799,37.6391321991524],[127.0537418986507,37.6332795023849],[127.0573875985381,37.6252577998953],[127.0534817978502,37.619458702124],[127.0384890003189,37.616351704062104],[127.0334275029909,37.6206708990939],[127.03845140012609,37.6279796986597],[127.03154350185079,37.628038499750204],[127.03789,37.63391999812001],[127.0363354002226,37.6402163998717],[127.0416730017518,37.6484497992284],[127.0460007990065,37.6495575991704],[127.0474911991237,37.6409980003274],[127.05356929787041,37.6404253992011],[127.04571280124401,37.6574378010277],[127.0172023001872,37.6451837008943],[127.0131430001903,37.6522284012422],[127.0099086994,37.633165699956],[127.0133023989585,37.6316605992296],[127.00873659855361,37.6238079003498],[126.9966852999531,37.6186172003218],[126.9998782992163,37.6061671003903],[127.0047952975977,37.6064662979415],[127.0036126987803,37.600301804105996],[126.99119040248539,37.6015249017126],[126.98193630034311,37.5912798021521],[126.96352880025911,37.594423400072394],[126.9611550002016,37.5840366026036],[126.9480518032495,37.6101290981885],[126.95109170054661,37.625033598951504],[126.9391626051874,37.6346298002825],[126.93152810054299,37.650009499873505],[126.9083756015555,37.655006803855905],[126.8954723001628,37.663628600399],[126.8844069020926,37.6562032027191],[126.8842437022558,37.6599997989225],[126.871772799534,37.6593820006499],[126.8728524990523,37.6551587031755],[126.85304000157869,37.647980006594594],[126.84776940684931,37.6534912010834],[126.84804170150039,37.6671172010368],[126.8293574992181,37.6628704006419],[126.8238560000933,37.6571329009104],[126.827227398323,37.657815897602404],[126.8270013979362,37.650428301101805],[126.8142160029911,37.6408767028341],[126.81287230194029,37.6491003985789],[126.8170053978072,37.6506404970388],[126.8078407050196,37.6577612974571],[126.81090090182289,37.6686417006655],[126.8018647005553,37.6698167007756],[126.79801450023159,37.681874799399104],[126.7820084007596,37.6814707013603],[126.78279840006141,37.687579098438],[126.7699407001118,37.6998980012554],[126.7599099017509,37.7013587002021],[126.75998700025059,37.717320800097205],[126.75691829800199,37.711160999223495],[126.76143899861819,37.695750402432004],[126.7530390000652,37.690828000259906],[126.75769699894889,37.683507499980195],[126.74067000126679,37.6825152015012],[126.73995209772549,37.6696655004559],[126.7456375985278,37.6706662971443],[126.7550466989418,37.661628199761104],[126.7572572991022,37.6649705995023],[126.7636090005621,37.6467809018442],[126.7712079980502,37.6470922011444],[126.7751082975853,37.6335036003373],[126.8036184976571,37.6272504983884],[126.79523950139469,37.6222012023779],[126.8032240990806,37.6223960994418],[126.8115995946542,37.6002448977958],[126.8274720948983,37.593520291500404],[126.8310088003069,37.594307797744],[126.82833480179109,37.600493699527],[126.83906559968119,37.6048205993203],[126.835974299918,37.5990962003379],[126.8485646001214,37.5959339946225],[126.8545207993379,37.5822504010978],[126.8642368975802,37.5737494004933],[126.8558023060148,37.567675706567],[126.80491940063371,37.5878892021487],[126.7969649996827,37.5847702010702],[126.79951389937669,37.5789520999992],[126.7901986994585,37.5765489007222],[126.7936973959229,37.5670304024866],[126.7993937003088,37.5758302957253],[126.8035801992859,37.5713500991522],[126.7984198005241,37.563155202025094],[126.820325499479,37.5458453000791],[126.8172645991389,37.5384101004285],[126.82572099854261,37.530860298628],[126.823101100109,37.527568100585704],[126.8431421996937,37.5109403986526],[126.8364370973726,37.498840003825],[126.8218409009155,37.505967799477],[126.8209677972553,37.4993503046714],[126.8115212021241,37.5025506991469],[126.8173500990983,37.505574698171095],[126.8179472013458,37.5287457998486],[126.80722159996,37.5382313004519],[126.80638169880861,37.5342177019767],[126.7924971000356,37.5294755028578],[126.7979377982714,37.5255966999051],[126.7950780998856,37.523039400563704],[126.7874188006638,37.5239530005464],[126.79857569524741,37.5142985025197],[126.79314050068261,37.5125769042413],[126.7942731971318,37.5086246015864],[126.77102620022589,37.503725600332906],[126.78698529967839,37.4991339987112],[126.7882848993397,37.4947258012201],[126.7752274004177,37.4926076003036],[126.7571256009517,37.499949299405394],[126.7339053010206,37.4906714997107],[126.7238879001566,37.5039354999912],[126.7251209005177,37.509229599858294],[126.7154922034486,37.509264199952796],[126.7188967972073,37.5033690988705],[126.7149676994879,37.4907882022088],[126.70784729994699,37.486156400161896],[126.7060280990281,37.476418601124806],[126.6955143990693,37.4752316996845]]]}}]}