{"type":"FeatureCollection","features":[{"type":"Feature","properties":{"interval":15,"stationId":"4820118359","profile":"peak"},"geometry":{"type":"Polygon","coordinates":[[[127.0927908976864,37.3408280971149],[127.0935809997016,37.3341014000027],[127.10151219956771,37.32775199999519],[127.1096453009186,37.3340052987013],[127.1072271005541,37.3468217992125],[127.114018200456,37.3521668000191],[127.104655599776,37.352432200952606],[127.0927908976864,37.3408280971149]]]}},{"type":"Feature","properties":{"interval":30,"stationId":"4820118359","profile":"peak"},"geometry":{"type":"Polygon","coordinates":[[[127.0634399968877,37.3041080069528],[127.0653575999731,37.2884658999169],[127.0787918994207,37.291833497733705],[127.0831116000266,37.2958618981382],[127.0810116998189,37.301024599611],[127.09708690060049,37.3141082985589],[127.1006224983522,37.3122185999894],[127.1065272006274,37.325317999371904],[127.1112407988558,37.3212571000036],[127.1211923008583,37.330813999809195],[127.1180407001082,37.3432611992655],[127.1236126007063,37.349875898073],[127.1182443002977,37.3598223007228],[127.12416350013329,37.3698680992488],[127.1231466000713,37.3841166984571],[127.1282745012785,37.3882299972705],[127.1319859991385,37.3827040999717],[127.1282745039824,37.3882299979086],[127.1335272006125,37.3971324993341],[127.1296861014966,37.402290300754295],[127.1206327003532,37.394976400849096],[127.1130029006312,37.403649800682295],[127.1013614002796,37.3991935000831],[127.105889999472,37.3948992997314],[127.1016387999274,37.3899905001821],[127.1110010970729,37.3812129020113],[127.1047964985438,37.3772776015526],[127.1049339989307,37.3655994997395],[127.0983125990531,37.364642401227904],[127.0979067945387,37.355956301141404],[127.08269580141679,37.351387701162096],[127.0838941965154,37.3254699006849],[127.0663182003677,37.3203516004784],[127.0682187956984,37.309678901450305],[127.0634399968877,37.3041080069528]]]}},{"type":"Feature","properties":{"interval":60,"stationId":"4820118359","profile":"peak"},"geometry":{"type":"Polygon","coordinates":[[[126.8827154995686,37.5245082996237],[126.8913881997199,37.521923099270104],[126.8947357995479,37.5128792994022],[126.9054261999341,37.517961999443195],[126.90582689926899,37.508078599693896],[126.9188675986057,37.5104307992789],[126.9191116993802,37.4974251006146],[126.92725899959221,37.494450300485894],[126.9174450009166,37.495174001113796],[126.9317021997185,37.469093199187604],[126.9513558996192,37.4777402991826],[126.96207339824869,37.472514798523996],[126.9618084985136,37.4684270026118],[126.9743151991382,37.4645734984185],[126.9806033997507,37.4710080979516],[126.9884666994664,37.4660825001595],[126.99016859954041,37.4565612994207],[126.99570889725949,37.4546053986619],[126.994640298814,37.448409499118796],[127.00218269753981,37.4411265035531],[127.00228639863,37.435085400618796],[126.9927916992101,37.430865400380604],[127.01043600127319,37.4342396961498],[127.012509902983,37.4436008963774],[127.0036067002151,37.449896600536],[127.0091515008338,37.4548112985722],[127.0043290034947,37.4585220985696],[126.9957088994094,37.454605403112495],[126.9885779016484,37.457269300819],[126.99814429817481,37.4704011963466],[127.0006482971825,37.4671172000117],[127.0122848981993,37.473095899300894],[127.0243539955384,37.45136870409161],[127.01946260042979,37.4543840010763],[127.03701379591159,37.450556294364304],[127.03260519802471,37.4357200019242],[127.04285779749519,37.427885095779494],[127.0660149005543,37.4347978984222],[127.0709975986133,37.429791600886205],[127.0681134014975,37.427481803196],[127.06672070289021,37.432978797699],[127.0667227969891,37.4269859008566],[127.0752233981361,37.4244846943103],[127.07197930296779,37.4249974004287],[127.0807237973805,37.4311709885492],[127.0719894029564,37.435428102570604],[127.0674286024856,37.4511892984112],[127.0735510983713,37.4495310983807],[127.0754488009816,37.4578265987655],[127.08152129856751,37.4588035001169],[127.0802615004216,37.462667600875406],[127.0640789021742,37.461644903397],[127.06095180509,37.4721552010526],[127.0650907017015,37.4789552988287],[127.07018909660309,37.4825540952299],[127.0676148991773,37.4775614002226],[127.0924568998891,37.474504799845896],[127.0945594983742,37.477512398464405],[127.0945552003321,37.4736212000759],[127.1095488979658,37.4706504985953],[127.1078904996966,37.4620218978892],[127.1194199939955,37.4589331016612],[127.1167570002008,37.4293677028343],[127.1064523004712,37.4275601020656],[127.1054402968544,37.422544602445704],[127.09243269713231,37.416254005659205],[127.09292219997981,37.4087578999025],[127.0857773987358,37.407094405604695],[127.08542679712349,37.398620902169],[127.0808913008782,37.397877001817804],[127.08317689882159,37.3935159018437],[127.0770334995978,37.392951000264496],[127.0841110949564,37.3752918024858],[127.07711279843879,37.3664776057886],[127.0806275937345,37.3601099043888],[127.0692229026844,37.361257701234706],[127.0679763006994,37.3663683008184],[127.0634802992807,37.3635936022812],[127.0690159986445,37.3613777997311],[127.0671896979691,37.358610102527],[127.0594838009482,37.3603574008442],[127.06107569964391,37.3553354004968],[127.0774314956612,37.354707498068905],[127.07953089625539,37.344740103176605],[127.0702848031264,37.3430228045815],[127.05980460138741,37.3461646027647],[127.0584949026971,37.3508303980989],[127.05692039731919,37.3381706003752],[127.05165889850561,37.3331777011445],[127.05608559542681,37.327610203511306],[127.0390058004208,37.324240001949],[127.0241376002505,37.307578305515506],[127.0220589023292,37.3122953007985],[127.024097397755,37.304467702477],[127.0150506998785,37.3027832007234],[127.0149772996617,37.290156700473595],[127.0334861982501,37.2679755011062],[127.0232857999568,37.264405001112095],[127.0173081000694,37.2714225000968],[127.00997890062229,37.2675185015545],[127.0111396997619,37.2614786000771],[127.0229816995158,37.2620651988147],[127.03196819973759,37.2549961992071],[127.0372564994988,37.2425881017815],[127.0466339999733,37.245190899695196],[127.0534717985817,37.2359307000102],[127.07472459868569,37.239899599478804],[127.0813555004345,37.2455433969545],[127.0807611029505,37.2545694996135],[127.0899562982534,37.252713197641405],[127.0907124999757,37.2617401984251],[127.0784759029186,37.2848024957975],[127.0919628998646,37.289858194293394],[127.0958508959766,37.2888284953231],[127.0926404986775,37.2810997010806],[127.10093709913009,37.2700938003385],[127.09475859864021,37.2710838018346],[127.0981682990559,37.262873199994104],[127.0951261995301,37.2571192002205],[127.10360569941561,37.2481543992745],[127.11365330055699,37.254630897865],[127.1128793020185,37.2645420963466],[127.12594759744991,37.2701592973315],[127.13500789678541,37.2575399989859],[127.15112209595,37.261810697674],[127.1568619950266,37.2541210024963],[127.1581824002904,37.2586442948876],[127.1658591984947,37.253649600564806],[127.1675192058141,37.2634549999403],[127.1626076041049,37.2653933005204],[127.1627014040111,37.2728154930982],[127.14425150065449,37.2854139011498],[127.1345656027959,37.2865492011802],[127.12560610162019,37.305497098634895],[127.1150716045393,37.3049940999869],[127.1142924063538,37.3112017964541],[127.11939440125181,37.3179759896799],[127.12896419895159,37.313469696038],[127.1345716026923,37.3276738921183],[127.1443268000901,37.33075769935],[127.142011903166,37.364866298458004],[127.1596980978816,37.384850198054004],[127.15698880437459,37.389475800426396],[127.1413861055956,37.3908833013815],[127.1496505030108,37.403501497245095],[127.1563259990027,37.404425799337],[127.1541906043256,37.429200694018405],[127.1711371004358,37.433530498044604],[127.1771281024106,37.449105401002],[127.1733926025742,37.4645855989365],[127.1571617987485,37.463724401623],[127.1504624000488,37.471877797875905],[127.1446016012215,37.471468601001604],[127.14266620117529,37.4833290989476],[127.13594620582121,37.488574198632904],[127.1558457005924,37.4945194992301],[127.138076400854,37.501588300829404],[127.1341188023162,37.5094026003495],[127.1398927005135,37.521420301397406],[127.1282746989942,37.5204502019335],[127.11959669905521,37.5076758010877],[127.1151744014676,37.5121958998366],[127.11990440075459,37.5173675999413],[127.111467701329,37.527006800099],[127.10376870067991,37.5242208011971],[127.0982464012034,37.5413900005706],[127.077065701424,37.5464062011093],[127.0812208996804,37.552640799641],[127.0928799000987,37.5487974993659],[127.0868001002333,37.5596096001374],[127.0926925000113,37.5794230998068],[127.0889801002192,37.5907991004137],[127.07285059921199,37.5600953021058],[127.0581184001354,37.563106000358296],[127.0538669008028,37.571237099593496],[127.0249190007791,37.569720500558304],[127.0292832005899,37.5767738995794],[127.0229640000708,37.578626701099104],[127.0238794001818,37.5819495997163],[127.0382314000371,37.5870738996723],[127.0369900002842,37.5931600012406],[127.0252424000079,37.587300701529],[127.015910000458,37.5954591001155],[127.01072549885241,37.5781748015163],[127.0048003000619,37.576836800379205],[127.0028462002541,37.5850992008338],[127.0101854008246,37.5887472998027],[127.00498399970769,37.5914183006225],[126.9968239998475,37.5814241006734],[127.002194398396,37.577511100013304],[126.995842198897,37.572014700725],[126.9877339004149,37.5833859996907],[126.97079620002239,37.5807930003328],[126.9673040990644,37.575781000447996],[126.9721023990938,37.5717191000303],[126.96332890026889,37.5692096000836],[126.96128019994741,37.562642400699104],[126.96395369960291,37.557154699524],[126.97154719886001,37.5623729987246],[126.97195929965339,37.5511262010177],[126.9666996994259,37.5432142009371],[126.97097259959439,37.5349190014392],[126.964983100163,37.5323029011336],[126.9631823004141,37.5414276000734],[126.9596981005315,37.5398534007534],[126.9640429989554,37.5313218987394],[126.9619103998147,37.522383800178],[126.9689243000292,37.5191301979616],[126.9651209038826,37.5094379076345],[126.9560014012205,37.5190756025993],[126.95360099966611,37.5150279003523],[126.9374361010905,37.519199699767505],[126.9433087014992,37.534791498968296],[126.9496583996829,37.5349199992197],[126.9554316999385,37.5418509987851],[126.9607580003629,37.5529714999398],[126.9576075004231,37.5583436009304],[126.9481054992669,37.546678701482904],[126.9410915999752,37.549643100062895],[126.9427437993855,37.5459360996259],[126.9319007061079,37.5303241101152],[126.9161727006107,37.5341717004325],[126.9107243997994,37.5293598015686],[126.90633240354799,37.53662949795039],[126.8935464018942,37.5418960012419],[126.8896622004458,37.541233600588996],[126.89413189933491,37.5319827007631],[126.8827154995686,37.5245082996237]]]}}]}