{"type":"FeatureCollection","features":[{"type":"Feature","properties":{"interval":15,"stationId":"5225259408","profile":"peak"},"geometry":{"type":"Polygon","coordinates":[[[127.0975728995717,37.3634422999803],[127.107915300567,37.3596953985909],[127.1087586992275,37.3534012006973],[127.10253039953031,37.3500778005817],[127.11096479995571,37.3458397996079],[127.115258299338,37.3510476988717],[127.1089388008679,37.353398900838705],[127.1100318997748,37.356820997893095],[127.1180608997451,37.362751299652096],[127.114289900248,37.3734655000898],[127.1281127003532,37.3878139978856],[127.1214348011019,37.3887485010371],[127.120579799512,37.3829592998607],[127.1040592976975,37.372108099555795],[127.1049339989307,37.3655994997395],[127.0975728995717,37.3634422999803]]]}},{"type":"Feature","properties":{"interval":30,"stationId":"5225259408","profile":"peak"},"geometry":{"type":"Polygon","coordinates":[[[127.0634399968877,37.3041080069528],[127.0687220999307,37.2914670983383],[127.0779277003196,37.295370799082804],[127.0768979003149,37.3061019984289],[127.0864113995333,37.3053365996455],[127.0916620000789,37.3139608994585],[127.1017985998117,37.316563199433396],[127.105198996624,37.3148769000262],[127.10413319965531,37.2929488012515],[127.1107379000689,37.2936973994131],[127.105855501042,37.304596700070995],[127.1138124024277,37.3144061025327],[127.1061006025116,37.3157908008827],[127.11448009979509,37.3183467997294],[127.1184717000376,37.3264334992189],[127.1153247028161,37.3280263989638],[127.1211275011456,37.338162397532],[127.1180407001082,37.3432611992655],[127.1317215020063,37.3673013007021],[127.1272004003182,37.3748691997378],[127.1420608012227,37.3832124984227],[127.1373504016384,37.3859811988518],[127.1414187017013,37.3953132998667],[127.1367145006202,37.3964503022606],[127.1351356013688,37.4047064004219],[127.140614500307,37.4093522986973],[127.1388471016383,37.4174596004924],[127.1322483015487,37.4211282009866],[127.1312850023645,37.4273366979009],[127.1392157994127,37.4281992989763],[127.1443374001343,37.436825399833495],[127.1370568999303,37.437905200154205],[127.1340927004007,37.4488931994951],[127.1261974002227,37.456220000033504],[127.12104290132011,37.4518352014902],[127.1247182960467,37.4442588001372],[127.11981930094571,37.442326102069906],[127.12459959934169,37.436259399615],[127.11743889999049,37.432993104317994],[127.1289507991358,37.423944298796904],[127.1211371015229,37.4165021031149],[127.1188429995169,37.406371600506],[127.1003140997108,37.4051553012828],[127.1013613979769,37.3991934994061],[127.09807430052689,37.3996332007845],[127.1042811988208,37.3957435000492],[127.09903639942131,37.388093800016],[127.1024474981629,37.3832513021392],[127.09751580078499,37.382266804247294],[127.1000630995866,37.3751147017019],[127.0891115990044,37.3644558047489],[127.08905969516141,37.3587258983515],[127.0943203981251,37.3630062940914],[127.0979067945387,37.355956301141404],[127.088276499868,37.3453938009301],[127.09047729875161,37.3379430021478],[127.0869910997129,37.3374064008674],[127.0925954997778,37.3339329989628],[127.0706596000156,37.3161633011709],[127.074001298135,37.303035103793505],[127.0634399968877,37.3041080069528]]]}},{"type":"Feature","properties":{"interval":60,"stationId":"5225259408","profile":"peak"},"geometry":{"type":"Polygon","coordinates":[[[126.8827154995686,37.5245082996237],[126.89273109886811,37.5217267996237],[126.891715198974,37.5138223004841],[126.9019447998774,37.518322999353],[126.90769999874401,37.5152200003169],[126.9031205992077,37.5103190010812],[126.9096166998157,37.503864801647005],[126.9036677998062,37.5033024002877],[126.9038713994787,37.481941499744394],[126.9152723992032,37.477737299442104],[126.922967697886,37.480083198233906],[126.9298047967652,37.4721559999946],[126.92710869875151,37.4662696017435],[126.9514252999884,37.4657103998265],[126.9537161999259,37.4703373968341],[126.9583427997889,37.464635300080495],[126.97436260043851,37.4622457964732],[126.9806033997507,37.4710080979516],[126.9884666994664,37.4660825001595],[126.9914109989426,37.4451236991351],[127.00218269653341,37.441126500316905],[126.9880821006249,37.4336636014174],[126.9843259971324,37.426726601927506],[126.9874099982018,37.422144098229],[126.9867452024668,37.4264797989389],[126.9961643003858,37.4235902988028],[127.0036226997615,37.4282905993869],[127.0024591004803,37.4331829975106],[127.0130932997606,37.4299568984081],[127.0097647019445,37.4316980986914],[127.01782110278211,37.441856196458],[127.0121255031049,37.449066798499395],[127.0273870986161,37.4521082992146],[127.03292539513609,37.4449206039733],[127.02712030076441,37.4433090052994],[127.04035298950619,37.423664601294],[127.0548408979841,37.4335890925844],[127.0597292958178,37.429682497292],[127.06672069699121,37.4329787948637],[127.0667227969891,37.4269859008566],[127.0752233981361,37.4244846943103],[127.07197930296779,37.4249974004287],[127.08459640316299,37.4335100987688],[127.0719894029564,37.435428102570604],[127.0754488009816,37.4578265987655],[127.08082299930119,37.455653598395195],[127.08810799874071,37.4627002970561],[127.0762917000974,37.4665142007781],[127.0751493994079,37.4595885030554],[127.0707625011634,37.463639199935706],[127.06854149771159,37.4591990058429],[127.06162410364,37.4689519961506],[127.0865052017244,37.475355996908796],[127.09343659845841,37.4730852997077],[127.0887100006792,37.469482800639604],[127.0979553994881,37.4682562000411],[127.1012771989813,37.4574205996631],[127.1086604994529,37.4556317994964],[127.1078905003625,37.462021898029306],[127.11579469763069,37.462988797790196],[127.1194199939955,37.4589331016612],[127.1167570002008,37.4293677028343],[127.0995326001232,37.430851500325204],[127.09292219997981,37.4087578999025],[127.0818927995673,37.4073094010199],[127.08542679712349,37.398620902169],[127.07186000110521,37.390400601111196],[127.0742771001032,37.384805101943904],[127.0811001947199,37.3875562959951],[127.0826835931365,37.3822556012958],[127.0673061017811,37.3730482015045],[127.06755100013629,37.358919302028994],[127.0635157016431,37.3599909011462],[127.07743149436641,37.354707499462506],[127.07953089625539,37.344740103176605],[127.06346810020129,37.3439829024763],[127.06159989842631,37.3336475032021],[127.0396426028367,37.3221346026319],[127.0327960977982,37.308607704046004],[127.0244326997049,37.3067185008598],[127.02643419766319,37.3005769038908],[127.0180733995309,37.300323900386005],[127.0195976995123,37.2881598000761],[127.0287078993322,37.275251400449505],[127.0360677979332,37.2739067997881],[127.02566830045701,37.2707485011338],[127.0194162006146,37.2770157006622],[126.9919575000295,37.2687555029068],[127.0002778991804,37.2672039999547],[126.9975927987181,37.2600818010149],[127.02120229929349,37.2559583986562],[127.0322415987399,37.2405920004009],[127.0442638997104,37.2356869002625],[127.0519141993555,37.2391732990424],[127.049437599106,37.2343084011851],[127.0535836979231,37.2325952985391],[127.0820729009042,37.236487699051196],[127.0856473013891,37.2470470962863],[127.0930610989199,37.2492751952627],[127.1018013996067,37.2436175994383],[127.1138599994964,37.2484062958542],[127.12031960166,37.253693997635104],[127.1148978030186,37.2608886973871],[127.12107880146961,37.2684533914277],[127.13339259259449,37.2640027992467],[127.1349986967946,37.2542927022332],[127.1568619941759,37.2541210010058],[127.16100089707001,37.248306899487304],[127.1574440006269,37.243551104243096],[127.163437399344,37.2427621993478],[127.1677532959214,37.232013206304096],[127.16726730102701,37.236830998408806],[127.1755842962411,37.232337100466104],[127.1792134011786,37.2370567965844],[127.1891872985767,37.2360768987095],[127.1772318011316,37.241448200463104],[127.1686887082635,37.25228250261],[127.165020702966,37.2777739977029],[127.14914370251509,37.283490700739804],[127.1500129008054,37.2880997997697],[127.14490600042811,37.2865637006892],[127.12879220031071,37.3086627000245],[127.1345716026923,37.3276738921183],[127.1411965036403,37.3293755959202],[127.1423083050893,37.349967397397194],[127.152563502185,37.3596437987592],[127.1507758042553,37.3643769998915],[127.1577593987852,37.36689799951],[127.1545986047052,37.3733846972331],[127.1608705997439,37.3741356985987],[127.1640459020324,37.3838821960181],[127.1614289061184,37.3964607970342],[127.164619302928,37.3983612951337],[127.1609232030626,37.3991320017408],[127.1663832007039,37.410823694205],[127.1637731055232,37.4214005003117],[127.15419060597101,37.4292006986526],[127.1742351011805,37.4312056991016],[127.1805177998999,37.4428209986739],[127.1776888031569,37.467209395550604],[127.1705683999348,37.464593805119705],[127.1589492030751,37.4689371021637],[127.1495365017413,37.483066698738604],[127.1619950004615,37.493006599364],[127.16111320066601,37.5004379991729],[127.1470602002406,37.5019754020164],[127.1419471021414,37.5124423992564],[127.1536101015229,37.5301216971848],[127.1482117023402,37.538468700104005],[127.1525299003776,37.5465792937057],[127.1497300028323,37.551579997717404],[127.16408130010221,37.5565467981797],[127.1650883990951,37.5535861011404],[127.1661632024442,37.5598682993434],[127.1506490983369,37.5547759015515],[127.1449019038579,37.5578681996733],[127.1408065995806,37.5516812008957],[127.1325162026355,37.5586037997313],[127.1248236011106,37.5571078018341],[127.11916409474131,37.5473863077548],[127.1016980017384,37.551296901384895],[127.0901300009274,37.5595355998952],[127.09694489904639,37.5791456976608],[127.09537640003671,37.5901259998996],[127.08785760016471,37.5988435002429],[127.0804329997,37.595278500378896],[127.0826500997013,37.584390700335604],[127.07285059921199,37.5600953021058],[127.055080000288,37.572977300682396],[127.0428991008911,37.5703624012689],[127.0287285012127,37.5745564006727],[127.0306316006272,37.580794499083105],[127.034197799572,37.5762472993629],[127.0483831999289,37.5825022992017],[127.0525552997337,37.5795338996735],[127.04944520018569,37.5862681004103],[127.0396826993476,37.5795419002786],[127.03389240102639,37.582035399885704],[127.0427254000436,37.5912642992487],[127.03507550015931,37.5970860005409],[127.0240294004045,37.590584500229795],[127.01486950079601,37.5983745005911],[127.01234820032451,37.592931701930404],[126.99955560042909,37.594455200279896],[126.99237580022131,37.5826589007411],[126.970502499874,37.5834481003955],[126.9627247005912,37.5770263016741],[126.95618659985199,37.5771379014127],[126.9419910006599,37.590905199235],[126.9600537994175,37.5664331006194],[126.9553475997529,37.5587794000774],[126.9428306999898,37.557707600187],[126.95098779885669,37.556613799412204],[126.9529025995544,37.5507034001993],[126.9481054992669,37.546678701482904],[126.9410915999752,37.549643100062895],[126.9427437993855,37.5459360996259],[126.9319007061079,37.5303241101152],[126.9161727006107,37.5341717004325],[126.9107243997994,37.5293598015686],[126.9002438003587,37.540438900099],[126.8896622004458,37.541233600588996],[126.89413189933491,37.5319827007631],[126.8827154995686,37.5245082996237]]]}}]}