{"type":"FeatureCollection","features":[{"type":"Feature","properties":{"interval":15,"stationId":"5225259404","profile":"peak"},"geometry":{"type":"Polygon","coordinates":[[[127.0053940992321,37.4915730014522],[127.0110599995652,37.4901130993968],[127.0082766001136,37.4834687013586],[127.01511949835239,37.4800531997568],[127.0272240000894,37.4834418999351],[127.0288144000754,37.476771401558096],[127.0312138028476,37.480641798108],[127.0498755992475,37.4793701996151],[127.0551027003671,37.4876668984558],[127.0595107982236,37.483551896376504],[127.0758514994993,37.4980912984908],[127.06287060097169,37.4988614003081],[127.0588393990879,37.494358201423104],[127.0511793005387,37.499932100151206],[127.049477599097,37.496024401748606],[127.0545666987033,37.492756700760204],[127.02710960003961,37.4878129006971],[127.0175231001471,37.4898262004379],[127.0127917011851,37.4976257003251],[127.0053940992321,37.4915730014522]]]}},{"type":"Feature","properties":{"interval":30,"stationId":"5225259404","profile":"peak"},"geometry":{"type":"Polygon","coordinates":[[[126.9362400997843,37.484600899714295],[126.9400302996069,37.4784365997657],[126.9460103003438,37.4803214999171],[126.9751209996036,37.4687687989966],[126.9924097986437,37.4796569966876],[127.00236629558191,37.471743699492094],[127.0172239994496,37.471869297766],[127.0170647047573,37.475000698010305],[127.0372174985355,37.4600213974946],[127.045029699191,37.4594362009147],[127.050566101559,37.4621404996674],[127.04835920266419,37.469352797971304],[127.07018910077379,37.4825540973749],[127.0781203989912,37.4748685001881],[127.0865051997371,37.4753559967144],[127.0952370999135,37.4824089977078],[127.1059203992554,37.478558297819404],[127.1077086006096,37.4886707975346],[127.12382529881619,37.4827678007615],[127.12857299899811,37.4752508996116],[127.1254068005585,37.488410100016004],[127.1288600005213,37.4928319987864],[127.1362373005348,37.4958691980589],[127.1425036985739,37.4904201018045],[127.1487183010422,37.4924814990373],[127.1371707014336,37.4975158992937],[127.1399312008363,37.499030898990505],[127.1268876002398,37.5100005999791],[127.1162324003492,37.4993113008636],[127.1122021002044,37.5102800992692],[127.10655180052221,37.508589200923005],[127.1067615017098,37.5190434972106],[127.10148440093221,37.5224038008973],[127.10373899937771,37.5159417008506],[127.0928537995907,37.5120655011194],[127.0849549009058,37.5183538984195],[127.0718884011582,37.51456490315],[127.0717714012752,37.518199499515404],[127.06678499993309,37.5155227004351],[127.0622006999875,37.5189829004554],[127.0591598028011,37.5231685984635],[127.074014400463,37.5318854998521],[127.07544870079799,37.5491013001681],[127.0623259000093,37.5354841006858],[127.0607655999105,37.5319992006146],[127.0664122993724,37.528904800454],[127.0630166019607,37.522088607466195],[127.04472850362801,37.529582606544494],[127.0452592030973,37.536984499142605],[127.05106189997299,37.5391596994755],[127.0453215007348,37.550683900069906],[127.0371955995556,37.5459119011842],[127.0428564992157,37.5313979997789],[127.03264750102879,37.532274000262404],[127.020321908255,37.5376219039081],[127.0234068006872,37.5439053995368],[127.0176618008774,37.5446678003865],[127.0227894006719,37.5481889995314],[127.0070295002223,37.562844399915605],[127.0015757998007,37.5594369012567],[127.005021099847,37.548617800708],[127.014463399471,37.5505045001209],[127.0112414995468,37.5416006006839],[127.0228724984799,37.533976696129095],[127.0224706996086,37.5243139013901],[127.0165584011404,37.5245088009917],[127.01265099924551,37.5185799010208],[127.0145379997231,37.5250393976577],[126.99179219975261,37.5055375013887],[126.9698137972098,37.5023714025915],[126.9823615974622,37.5000263985115],[126.9825145996086,37.496545400756204],[126.9881530012277,37.501890599935],[126.9928118992609,37.4939251011913],[126.97821659998489,37.4923211000341],[126.9723481010003,37.4864425012684],[126.96619590057931,37.488495900422095],[126.9631629991019,37.481084001339],[126.9551966004473,37.486667999793],[126.9362400997843,37.484600899714295]]]}},{"type":"Feature","properties":{"interval":60,"stationId":"5225259404","profile":"peak"},"geometry":{"type":"Polygon","coordinates":[[[126.78907979920399,37.4849836996367],[126.79619869999891,37.4785191993042],[126.79765880156309,37.4830437990802],[126.8070367002707,37.4846793988336],[126.81777959805639,37.4818025978945],[126.8204615996041,37.490930898221805],[126.8266996991551,37.4889409995139],[126.8302749994326,37.4935727993086],[126.83637590065649,37.4819054018372],[126.8444975000931,37.482902597589806],[126.8487003995024,37.4734093997914],[126.8593112990624,37.4729788989578],[126.86654919917909,37.4666724002144],[126.89407129823759,37.474502999128696],[126.9030029997054,37.4687225991076],[126.9095197990477,37.4704299986446],[126.93059029894961,37.4557102025545],[126.9702725963907,37.4536241958752],[126.9702427964205,37.4498908996085],[126.9748010994056,37.458718988974304],[126.9824641917425,37.455020592672696],[126.978538397722,37.4391118019867],[126.9725524994337,37.435361102002204],[126.976586695385,37.430315099053004],[126.9736669963233,37.421283001191405],[126.9698715001188,37.4207978016766],[126.9796630981629,37.4232867963],[126.9813691964568,37.4167955027913],[126.9664639985219,37.4117835026574],[126.9538567986131,37.400398700776094],[126.9384231006849,37.3966688009624],[126.9394632979709,37.3901390009445],[126.9352059022283,37.3907326003509],[126.9380722987153,37.384644701163204],[126.9307533000684,37.3875988007566],[126.9391777998103,37.3644661998793],[126.9381030003776,37.361300000928],[126.9295366996435,37.364491400203],[126.9233961980039,37.3471406021492],[126.9259653986714,37.343761799115306],[126.9302141006287,37.3540061992304],[126.94139969933181,37.3558840977719],[126.94179220091159,37.362624999843405],[126.95349759983951,37.368956599136595],[126.9474628030015,37.379640698463],[126.9690798998133,37.3813137996462],[126.9807046971035,37.3909878976395],[126.98005739775081,37.387708800918595],[126.9825573017469,37.3917201975617],[126.9913462991981,37.390636197525204],[126.9843868031083,37.4040808014809],[126.9890442006772,37.4128518971965],[126.9950700977286,37.4113399010662],[126.9971658998895,37.4177019943834],[127.0026190944363,37.4154924965929],[127.0248972993464,37.4231409994366],[127.0165118017939,37.4285273000164],[127.0263645005639,37.434356393716996],[127.03341119351721,37.434615093458305],[127.04035298950619,37.423664601294],[127.0548408979841,37.4335890925844],[127.0597292958178,37.429682497292],[127.06672069699121,37.4329787948637],[127.0632083011832,37.4225697039211],[127.0752233981361,37.4244846943103],[127.07676859870499,37.419993399145305],[127.07197930296779,37.4249974004287],[127.08459640316299,37.4335100987688],[127.0719894029564,37.435428102570604],[127.0754488009816,37.4578265987655],[127.08082299930119,37.455653598395195],[127.0954099995579,37.464921995907304],[127.1060926002972,37.453842496925404],[127.1089652022979,37.4622800989042],[127.11579469763069,37.462988797790196],[127.11975629818231,37.4362048013147],[127.106622099427,37.4104897001136],[127.11332519852701,37.4100126997932],[127.1035893006414,37.4083019010845],[127.1023670014831,37.4189683989326],[127.0914071983567,37.4101352005997],[127.09730949906209,37.4078203992008],[127.10032819901011,37.397639500960096],[127.0903225015026,37.4059594007261],[127.08542680316779,37.3986209049287],[127.0903041977693,37.4024106950179],[127.0824569001319,37.389419400524304],[127.09118579805771,37.3836270007574],[127.0925983969973,37.3719990107432],[127.0859709982461,37.3521936035811],[127.0814194027977,37.353325502449195],[127.0828877013294,37.356433199341495],[127.08115609627541,37.3531789015286],[127.0823865971443,37.340060304679795],[127.0771541988803,37.3296345002191],[127.0609019001178,37.3212453003911],[127.0658958974944,37.2973407992284],[127.06077860057741,37.2924813012904],[127.0533452021228,37.307726600121704],[127.04621020016151,37.310008199796],[127.0427668999524,37.3079364014284],[127.047190599123,37.3026954994062],[127.0354472000584,37.301971800384095],[127.0356989985927,37.294279000257006],[127.0386881989222,37.2968131969991],[127.0396563000742,37.2864805029573],[127.0516300995922,37.277707900040205],[127.0607354027422,37.2848031993594],[127.070618200084,37.285366599241804],[127.09543729986851,37.30370339985701],[127.093705998793,37.2962733021551],[127.1046820991794,37.2762787991165],[127.1035681982552,37.2574443004681],[127.114494099677,37.271325998963505],[127.1367611995498,37.2637760003991],[127.1394234000918,37.2727500980569],[127.147106599925,37.274868598468096],[127.142684600507,37.277310802189206],[127.1327422003653,37.268183000874004],[127.1309786004729,37.2750543002759],[127.1228675038932,37.2738112032646],[127.1212846066311,37.2874297913477],[127.1259738019419,37.288874489903],[127.1188120019204,37.2903440011701],[127.1142924063538,37.3112017964541],[127.1162401044061,37.3169387907171],[127.1239144006995,37.3171615982809],[127.1265480020266,37.329171797694194],[127.1211275011456,37.338162397532],[127.1282483997245,37.338539397434104],[127.1330070012014,37.3495705979215],[127.12718220742379,37.358809798518806],[127.14615060205149,37.383337796352],[127.1413861055956,37.3908833013815],[127.14624910019941,37.3948056991846],[127.1448230044851,37.404765598901996],[127.1501347001108,37.4079714977559],[127.1456492011573,37.4121632986741],[127.1519362999917,37.4159533997138],[127.14670940431641,37.4259422946183],[127.1512126998131,37.423843896716704],[127.15419060059051,37.4292006933157],[127.1715728996268,37.43157509886581],[127.176497900084,37.4378764981144],[127.1732075041714,37.4439955976511],[127.1790824988647,37.4443891994403],[127.1776888031569,37.467209395550604],[127.1705683999348,37.464593805119705],[127.1495365017413,37.483066698738604],[127.1689517906149,37.4807958002444],[127.17599750025889,37.4846679962533],[127.17609020867181,37.4962394931263],[127.170578198796,37.4897827029745],[127.16111810464399,37.4964304988573],[127.1705216013715,37.5061615985048],[127.16403560214961,37.512948899955],[127.1598728005043,37.510260003793405],[127.1554307032517,37.5196605988444],[127.1595396994273,37.520177698579495],[127.1510777040553,37.526560100746394],[127.1602526961374,37.529942098948396],[127.1596282003693,37.5485264977207],[127.16911799998479,37.549256899614804],[127.1766339987316,37.5570014991919],[127.1707474014026,37.563373500223996],[127.1567723022262,37.56539380099],[127.1399924016646,37.5560290052629],[127.1396582019988,37.562111899179996],[127.133748700433,37.5647580003227],[127.1096735995813,37.555681801992606],[127.10191370120539,37.561322000195595],[127.0958701049719,37.5573508014131],[127.1020837052608,37.5772690958468],[127.1077941995503,37.576745296370596],[127.10933870276929,37.5811040996067],[127.1052959005688,37.597776199158396],[127.1118599001337,37.5998117995512],[127.11367260114581,37.608510599208905],[127.10166250043271,37.612991201133006],[127.0978076009687,37.6079293019233],[127.0899983012348,37.6080677019142],[127.09406920113291,37.615263597200396],[127.09912280029991,37.614321498703],[127.09299729998489,37.6173715014231],[127.0936478009768,37.6239016985152],[127.0788685010503,37.6335163007048],[127.0738423008944,37.6318591023439],[127.0770522998453,37.635731899447606],[127.0707400007847,37.6452900005118],[127.0722966002866,37.651032298211696],[127.066623301256,37.6526372001471],[127.06739620133071,37.6590085997959],[127.061569600304,37.6611255999445],[127.0604745009301,37.6679626000975],[127.0526513996685,37.665189201011],[127.0580147001125,37.655101900449395],[127.048011600257,37.6514568007411],[127.04571280124401,37.6574378010277],[127.0430660995196,37.6530651006516],[127.0371704005199,37.6553621007972],[127.0256109002633,37.6499406006753],[127.02703269926681,37.6465023998133],[127.01772080091641,37.6464848993547],[127.01161180039159,37.6583479004939],[127.0116473992544,37.631259699901705],[127.00873659855361,37.6238079003498],[126.9964492988119,37.6183019015663],[127.0036126971662,37.600301803883696],[126.99119040248539,37.6015249017126],[126.9834042988751,37.5903590030729],[126.9667379998243,37.5925653005405],[126.9611550002016,37.5840366026036],[126.95064500079489,37.5983475002636],[126.9412374999656,37.5989707025209],[126.93667090028539,37.623210299960796],[126.9207142019502,37.6301845973157],[126.9258818007111,37.6386001977644],[126.91702910044519,37.644150400689],[126.91140439942619,37.6342342015648],[126.9192716983476,37.628696599989595],[126.9123273009592,37.624352502563],[126.91387809973891,37.6064500997181],[126.9018759997156,37.587610901290205],[126.88915820130019,37.582672201208794],[126.89477049726311,37.5733598996338],[126.8838539020941,37.5532880073865],[126.8623439059897,37.5637587071776],[126.8595211088125,37.567348303588],[126.8642369026165,37.573749398970094],[126.8558023060148,37.567675706567],[126.8384187063841,37.5774975065542],[126.8335961990398,37.5742725019593],[126.8289614021511,37.5786130983033],[126.8118677018623,37.579955700944296],[126.80554959981701,37.5749774025824],[126.80001780209031,37.58135420101],[126.8042669989087,37.5688747997847],[126.7970553001239,37.562509900990804],[126.8095167001976,37.5544741994389],[126.81982289795761,37.5603314986344],[126.826136098584,37.5537226008212],[126.8260814999098,37.539346700608604],[126.8336977988445,37.533508599395596],[126.83381209945411,37.5278619999426],[126.8612468984759,37.5047570999],[126.8438866998953,37.4997333008542],[126.8393797998946,37.4912754002865],[126.8258476991946,37.4994489025777],[126.8229236983616,37.493087802261996],[126.8182203005901,37.495826900042495],[126.8160390995111,37.4898486011187],[126.810314699873,37.4916109010331],[126.80227910012951,37.4826755005838],[126.79393400243119,37.4876297020735],[126.78907979920399,37.4849836996367]]]}}]}