{"type":"FeatureCollection","features":[{"type":"Feature","properties":{"interval":15,"stationId":"5325300810","profile":"peak"},"geometry":{"type":"Polygon","coordinates":[[[126.79655049940679,37.5613543996905],[126.8048853001534,37.557865299446505],[126.81915929950199,37.5668654994464],[126.81671680159829,37.570633700258604],[126.8067229996471,37.5626160003732],[126.8040410015744,37.565736798948606],[126.79655049940679,37.5613543996905]]]}},{"type":"Feature","properties":{"interval":30,"stationId":"5325300810","profile":"peak"},"geometry":{"type":"Polygon","coordinates":[[[126.776220197906,37.5758302010253],[126.7904878988427,37.566374692500794],[126.7993937003088,37.5758302957253],[126.8043332988424,37.5680287006308],[126.7984198005241,37.563155202025094],[126.81098919567499,37.5510347031301],[126.8292835991219,37.552402399837895],[126.83406909963159,37.5400701001465],[126.8397685997519,37.5374515996565],[126.8449768005286,37.5402892995412],[126.840888201486,37.5524584988302],[126.84660720029869,37.5602656993075],[126.8685555000198,37.5485787991475],[126.864109400412,37.5616802999753],[126.8439458033927,37.5751408066471],[126.8285322021458,37.5776775982778],[126.82047930131141,37.5733103030441],[126.8094676005652,37.589399799957306],[126.7974345021687,37.5973542993358],[126.7926421002955,37.587334601677696],[126.7843172991453,37.591910302018405],[126.7887793993929,37.579745603523506],[126.78454190103949,37.584805800297296],[126.776220197906,37.5758302010253]]]}},{"type":"Feature","properties":{"interval":60,"stationId":"5325300810","profile":"peak"},"geometry":{"type":"Polygon","coordinates":[[[126.6045810006987,37.6475103011891],[126.6152658985077,37.63440759677081],[126.61755750043021,37.639369197563994],[126.63512989791859,37.6369414986114],[126.6322157008328,37.634743300809596],[126.63948359720891,37.629767697730905],[126.643198000933,37.6336558973441],[126.64702799710301,37.62983000117],[126.65671120110851,37.634553797527296],[126.65951299830671,37.6313490007321],[126.6616683002499,37.6382526975041],[126.66925479831221,37.6327662005885],[126.6748838001356,37.6362482991955],[126.68871639669891,37.6220132022205],[126.6918722982066,37.6269439959299],[126.69082879842931,37.618977401510996],[126.7018491963317,37.6167726967756],[126.7088765971281,37.6075012005767],[126.7056408003639,37.6047688033091],[126.70958179857979,37.6051382957853],[126.7122676953077,37.5972502992974],[126.7187372976378,37.5986022969832],[126.7217156966921,37.5920377006689],[126.7194680964586,37.5780590029024],[126.7127986026407,37.5779765029222],[126.6967310004918,37.5645394062125],[126.6899443072785,37.5660625046894],[126.6957173015055,37.578864191887696],[126.6922286040364,37.580417103795895],[126.6929636033014,37.5860622981507],[126.6964818997831,37.5855902986227],[126.6939795030524,37.5890622978661],[126.69807349932651,37.590032898415195],[126.6960667009462,37.595998099927],[126.6864987016261,37.588339606392495],[126.6759402056182,37.5987658029152],[126.6682823024216,37.5994150046257],[126.6668668038371,37.6064661975745],[126.6735859000622,37.610631998961004],[126.6536070999192,37.6107824039093],[126.6521002010388,37.6147901999698],[126.643791901101,37.6124970009803],[126.6409442998905,37.605097402129495],[126.6384292024056,37.6082756989512],[126.6257068006209,37.6043345031922],[126.6194997006074,37.596543002036796],[126.6139390030613,37.601492600652],[126.6125709973882,37.5985257994668],[126.6117020998726,37.591759002273506],[126.6185859999964,37.5869965992349],[126.62309569942839,37.5897377981436],[126.6236217022332,37.5851865010767],[126.6384310945715,37.5855891951456],[126.64080990131039,37.589385298634],[126.65536419796999,37.584887696858004],[126.658436194898,37.5829323988133],[126.6555248978093,37.5795232022225],[126.6584362003054,37.582932396039496],[126.6628596987343,37.5789201994299],[126.663982599179,37.5685656002312],[126.6696335985972,37.568390900900795],[126.6609443022643,37.5675524999602],[126.6549528994976,37.5594153004201],[126.65648129723229,37.540743006292],[126.6601949994967,37.535620800046],[126.66755309979291,37.5398696963548],[126.66958719819469,37.5362149000156],[126.6558683008758,37.5264612009292],[126.66255649765189,37.5229412997071],[126.6590947000165,37.5192157013298],[126.661525896957,37.500459999828095],[126.6696225983266,37.494698598891],[126.6644266017969,37.4899530020057],[126.6769256976876,37.481677999042404],[126.672917900149,37.4676209019973],[126.685485398941,37.4646922991865],[126.6875060021873,37.4763232983929],[126.69329699876221,37.4774659994975],[126.6961272984517,37.4646593001785],[126.6898374991648,37.463710399862094],[126.691520798959,37.4592588011871],[126.6770522996773,37.4597829010106],[126.6808118999784,37.4549780994315],[126.686464599907,37.4580806991874],[126.6958637988232,37.4542451996433],[126.693542199793,37.433589501971895],[126.69705129955899,37.4254948992757],[126.7001728998212,37.4249636992729],[126.70617350074231,37.4519897994018],[126.7117168026685,37.4555408989655],[126.7086391031328,37.4572155006517],[126.7179415000177,37.4614458992732],[126.71504990117519,37.4670578002217],[126.7211164000542,37.470905299679096],[126.72292290170991,37.4806839974819],[126.74784799999,37.4814341997819],[126.74410420205409,37.4907021996406],[126.7537984997948,37.4786777000026],[126.7549390986215,37.4830488976895],[126.7624944972913,37.475740200880395],[126.7699125988716,37.4776496983486],[126.78418719878691,37.463971200734505],[126.7804161987659,37.4509789024338],[126.7680768973872,37.4433312037836],[126.7723789985314,37.4408856989183],[126.7695199979624,37.432543102672795],[126.79287909645129,37.4234456993944],[126.7803328997109,37.415229801977496],[126.7752946002112,37.403307402184204],[126.7808939990912,37.4051190889554],[126.790256300049,37.398373198686],[126.7964276977002,37.4011860982502],[126.795136898991,37.3982468011895],[126.7998391011545,37.4045051961632],[126.7959946045876,37.4133770965804],[126.7906438029042,37.4105500033812],[126.7884009051471,37.4148583990728],[126.8011933000756,37.4338360992655],[126.8075289996362,37.4351862995185],[126.81428820298979,37.4527789996153],[126.8065729061458,37.453327201905694],[126.80880120391751,37.4584609967719],[126.8147050980136,37.457205898027],[126.8176493020485,37.4742474969587],[126.822669098958,37.471275697901],[126.8305117007993,37.4849576949153],[126.83712479462069,37.4805566989843],[126.8380994951321,37.467906801415204],[126.8436920989477,37.4686266988748],[126.8459313993458,37.4625483998347],[126.85800249913619,37.4660719971105],[126.87340589889159,37.4608939992832],[126.8864338977672,37.469411099057204],[126.89222559953811,37.4623740996215],[126.8975809999494,37.466467899466096],[126.8904410012334,37.4698908005033],[126.90287380014969,37.4841934993221],[126.9352836997239,37.4749103998492],[126.9485171993681,37.479603299059704],[126.9652281989573,37.4748353995135],[126.95373480065841,37.485676900301705],[126.94796580021911,37.483302800281294],[126.93643700034819,37.488085299655204],[126.93375620005031,37.4937275995398],[126.93728820005529,37.498145799294704],[126.94631250003951,37.4992732997515],[126.954169898717,37.4916486998534],[126.9627554997337,37.5014298975209],[126.9709202988524,37.49607729924271],[126.9805124982077,37.4971903994927],[126.982639398341,37.493766899967795],[126.9763276001522,37.4902382012514],[126.980326299713,37.4822702994908],[126.9767562996813,37.477274200173696],[126.981166098643,37.4729792994822],[126.9872567994412,37.4754984977098],[126.9827663013335,37.4839262987586],[126.98602610016411,37.4847980985503],[126.9848140003261,37.493909899719895],[126.9904794006089,37.4974254981069],[127.0192896999827,37.502870198220094],[127.0275071992215,37.4941515997334],[127.0393019002026,37.5077447989883],[127.0500370993886,37.5023043977573],[127.04213610017379,37.5174542007145],[127.037452499371,37.5096433008648],[127.0301883003023,37.515220600682],[127.0268644003574,37.5099746003548],[127.0184413002606,37.519095900959904],[126.99179219975261,37.5055375013887],[126.9693090038014,37.507606207965196],[126.9713472017632,37.5161886993827],[126.9800943002044,37.520760698745896],[126.9983800001472,37.5217403994995],[126.9925149005556,37.5251109003716],[126.9852753009248,37.5199647005145],[126.9798179006825,37.5238231004644],[126.9868699000365,37.534407398174096],[126.9964206988478,37.526479999878596],[127.0023864002908,37.5320903950251],[127.0057677975839,37.5278787993415],[127.0087072008465,37.5483392993506],[127.0201214960419,37.5374208005529],[127.0176618008774,37.5446678003865],[127.0213378010948,37.549684400049095],[127.0152008002125,37.5500412005599],[127.0166511006341,37.5563658990562],[127.02075539864249,37.5520662997785],[127.0227386996379,37.562314599278004],[127.0394353996325,37.5631587994737],[127.0247112004697,37.5672069000318],[127.01543680075811,37.5789092999783],[127.0070740005701,37.5711800009136],[127.0021168010169,37.575143499741],[126.99462319999691,37.5720246000271],[126.9892809002324,37.57935410118311],[126.9706913000301,37.5796234001145],[126.9673910990012,37.574451000079705],[126.9567228003224,37.5766133003822],[126.9595419988045,37.574180999538804],[126.95533639955329,37.5683643020134],[126.9428669007864,37.5671925030807],[126.93576370067389,37.5776291006047],[126.9338788991407,37.5727548007378],[126.92840510108141,37.5761174998497],[126.9247551015135,37.5927175986648],[126.9300830989828,37.5977096986727],[126.9393227998147,37.5960451990206],[126.9402834993356,37.5859360990549],[126.9534842002964,37.581603699279505],[126.93752390268351,37.6018791999195],[126.94207590091061,37.611485898579396],[126.9353337007908,37.6172728006569],[126.94023420131131,37.6225703961278],[126.9296522014239,37.6278934007918],[126.9221165001549,37.6261059999425],[126.920714201139,37.6301845970929],[126.9298583001012,37.6341032995856],[126.92375200089039,37.6410104028164],[126.9225070039402,37.6545622976209],[126.9083756015555,37.655006803855905],[126.90466770247521,37.6628003983848],[126.8928621996855,37.6658586005615],[126.8844069020926,37.6562032027191],[126.8842437022558,37.6599997989225],[126.8713067982117,37.6600319029685],[126.85304000157869,37.647980006594594],[126.84776940684931,37.6534912010834],[126.85048380108371,37.6641665988901],[126.8552483992288,37.6645512931783],[126.85189620044859,37.664002500349504],[126.8507155017695,37.6710018984935],[126.85001519952691,37.6651388030152],[126.82496639952319,37.6618881012152],[126.82707329755719,37.6580229003088],[126.8179696019715,37.656023600854596],[126.82022619612019,37.6509884037889],[126.8145260015482,37.657529299516],[126.8164241044909,37.6709256990749],[126.79963960080741,37.6861694997746],[126.79362220098871,37.6845310001111],[126.77944820018581,37.697260300295405],[126.76311839972989,37.7011646006166],[126.75998700025059,37.717320800097205],[126.7534067001724,37.7097594010064],[126.7591358990947,37.6995595009055],[126.7506656988032,37.6854040006963],[126.73824999860729,37.679806501342796],[126.7369558997861,37.6718479009115],[126.7509094000713,37.6669238997991],[126.7515877991174,37.6609358992945],[126.7584590988826,37.6610932989689],[126.7636090005621,37.6467809018442],[126.7692581972922,37.648236594974094],[126.7704276981832,37.63899189995],[126.77419949693079,37.6408069979285],[126.7669954043741,37.6190843140069],[126.745057399763,37.6187912039185],[126.7456261991942,37.6264169962927],[126.73458530363041,37.6259087997377],[126.7317838004739,37.635786200243096],[126.7317492001275,37.6301051031947],[126.7284689008681,37.6309082010274],[126.7259583045587,37.6341441002325],[126.7307601997568,37.636361598015],[126.7104103006216,37.641336901388996],[126.7005682010017,37.653074201761],[126.6747056082085,37.665990112339905],[126.6658151997521,37.661421500116006],[126.6656457003135,37.653405102229904],[126.65648210200631,37.6557223016736],[126.6490403996541,37.6514286007122],[126.6549380975665,37.6432285031606],[126.6423178023925,37.653122199604],[126.636372802248,37.6497974024232],[126.6254489999995,37.656369000511695],[126.61723169916361,37.648255400854495],[126.6045810006987,37.6475103011891]]]}}]}