{"type":"FeatureCollection","features":[{"type":"Feature","properties":{"interval":15,"stationId":"5340642603","profile":"peak"},"geometry":{"type":"Polygon","coordinates":[[[126.6980881991651,37.6328117004503],[126.7094582006729,37.6284376991115],[126.7094728003225,37.6190189008104],[126.7157122981568,37.6123665997912],[126.72228129879251,37.615022097464596],[126.7312689987686,37.6061952981196],[126.7411118015964,37.6091073995048],[126.7239233014903,37.6257447017475],[126.7148685010131,37.6246527029814],[126.7089003014913,37.635971398314005],[126.6980881991651,37.6328117004503]]]}},{"type":"Feature","properties":{"interval":30,"stationId":"5340642603","profile":"peak"},"geometry":{"type":"Polygon","coordinates":[[[126.6199160986768,37.644916399117896],[126.64846879855921,37.633334296495704],[126.6471775020848,37.6377903998795],[126.6533860017049,37.642417298775],[126.6632758986954,37.635489200327505],[126.6809126990155,37.6368555990954],[126.68225260083629,37.6434887989594],[126.6928221988119,37.6496504977978],[126.70022499964121,37.6456107985416],[126.6941987997414,37.6379541028086],[126.6881518006493,37.6398006027779],[126.6883742998028,37.6262032017819],[126.7119308965036,37.617341698923894],[126.7088765973581,37.607501202401004],[126.7235341990938,37.6011362980148],[126.7267263981758,37.595107398810505],[126.75623219692329,37.6039739976561],[126.7632200985256,37.5886451990552],[126.7651357000271,37.5921290986904],[126.7798687002766,37.591522097678],[126.78460199967921,37.5961107985774],[126.77769180013,37.592642603121796],[126.7690536010583,37.595149299474706],[126.7869881008384,37.6035563988074],[126.7848594002776,37.6092992997303],[126.7737839048073,37.6136449987845],[126.755772400868,37.6079091038378],[126.73697080067929,37.6229913000249],[126.7317838004739,37.635786200243096],[126.7317492001275,37.6301051031947],[126.7259583045587,37.6341441002325],[126.7307601997568,37.636361598015],[126.71452960354101,37.635259601096095],[126.720837997543,37.6383739979847],[126.7089067003888,37.6457074014602],[126.70515160225139,37.642516802194],[126.7003402001599,37.6540288990549],[126.6881973010503,37.6537803013885],[126.68021162403271,37.6635937027039],[126.6716978015525,37.661756101021595],[126.6724503976997,37.653851700484296],[126.6559262004222,37.6510635017187],[126.6575497987193,37.6444621000462],[126.6532964985533,37.6425219020456],[126.6259950997966,37.6520824012631],[126.6199160986768,37.644916399117896]]]}},{"type":"Feature","properties":{"interval":60,"stationId":"5340642603","profile":"peak"},"geometry":{"type":"Polygon","coordinates":[[[126.5983185976906,37.652820900203004],[126.5974975989986,37.6471659008755],[126.6036011994824,37.6475806993236],[126.60430599825679,37.6424761019599],[126.6002835003071,37.643529400651296],[126.6054425989852,37.6308452999546],[126.6235383980276,37.6297653964988],[126.6257039992896,37.6231023036783],[126.633979999801,37.6190449959717],[126.6370336996588,37.6314314960671],[126.6494561964689,37.626199498340696],[126.6515562970756,37.616296097721],[126.65498999818429,37.621033993887],[126.6650438952048,37.6203033955253],[126.69658509638239,37.6004051986614],[126.710144795793,37.5817409012788],[126.7179534015147,37.583253994805],[126.72293589653219,37.5783170997419],[126.71847660099151,37.577045601013396],[126.7203728969074,37.5710666027768],[126.7073430995802,37.5687637003514],[126.71557109860781,37.5691755972065],[126.71791469626419,37.5649803014018],[126.71426739991149,37.5635469028352],[126.71791469850389,37.564980297359],[126.7226278996674,37.55594029924411],[126.707568599951,37.531919300692195],[126.7161062972855,37.521251901340904],[126.7098991987574,37.5164743993738],[126.718788197516,37.516629899478396],[126.7091147001398,37.5082377014863],[126.7187255988627,37.4944670001351],[126.7164977990421,37.487618101456796],[126.7074433997856,37.4871322003932],[126.7073043994721,37.4769527014221],[126.7132241982258,37.476005097592804],[126.7137173022721,37.481871996651506],[126.7216221983999,37.48282959803],[126.72577720001729,37.4901048993554],[126.73288359878609,37.4836649989061],[126.7448403978709,37.481684298074796],[126.7449437012146,37.4896429006999],[126.7624944972913,37.475740200880395],[126.7699449993582,37.4785463995949],[126.7753789985168,37.473160799282105],[126.78284549709309,37.474154998364604],[126.7883233961033,37.4642971018536],[126.78256449883291,37.450031704195595],[126.78561479934301,37.4486091984598],[126.77531349988979,37.437025400025604],[126.7814468977195,37.430923900478305],[126.7911581999373,37.4307064994239],[126.7986200005313,37.441959499161406],[126.80506039948351,37.4431517984517],[126.8042301045711,37.4604435980174],[126.8139864997195,37.4809287986302],[126.8332433993655,37.488281896268],[126.8518196987659,37.4705818000278],[126.858074599281,37.4722284999752],[126.8593698003909,37.477533197420705],[126.86717609946159,37.469630799532496],[126.87588029951381,37.4743266990103],[126.8750424000481,37.4779008985603],[126.883237801243,37.4763520974947],[126.8792097006273,37.4859469998511],[126.8726215996357,37.477687503870804],[126.8598280004004,37.487662700441405],[126.84755840125939,37.4845880005061],[126.84802430040621,37.495649899045596],[126.8387561001813,37.4967120011051],[126.8345098002692,37.491403500983296],[126.82472220094179,37.4967410997692],[126.8200431992012,37.4918246010808],[126.8106820032278,37.493517500111906],[126.817350100873,37.505574698447],[126.8317462002406,37.506484396005696],[126.8212983029093,37.5072747009248],[126.8215953043942,37.5182951958858],[126.8301216000678,37.524446399526205],[126.8366070984611,37.515588998396495],[126.8454061998046,37.5155441979366],[126.8438409993012,37.5095290014114],[126.848911400012,37.5132277976636],[126.854165899262,37.5044800005886],[126.8627826987964,37.502109999732],[126.8738798998683,37.5051274990169],[126.8751694977728,37.499973402181304],[126.8846531997422,37.498971599097494],[126.8926906998384,37.490274399896094],[126.8987588001958,37.490519399762995],[126.89977690027531,37.5065425996108],[126.91166270022859,37.5060660995465],[126.915973199881,37.5102335992284],[126.9200884974921,37.5089702999364],[126.9156177005127,37.501478501695296],[126.9061768001891,37.5002042007525],[126.9155249994387,37.500012599167896],[126.9235492991711,37.4903992001093],[126.92625319975191,37.492564098901404],[126.9167261016355,37.4963969998908],[126.930355600141,37.4995871994701],[126.92408740071191,37.5009412999907],[126.9306174002143,37.5131784981899],[126.93024750014749,37.507806000421105],[126.9410543994961,37.501468799921795],[126.9467268994253,37.5086624987316],[126.94692309951351,37.5027577005485],[126.9567961985243,37.5086941989554],[126.95477819903881,37.5056373012062],[126.97549369951331,37.5000964989702],[127.0059435006276,37.5028937990432],[127.0055689012128,37.5098778999495],[126.99103890138191,37.5023297018544],[126.9721374023538,37.5056941999739],[126.97087809843089,37.516393191213005],[126.9983800001472,37.5217403994995],[126.9925149005556,37.5251109003716],[126.9852753009248,37.5199647005145],[126.97966040084,37.524075000212505],[126.98889989958201,37.5333627996886],[126.9994073003206,37.5260703996748],[127.0023864002908,37.5320903950251],[127.00888309938861,37.533143699524594],[127.0044534001864,37.5408233988492],[127.0109056993081,37.548118099590106],[127.016429498969,37.5387086005075],[127.0194271998061,37.5405616987222],[127.01958230080899,37.5502131005388],[127.0148279007892,37.5528715991135],[127.01611680116841,37.5559764994456],[127.0213793997479,37.5527267994617],[127.0183320004199,37.556776700817004],[127.0219489001214,37.5621876994067],[127.03711729980641,37.5601062994233],[127.0372884004006,37.5638831999393],[127.024619200564,37.5669100999979],[127.01646370025131,37.575424499971],[126.995842198897,37.572014700725],[126.9892809002324,37.57935410118311],[126.970640300051,37.5792266003968],[126.9671639994446,37.5737675005232],[126.9567228003224,37.5766133003822],[126.9595419988045,37.574180999538804],[126.95533639955329,37.5683643020134],[126.9428669007864,37.5671925030807],[126.9390726003985,37.5755033994515],[126.93003840061431,37.5749029005634],[126.9247551015135,37.5927175986648],[126.9300830989828,37.5977096986727],[126.9393227998147,37.5960451990206],[126.9402834993356,37.5859360990549],[126.9525010009832,37.5823182992854],[126.93859140041181,37.5967009001914],[126.9412633999851,37.610695698431],[126.9353337007908,37.6172728006569],[126.9395671006671,37.6230299995404],[126.9296522014239,37.6278934007918],[126.9135331994038,37.6232052006528],[126.8998854960372,37.593601702351],[126.8934395014202,37.5891805021057],[126.8785350002102,37.5990812005293],[126.8819628013185,37.6044708980107],[126.8750258009029,37.6155675997748],[126.86229349961441,37.6128716045845],[126.85360450301461,37.6145250021534],[126.8556104001381,37.6200366995509],[126.8501556026704,37.6247682006614],[126.83621799956241,37.6227033011953],[126.8425314010008,37.6406644978809],[126.83714960034901,37.6439415001869],[126.831068400038,37.644714400503],[126.8182825018591,37.6370570015418],[126.821867996848,37.6361950987199],[126.8133996009542,37.6310941028381],[126.81535599818669,37.6278101027797],[126.81096790257479,37.628639101950704],[126.81156270324989,37.6466787010006],[126.80101680107249,37.6572930000318],[126.8035051009522,37.6667936986819],[126.7950666000281,37.6657407007993],[126.7942882002129,37.6778627003303],[126.777021501174,37.6788150007413],[126.7754929002936,37.6882762999466],[126.76301450026959,37.68731730031],[126.77672959897039,37.6785597003147],[126.7756545993896,37.6691402994633],[126.7871564995164,37.6592981006675],[126.7775256011146,37.6582604034864],[126.766388000234,37.6765140999005],[126.75761519960061,37.673679300976104],[126.75063400111,37.681320100312604],[126.7413549011258,37.6786489000709],[126.7452140984073,37.6711829968383],[126.7648362988745,37.664960999989596],[126.7659079998403,37.649117100093],[126.77495489818979,37.6452638006974],[126.7793609980851,37.634234100554],[126.8036184976571,37.6272504983884],[126.80289999899139,37.6160783008145],[126.81253929896519,37.608156699312005],[126.81159959977619,37.6002449047759],[126.8218488988995,37.6031097973974],[126.8266035988434,37.599322299788895],[126.83429389854591,37.607078297625996],[126.8427022990495,37.5999594981906],[126.8481512020243,37.6067744965375],[126.8589414977086,37.6049388984213],[126.8599854956063,37.5920125018416],[126.87531219596299,37.5898781003857],[126.8749131968187,37.5804710005735],[126.8714975002344,37.5799757010688],[126.880905299516,37.5798834999472],[126.8865386978768,37.5713242999432],[126.8838538945578,37.553288000356105],[126.86734190801,37.5597705056585],[126.86510920750251,37.5623362053583],[126.87393159980171,37.5690609998497],[126.8596649003216,37.578759601428295],[126.8555688010706,37.5785607026721],[126.8642368975802,37.5737494004933],[126.859521102296,37.5673483068944],[126.8218896997441,37.583948800437504],[126.8243651991955,37.5820150005486],[126.8168942009732,37.580768501483796],[126.81256160858979,37.5897968060066],[126.8073883995498,37.587257003130404],[126.8031384001998,37.592127600100795],[126.7980489080434,37.603810006264105],[126.7495330103501,37.6257048129676],[126.73458530363041,37.6259087997377],[126.7317492051692,37.630105102303],[126.738675398243,37.633025499382605],[126.72116941072639,37.6408692115648],[126.71963020589679,37.6550432004588],[126.72557780184479,37.6621069005067],[126.7169887021609,37.660929799169296],[126.7195121953834,37.6551439067286],[126.7091753057203,37.6472156146569],[126.6747056082085,37.665990112339905],[126.658584999772,37.681574300587],[126.6611341977793,37.6798017001852],[126.6492153011498,37.6721022995793],[126.6478157996444,37.665348902717696],[126.6274694997068,37.6672458031122],[126.6207641013644,37.6721373002346],[126.5983185976906,37.652820900203004]]]}}]}