{"type":"FeatureCollection","features":[{"type":"Feature","properties":{"interval":15,"stationId":"5340688293","profile":"peak"},"geometry":{"type":"Polygon","coordinates":[[[126.7137653997269,37.6228956001362],[126.71612979944571,37.6167323995551],[126.7256353980385,37.6161398981977],[126.7302659980048,37.608188999507306],[126.7392892003824,37.6098863989867],[126.7248968006339,37.6173303005875],[126.72319800072529,37.624803700941],[126.7137653997269,37.6228956001362]]]}},{"type":"Feature","properties":{"interval":30,"stationId":"5340688293","profile":"peak"},"geometry":{"type":"Polygon","coordinates":[[[126.7958203993537,37.577875000399295],[126.8043332988424,37.5680287006308],[126.7984198005241,37.563155202025094],[126.8120899988992,37.5520232990114],[126.8328520987501,37.55617079895],[126.830178399482,37.548992200132],[126.8428929998646,37.538280199512],[126.84380970013619,37.5443127999264],[126.83791140078209,37.545517100085796],[126.84391480052189,37.5600171997829],[126.8388630006467,37.5667512982457],[126.8438466999394,37.569854099861104],[126.8375098003888,37.5704660007748],[126.8383275991716,37.567018600453196],[126.8324805009602,37.5725665001498],[126.82261200011821,37.5716306011636],[126.8141115014902,37.5810707010191],[126.7958203993537,37.577875000399295]]]}},{"type":"Feature","properties":{"interval":60,"stationId":"5340688293","profile":"peak"},"geometry":{"type":"Polygon","coordinates":[[[126.6012600989404,37.6486890005093],[126.6062446980613,37.642265000211104],[126.6045190995647,37.6364490997496],[126.60887699770451,37.6370550988189],[126.6129240961984,37.630312400352004],[126.6132860004876,37.6350175961608],[126.6162541975194,37.629304501873904],[126.6273158991112,37.6295211970876],[126.6303381985617,37.6223499996977],[126.6370336996588,37.6314314960671],[126.6494561964689,37.626199498340696],[126.648571998856,37.6193610020565],[126.6637104978599,37.6284655934683],[126.66441259895201,37.6217468998684],[126.6758729959622,37.6190593000125],[126.6705351009431,37.6096904014979],[126.6592660009827,37.6149504008783],[126.6532533005943,37.6065367038696],[126.6501796018466,37.612408202360896],[126.6318683976115,37.6033558015705],[126.6251433998811,37.6046653017885],[126.62541199727299,37.6003737029382],[126.6140635985074,37.5963102022156],[126.6280093976185,37.5874344998867],[126.6306756003584,37.5921343961105],[126.6389026995724,37.5874540982587],[126.6404770982145,37.5943758979367],[126.6491740965166,37.5936193985586],[126.647579199172,37.5899178007814],[126.64072440126769,37.592353900300296],[126.65118659625121,37.5830869980364],[126.658436194898,37.5829323988133],[126.6569081986167,37.579525199998],[126.6584362003054,37.582932396039496],[126.6628596987343,37.5789201994299],[126.6606034998011,37.5728117001304],[126.6696335985972,37.568390900900795],[126.6645338000426,37.565559401363195],[126.6709645938192,37.5653405986846],[126.65639040713111,37.5586325060184],[126.66094430257719,37.5675524970984],[126.6554835995828,37.5488628003107],[126.66778879688479,37.5436737002073],[126.6598798998455,37.5374543000009],[126.66755309979291,37.5398696963548],[126.66951589639669,37.5331596999864],[126.65837429953511,37.5257059994942],[126.662609397599,37.5224535001949],[126.66367289785299,37.5002274002326],[126.6696225983266,37.494698598891],[126.6651240993025,37.489201100751906],[126.6738024977895,37.482141296449704],[126.67524230044579,37.493337999975104],[126.68625159925051,37.5054411993435],[126.6842759016138,37.5186442983723],[126.6945946999839,37.523771799620995],[126.6854388036002,37.5270922013993],[126.6836038054734,37.5351898959851],[126.69594830117279,37.5511332984701],[126.6924316056302,37.5583887973169],[126.6967310027064,37.5645393942964],[126.6899443072785,37.5660625046894],[126.6876953021319,37.5726123001105],[126.6936519968611,37.5792816940002],[126.6929636033014,37.5860622981507],[126.6964818997831,37.5855902986227],[126.69553660115379,37.5951054997263],[126.6864987016261,37.588339606392495],[126.6759402056182,37.5987658029152],[126.6682823024216,37.5994150046257],[126.6668668038371,37.6064661975745],[126.6826682010924,37.6121613976835],[126.68729019851921,37.6075194991633],[126.6904728985567,37.612726795795496],[126.6990953979498,37.5976366993197],[126.70620439705431,37.6013757957373],[126.7014485001709,37.5939888006529],[126.7154392947055,37.5808987008422],[126.7155544952329,37.573480402429205],[126.70509719843609,37.5702670034579],[126.719106095658,37.5545550015688],[126.70769019915831,37.5481455005447],[126.705756797746,37.5314865017658],[126.7000667985423,37.5275021994051],[126.70466679782359,37.5210607014567],[126.6930294014701,37.510061503481396],[126.7025571913346,37.498671001093804],[126.7143292974283,37.4999549977775],[126.7165329979226,37.4934796995173],[126.7080133996452,37.4900734005181],[126.7048659984043,37.477740801847],[126.695872299797,37.474157900356005],[126.6981272002116,37.461706800379204],[126.6914783007494,37.464157700463],[126.6972748992982,37.4612882996487],[126.6976568995652,37.458051300765],[126.69152079967621,37.4592588010244],[126.6982147995698,37.452159901093495],[126.6951188001385,37.4336727004542],[126.6985771987413,37.4321346006898],[126.706044300042,37.453970399143],[126.71686410036189,37.4625355984424],[126.7196117017151,37.4806764961976],[126.7351730991511,37.4850967983761],[126.7449527998876,37.4826785990057],[126.7478633001463,37.484600098806204],[126.74410420205409,37.4907021996406],[126.7531201995447,37.4879155993099],[126.7624944972913,37.475740200880395],[126.7687516993588,37.4786262988214],[126.7877358967311,37.4693590994359],[126.7782558001308,37.4477035028738],[126.7680769010679,37.4433312041684],[126.7747081977094,37.44024379916],[126.7739463978327,37.431170900696195],[126.7851322992967,37.4258770996572],[126.8004819993993,37.431187298734095],[126.7982728027966,37.4335113991364],[126.810175000303,37.4430299995703],[126.8129266001111,37.451895895276394],[126.8065729061458,37.453327201905694],[126.81453240017271,37.4604965967093],[126.8116414016939,37.4663622999344],[126.8305117007993,37.4849576949153],[126.8444349998619,37.467568100197],[126.86421489993009,37.4671958987313],[126.8727147995549,37.4623983995038],[126.90192689949461,37.485585099859705],[126.9187913996794,37.4821302997503],[126.92126020014011,37.4885752993937],[126.926479599517,37.4794178000294],[126.9355041993027,37.4768929991509],[126.9348922003822,37.4829787994361],[126.94533510005989,37.4803876995226],[126.93108490045161,37.4929809000712],[126.9367785006313,37.5002602986423],[126.9495724004468,37.5000979987554],[126.9562547000602,37.4924473991287],[126.9557458992589,37.504271599441104],[126.97267289946771,37.4968509991013],[126.9823615974622,37.5000263985115],[126.98517789928499,37.4951822000082],[126.9909293006923,37.50145009844],[126.99688859918061,37.497007599788105],[127.01365059893361,37.5052278982847],[127.02890070005179,37.500794899843605],[127.0379664996653,37.5085469990098],[127.0200923004673,37.511680900511905],[127.0173822008851,37.503413701133404],[127.01070419994191,37.5146254009882],[127.0007891022563,37.5131705009529],[126.9903664000701,37.5032182030007],[126.9696443034661,37.507470408101],[126.9713472017632,37.5161886993827],[126.9800943002044,37.520760698745896],[126.9936601991365,37.519634099173295],[127.0029010000615,37.526384899415795],[127.0023864009653,37.5320903951299],[127.009460299668,37.5305812998553],[127.00451460012519,37.5385649011077],[127.0102138004341,37.547708199078706],[127.0201214960419,37.5374208005529],[127.0176618008774,37.5446678003865],[127.0248586003114,37.5551394987803],[127.0378236000208,37.559850399819005],[127.0364711006972,37.564847700611104],[127.024724100459,37.567327800027805],[127.0171437005511,37.5764858992291],[127.0190917004998,37.5875338002514],[127.0131836995271,37.5749682008352],[127.0041217000723,37.575760200469496],[127.0028462002541,37.5850992008338],[127.0096305005028,37.589937699742],[127.00302329947189,37.5892989013261],[126.9984995002351,37.584205500634305],[127.0009347992838,37.5783502001783],[126.9940670005531,37.572039100012596],[126.9871405001658,37.583093500291],[126.9557507022591,37.57905330104],[126.9485447007187,37.5946773992954],[126.9392513016591,37.5964834009501],[126.9376256027803,37.6043698006862],[126.9424994979064,37.6048507002053],[126.94343190243609,37.6150200956001],[126.93978680045629,37.6132757033982],[126.936214899987,37.6186903994737],[126.9446836990751,37.623571494801794],[126.9279657008438,37.6310381001746],[126.9214335005407,37.6535340993748],[126.9075273008483,37.6532374017694],[126.9046587015501,37.6608994990439],[126.8954723001628,37.663628600399],[126.8860838007451,37.6541644029212],[126.87934490476471,37.659664901578005],[126.85304000157869,37.647980006594594],[126.84776940684931,37.6534912010834],[126.84804170150039,37.6671172010368],[126.8293574992181,37.6628704006419],[126.8238560000933,37.6571329009104],[126.82870899745781,37.654616299917],[126.8251593995471,37.646544401907704],[126.8142160029911,37.6408767028341],[126.81287230194029,37.6491003985789],[126.820226202207,37.6509883985319],[126.8128603016657,37.6552184023109],[126.8160879006212,37.6673074999299],[126.80317190046189,37.6810071005728],[126.7599099017509,37.7013587002021],[126.7625165002005,37.716214899041795],[126.75691829800199,37.711160999223495],[126.7624614975957,37.697616700565696],[126.7549239991454,37.6935813007501],[126.7507689003688,37.6836987013614],[126.73824999860729,37.679806501342796],[126.73995209772549,37.6696655004559],[126.7456375985278,37.6706662971443],[126.7552014998452,37.6620663995618],[126.7572572991022,37.6649705995023],[126.7637437998652,37.6467008000801],[126.7712079980502,37.6470922011444],[126.7751082975853,37.6335036003373],[126.7879529982439,37.630382598674295],[126.7785912045639,37.6124295134087],[126.739697110279,37.6317489126781],[126.74313889840221,37.6236750024702],[126.73458530363041,37.6259087997377],[126.7322577072408,37.636029311645494],[126.7104103006216,37.641336901388996],[126.7092955029372,37.6471675971324],[126.7236826998078,37.6600759993626],[126.7091753057203,37.6472156146569],[126.6642497152325,37.676066005778296],[126.6486653991504,37.6625565027924],[126.6195408010433,37.6677275012365],[126.6012600989404,37.6486890005093]]]}}]}