{"type":"FeatureCollection","features":[{"type":"Feature","properties":{"interval":15,"stationId":"5349724970","profile":"peak"},"geometry":{"type":"Polygon","coordinates":[[[126.9517586991614,37.5572139004135],[126.9550104991945,37.551776000602295],[126.970407200136,37.561097598439595],[126.9761610995219,37.5569868995318],[127.0015017991933,37.5586116998077],[127.010440399454,37.5527986992077],[127.01728519861051,37.5554220991062],[127.0191663991602,37.5491301003018],[127.0248586003114,37.5551394987803],[127.0340958002312,37.555591099519],[127.0394354004271,37.5631587986305],[127.024724100459,37.567327800027805],[127.01543680075811,37.5789092999783],[127.0127571002411,37.5733501005108],[126.9973449005552,37.577092500457],[126.9940670005531,37.572039100012596],[126.9850565004849,37.5806070003877],[126.9711067998866,37.576877100319095],[126.9716454991456,37.5700634007568],[126.9619482006237,37.5683013006386],[126.9605826999981,37.5596581005477],[126.9517586991614,37.5572139004135]]]}},{"type":"Feature","properties":{"interval":30,"stationId":"5349724970","profile":"peak"},"geometry":{"type":"Polygon","coordinates":[[[126.883310899911,37.5260622999826],[126.89459929957009,37.5242082974356],[126.89287459922299,37.514707700941],[126.8962096994245,37.5137963001614],[126.8958547014147,37.5218510993113],[126.8992922998529,37.5223739993644],[126.9116707001874,37.5143744009352],[126.9188529002012,37.5141653998348],[126.92097980092309,37.5194848976148],[126.9295098998503,37.5140636991158],[126.9320040007185,37.52280609860539],[126.9413419005066,37.5225507996756],[126.9448079039357,37.5337597983793],[126.95613639945421,37.5341465995964],[126.9630740994195,37.5319966977421],[126.96187899935009,37.5228858003858],[126.9737650998883,37.5180779997802],[126.9798179006825,37.5238231004644],[126.97302450124519,37.5216151004475],[126.9679798012762,37.5271948998531],[126.98110680078581,37.5323621999161],[126.9742997002009,37.536743901048595],[126.9738175002496,37.5457287994564],[126.9836593000889,37.545583599731],[126.985626500995,37.5537054990833],[126.9917134968075,37.5560080959839],[126.9996731970121,37.544271800134],[126.98562650038619,37.5417320005222],[126.9934863988306,37.5280898998628],[127.00878689984201,37.531806199272395],[127.007454000716,37.537698997541604],[127.0201214942982,37.537420798766],[127.0196209999826,37.5228816006684],[127.0070242991286,37.5148277014726],[127.00110819878931,37.5033956996605],[127.0072666990179,37.5010048991401],[127.0101800997478,37.5076835985619],[127.0166164001243,37.5089808995466],[127.0237232996437,37.5020530998252],[127.0376318002789,37.5075567994129],[127.05056949885619,37.5012307988309],[127.05235570058251,37.506889000600104],[127.0456553007786,37.5078893001131],[127.04777569949,37.5109644984939],[127.0632523004965,37.5138815970977],[127.0475688010192,37.5145409005262],[127.0544772006988,37.5188479997073],[127.04802720067241,37.519929500132605],[127.0483565025784,37.536127092657004],[127.0635151991458,37.5358632995312],[127.06860180006849,37.5285918998106],[127.0738614004362,37.537020899706704],[127.0947305011742,37.5328721005327],[127.09710960054299,37.5381725996001],[127.0841367002011,37.5419826005084],[127.0773168009387,37.538160500675495],[127.0752624010172,37.5510716984155],[127.0842660986466,37.552397799302604],[127.0864586993765,37.546140699482905],[127.09364039990369,37.5486433981248],[127.10217919980309,37.5417660999451],[127.1079949013182,37.5493015990617],[127.09848910116119,37.5471305014593],[127.08560130101769,37.561011400073],[127.0869981009993,37.5678176997668],[127.0720626007502,37.562201101320106],[127.0704342004625,37.5678897002509],[127.06378009971401,37.5672330007435],[127.0563008011917,37.581241799454],[127.0678880998748,37.591841599549205],[127.0680746010721,37.604836899223805],[127.0632217992888,37.6033465005934],[127.06486629959831,37.5972304000069],[127.047430500632,37.590515400554104],[127.0427889005461,37.598983400039],[127.0612410998588,37.6067792993069],[127.0624969001536,37.613214999490395],[127.0524492005525,37.615158100295105],[127.0367366003215,37.6064727006451],[127.03527820081729,37.6174491998605],[127.0293312005984,37.620498700149696],[127.0310503002476,37.6270989000076],[127.0259480002395,37.631141200223404],[127.0185687994809,37.6212795000658],[127.01218579819229,37.6207261004324],[127.028218999261,37.620810999779],[127.0186964998891,37.60907310171],[127.01581060193219,37.6074471010305],[127.0084722003355,37.6173669998975],[127.0030744998672,37.613652200709595],[127.008781998932,37.6048269997986],[127.0061328988666,37.5954246019752],[126.9971589009418,37.5973947004406],[126.9795457996229,37.583859599859196],[126.96935049952751,37.5878905018643],[126.9595816003259,37.5803758015988],[126.9468523006884,37.5948010001501],[126.9392513016591,37.5964834009501],[126.9357496001031,37.6125185995084],[126.9198188002575,37.6235470007416],[126.91731979957841,37.6157019001934],[126.92368429989071,37.615568499382],[126.9296900987985,37.6046974003167],[126.926487099564,37.600520599906105],[126.9346804995165,37.5953061996205],[126.9380167999475,37.5838363003998],[126.94949759830381,37.5801133003311],[126.9509792974001,37.5709677997412],[126.94075879998749,37.5636804011717],[126.9167646997314,37.5693779005883],[126.9120323999539,37.559251200656696],[126.9007722018202,37.5669698003706],[126.910557097896,37.5439334012567],[126.8966128000277,37.5371335004735],[126.89743749907069,37.5297741004607],[126.883310899911,37.5260622999826]]]}},{"type":"Feature","properties":{"interval":60,"stationId":"5349724970","profile":"peak"},"geometry":{"type":"Polygon","coordinates":[[[126.7707480985225,37.5045021001905],[126.7950828994631,37.4942567001298],[126.8073142984032,37.5021708960531],[126.80744319762779,37.494328701267094],[126.8017288986796,37.488673902791504],[126.7941785003672,37.4923643007054],[126.7803151008288,37.4832231010495],[126.77196140004129,37.4839999005918],[126.7799268998629,37.4770802996052],[126.7909060981596,37.4786321996962],[126.79118000127589,37.4680064019404],[126.80088590039159,37.4625359982381],[126.80250000036449,37.478782499072004],[126.8155669999598,37.4797473998016],[126.8230204999756,37.488576698415905],[126.8231328995347,37.4854857000298],[126.8315562993159,37.4877008972938],[126.8383041987282,37.4845251992174],[126.8333789016454,37.4826398013344],[126.8453449972111,37.4778115997538],[126.84813039919621,37.4694615005706],[126.8558302002187,37.4738189979871],[126.8703936998319,37.4644037988686],[126.8785425999894,37.4682924989338],[126.8765410998881,37.4625051003855],[126.8854227988779,37.459442299777],[126.8820931997613,37.4519545017652],[126.8986383983611,37.444671898738],[126.8966561006637,37.4530147979356],[126.90420309984421,37.4512896995919],[126.9070793002255,37.465928899213004],[126.9006507018091,37.472624600343],[126.9265699979128,37.4721506017848],[126.9241025998721,37.4652891007628],[126.9313230987817,37.4602119005532],[126.94600539996661,37.468423198438096],[126.9490608996808,37.460608399544995],[126.9537161999259,37.4703373968341],[126.9578834957586,37.4685551986163],[126.95689369771229,37.461992302319295],[126.9684725001612,37.4660854962426],[126.97436260043851,37.4622457964732],[126.9806033997507,37.4710080979516],[126.9884666994664,37.4660825001595],[126.9922611956211,37.4535594021874],[126.9861209954412,37.4448022044625],[126.9910699944234,37.4427248977064],[126.9775243000004,37.4234790009789],[126.9845770975479,37.4229187973119],[126.9860691969838,37.4179195994293],[126.9987562998567,37.4230539995498],[126.9993410978248,37.4196354980665],[127.0023616020531,37.4267750961354],[127.0175520995019,37.426628199594504],[127.01918900369729,37.441673095885506],[127.0121255031049,37.449066798499395],[127.0217722008241,37.4618085980866],[127.032050297184,37.4558045971272],[127.0469598961949,37.4549525981866],[127.0407989974649,37.4382830070526],[127.0435457997147,37.4359033003179],[127.0699220000119,37.4341684996747],[127.0718062004965,37.44301869936751],[127.0608600031131,37.4610822006421],[127.0609518018377,37.472155197038504],[127.0647489980405,37.469338299855394],[127.0921277006373,37.4773468984669],[127.10730409913529,37.4725568005287],[127.11340869893509,37.4783527975366],[127.115794697599,37.4629887991486],[127.1211087998995,37.4669586986992],[127.127031498002,37.4635682000864],[127.1210428994371,37.451835200522],[127.1239716967933,37.441797402598596],[127.11981930094571,37.442326102069906],[127.1195983983402,37.438045499474],[127.12821399742,37.4257381996226],[127.1458128002535,37.434303899977905],[127.14688010064141,37.4404579983402],[127.1386110002411,37.444258001174596],[127.14462519648579,37.455750995673796],[127.1518834974511,37.445908001188904],[127.1493913990252,37.443530800087],[127.1595636992709,37.4392137990333],[127.1669655003397,37.450208699730794],[127.16558260060769,37.456780900216195],[127.1375795006901,37.4723113002893],[127.1394195005946,37.4814435996139],[127.1599527002013,37.487706099775096],[127.15995790064119,37.5011357005953],[127.1484228988779,37.5019430020488],[127.14420730204981,37.5077522000977],[127.1477400008046,37.5144610986443],[127.1546334000124,37.514969899813494],[127.1536101015229,37.5301216971848],[127.1602526961374,37.529942098948396],[127.157694402883,37.5354182003148],[127.1627273003172,37.5414331980076],[127.15744890385581,37.5459042969648],[127.1742073999027,37.5446208999376],[127.174341400229,37.5486796988338],[127.1858567000508,37.5498946999067],[127.18561590032161,37.553250198601404],[127.1959271997482,37.5500284002824],[127.20029709964611,37.5347911000407],[127.2234893997623,37.5353552993133],[127.2298591008231,37.5411475983472],[127.2164443007411,37.5444922000059],[127.2044116014192,37.5594846998028],[127.2019556008569,37.5701125002756],[127.1931589003659,37.5742711998593],[127.171555999828,37.564815500179805],[127.1587574010443,37.5695881000593],[127.1536222001515,37.5622759027787],[127.1117794019256,37.5670710026187],[127.10734450636049,37.573115896573796],[127.11440810061471,37.5789841971909],[127.1099058022898,37.585266499665906],[127.12178230212221,37.6008481976732],[127.1383723999593,37.5905166993967],[127.1511222002542,37.5916073992309],[127.1601689011057,37.5947946996148],[127.1508645014387,37.602681597484796],[127.15767029892591,37.6024669001331],[127.15578189992459,37.5997111016928],[127.1672410998788,37.6044299976761],[127.1720444001395,37.613985198700504],[127.16364250176629,37.6190941002886],[127.150433500003,37.612805200453295],[127.1467830005906,37.6172096001169],[127.14339369951871,37.6117591024555],[127.1379278019404,37.6164122989757],[127.1217836021147,37.604786902837404],[127.1251361996621,37.610575799562],[127.11952790254729,37.615336397772296],[127.11558939922901,37.6038592038603],[127.1072384012937,37.6148315012611],[127.1099165010057,37.62833020072],[127.1053885060976,37.6348586951016],[127.1127793002036,37.6343153986346],[127.11144090142281,37.6407660992359],[127.1193392970437,37.6422381988234],[127.11099999991191,37.6265420011909],[127.11326129730311,37.62357139880881],[127.1273918948693,37.628195896636804],[127.12267440192299,37.633938298764996],[127.12807689907869,37.636476599222604],[127.1287433000461,37.645993399919],[127.1400385988283,37.639364798910805],[127.1432454991006,37.643651697737],[127.148137396814,37.6410202994505],[127.15350880081739,37.6503521989038],[127.146604704685,37.6589211988384],[127.1382461017081,37.6574295022319],[127.1322628995386,37.6493950041453],[127.1284483013307,37.654919801040805],[127.121397300769,37.647526201637405],[127.1133849998691,37.6494138007606],[127.1156358993016,37.6442873996447],[127.1098248005674,37.639455301850205],[127.1057415995195,37.6436432003788],[127.0939789971125,37.6296194115909],[127.0831913053723,37.6366279043234],[127.0852015001813,37.6436613002249],[127.07645000561959,37.6444480010963],[127.0958514002108,37.6594587969246],[127.09601600042211,37.6696040942738],[127.0884260062677,37.6713272019328],[127.0905210038803,37.680848500273505],[127.0688702024786,37.6811704048554],[127.0484325019886,37.6948676985048],[127.06006629685871,37.6993696956269],[127.04995650115819,37.7105620001886],[127.0607646994322,37.7262317992708],[127.0549369008435,37.7422485002225],[127.0592473005967,37.746739598210695],[127.052911600828,37.7464534997387],[127.0402507005105,37.7627239003701],[127.03986179923899,37.746785401067],[127.0316570000059,37.745113000793104],[127.02954259833889,37.7376135007523],[127.0418969981693,37.7183549011595],[127.0423697980779,37.7125062987539],[127.03459019904919,37.7089953998313],[127.0385632942592,37.695570807451396],[127.0310832983495,37.693342402637995],[127.03058989849609,37.685140200616],[127.03531459544001,37.6861400975274],[127.0362548944997,37.6796971039704],[127.0299455003085,37.680639301915406],[127.0308672986919,37.670749802916006],[127.02152320209501,37.6626843054386],[127.0141516061514,37.6748352964362],[127.0033368000183,37.6770386007166],[126.99687689352011,37.650178505107],[127.00048019364729,37.6336273071627],[126.9842425052335,37.6267150064065],[126.98531469543751,37.607143704706104],[126.9813383997176,37.601807900167394],[126.9603755018745,37.6061546008557],[126.9556603016689,37.6140924001581],[126.9480518052125,37.6101291032515],[126.9532016008756,37.6233907987233],[126.9391626051874,37.6346298002825],[126.9434797996296,37.6406223971889],[126.94086310314181,37.643240400299106],[126.9325818031476,37.6439507014142],[126.93110400426751,37.6481010985799],[126.9374689995083,37.647547499379],[126.936030800684,37.654987500431794],[126.9225070049674,37.6545623003652],[126.9206258008546,37.667085400005895],[126.9117912018521,37.6626949036679],[126.8859409001949,37.6707232010359],[126.8841095982912,37.6612429043696],[126.8713067982117,37.6600319029685],[126.8623141981792,37.6530670085422],[126.84971920454859,37.656100800152394],[126.84804170150039,37.6671172010368],[126.8293574992181,37.6628704006419],[126.8238560000933,37.6571329009104],[126.82870899745781,37.654616299917],[126.82917069924491,37.6434868012476],[126.8160284998185,37.6369173004443],[126.8275922987063,37.620645601344],[126.809383698802,37.6180799009369],[126.8151299966091,37.6138473984022],[126.8160672994252,37.60402530057161],[126.8266199999836,37.5997613995609],[126.83429389854591,37.607078297625996],[126.8460094971434,37.6019221004047],[126.8496385007403,37.608364995786],[126.8589414977086,37.6049388984213],[126.8599854956063,37.5920125018416],[126.87531219596299,37.5898781003857],[126.8688823994397,37.5811984001752],[126.880905299516,37.5798834999472],[126.88325999624001,37.5740700001561],[126.8673419052698,37.559770507924],[126.8595211088125,37.567348303588],[126.8623008010699,37.576179500440304],[126.859521102296,37.5673483068944],[126.8558023060148,37.567675706567],[126.8348612077972,37.5787932067942],[126.8168942009732,37.580768501483796],[126.8117658018776,37.5868703997591],[126.80785240181851,37.5822694041016],[126.7943831005098,37.5860876008325],[126.7887793993929,37.579745603523506],[126.7963111998215,37.5843892975929],[126.79951389937669,37.5789520999992],[126.7868125023315,37.5761432007323],[126.7954243956531,37.5683864026563],[126.7993937003088,37.5758302957253],[126.8043332988424,37.5680287006308],[126.7984198005241,37.563155202025094],[126.81098919567499,37.5510347031301],[126.8274755985343,37.5445907005683],[126.82198719878059,37.5418661013641],[126.8214036997157,37.5348981999618],[126.834446097146,37.516908201720106],[126.8454061998046,37.5155441979366],[126.8438409993012,37.5095290014114],[126.8490226998737,37.5056824995045],[126.8388275992543,37.492687900984],[126.8258476991946,37.4994489025777],[126.8229236983616,37.493087802261996],[126.8101724042299,37.4946731996531],[126.81152120167211,37.5025506956935],[126.82256530019109,37.5060001994446],[126.8145825050719,37.510450597969395],[126.81808460134151,37.525697497959],[126.8220551997312,37.5248792995406],[126.8071816052651,37.5386832021212],[126.80638169880861,37.5342177019767],[126.8002576020609,37.5373081996672],[126.7924971000356,37.5294755028578],[126.7979377982714,37.5255966999051],[126.7950780998856,37.523039400563704],[126.7874188006638,37.5239530005464],[126.79857569524741,37.5142985025197],[126.79314050068261,37.5125769042413],[126.7925729006822,37.516993399825395],[126.7942731971318,37.5086246015864],[126.7707480985225,37.5045021001905]]]}}]}