{"type":"FeatureCollection","features":[{"type":"Feature","properties":{"interval":15,"stationId":"5747397251","profile":"peak"},"geometry":{"type":"Polygon","coordinates":[[[127.0018679993851,37.5882902997677],[127.010492598946,37.5845754999644],[127.01218149992229,37.5755421005504],[127.0069475996811,37.572058400205904],[127.0121794994893,37.569284699703495],[127.0111664991688,37.5589260999933],[127.0148799998017,37.557710299655994],[127.0196779006898,37.5685756997363],[127.03641729996309,37.5767321993157],[127.0343309001196,37.5800056003491],[127.0441939998699,37.5908277992601],[127.04027150021841,37.595666700178],[127.0451288002525,37.6037574990546],[127.0598458006858,37.6122059999138],[127.037143500479,37.6050421003934],[127.0381261996951,37.597704800145],[127.0285284012385,37.5919733021953],[127.0177041014045,37.5987821986621],[127.02032819986749,37.6008334993533],[127.0108041004966,37.6096948992626],[127.0113264008486,37.6148258001965],[127.0052100016787,37.6161445000949],[127.0113239981969,37.5928932008878],[127.0018679993851,37.5882902997677]]]}},{"type":"Feature","properties":{"interval":30,"stationId":"5747397251","profile":"peak"},"geometry":{"type":"Polygon","coordinates":[[[126.9405414991486,37.5900737000715],[126.95615339843211,37.5712172999116],[126.9595419988045,37.574180999538804],[126.9642307992627,37.5635283002673],[126.9610220995606,37.5589447007134],[126.9705431987609,37.5595371986433],[126.9681186994689,37.5428556001357],[126.9724616003723,37.537435702124],[126.9647861003199,37.529175101678106],[126.9803209003361,37.5342520997768],[126.9729330012391,37.539570898540504],[126.9761566006718,37.5505401996282],[126.99838299907721,37.5556381977174],[127.0002803967809,37.5445045036465],[126.9852680999752,37.5412845002893],[126.990873199433,37.530215299382604],[126.99705589930231,37.5276681995635],[127.00878689984201,37.531806199272395],[127.00617260086,37.5423250992107],[127.0201214942982,37.537420798766],[127.02309599937469,37.524416299897595],[127.0283883997454,37.522086699706705],[127.0341148002252,37.5290532987648],[127.0203219066938,37.5376218963993],[127.0292779999975,37.5518327987906],[127.0419446967194,37.5512665988129],[127.04373799941901,37.5397429002748],[127.05179729974701,37.5449277993615],[127.0596468989673,37.5423646000327],[127.04820410211131,37.551965599231],[127.0561773004919,37.565732499491105],[127.0457665008982,37.5703855997977],[127.06954619934811,37.5921460992268],[127.0839699992,37.592169999810004],[127.0834556993902,37.5867864998466],[127.0907006001525,37.586439299519704],[127.09187540003211,37.5967020999213],[127.08593450026609,37.5976796005126],[127.0831650999465,37.6089937991437],[127.0843172018461,37.6147785985943],[127.0954510002757,37.6146648986093],[127.0943282002964,37.6242320981848],[127.0723393012306,37.6290938019483],[127.0720806000923,37.6379224985192],[127.0662195009846,37.6411240002211],[127.0686995990243,37.624752101011005],[127.0384890003189,37.616351704062104],[127.03154350185079,37.628038499750204],[127.0330102996112,37.6439391987086],[127.039106300097,37.6445412995224],[127.0397748018142,37.650751900114706],[127.0490790999231,37.6517560953611],[127.0458806024981,37.6569753992447],[127.0424308999879,37.651874801567004],[127.0368265003439,37.6549727003894],[127.02847039982281,37.6510333010739],[127.0310045999949,37.6470084995277],[127.02662480047519,37.6445887002813],[127.018706899998,37.649509600996005],[127.0152910004913,37.6614883982349],[127.0080348979523,37.6645939008119],[127.0072901981409,37.624157703215296],[126.99489300010741,37.620419406149104],[126.99963219940899,37.6111483999932],[126.9943825003056,37.6110095001388],[126.9948558991757,37.6067018002216],[127.0021004961062,37.5994819013508],[126.9929711993757,37.5978668014291],[126.989232898572,37.582921502656596],[126.9703292999179,37.5828884002603],[126.96483699974651,37.5753791019543],[126.9405414991486,37.5900737000715]]]}},{"type":"Feature","properties":{"interval":60,"stationId":"5747397251","profile":"peak"},"geometry":{"type":"Polygon","coordinates":[[[126.8117547996041,37.567793200630696],[126.8370416997178,37.554820300024005],[126.82966039979979,37.549124201507],[126.8457280998599,37.521178899879104],[126.8634166992944,37.5171471003444],[126.86214169917139,37.511247000442],[126.8792434976033,37.5138901003506],[126.8681672001335,37.51115570021631],[126.8726803982772,37.503237900925505],[126.8647991999584,37.5017433007361],[126.86650369833549,37.4931213016352],[126.8596138009151,37.4930528011124],[126.8552048995666,37.4991643008285],[126.84837100062,37.496415401330296],[126.8563505991754,37.4881177999388],[126.8801303975409,37.4922288998439],[126.8738909983663,37.4792622022961],[126.8624328999561,37.4775378006663],[126.86322319947719,37.4738646999497],[126.8694962996581,37.472711599464596],[126.8757389993515,37.4781338983273],[126.8821359002871,37.4728982993624],[126.90400129931591,37.486142299171895],[126.9254049985791,37.478496298550205],[126.930819298792,37.474335700923696],[126.9314336977145,37.4654033008463],[126.9477000987714,37.467032699225996],[126.9412581007855,37.473315199840805],[126.9499879003488,37.4770700983031],[126.9743151991382,37.4645734984185],[126.9806033997507,37.4710080979516],[126.9884666994664,37.4660825001595],[126.9914109989426,37.4451236991351],[127.00218269653341,37.441126500316905],[126.9885764995879,37.4358206022313],[126.98402499964361,37.4259624998618],[126.9887939998735,37.420929798730604],[126.9872003020117,37.4269868984318],[126.99514589905489,37.422592299958595],[127.0044020001998,37.433176597363605],[127.0130932997606,37.4299568984081],[127.0097647019445,37.4316980986914],[127.0158692972541,37.4348400951984],[127.01782110278211,37.441856196458],[127.012154403076,37.444976502589704],[127.0150043993806,37.4574452986298],[127.0005726042313,37.4616383018114],[127.0089985987954,37.473225397817494],[127.0212210986114,37.4693816991922],[127.0217722002995,37.4618086012279],[127.0253716000045,37.4641126980867],[127.0300788987425,37.4553727980879],[127.0469598961949,37.4549525981866],[127.0407989974649,37.4382830070526],[127.0548408938395,37.4335890969566],[127.0699220000119,37.4341684996747],[127.06547540633079,37.4372292057895],[127.0714377003685,37.4434428995758],[127.0568640027689,37.473576998628396],[127.06963869923929,37.475017699179304],[127.07018910077379,37.4825540973749],[127.08651039924739,37.4758742996626],[127.0921899001,37.481336297009506],[127.1059203992554,37.478558297819404],[127.1077086006096,37.4886707975346],[127.1228673999007,37.4764226999373],[127.1207237988663,37.4692654019831],[127.1260938989396,37.462042001612595],[127.1304889030535,37.466350799014],[127.1442801002144,37.462060799622506],[127.1257756003489,37.4743382989176],[127.1319144995622,37.475110097748804],[127.1339200003285,37.4807568002129],[127.1302800003206,37.4944899997523],[127.1406690993711,37.4943108984462],[127.14218119514939,37.4884456032979],[127.1554344999142,37.4964011990169],[127.14276390033571,37.4967155007311],[127.1357813999016,37.5023275003461],[127.13671990100231,37.513921800547095],[127.1485770992531,37.5164169987091],[127.1459639011635,37.5198087997447],[127.1536101015229,37.5301216971848],[127.1577932996438,37.5494838972441],[127.16683849928219,37.5480022001533],[127.1775989003499,37.5577712976529],[127.1567723022262,37.56539380099],[127.1399924016646,37.5560290052629],[127.1396582019988,37.562111899179996],[127.1111489998144,37.5591852017169],[127.0969278049465,37.5635443999243],[127.115646601604,37.576181598969],[127.11302070373,37.5872967947723],[127.12178230212221,37.6008481976732],[127.1391715992002,37.5911743995207],[127.149018199243,37.5916283992727],[127.1584418008253,37.5947659985577],[127.1500507022525,37.6010036991627],[127.1672410998788,37.6044299976761],[127.1720444001395,37.613985198700504],[127.16364250176629,37.6190941002886],[127.15087479956169,37.6129953002632],[127.14661340016961,37.6171492000604],[127.14339369951871,37.6117591024555],[127.1379278019404,37.6164122989757],[127.1217836021147,37.604786902837404],[127.12013140194381,37.6135791995295],[127.11558939922901,37.6038592038603],[127.1121316008796,37.6175253990886],[127.1145030011872,37.6240007991249],[127.1273918948693,37.628195896636804],[127.12267440192299,37.633938298764996],[127.12807689907869,37.636476599222604],[127.1287433000461,37.645993399919],[127.1328168980217,37.6446640992036],[127.13023230060631,37.6421341017336],[127.1396846988716,37.6421941996499],[127.13942489944199,37.6383036999719],[127.1432454991006,37.643651697737],[127.148137396814,37.6410202994505],[127.15350880081739,37.6503521989038],[127.146376700228,37.6582226006986],[127.1382461017081,37.6574295022319],[127.1322628995386,37.6493950041453],[127.1284483013307,37.654919801040805],[127.121397300769,37.647526201637405],[127.1133849998691,37.6494138007606],[127.1127726007557,37.641731401101],[127.10526110008311,37.6440220006966],[127.0972866019932,37.6334250072858],[127.0882022043309,37.6499737990495],[127.0926282999048,37.650353098670195],[127.0920480040142,37.657501698881696],[127.09922019684201,37.6585102978731],[127.1034448980892,37.6676560933524],[127.103214598447,37.659961700912994],[127.11440189939131,37.6547587998455],[127.1251245001086,37.6548507989905],[127.1288377007053,37.663348399409095],[127.1153585000673,37.6790532019047],[127.1032360026956,37.6698538055963],[127.0916301017448,37.687278102140404],[127.07402930181111,37.685366205208496],[127.05710160653159,37.6946662002253],[127.06591319772,37.700870894020596],[127.06030250054131,37.711862701177296],[127.0518277037665,37.7145186006834],[127.0595296009199,37.7288402995842],[127.0549369008435,37.7422485002225],[127.0592473005967,37.746739598210695],[127.05323270005259,37.7449943002236],[127.04606680379031,37.7597639005356],[127.04013690063269,37.7625523001697],[127.03986179923899,37.746785401067],[127.0316570000059,37.745113000793104],[127.02954259833889,37.7376135007523],[127.036665098971,37.731481599906004],[127.0359048994331,37.7231513028892],[127.0423697980779,37.7125062987539],[127.0345901992544,37.7089954019702],[127.0385632942592,37.695570807451396],[127.0294327999963,37.6959804025682],[127.0272261967084,37.688757003049304],[127.0308672986919,37.670749802916006],[127.01415160762231,37.6748353015294],[127.0094859008605,37.6854018003961],[127.0005826942498,37.671500002636],[126.99369190114061,37.6740818000542],[126.99950249460251,37.658026303748706],[126.9924957016093,37.6568711049039],[126.9869961023298,37.6622567999116],[126.99332609129151,37.6485120985817],[126.9915090980519,37.6433396005038],[126.9805971000783,37.6388170008383],[126.97571909560051,37.617233405518604],[126.9690785007972,37.611632700838],[126.9679561994629,37.606015100195],[126.9761394974842,37.6058809955073],[126.9737313990083,37.5971969027184],[126.9635742996505,37.6013376005651],[126.95198520173379,37.5993556015784],[126.94773620271289,37.6101892071471],[126.9496179983373,37.6076441022373],[126.9430022005684,37.604849903652195],[126.9479025021502,37.6221580984519],[126.9375318065229,37.628642801004],[126.9371768003369,37.6404751998828],[126.91998200121361,37.6587581014478],[126.91950889967289,37.6549730031293],[126.9051507008996,37.653748204348005],[126.90157350254769,37.6612274019879],[126.8921434001082,37.6638321000576],[126.888628999351,37.654725302053],[126.8765213030343,37.6570035008639],[126.8626727967873,37.648623803751],[126.8685451975295,37.6433046010614],[126.8781368992852,37.644448498767105],[126.8826485006425,37.650519898080496],[126.91066669654069,37.640880799808095],[126.9071369933941,37.6248349014332],[126.8999969993615,37.6182778018414],[126.9012210975491,37.586897800947],[126.8826043993655,37.5834155008817],[126.8908786974366,37.569251799445105],[126.8843737996202,37.5623871008698],[126.883853899773,37.5532880087933],[126.8676559013536,37.553595499919],[126.8595211022663,37.5673482968238],[126.84630410101819,37.5664982021561],[126.8439458033927,37.5751408066471],[126.8117547996041,37.567793200630696]]]}}]}