{"type":"FeatureCollection","features":[{"type":"Feature","properties":{"interval":15,"stationId":"5814312744","profile":"peak"},"geometry":{"type":"Polygon","coordinates":[[[126.8129412995687,37.4863192005324],[126.82520869996961,37.483996299816305],[126.82985620018819,37.4895856983573],[126.8383041987282,37.4845251992174],[126.83637590065649,37.4819054018372],[126.84341450108299,37.483382999519606],[126.8406839011146,37.4921087003735],[126.81806310022661,37.4904534003029],[126.8129412995687,37.4863192005324]]]}},{"type":"Feature","properties":{"interval":30,"stationId":"5814312744","profile":"peak"},"geometry":{"type":"Polygon","coordinates":[[[126.7129386975803,37.5094514001755],[126.7235312997842,37.4902747993367],[126.7268900997698,37.4903073984734],[126.72687600011051,37.4972010997301],[126.7457032008313,37.5014191968629],[126.7600386992041,37.4919416001107],[126.7657509007377,37.4948262988574],[126.78503709982219,37.4882607994563],[126.7814085007988,37.4839021006063],[126.7768154008417,37.4867690998833],[126.7752567997392,37.4821369989278],[126.7796910995331,37.4771147996535],[126.7909060985069,37.4786322005131],[126.79118000127589,37.4680064019404],[126.80088590039159,37.4625359982381],[126.7988862002242,37.4763982988146],[126.80493869953949,37.478965299708996],[126.8243290988095,37.4733350995915],[126.8305117007993,37.4849576949153],[126.83712479462069,37.4805566989843],[126.8382388949927,37.4718264974955],[126.8703936998319,37.4644037988686],[126.87989039956639,37.473027297856895],[126.88586989715691,37.4706895987304],[126.9047880016748,37.4937615994723],[126.91503559965949,37.4967122990892],[126.9167054981701,37.492443101016704],[126.9262531996473,37.492564098906804],[126.92121160143951,37.496095499301205],[126.9317708004148,37.4995337996729],[126.9239453001298,37.509175599969296],[126.9174536986767,37.5015815015923],[126.9034740004475,37.503590100960295],[126.9019490997096,37.4985954019037],[126.892733400016,37.4991273014267],[126.8915129984211,37.4939487004157],[126.8821437001192,37.494205700517504],[126.8676471011452,37.4843536019282],[126.85652250095569,37.4972942004351],[126.8534907001672,37.4942530021426],[126.8442403003276,37.501558700366196],[126.8353657979632,37.497933702378894],[126.829667001868,37.502134199905],[126.8347817999893,37.5065895991753],[126.8229881030014,37.513530000651],[126.8179472013458,37.5287457998486],[126.80722159996,37.5382313004519],[126.80638169880861,37.5342177019767],[126.7924971000356,37.5294755028578],[126.7979377982714,37.5255966999051],[126.7950780998856,37.523039400563704],[126.7874188006638,37.5239530005464],[126.79255209865849,37.519239799972404],[126.78985730135679,37.517771200539],[126.7231875997338,37.5114713006408],[126.7267746004362,37.5173521994143],[126.7224856007726,37.5212679998606],[126.71909330014459,37.5196309014226],[126.72034159859919,37.5103662988507],[126.7129386975803,37.5094514001755]]]}},{"type":"Feature","properties":{"interval":60,"stationId":"5814312744","profile":"peak"},"geometry":{"type":"Polygon","coordinates":[[[126.6198901991667,37.6449980010901],[126.6285655987781,37.6372725998921],[126.64846879855921,37.633334296495704],[126.652022303979,37.6405473974535],[126.6780401996344,37.6352619987059],[126.6928221988119,37.6496504977978],[126.6973807974466,37.642054101095006],[126.6881518006493,37.6398006027779],[126.68502150012631,37.6340578011378],[126.6883742998028,37.6262032017819],[126.6918722982066,37.6269439959299],[126.69499160069209,37.6193598969835],[126.7119308965036,37.617341698923894],[126.7088765973581,37.607501202401004],[126.7147196994604,37.600573397732],[126.7288316965801,37.5930293989412],[126.7465606984454,37.5994473984111],[126.7542965984956,37.5912840999375],[126.7547190973456,37.581349799293996],[126.7603930005004,37.5906033966823],[126.77386079716669,37.574167897695496],[126.78730799317759,37.5671271998009],[126.7936973998185,37.5670303991262],[126.7993937003088,37.5758302957253],[126.8035801992859,37.5713500991522],[126.7984198005241,37.563155202025094],[126.8139417975667,37.5471032001008],[126.80718159838241,37.538683202811605],[126.8003281007449,37.540236699222504],[126.7994732003299,37.546560800415904],[126.787359900791,37.5489716011392],[126.7800300015649,37.546340803619906],[126.7794566985226,37.5331853005954],[126.7651757007612,37.5325483016567],[126.762097002002,37.5366477012614],[126.75241729981501,37.531190201070494],[126.7443604999201,37.5355611991742],[126.7632188998043,37.539800299469505],[126.75025460157521,37.5403706023556],[126.7454433008109,37.5459952987308],[126.75179019988481,37.558545697645705],[126.7612608987706,37.5587983992307],[126.7624988005072,37.562889597798296],[126.75625560173481,37.567019898673095],[126.7597433999386,37.5728166988677],[126.7533707002529,37.567738401363805],[126.74673870296239,37.5727140981436],[126.7496760017519,37.5787639963494],[126.7428263014111,37.5825859994111],[126.7265262009761,37.5826658017624],[126.7203728969074,37.5710666027768],[126.7082184002496,37.5703152007487],[126.7203728963492,37.5710665972704],[126.72072349599861,37.5678139005231],[126.7147640997744,37.5561238025899],[126.7108669014613,37.5579034013039],[126.7123831963294,37.5533780028441],[126.698733399709,37.550887604078405],[126.7033722963872,37.544332704761395],[126.68903900032919,37.5284915023368],[126.6836038054734,37.5351898959851],[126.6850992040832,37.5412878961665],[126.69055969862269,37.5407759966784],[126.69594830117279,37.5511332984701],[126.684965504305,37.5576536998187],[126.69148469778581,37.563755193717206],[126.6806367054047,37.5729466007904],[126.6908061019031,37.587474398598296],[126.6759402056182,37.5987658029152],[126.6682823024216,37.5994150046257],[126.6637546006834,37.608662100564395],[126.6479453996177,37.6052514046347],[126.63709769920129,37.5957094011859],[126.6238355015765,37.5979085024652],[126.6218720993856,37.5940988014462],[126.6369767987555,37.591010498457905],[126.64360429970161,37.5953435996105],[126.6491740965166,37.5936193985586],[126.647579199172,37.5899178007814],[126.65396110006921,37.5997629974576],[126.65856529690761,37.5980254990478],[126.65672789895001,37.594964900785804],[126.6634729972452,37.5908582985428],[126.6616784996434,37.5838673019645],[126.6682660956059,37.5838882954746],[126.66841379545819,37.57739750196539],[126.6764255983628,37.5727625998493],[126.6747933986067,37.5684268013683],[126.66548470101199,37.571114002140504],[126.67096459356921,37.565340600218796],[126.658444198962,37.5525634028904],[126.66778879688479,37.5436737002073],[126.656481299013,37.540743007497],[126.6633110976333,37.534503800758806],[126.6515907014217,37.5266401007828],[126.6600599979516,37.522755802282596],[126.6491707000863,37.5182304023597],[126.6614716973889,37.5162789996076],[126.6618234931083,37.506879402860704],[126.6512208972096,37.4991453016372],[126.6637499990613,37.4739742011627],[126.6487035005362,37.4743287004399],[126.64031460036169,37.4820802994439],[126.6301682007132,37.4829668005514],[126.6265244986327,37.4814681018784],[126.6316391992731,37.467058300555195],[126.64303119943439,37.459276098945594],[126.65535919958411,37.4662723993776],[126.6763047990151,37.444168700568696],[126.686233497858,37.4437319987674],[126.6806386988942,37.435525300623205],[126.68660849854301,37.4259320006562],[126.6745272004651,37.420845100800804],[126.67845959935559,37.4090627999594],[126.6721252005931,37.407496800836796],[126.6740875999233,37.3963836999239],[126.68688289829561,37.3981175976691],[126.6981877991475,37.4053307988263],[126.6969931030774,37.409037198786],[126.7068471993979,37.4099691991881],[126.7056508036523,37.4180919996299],[126.71083920052939,37.422230895778405],[126.705547604283,37.424025701649704],[126.70622670242871,37.4284333984942],[126.7138405991012,37.4298863980024],[126.7077201016743,37.4336719999571],[126.7216856000791,37.4444737960279],[126.7320516963827,37.443837497709204],[126.7360034992491,37.437952198115795],[126.7469607970171,37.4462665982596],[126.7577069969277,37.432799800887295],[126.7622169972677,37.4348715971522],[126.76522679603319,37.429650099481606],[126.76151659974339,37.427985201146505],[126.7722115998735,37.4259037955624],[126.7769676971291,37.4157782025949],[126.7695847997727,37.402809006542896],[126.7808939990912,37.4051190889554],[126.7885189986085,37.4008380934934],[126.7888808997426,37.3791787021478],[126.7959557969302,37.3801709983844],[126.79606409876659,37.3733706026973],[126.7996266994173,37.3775726949645],[126.800839998204,37.371460401076796],[126.7937532933503,37.3623241034863],[126.8000251973395,37.3623550976058],[126.7991873981773,37.3589803009806],[126.80356759777719,37.363644794528504],[126.80544949655169,37.3514364017189],[126.79754700109379,37.3500217006498],[126.80444279612091,37.3490790000503],[126.80128909927461,37.3461538029755],[126.8046347990083,37.3447190994103],[126.7969570984061,37.3346309018413],[126.8030067991515,37.3281011989793],[126.79932979971899,37.3214860008207],[126.80598669747991,37.3196870971703],[126.8056103978562,37.3155172013402],[126.79070260069321,37.313041202909204],[126.7841136031462,37.3049763030839],[126.7859614966236,37.3008386007258],[126.8017153015594,37.314681795945],[126.8076742997255,37.313350799317405],[126.8096885996304,37.317514796049096],[126.8122954970235,37.3135493000146],[126.8234319007438,37.319147797682504],[126.8168471006234,37.3196820004225],[126.81448710016299,37.3262722999886],[126.822567200097,37.333030299402594],[126.81832060091911,37.3407890992923],[126.825040901894,37.3483551998533],[126.8091271029278,37.353670696682705],[126.81439569765921,37.3547277956256],[126.8141960978588,37.3509707993826],[126.82286790002411,37.3845756993777],[126.81214470522191,37.3838753026715],[126.8149586041163,37.3922647017611],[126.807666804207,37.3925751021589],[126.802935105782,37.3989347012648],[126.8065625022651,37.4102011982908],[126.7983602027671,37.420925498063404],[126.8126804994775,37.4301543993845],[126.8116598019113,37.4416538986042],[126.817576696646,37.4419140981249],[126.8206703008548,37.4603988947971],[126.8381357968283,37.4475974991626],[126.84541679608479,37.448488395942604],[126.8470583984788,37.4439114000089],[126.85229340087729,37.4535829987186],[126.84083380527579,37.458558699802595],[126.8426979034117,37.4613051970561],[126.8527967973737,37.4609447975059],[126.8609811960414,37.4475194012922],[126.8722093000409,37.447763893857996],[126.8793406978747,37.4412639006664],[126.8823293026545,37.444952997101495],[126.89477169783561,37.4424996990805],[126.8884521990543,37.437326102273],[126.8988130974718,37.4283050013932],[126.89558899897371,37.4084305008461],[126.90864429937331,37.3904162993666],[126.9209589987105,37.3881596961171],[126.9286025973179,37.3743713985803],[126.9245926979394,37.353179702106196],[126.9178706001181,37.3467261015143],[126.9242695954109,37.340288399778196],[126.9376701016137,37.3557554974287],[126.9476168996897,37.3551639987931],[126.94909469873771,37.3507048012408],[126.9415268997907,37.3440655997775],[126.9475795997591,37.342769999802805],[126.95696860061139,37.353719999435306],[126.95239390264601,37.3601872991879],[126.9632244021728,37.3722711978776],[126.9405650049958,37.379772899981],[126.9581848003533,37.3803499996646],[126.9623806997933,37.388659398954104],[126.97039960039659,37.386696199114304],[126.9840451005667,37.3976404995431],[126.9822344021524,37.405284098796706],[126.9759287029253,37.408067702237695],[126.96720799999039,37.4047676005765],[126.9684160981106,37.401061901126205],[126.9619748011981,37.403021700032],[126.9516082000518,37.3977479002061],[126.9376821003963,37.4033284006301],[126.9333595017289,37.4137138995724],[126.9202069007073,37.4123008006112],[126.9230762009874,37.418551897676195],[126.917342002439,37.4215873013838],[126.91642020148501,37.4347735979771],[126.9112123032444,37.437081500236],[126.9170423978194,37.4402146973634],[126.9084406023389,37.444598401117],[126.9166385000733,37.4479951997914],[126.9162297005022,37.4665983991838],[126.93059029894961,37.4557102025545],[126.9435166961137,37.454033097070294],[126.959095399981,37.462782099539396],[126.9686337000426,37.4623280997059],[126.96847250207401,37.466085496995795],[126.9760630982995,37.4642565979892],[126.9806033997507,37.4710080979516],[126.99570889725949,37.4546053986619],[126.9961793990894,37.445750399063805],[127.00258999777479,37.445920000296],[127.00816499945901,37.438201001119296],[127.0002642011395,37.438722799954704],[127.0074135985038,37.4326409976106],[127.012509902983,37.4436008963774],[127.0036067002151,37.449896600536],[127.0054505985067,37.4549567978828],[126.9885779016484,37.457269300819],[126.9944067019124,37.468929797818],[127.0242354001889,37.483377099558595],[127.02571329978501,37.4917385996039],[127.03146329917669,37.489290099345695],[127.04885559838219,37.5026937983016],[127.05292879836071,37.4904811013679],[127.0593026973429,37.4862990007544],[127.05193430077689,37.4983321999332],[127.0560957003307,37.5066405998927],[127.0463455004021,37.508464200865696],[127.0472058006818,37.5135464001681],[127.053264699824,37.5130284992787],[127.0601600003884,37.5209119992244],[127.0437056998111,37.5232161005735],[127.0416847,37.5293619007399],[127.0345298014206,37.5216730005697],[127.01861050010899,37.5229530005399],[126.98225230228459,37.5043262024756],[126.9756641015713,37.5061485092684],[126.97311040183949,37.5155714001275],[126.99544119965,37.520528599351096],[126.9918795007936,37.5256546998927],[126.988500300387,37.520299300190196],[126.97805840038289,37.524865500424596],[126.97302450124519,37.5216151004475],[126.9679798012762,37.5271948998531],[126.9818925994374,37.5322782986074],[126.9742997002009,37.536743901048595],[126.9738175002496,37.5457287994564],[126.9869864993195,37.5410889999692],[126.98683649963249,37.5348408007076],[126.9938932995931,37.528659999429905],[127.00263699992699,37.533544799507204],[127.00270310075331,37.5435924006974],[126.9997052995851,37.5380873011332],[126.9929877006074,37.5387252001395],[126.98358810046011,37.5472133007002],[126.9834860021405,37.5535499001556],[127.0009374996161,37.560724799214505],[127.00888349886189,37.5539295002183],[127.0018500009571,37.5480673015585],[127.00762860022391,37.5464056993956],[127.0133078011257,37.5555185983919],[127.0086862998495,37.5621820995389],[127.0200444003185,37.5744575993443],[127.00344370040911,37.576102799945104],[126.995842198897,37.572014700725],[126.98677310063269,37.5810834999875],[126.9780081000187,37.5758603007505],[126.9716162000031,37.5778019003384],[126.9694248003025,37.5715456005598],[126.9600044999788,37.5724235002467],[126.9582670996613,37.5663223006406],[126.937354899924,37.5662900004193],[126.9352861006534,37.5714752994268],[126.9244853017092,37.572528299359],[126.92746200005071,37.5738224993915],[126.92203040057319,37.5808363995148],[126.9236918010822,37.596491299586695],[126.93183759934679,37.6011915995862],[126.93721889912281,37.5982087995129],[126.93622960263541,37.621665100129],[126.9159491002656,37.6218727005272],[126.91645539967651,37.6126408011657],[126.90494359911149,37.6010194000129],[126.89760549916839,37.5840072012283],[126.8786611000841,37.5988580007525],[126.8819628013185,37.6044708980107],[126.8768263009693,37.609001200419705],[126.8766044005269,37.6190749008762],[126.86612310346139,37.6152553036742],[126.8606058020722,37.6192630011357],[126.8638923980155,37.61419570326041],[126.8573492011217,37.6149767016471],[126.84354780416889,37.637373697920594],[126.8579275000523,37.6451163938804],[126.8650758980307,37.645296096103],[126.8703043995009,37.6373713999384],[126.88787620078949,37.645332499247004],[126.90247140053489,37.6428721992362],[126.9070948001806,37.6461310971565],[126.9142169964497,37.6432518976289],[126.91140439942619,37.6342342015648],[126.9192716983476,37.628696599989595],[126.9269847005806,37.634685500190905],[126.9213858023662,37.640814600195796],[126.9214335005407,37.6535340993748],[126.9075273008483,37.6532374017694],[126.9046587018641,37.6608994996516],[126.8954723001628,37.663628600399],[126.8844069020926,37.6562032027191],[126.8842437022558,37.6599997989225],[126.871772799534,37.6593820006499],[126.8728524990523,37.6551587031755],[126.85304000157869,37.647980006594594],[126.84776940684931,37.6534912010834],[126.84804170150039,37.6671172010368],[126.8293574992181,37.6628704006419],[126.8238560000933,37.6571329009104],[126.827227398323,37.657815897602404],[126.8270013979362,37.650428301101805],[126.82161430034509,37.646223900856],[126.8227511999449,37.651572698906804],[126.8128603016657,37.6552184023109],[126.8167091010717,37.667237397955],[126.803633804458,37.6815798974782],[126.7854117032043,37.6870628000812],[126.7788647002982,37.696731200029305],[126.7725334023139,37.694519902255],[126.76717689995789,37.7019666009211],[126.7599099017509,37.7013587002021],[126.75998700025059,37.717320800097205],[126.75691829800199,37.711160999223495],[126.76143899861819,37.695750402432004],[126.7549239991454,37.6935813007501],[126.75034510056861,37.683891801341595],[126.73824999860729,37.679806501342796],[126.73995209772549,37.6696655004559],[126.7456375985278,37.6706662971443],[126.7550466989418,37.661628199761104],[126.7572572991022,37.6649705995023],[126.7636090005621,37.6467809018442],[126.7712079980502,37.6470922011444],[126.7751082975853,37.6335036003373],[126.7879529982439,37.630382598674295],[126.7785912045639,37.6124295134087],[126.76124349948891,37.619695101408304],[126.7548461016774,37.614386104213395],[126.75374070278279,37.6186448999546],[126.7402739995525,37.6236004005625],[126.7359627010081,37.618701604289704],[126.731346901904,37.623857599347],[126.73458530238551,37.625908797082495],[126.7317838004739,37.635786200243096],[126.7317492001275,37.6301051031947],[126.7259583045587,37.6341441002325],[126.7307601997568,37.636361598015],[126.71452960354101,37.635259601096095],[126.720837997543,37.6383739979847],[126.71939970612729,37.6421421133599],[126.7104103006216,37.641336901388996],[126.7089067003888,37.6457074014602],[126.70515160225139,37.642516802194],[126.7003402003352,37.6540288996342],[126.6881973010503,37.6537803013885],[126.6782225070735,37.664347911797],[126.67097700019919,37.662893601170296],[126.6724503976997,37.653851700484296],[126.65419950103,37.6512758015541],[126.6549380975665,37.6432285031606],[126.64225240145801,37.6478468008128],[126.6400046986856,37.644059902194904],[126.6271629006543,37.653392800441196],[126.6198901991667,37.6449980010901]]]}}]}