{"type":"FeatureCollection","features":[{"type":"Feature","properties":{"interval":15,"stationId":"5900500318","profile":"peak"},"geometry":{"type":"Polygon","coordinates":[[[126.7730946988667,37.483295900704],[126.7807530990367,37.4767881998973],[126.7909060981596,37.4786321996962],[126.7927314997244,37.4699102000366],[126.80088590039159,37.4625359982381],[126.8007627006954,37.476362999326],[126.8103181000298,37.4854758990814],[126.8175280003361,37.4859253995201],[126.8119507006814,37.4897636002298],[126.80428360031121,37.484969200893204],[126.7952103028094,37.493145299150804],[126.7854350002526,37.4900350003543],[126.7833760989919,37.4843075004743],[126.7730946988667,37.483295900704]]]}},{"type":"Feature","properties":{"interval":30,"stationId":"5900500318","profile":"peak"},"geometry":{"type":"Polygon","coordinates":[[[126.686710999319,37.4637719999474],[126.70151459988469,37.4554737994669],[126.7007015985849,37.4467652003134],[126.70309829988739,37.45421059907461],[126.7117891999276,37.4566379989029],[126.7092219005949,37.4604701985536],[126.7143834995424,37.4632452995618],[126.71231760250801,37.469987598120106],[126.71720090007689,37.472624598189306],[126.7192323007898,37.4835914972681],[126.7448403978709,37.481684298074796],[126.7518136997122,37.4755843010242],[126.7785005954918,37.4717542971964],[126.7858348955625,37.4508168034105],[126.77402930103169,37.444040802509804],[126.7738822998501,37.433974100644804],[126.79204639850721,37.4292159995658],[126.80902169988491,37.445767497749],[126.8042301045711,37.4604435980174],[126.8107087993598,37.464359598555305],[126.8149241008029,37.4759656979949],[126.8242338005742,37.477812799111305],[126.825007400421,37.4834307993542],[126.83430079830809,37.4878391967107],[126.837049399983,37.4819125018301],[126.8333789016454,37.4826398013344],[126.8459545003963,37.4809255996233],[126.85211219974849,37.4733189994644],[126.8593698003909,37.477533197420705],[126.87097259974931,37.4726017997164],[126.8736735994643,37.4766356995627],[126.8628253006311,37.4788466004757],[126.85649800066041,37.4864145000871],[126.8655877011259,37.4921698996406],[126.8722757984603,37.4890148003178],[126.87993810006131,37.4952685994877],[126.89566409918531,37.494074500036206],[126.89819060036871,37.500324399880895],[126.8940080014095,37.504569199040496],[126.8992598010707,37.509785101215705],[126.8934365004856,37.508068901864696],[126.88381870168331,37.513735500983806],[126.8720866994004,37.5098081009643],[126.8751694977728,37.499973402181304],[126.8688302994605,37.5015358004363],[126.8661651988435,37.498877100358705],[126.8700972987555,37.4966289993789],[126.86512279971639,37.4928343019222],[126.8585723016442,37.5013164999327],[126.8324129029529,37.4957346021991],[126.8242230036922,37.5060741986892],[126.8170635025909,37.5057288026912],[126.8125946017526,37.5196277986452],[126.816611200873,37.5253281998575],[126.8063522022269,37.533930400552805],[126.79705940000599,37.529672300171804],[126.7950780998856,37.523039400563704],[126.8015239983925,37.516036600754],[126.79314050068261,37.5125769042413],[126.7902222001583,37.5056725039895],[126.7850605004377,37.509531201001195],[126.7802790990959,37.5053754009133],[126.76244269914869,37.5062449022743],[126.76010839998229,37.504312400310404],[126.7689844986806,37.5027593993857],[126.7680931000361,37.4985091011793],[126.75708570006671,37.5026517003026],[126.737637100165,37.4969162016558],[126.73336940018581,37.5013521999881],[126.73547310055869,37.5094817999732],[126.7259919012111,37.5103578002866],[126.7301260012462,37.517294197173804],[126.7226760005511,37.522422601714496],[126.73047289981909,37.530230098799095],[126.7260183009279,37.534604899897595],[126.7310818005416,37.5449747999737],[126.719797700246,37.543489600171604],[126.71536680011239,37.531231001123196],[126.72223969807081,37.5249472996282],[126.7125550000973,37.518577701485704],[126.7207566953866,37.514185000348995],[126.7074332018213,37.5077314019926],[126.705551001072,37.5113832009092],[126.69660240004801,37.5094090010491],[126.7032792979585,37.505238199067],[126.7105189992573,37.5096268980334],[126.7165329979226,37.4934796995173],[126.70468799941631,37.489487500692505],[126.7021006989487,37.4785277022095],[126.6949060013879,37.4767205015327],[126.6961272984517,37.4646593001785],[126.686710999319,37.4637719999474]]]}},{"type":"Feature","properties":{"interval":60,"stationId":"5900500318","profile":"peak"},"geometry":{"type":"Polygon","coordinates":[[[126.5980534991899,37.4742033003042],[126.60986659988231,37.47653419988411],[126.62985839759091,37.4643637978252],[126.6312244969463,37.4495530001583],[126.6684455997852,37.4456215978731],[126.6762072991649,37.4365420995987],[126.67475959753911,37.425704000766906],[126.66561810034871,37.4137937005406],[126.6634595023341,37.3963242020086],[126.6553281013486,37.398139200995004],[126.6441753001634,37.3931194011976],[126.6331797016273,37.4001432977303],[126.6275251005343,37.4118423984272],[126.6253306987917,37.408526202140294],[126.6275703948379,37.3874870994063],[126.6373505976199,37.3715334998288],[126.65167129856191,37.3680402992094],[126.6595686001934,37.378816095362005],[126.6607759995169,37.3736310002658],[126.66715449978409,37.3759665997775],[126.67573400103251,37.382999997337905],[126.6773685006662,37.3937389948772],[126.69410600201441,37.3963127974752],[126.70683009931301,37.390294498703305],[126.7179339992588,37.3978557980702],[126.75475059484039,37.3784130874403],[126.7397186021155,37.395158197433396],[126.7431927004603,37.405353098949696],[126.7247784011937,37.4114088019466],[126.7169514017229,37.407606703383806],[126.7137037039925,37.412734300294595],[126.72149029983589,37.4218741984644],[126.719313300949,37.4344794991842],[126.727438298782,37.4359708977595],[126.73261999906569,37.4315167963577],[126.7322366007207,37.4356179975401],[126.7419691980672,37.441543097703196],[126.7572830964871,37.4284561022993],[126.7577331949461,37.421772603421296],[126.7517464001014,37.4223764012583],[126.75436759803999,37.4193779005382],[126.766169698197,37.4192788969728],[126.7642320997627,37.408719102947096],[126.7608901006595,37.4142338001068],[126.7595043996931,37.40810170565231],[126.77285829365759,37.4020577953124],[126.7779866971376,37.3922148992513],[126.7755478990079,37.3825116029465],[126.79026139246241,37.3720896964591],[126.7862818005655,37.357689502314],[126.79614309946639,37.348621198206196],[126.7784720988387,37.326561002659595],[126.7820556959301,37.3144133011781],[126.7711918978441,37.3086320017872],[126.77695889673019,37.2969745980225],[126.7890981000416,37.2932411999209],[126.83039299985501,37.3115077982371],[126.8381602998855,37.305344601653495],[126.844110300328,37.3103257988891],[126.8653685994493,37.2960753000231],[126.8739980008733,37.300634299623596],[126.86692340084291,37.3019476007141],[126.8694298983503,37.305920696872604],[126.85728830036119,37.306318100117096],[126.84929770167699,37.3165202000981],[126.8334749001156,37.3192475017627],[126.8278336034521,37.3250800977185],[126.8354187999,37.329293796780306],[126.8303207043423,37.3396567990971],[126.8364148009916,37.3434498957763],[126.832424902998,37.344017203382904],[126.8320621066343,37.3583181967604],[126.8165265087803,37.3635618019344],[126.8166488057982,37.3691464000227],[126.8232960020672,37.3819504907081],[126.8320450994419,37.385308996363996],[126.8268292043344,37.391918099595095],[126.818795001168,37.3882054040334],[126.8145808044941,37.393097800928],[126.81335370482199,37.396810699015404],[126.8210042002004,37.4009403979785],[126.815941200848,37.4170310996005],[126.8118786011357,37.418294302100996],[126.8164383000201,37.420413697993695],[126.8138769039764,37.427025796334206],[126.8225027080789,37.433794296959],[126.8128052002664,37.4346151009652],[126.8117055018656,37.4401207001374],[126.8318712987606,37.4508656979915],[126.835824398539,37.4590836981991],[126.84507479737731,37.4559080989356],[126.8448067955885,37.4520939018132],[126.8426979034117,37.4613051970561],[126.8653131968417,37.4579177960488],[126.86705950021219,37.451471098964596],[126.86624550115461,37.4564520955258],[126.87133489606519,37.4544254975524],[126.8782476982246,37.4382407994333],[126.8823293026545,37.444952997101495],[126.8884617989941,37.444383697610206],[126.8917591956967,37.4415018004921],[126.884677999834,37.4381078002315],[126.8852743985266,37.4287471031704],[126.8747347991925,37.4174807037325],[126.9079796986971,37.4017662952864],[126.9135037987254,37.3905495989017],[126.92003939890249,37.3920703982487],[126.9208287979718,37.376825000241595],[126.92319809867779,37.3800919963336],[126.9359679976534,37.3783305981884],[126.9247248993889,37.3606029997325],[126.9223204960233,37.3431386005403],[126.94139969933181,37.3558840977719],[126.93831489977339,37.341958900337204],[126.9475795997591,37.342769999802805],[126.95669779975,37.3468073996697],[126.9559064009934,37.3520075994256],[126.9617191998818,37.3515805997096],[126.95436860161949,37.362569698853704],[126.9577637002677,37.369068999930704],[126.9474628030015,37.379640698463],[126.9681410998854,37.387839399700695],[126.97211050081489,37.397866298512795],[126.9754532983099,37.3948842002327],[126.9815297989456,37.398041097909],[126.980491900317,37.4051011002712],[126.96996110009,37.405347700249],[126.968950000359,37.398897500906095],[126.95353990124579,37.395265802154995],[126.932760404272,37.4035293997502],[126.9367069999129,37.4088672989528],[126.9294378008386,37.412985400655096],[126.9213905017351,37.4109928020107],[126.9272152017303,37.4198544001678],[126.9182277041567,37.4312555961757],[126.91958910243379,37.462849998338704],[126.9330299975603,37.4565477991624],[126.9414881015315,37.459278998396705],[126.9488668998556,37.4558512992638],[126.9594414012672,37.463472599027504],[126.9779474007846,37.4649176953678],[126.9806033997507,37.4710080979516],[126.99570889725949,37.4546053986619],[126.99499189974951,37.4477469004744],[127.00586589804381,37.4456242000947],[127.00816499945901,37.438201001119296],[127.00277339778029,37.433889700025304],[127.0074135985038,37.4326409976106],[127.012509902983,37.4436008963774],[127.0030952006398,37.450584099734],[127.0054505985067,37.4549567978828],[126.9885779016484,37.457269300819],[126.9944067019124,37.468929797818],[127.00482309933099,37.4714052981162],[127.0083026004598,37.47833399992609],[127.0168005999398,37.4758992998669],[127.02599839999631,37.483798099234605],[127.0355201994053,37.473951299861604],[127.0323370011389,37.472606200812905],[127.0347543996317,37.4640025002402],[127.04509469891251,37.4635679991531],[127.0439013011097,37.4803771991756],[127.0704229999981,37.490108599813496],[127.0645126999449,37.4918864013365],[127.066476402302,37.49664410069],[127.05767270057069,37.5047934989557],[127.06720250092339,37.5056794999962],[127.07042389955299,37.5106251994643],[127.0792410000615,37.5065938993094],[127.0865990996991,37.5123014994775],[127.04561010070651,37.5239241000874],[127.0447285015482,37.529582599569295],[127.020321908255,37.5376219039081],[127.0394784002242,37.5543484996706],[127.0436700986431,37.5383680004934],[127.0501343002416,37.5457115988878],[127.0453116010202,37.5469613005353],[127.0494123997548,37.5549099989184],[127.0472639996155,37.5525392013735],[127.04340620029481,37.5603525996194],[127.0555594001396,37.5644548994782],[127.05199310011601,37.569516500123996],[127.0245089005802,37.5689884001253],[127.0360337993571,37.5724154993355],[127.0510649004515,37.5851524992952],[127.0253721005683,37.5804901009407],[127.01861290010869,37.5965564004212],[127.0026761002243,37.593540101334796],[126.9964206987477,37.5829201008549],[126.98463190023,37.5867192009098],[126.977071000089,37.581800000528304],[126.9703765003705,37.5838436005366],[126.9627247005912,37.5770263016741],[126.9419910014527,37.5909051996989],[126.9571904976992,37.5699478004299],[126.9428669007864,37.5671925030807],[126.9234378001924,37.5800636992441],[126.9236918010822,37.596491299586695],[126.9357589995342,37.6008777990827],[126.936341699619,37.5977217005998],[126.9367586034845,37.620131896542],[126.9198188002575,37.6235470007416],[126.9146355996395,37.6099605005248],[126.9040550999865,37.6010323002363],[126.9012210975491,37.586897800947],[126.886539203719,37.5891468026717],[126.87967620059581,37.5854355010488],[126.8785784993976,37.5815527003256],[126.8908786974366,37.569251799445105],[126.8843737996202,37.5623871008698],[126.883853899773,37.5532880087933],[126.8785532998584,37.5528588007853],[126.8595211088125,37.567348303588],[126.8668534014802,37.5727194982168],[126.8640796000786,37.5746997005026],[126.8558023060148,37.567675706567],[126.8218896997441,37.583948800437504],[126.8243651991955,37.5820150005486],[126.8198162021123,37.579763103188704],[126.7974345021687,37.5973542993358],[126.79020080012299,37.5880433010252],[126.7846020041661,37.596110797788995],[126.7877400000865,37.6034104989533],[126.7845775031717,37.6101980993491],[126.77031050375459,37.6178859990016],[126.765887398632,37.6087440035864],[126.7590120017877,37.615216101441],[126.7480742005451,37.6154919012392],[126.74069260153631,37.6235217991478],[126.737973900129,37.6186507031867],[126.7327409042299,37.6206222023691],[126.7325673020231,37.633328400143704],[126.723673201507,37.6292866036887],[126.7103112005727,37.6443710994485],[126.6904065007373,37.637884602353196],[126.6903012985443,37.627402600930004],[126.6969327996047,37.6202610995304],[126.7119308965036,37.617341698923894],[126.712470399127,37.606473300957596],[126.7286865999007,37.597313498342295],[126.74688749967319,37.6034310960163],[126.7542965981319,37.5912841019784],[126.7694039985222,37.5858370972622],[126.78686339611251,37.5902688977439],[126.7887793993929,37.579745603523506],[126.78454190103949,37.584805800297296],[126.7771773988476,37.577653800115],[126.7904878988427,37.566374692500794],[126.7993937003088,37.5758302957253],[126.8043332988424,37.5680287006308],[126.7984198005241,37.563155202025094],[126.8139417975667,37.5471032001008],[126.80312890001551,37.5376786020303],[126.7994732003299,37.546560800415904],[126.7894309997523,37.545555202150304],[126.78470419995519,37.5429970032533],[126.78693639973851,37.540413099747404],[126.79724069599351,37.53790510039801],[126.7859471011206,37.5384869000914],[126.7811042006805,37.5332079018],[126.78071660106811,37.5366947983131],[126.75400450212739,37.5179828060325],[126.74880860028401,37.5246817988653],[126.7496875987085,37.5329613978235],[126.7552536990676,37.5281746997724],[126.7635677022914,37.5407717984421],[126.7493095999603,37.5406386005989],[126.7454433008109,37.5459952987308],[126.75179019988481,37.558545697645705],[126.7612608987706,37.5587983992307],[126.7571135003941,37.573447099958706],[126.7533707002529,37.567738401363805],[126.74160810121819,37.581474301111705],[126.7278971009094,37.5803343012904],[126.72621889583401,37.5712875024011],[126.71168130387319,37.570594502885896],[126.7203728963492,37.5710665972704],[126.72072349599861,37.5678139005231],[126.698733399709,37.550887604078405],[126.7033722963872,37.544332704761395],[126.69861009975949,37.5401590084179],[126.6936278005051,37.5549838978891],[126.6925670992625,37.5516821019718],[126.684965504305,37.5576536998187],[126.68847030299041,37.5692911029791],[126.6812700019557,37.5691271010265],[126.678646601889,37.5750337002807],[126.6908061019031,37.587474398598296],[126.6759402056182,37.5987658029152],[126.6682823024216,37.5994150046257],[126.6631450006096,37.6085354001267],[126.6523475009058,37.6065488999878],[126.6361275998155,37.5934831013558],[126.6491740965166,37.5936193985586],[126.647579199172,37.5899178007814],[126.65396110006921,37.5997629974576],[126.65856529690761,37.5980254990478],[126.6634729972452,37.5908582985428],[126.6616784996434,37.5838673019645],[126.6726859957278,37.5809667964307],[126.66997729843649,37.5768940005035],[126.6762372985511,37.5706925019194],[126.6637765000301,37.5697800017033],[126.67096459356921,37.565340600218796],[126.658444198962,37.5525634028904],[126.66778879688479,37.5436737002073],[126.6599770029468,37.540494003111306],[126.6633110976333,37.534503800758806],[126.6583561992116,37.5280195000944],[126.6617773989565,37.5289697997391],[126.6558683008758,37.5264612009292],[126.6600599979516,37.522755802282596],[126.65095670011499,37.5181876023796],[126.6614716973889,37.5162789996076],[126.6618234931083,37.506879402860704],[126.65252439957081,37.5022736035625],[126.6561401980217,37.4949516014312],[126.65314699931861,37.4892953028858],[126.6477463021068,37.4929655994794],[126.64269609524099,37.4842346106448],[126.633470104467,37.484565410314],[126.6218101033497,37.4916081052703],[126.6091258005606,37.4785838044085],[126.5980534991899,37.4742033003042]]]}}]}