{"type":"FeatureCollection","features":[{"type":"Feature","properties":{"interval":15,"stationId":"5907762741","profile":"peak"},"geometry":{"type":"Polygon","coordinates":[[[126.8868532989967,37.496929900700295],[126.8971075001086,37.493028699270106],[126.89923520079381,37.4992976997176],[126.8909324999922,37.5034028004912],[126.8868532989967,37.496929900700295]]]}},{"type":"Feature","properties":{"interval":30,"stationId":"5907762741","profile":"peak"},"geometry":{"type":"Polygon","coordinates":[[[126.841388899515,37.5320806003883],[126.8489201001008,37.5278242994904],[126.84847569852029,37.5162720012583],[126.8591819992646,37.5081670005831],[126.8692822003667,37.5140555994911],[126.8721983994909,37.5093543981962],[126.8768445998233,37.517366698906294],[126.8792434976033,37.5138901003506],[126.87325229941851,37.5049012001208],[126.8751694977728,37.499973402181304],[126.86904950002851,37.4992915000783],[126.87104319906061,37.492455100002],[126.8716479013645,37.4979261987376],[126.8788977987341,37.5009756979715],[126.8803029990996,37.4882009994156],[126.86885670174729,37.477759603448],[126.8572395031113,37.483398701255204],[126.85099189999579,37.4811883008125],[126.8526583996599,37.4756784992671],[126.859369797862,37.477533197191605],[126.8703217999754,37.4711357992706],[126.8750424000481,37.4779008985603],[126.8844807976551,37.47384679905149],[126.89701739941789,37.483838798013004],[126.9163062991329,37.4743441994192],[126.9200046008491,37.4809477973693],[126.9298047967652,37.4721559999946],[126.92710869875151,37.4662696017435],[126.9315651951812,37.4643686004752],[126.94600539996661,37.468423198438096],[126.9514252999884,37.4657103998265],[126.95191750043769,37.4693621005776],[126.94328040036481,37.4708418009905],[126.9447729988957,37.476809098078796],[126.9681252991682,37.4700870995691],[126.97275030002321,37.4742834986618],[126.9811660988682,37.4729792991079],[126.9794919003089,37.4812572000717],[126.9682464008545,37.476348600346],[126.95862430032629,37.4894684004808],[126.9358024006579,37.4894345022656],[126.9348607008675,37.5027456988708],[126.9486571999671,37.5004973995105],[126.95110680015881,37.502367399714196],[126.94165050048089,37.5093553996592],[126.9496697011228,37.513968598874996],[126.9335278013686,37.5148928009047],[126.9400544990049,37.5081472009615],[126.93103410100001,37.5025128008609],[126.926257201659,37.5085223982712],[126.9319120006322,37.5192458986997],[126.9288612007917,37.5239739991935],[126.9180132011018,37.5296796988737],[126.9147943999433,37.5285737011404],[126.9203349983967,37.523777101072696],[126.9137661005098,37.5217477008885],[126.90290900079229,37.5422386007293],[126.8951600007904,37.5413605008034],[126.8827901003325,37.524809201225],[126.8747820010196,37.5300465001492],[126.85041140094229,37.5265182000875],[126.8512389006383,37.533287800172296],[126.8452401004264,37.5358445006921],[126.841388899515,37.5320806003883]]]}},{"type":"Feature","properties":{"interval":60,"stationId":"5907762741","profile":"peak"},"geometry":{"type":"Polygon","coordinates":[[[126.62695699942701,37.4808579986508],[126.63037659953531,37.471989800848206],[126.642165598596,37.4650933992792],[126.65555819874591,37.466984699239],[126.6819241987225,37.4526518993829],[126.69322799842631,37.4543327979433],[126.6966169992349,37.4233184003577],[126.7022835999808,37.4244330996844],[126.7078007009146,37.452757999671405],[126.7235757996314,37.454027699521696],[126.71815580180801,37.457438700266195],[126.71879080136239,37.4685414989866],[126.733251201073,37.4845864988864],[126.75152589531251,37.4766084964549],[126.7502519965864,37.4726781003853],[126.7597857947089,37.476620596120895],[126.76549059632771,37.475117394785705],[126.7659998958184,37.4700499998531],[126.7785005954918,37.4717542971964],[126.7841334997143,37.463535297536],[126.7907420975813,37.4644829998141],[126.7858163991414,37.4471454999235],[126.77700150032669,37.442747100144196],[126.77701179897569,37.435759000526396],[126.7828426969661,37.4315887017144],[126.7930027995737,37.433119999610405],[126.79569640004999,37.4435535987294],[126.8024535999572,37.4448408984968],[126.80408970248321,37.4564187969084],[126.7970591023695,37.452914901451706],[126.79208920070391,37.4569474002617],[126.7930884024068,37.4657543972759],[126.7967263987688,37.4682696947606],[126.8002740994435,37.457636299691195],[126.8067014002741,37.4626567993906],[126.80088590130279,37.4625360006768],[126.8012095032287,37.4672205984285],[126.8162214983157,37.470801697364],[126.8265096994063,37.467720898044305],[126.8258877044498,37.4747840982769],[126.8311376991998,37.4790031940578],[126.8382388949927,37.4718264974955],[126.8356712994364,37.4649063988122],[126.8593373973057,37.4559851973455],[126.8653131968417,37.4579177960488],[126.864599897555,37.4536141003525],[126.87133489606519,37.4544254975524],[126.8793406978747,37.4412639006664],[126.8823293026545,37.444952997101495],[126.89477169783561,37.4424996990805],[126.8884521990543,37.437326102273],[126.8988130974718,37.4283050013932],[126.8948794999116,37.4114302052163],[126.9035834953542,37.400547099673794],[126.9079796986971,37.4017662952864],[126.90864429937331,37.3904162993666],[126.9209589987105,37.3881596961171],[126.9286025973179,37.3743713985803],[126.9244902953693,37.3510087999572],[126.9178706001181,37.3467261015143],[126.9242695954109,37.340288399778196],[126.9376701016137,37.3557554974287],[126.9492709987904,37.3531037002728],[126.94272489917161,37.344141699287604],[126.95704700077991,37.3546066004075],[126.95239390264601,37.3601872991879],[126.96058839987961,37.367142199690406],[126.95842760060039,37.3739018014804],[126.9405650049958,37.379772899981],[126.958731199823,37.381626099516396],[126.9610360007644,37.388324998880805],[126.968590999434,37.385211499767294],[126.9845545997496,37.392120297161604],[126.987843699563,37.397010896301495],[126.9809268028508,37.3991004012141],[126.98423649999539,37.4152978965845],[126.9876929973965,37.4130337985723],[126.9960808986362,37.420816698560905],[126.993136400287,37.4148483024272],[127.0031705013169,37.4216594970288],[127.0126726001301,37.4216143997037],[127.0122910042737,37.4249157983232],[127.01956159877311,37.4237539988475],[127.0248279014996,37.4362627985253],[127.02058260230369,37.435722501836096],[127.0121255031049,37.449066798499395],[127.02138839417461,37.4488495991667],[127.02379660157949,37.4621519000475],[127.0122974061615,37.4621316025218],[127.0212210986114,37.4693816991922],[127.0179179041973,37.471109100270496],[127.0245870022462,37.482275498514],[127.0277291993082,37.4807760000599],[127.0252013997108,37.4701382002847],[127.0315505985623,37.4601632013541],[127.0382131975398,37.4588680986479],[127.03921030112619,37.4627195990104],[127.0469078998096,37.4567538000083],[127.0493805951982,37.440232799981295],[127.045416799162,37.4390298011843],[127.0660149005543,37.4347978984222],[127.0633288021466,37.4427550944741],[127.0666571047806,37.4464462969966],[127.06261900197019,37.4490596009629],[127.06657650081729,37.4542935996749],[127.0613804018369,37.459063699559],[127.0542928013208,37.4554603022037],[127.05103800349781,37.4672066977513],[127.05714659990909,37.4769412991598],[127.07018909660309,37.4825540952299],[127.0676148991773,37.4775614002226],[127.07018910077379,37.4825540973749],[127.08063599748439,37.477255997612495],[127.0908916993322,37.4783679985403],[127.0842864028462,37.481388799151496],[127.09019460199531,37.4855064958298],[127.10567370009589,37.4795444996165],[127.1095969003108,37.4895017989347],[127.1240646993665,37.4822206992203],[127.1264156997203,37.4757567000174],[127.12470850026139,37.489176099691605],[127.13248560017149,37.5029913993065],[127.12461359988801,37.5041924013881],[127.1192513005761,37.4983246007236],[127.1155751005149,37.5037314996585],[127.1177907021576,37.5213391988239],[127.1080166019817,37.52774629966439],[127.10376870067991,37.5242208011971],[127.09590470633671,37.5334048021913],[127.1012975009439,37.5365157990803],[127.0970298004237,37.542253400128],[127.07566610164311,37.5411188004121],[127.080076899696,37.54526739886],[127.07544870079799,37.5491013001681],[127.08402099967941,37.5545682995041],[127.0861846008135,37.5678698999478],[127.06695739979881,37.5457864004014],[127.0523534004158,37.5509348018998],[127.0530562003579,37.5603631992351],[127.0621579993361,37.5560544992139],[127.07173319925529,37.5604109997708],[127.0676471006453,37.5654025003223],[127.0613342996072,37.5633966009936],[127.05605890089599,37.571469299879695],[127.0413548013582,37.5716155002449],[127.0527559003656,37.5819687997824],[127.0448486996819,37.5867736007586],[127.0391657008794,37.5843221004746],[127.0420120004405,37.590124200008695],[127.0373173027361,37.5944905004193],[127.02437189965751,37.589443001141504],[127.0225030017348,37.5966040991276],[127.03417759987411,37.610675399255896],[127.0295257005392,37.617506300369],[127.0267288989501,37.6074335015929],[127.0193265997368,37.602753300041506],[127.0104128001499,37.6063255007769],[127.00804529808761,37.5937792016454],[126.9980453005735,37.5950829005429],[126.9930578996631,37.5840689017574],[126.9816960006384,37.5875818003429],[126.9595171004639,37.5785556010485],[126.9485447007187,37.5946773992954],[126.9392513016591,37.5964834009501],[126.937517202874,37.602853400041504],[126.9396515007544,37.6074773975786],[126.9424994979064,37.6048507002053],[126.94343190243609,37.6150200956001],[126.93978680045629,37.6132757033982],[126.936214899987,37.6186903994737],[126.9446836990751,37.623571494801794],[126.9279657008438,37.6310381001746],[126.92793790194071,37.6399920988812],[126.9158568023801,37.6539353001331],[126.90893850096491,37.647879003175206],[126.914216998228,37.643251900889005],[126.91135409686899,37.6341704997805],[126.918051297166,37.6324799983879],[126.9176192991598,37.628686201169096],[126.9159887972977,37.624592402323096],[126.9071370014022,37.624834901135905],[126.9096958984218,37.6189380004823],[126.905352097384,37.608127303285],[126.8986621991816,37.606388602090306],[126.9014158975142,37.5982735012405],[126.896412700233,37.5895893018735],[126.88093670204421,37.592647899577905],[126.8802239003909,37.6051342994998],[126.87494240013129,37.6032122007581],[126.87204270064849,37.6087919001358],[126.876471500981,37.6133532003231],[126.86612310346139,37.6152553036742],[126.8667837971086,37.6094020047937],[126.86350260038981,37.6097613044344],[126.84650170176471,37.6244126013571],[126.8262040004186,37.6139469036505],[126.8181509016219,37.620135100076595],[126.81427630311221,37.6175529037],[126.8164837000571,37.6044844007805],[126.8236594996377,37.6022912983336],[126.8296025024887,37.6042698973805],[126.8323980006028,37.6125104995173],[126.8459911994004,37.611004001264504],[126.8391110004647,37.6071522031667],[126.8433292998236,37.602753799573],[126.8551225998835,37.613303797918896],[126.85713199761199,37.5968674025478],[126.8597919011131,37.5996575980162],[126.8650379989065,37.5952117998378],[126.8623293016152,37.5924548025948],[126.86040650341779,37.5958244994111],[126.8609438994493,37.59161510095],[126.877038198662,37.5899821004045],[126.87595430012951,37.581941701253],[126.88325999624001,37.5740700001561],[126.8817687990719,37.5650692011803],[126.8762084000291,37.5669397009799],[126.8673419052698,37.559770507924],[126.8702719005918,37.5699986995335],[126.8621569001077,37.5772281999929],[126.85905150182121,37.5778715001292],[126.8642368975802,37.5737494004933],[126.8558023060148,37.567675706567],[126.8348612077972,37.5787932067942],[126.8168942009732,37.580768501483796],[126.8136434008056,37.586629497532],[126.7975013001215,37.586112801031604],[126.7954923997577,37.575665202439204],[126.7901986994585,37.5765489007222],[126.7954243956531,37.5683864026563],[126.7993937003088,37.5758302957253],[126.8035801992859,37.5713500991522],[126.7984198005241,37.563155202025094],[126.8139417975667,37.5471032001008],[126.80638169880861,37.5342177019767],[126.7991162011542,37.5375927009027],[126.7994939974746,37.532399502766694],[126.7893814006324,37.528870200072],[126.7958217991665,37.527994698733],[126.7950780998856,37.523039400563704],[126.7874188006638,37.5239530005464],[126.7679588002138,37.5150973010241],[126.7356232006657,37.5142111004798],[126.7313900015591,37.5259729981388],[126.7364484002742,37.5297122995876],[126.7340765009407,37.5361792996271],[126.7440511997219,37.542532699531],[126.7498365011131,37.5555386996037],[126.7431279992732,37.5579572003145],[126.7410945010522,37.551437801863806],[126.72408160171531,37.5499491004774],[126.7174729999536,37.5419911017895],[126.71464940065,37.5440494998662],[126.70841179971339,37.5302232013761],[126.7127442977944,37.5214651011023],[126.6930294014701,37.510061503481396],[126.7025571913346,37.498671001093804],[126.7102893982039,37.4975315012436],[126.6986214014993,37.4882499028013],[126.7010215979237,37.4859068009368],[126.6947272988008,37.477676701722004],[126.686261902211,37.4896213007705],[126.677890598697,37.4852055008258],[126.6703462992272,37.4706858021748],[126.644453501188,37.4725607012424],[126.6392455003309,37.4812719999892],[126.62695699942701,37.4808579986508]]]}}]}