{"type":"FeatureCollection","features":[{"type":"Feature","properties":{"interval":15,"stationId":"5909995037","profile":"peak"},"geometry":{"type":"Polygon","coordinates":[[[127.04986939929171,37.4952747980576],[127.0595107982236,37.483551896376504],[127.07087350164281,37.4872191969418],[127.0804739970481,37.4796919996579],[127.0862732950425,37.4790287982093],[127.0866501004825,37.4836873968529],[127.1059203992554,37.478558297819404],[127.1077086006096,37.4886707975346],[127.1123855000024,37.4857283998133],[127.1095969003108,37.4895017989347],[127.1262000000413,37.4851099992798],[127.1224630003284,37.490041399603705],[127.1285923995128,37.493179499259796],[127.13178280031849,37.5029171995717],[127.1249586013883,37.5041107005979],[127.1226759986924,37.4978214006288],[127.1093339991462,37.4898466008489],[127.0929371013565,37.4917728003762],[127.0961589958373,37.487556699912],[127.0928688991274,37.4854036020651],[127.0840999012885,37.4885678011999],[127.08647240039221,37.4946535001124],[127.082395102665,37.496759000632196],[127.04986939929171,37.4952747980576]]]}},{"type":"Feature","properties":{"interval":30,"stationId":"5909995037","profile":"peak"},"geometry":{"type":"Polygon","coordinates":[[[126.9999810991541,37.505386200211895],[127.0051002994161,37.5010773998635],[127.01365059893361,37.5052278982847],[127.0192896999827,37.502870198220094],[127.0182703996963,37.496390901276804],[127.01242120030531,37.5000085012758],[127.0023500996854,37.4914644010236],[127.0126437975954,37.4788500993117],[127.0272240000894,37.4834418999351],[127.0288143990059,37.47677139952879],[127.053737099355,37.4738490995754],[127.07250279773339,37.4783282958348],[127.0722516979845,37.4719978021653],[127.0906961983725,37.4744877979345],[127.1205055991054,37.4616289994777],[127.1244673974379,37.455563599806695],[127.11894679960321,37.4310271004675],[127.1289507991358,37.423944298796904],[127.1450277994597,37.4328912978643],[127.14688010064141,37.4404579983402],[127.1591697999327,37.4414331993507],[127.16546799975,37.4491432992112],[127.1560662999823,37.462231299481196],[127.1462593002002,37.4653374033357],[127.1466903996005,37.4702773987643],[127.1340516016438,37.471266400372095],[127.1363508016145,37.4800059990688],[127.1619950004615,37.493006599364],[127.16111320066601,37.5004379991729],[127.14332400148491,37.5032124013234],[127.13671990100231,37.513921800547095],[127.1485770992531,37.5164169987091],[127.14576030040901,37.5217416999011],[127.1536101015229,37.5301216971848],[127.1439052005866,37.5319551000611],[127.144346802396,37.5532011007782],[127.13387470037951,37.539564800567],[127.1190627996626,37.5415752006848],[127.1169667991896,37.5269193003527],[127.1281837995906,37.5250615998551],[127.11949060045771,37.5180198021433],[127.11503350073589,37.5233099012219],[127.103482400421,37.523272100302],[127.0938134000003,37.5369879001126],[127.1023254987745,37.517700400272204],[127.0929209010113,37.511815001176096],[127.086626600786,37.515802301430995],[127.06867150057619,37.5154836009063],[127.03468260022359,37.5312325005223],[127.034119899218,37.5225846004555],[127.0074177996065,37.5145281002996],[127.0076216992334,37.5075597007781],[127.0026757026889,37.509570100993095],[126.9999810991541,37.505386200211895]]]}},{"type":"Feature","properties":{"interval":60,"stationId":"5909995037","profile":"peak"},"geometry":{"type":"Polygon","coordinates":[[[126.8345469996138,37.568986200046496],[126.8386028988154,37.5686843989628],[126.8389914986251,37.5633222001313],[126.845756698353,37.5648203996839],[126.8506213994873,37.5541765989749],[126.86046429820091,37.5531536980614],[126.8680896996939,37.538474899411696],[126.8910430972258,37.5353755985521],[126.88461300050041,37.5270623004416],[126.8775485002408,37.532968900092],[126.8655306005661,37.5325918000703],[126.8490577995907,37.5236696010793],[126.85870749860739,37.5194027998005],[126.8676185995804,37.524442798143504],[126.869812599412,37.5185841003278],[126.8810541983594,37.515623498462],[126.8746890991967,37.505161101373304],[126.8819352994357,37.4954352000698],[126.8757198000131,37.480097802296406],[126.88030399853629,37.4757019997683],[126.896309999942,37.4857899989306],[126.9026573984588,37.478032299741706],[126.9121303998044,37.4792756978929],[126.9264619973801,37.471927699998105],[126.9242147997599,37.4659152001367],[126.9301047978622,37.4607651003421],[126.9584329001006,37.459453599569905],[126.96421030053901,37.4636722942827],[126.97480109595709,37.4587189957643],[126.9806033997507,37.4710080979516],[126.9884666994664,37.4660825001595],[126.9922611956211,37.4535594021874],[126.9861209954412,37.4448022044625],[126.9903535951192,37.4442587997392],[126.9814583987687,37.4286541063735],[126.98432599671439,37.4267266005386],[126.9783458007439,37.4234011008263],[126.9861415988222,37.416932700028994],[127.0008698996473,37.4263129987175],[127.00995859981441,37.4245705000201],[127.0171662010502,37.429505499480896],[127.01918900369729,37.441673095885506],[127.0121255031049,37.449066798499395],[127.0194626019258,37.454383994465594],[127.03701379591159,37.450556294364304],[127.037033396534,37.4363552990548],[127.0449703978874,37.429604098281],[127.0660149005543,37.4347978984222],[127.0728058984057,37.4269733991232],[127.0723027017981,37.442386196871205],[127.0666571054002,37.4464463004604],[127.0751493997535,37.4595884995093],[127.0862079993568,37.4594948949666],[127.1038920982426,37.449500998001895],[127.1179704905194,37.4517759956982],[127.1167570002008,37.4293677028343],[127.0973224997989,37.4281680019625],[127.1088931974434,37.414705899557],[127.1037247998645,37.405589902712],[127.10179530244221,37.415980697512296],[127.09298320042511,37.4097229024379],[127.0993454989031,37.407684899032],[127.10032819901011,37.397639500960096],[127.0903041994589,37.402410701836594],[127.0920665961845,37.3941537991541],[127.0860893000346,37.3910482013211],[127.0925983915127,37.3719990032928],[127.0859709982461,37.3521936035811],[127.088088699593,37.3301316027348],[127.0812038989616,37.3239314000222],[127.07445780045441,37.3244068005052],[127.0759666973361,37.3206686037544],[127.06631820013409,37.3195837005802],[127.0701380974662,37.310610402752005],[127.0634400004772,37.3041080070212],[127.0633462001127,37.2909853002176],[127.08219510094311,37.295630498369604],[127.08062310038859,37.3024197986048],[127.09708690060049,37.3141082985589],[127.1018088973581,37.3085518011185],[127.093705998793,37.2962733021551],[127.0968268992168,37.2893321000342],[127.1021225012597,37.2955994980579],[127.1073918969804,37.2921954996218],[127.10426789926619,37.2851391009715],[127.0990990998722,37.285871400944096],[127.1075202994506,37.27596029958],[127.104485199083,37.2577231997211],[127.114494099677,37.271325998963505],[127.1371298992142,37.2657854986884],[127.1291443008099,37.269328099793604],[127.1296491000788,37.274835100084594],[127.12428290287019,37.2728346029633],[127.1222534015971,37.290432200816],[127.11598350287589,37.2924387002574],[127.11921389982591,37.294021699577705],[127.1142924063538,37.3112017964541],[127.1260785003016,37.3309040994427],[127.1211275011456,37.338162397532],[127.1282483997245,37.338539397434104],[127.12955720526179,37.363327794771],[127.1476158995726,37.3709788986041],[127.1434122040818,37.381251596923796],[127.15397689875451,37.382429497777004],[127.15434140072601,37.3861258012542],[127.1413861055956,37.3908833013815],[127.1496505030108,37.403501497245095],[127.16185659959,37.4048177990454],[127.1579890028268,37.4098416969645],[127.1619994988163,37.4112710955351],[127.1622860015451,37.420482794658604],[127.15419060597101,37.4292006986526],[127.1795604001997,37.4300228985624],[127.178623102175,37.4379148980819],[127.1811018996962,37.43617679982],[127.1853893049417,37.446801396500796],[127.182385603103,37.4510280999043],[127.1858480996405,37.452133398799],[127.17627530117,37.4845364995329],[127.1852606989914,37.4812240990886],[127.17894670581529,37.4846897046761],[127.1752662102696,37.499799498491804],[127.1662101005255,37.5074865010683],[127.1593668017382,37.5328886983121],[127.1692154951136,37.540961897196],[127.1724383985176,37.531490398298104],[127.1720136017677,37.5416180986426],[127.18864289838041,37.545215495857],[127.20136769789261,37.5310218970978],[127.2061209007293,37.535767296202906],[127.2191669997714,37.5314759991443],[127.23443649472401,37.5335847983277],[127.23703959960551,37.541353099534604],[127.2106277017744,37.5557859011823],[127.2049793025952,37.5616262009406],[127.2035963010025,37.5744569991324],[127.19992020142679,37.5760320989806],[127.199151899018,37.5691733011216],[127.19621740082009,37.5701840010455],[127.188386700936,37.5797856003496],[127.1730155019261,37.5719112987385],[127.1694480010275,37.563786201366206],[127.1598017025298,37.5696473982226],[127.1547888989848,37.5627120023426],[127.1430426026123,37.5628965036991],[127.1278268997455,37.5722005007097],[127.1318110955519,37.5650700050749],[127.1259341948053,37.5589419073938],[127.1161884004989,37.5671636019495],[127.1101633985762,37.560822300076296],[127.0966863057847,37.564156501191704],[127.1020837052608,37.5772690958468],[127.1077941995503,37.576745296370596],[127.1034059014064,37.5962172990274],[127.11132440069031,37.6009669992404],[127.11367260114581,37.608510599208905],[127.1011183997,37.6107911009142],[127.10121960042429,37.603379400362805],[127.0899983017579,37.6080677004354],[127.0879045017247,37.6120746992734],[127.09747110037651,37.615374198762],[127.0913513006879,37.616491401158],[127.0917691028555,37.6226165998003],[127.08177860048481,37.6309523004863],[127.0738423008944,37.6318591023439],[127.0766049006737,37.6372630990983],[127.0634388031845,37.654073198564],[127.0661217011386,37.6576363000483],[127.0578958009209,37.6627618993999],[127.0634371000975,37.664797299446896],[127.055276600438,37.6686195007279],[127.0605897990438,37.657195699179205],[127.05457730031131,37.6539608008343],[127.0569733991806,37.647802400795904],[127.0495333018951,37.6469486051768],[127.0458806024981,37.6569753992447],[127.0424308999879,37.651874801567004],[127.04761759899729,37.6419465993788],[127.0591517987877,37.6401841997239],[127.05283089809511,37.6293345004876],[127.0564126980222,37.621381601504396],[127.0390228999764,37.60844810146509],[127.0314406004579,37.6218758001275],[127.0313495002367,37.641743300010404],[127.01682460050341,37.6433824007243],[127.01429189996941,37.641374000701695],[127.01946389978731,37.6376467001054],[127.0143865998119,37.635445000498194],[127.012903997733,37.622129801946905],[127.0009870008546,37.6188914004169],[126.99885089926329,37.6122900011125],[127.0056704989465,37.5981079003708],[126.9961809005812,37.599567400824895],[126.9893304995195,37.588648802239504],[126.98190440054711,37.5888412009381],[126.97827950069559,37.583410000396704],[126.9693505019615,37.587890500570204],[126.9595816003259,37.5803758015988],[126.9388540001492,37.5964856004067],[126.9340324006164,37.6127725998099],[126.9280549005834,37.6128296013785],[126.9250130985645,37.609688999886906],[126.9329368991956,37.604340300278594],[126.9271465003291,37.6014833008823],[126.9384606987241,37.596144298404695],[126.9417434980823,37.582463699441796],[126.9492116985897,37.5822828981615],[126.9533527997801,37.5672080012203],[126.9180918001557,37.5636536003496],[126.914004100534,37.5593029003384],[126.9007722018202,37.5669698003706],[126.9075008992766,37.5468732000047],[126.9037013034173,37.5429679034095],[126.8790312009415,37.5490401014357],[126.881089499455,37.5524252993592],[126.8746962053692,37.5549892091139],[126.8676559013536,37.553595499919],[126.8595211022663,37.5673482968238],[126.84690290092891,37.5660389003785],[126.84036880069709,37.573299400513406],[126.8345469996138,37.568986200046496]]]}}]}