{"type":"FeatureCollection","features":[{"type":"Feature","properties":{"interval":15,"stationId":"5911861708","profile":"peak"},"geometry":{"type":"Polygon","coordinates":[[[126.8155757995129,37.3178226998737],[126.82338999997211,37.3135117996388],[126.8259822009144,37.3187697005086],[126.8225879008112,37.31472650163],[126.8234319007438,37.319147797682504],[126.8155757995129,37.3178226998737]]]}},{"type":"Feature","properties":{"interval":30,"stationId":"5911861708","profile":"peak"},"geometry":{"type":"Polygon","coordinates":[[[126.7267322993053,37.3624029018438],[126.7320246996989,37.3454345001863],[126.7511451992811,37.344797399257295],[126.7588885986254,37.3335915003498],[126.7675381984216,37.334839095534605],[126.766185597337,37.3226673006035],[126.77265589869991,37.3237402981342],[126.7831506961914,37.3109738993359],[126.78688559760151,37.314306794557],[126.7980875976922,37.3083077008011],[126.7987325040238,37.3122998964954],[126.80855939879879,37.3066612975081],[126.8102179996938,37.3108479976001],[126.8205875006157,37.3036741985292],[126.8300714989827,37.3076806990074],[126.8653685994493,37.2960753000231],[126.8739980008733,37.300634299623596],[126.86692340084291,37.3019476007141],[126.8665388009212,37.3076470004384],[126.85476380253981,37.3093739020985],[126.845834100187,37.3238985998112],[126.83128570395799,37.322798602723],[126.82858900314599,37.3288316005515],[126.8202213019239,37.32900290234],[126.81781510035711,37.3388535998038],[126.8126037001905,37.341363700204504],[126.7916732998104,37.3366927004676],[126.79189509977981,37.340263298658094],[126.768035603879,37.3427332022679],[126.7669876026953,37.3474098990319],[126.75666790036959,37.3486414008081],[126.7395686989699,37.366996203676],[126.73248650277759,37.3689703027346],[126.7267322993053,37.3624029018438]]]}},{"type":"Feature","properties":{"interval":60,"stationId":"5911861708","profile":"peak"},"geometry":{"type":"Polygon","coordinates":[[[126.62700439900891,37.4021233008859],[126.63317049846401,37.3805580009976],[126.6401042976707,37.379456099909596],[126.64159449782629,37.373860600969],[126.6384320011433,37.3738042001706],[126.6500668995498,37.3706089995311],[126.6513853008837,37.376105897881],[126.6711598000838,37.3816798988115],[126.6700350057943,37.395378693154704],[126.6788113003292,37.3956420972657],[126.6844711981537,37.3903822019167],[126.6915474982591,37.3928253976269],[126.6954921966705,37.383155702609706],[126.7100857985633,37.3883080965441],[126.7103553991003,37.3835964003076],[126.71858519895491,37.3842120979592],[126.7234541969252,37.378355904041605],[126.70776209892989,37.3615004991439],[126.7068368979932,37.3538118038448],[126.7115893972683,37.3489144991655],[126.7154272978569,37.3265838013211],[126.73459769811569,37.3264035980776],[126.74106329757959,37.3161856015424],[126.7493603981701,37.3173896977566],[126.76462809747,37.293900901102894],[126.7890981000416,37.2932411999209],[126.79677489236481,37.297008596153496],[126.8046048995142,37.2847746996243],[126.8088176041685,37.295910894360105],[126.8141652988208,37.2980451922258],[126.8395130960526,37.275834199555696],[126.8406141992333,37.2787962968534],[126.8509036934195,37.272435596675],[126.85805980086211,37.2741491957256],[126.8606592986901,37.269700799999505],[126.856550902371,37.2673052025696],[126.86468099414371,37.2489185009659],[126.8870205979733,37.24587819817],[126.88503969994619,37.2418397021252],[126.88964199605499,37.2375682993935],[126.90019729772641,37.2343000010859],[126.90488770053621,37.238084995293],[126.9073330980908,37.2342766991013],[126.9108251011063,37.2426817923615],[126.92712689785401,37.236454997688],[126.9281621025511,37.243337796759],[126.9365971015501,37.2459688978481],[126.95362729811609,37.224915801292795],[126.9536202012903,37.230809898777096],[126.9716759986921,37.2274203978088],[126.9884664986595,37.2342984000833],[126.9944847013739,37.2564068983902],[127.00883949927649,37.2510250996176],[127.0204958001494,37.2546145993162],[127.0320654992478,37.2493637001089],[127.03639039862921,37.2414294003335],[127.0466339999733,37.245190899695196],[127.0582588991095,37.2376991993429],[127.0780302996166,37.247640898892904],[127.0838481008467,37.2580202984907],[127.0790544005865,37.2639578999288],[127.04969060174041,37.2481431011358],[127.0473523030946,37.2512834980702],[127.0513408993446,37.250995498657204],[127.0518849000107,37.2573272996459],[127.0384813012437,37.265946302754706],[127.0365850001687,37.27376190006979],[127.0311814997421,37.270389302279],[127.01868140015341,37.2801444008174],[127.01329079897569,37.2741239013253],[126.985034699987,37.2909279002598],[126.9789480000038,37.283591300796495],[126.9865713951832,37.2800995012334],[126.9822347990761,37.2743443005264],[126.9857497988041,37.271741400046906],[126.978558398283,37.2619618027138],[126.9722237012744,37.26391790193],[126.9532007021769,37.2536689051975],[126.9499800018283,37.2557335024203],[126.9480062981909,37.247999801074],[126.928296502194,37.2557700050957],[126.9200015105851,37.2660617952031],[126.9006880026666,37.2679332041803],[126.8883163112276,37.288807693584296],[126.90911870292399,37.299336693045596],[126.91346689917741,37.2961012969665],[126.9146805019496,37.305493898589305],[126.92532659867581,37.304669297749],[126.9277424046462,37.3197007979496],[126.93337719929549,37.3220647001216],[126.9310758015788,37.3295769993349],[126.9406749989018,37.3296683992399],[126.93816490264591,37.34170309914],[126.9570852996103,37.3495741996375],[126.9597729009059,37.3561044977055],[126.953128901911,37.361938597436605],[126.96174219815491,37.3620306973569],[126.95956010137401,37.3707977997878],[126.9632244021728,37.3722711978776],[126.9573167015896,37.3760862995106],[126.9877334988459,37.3923274989931],[126.9878437012354,37.3970108992347],[126.9809268028508,37.3991004012141],[126.9839678002205,37.411488198659804],[126.971408200464,37.4115490011068],[126.9357158009224,37.3988236030148],[126.91612240013461,37.4094297014491],[126.9133375990054,37.403477799981395],[126.9217872998787,37.398345800084],[126.9185003997034,37.3953321003427],[126.928865499904,37.3940907994212],[126.925994199133,37.3806808994087],[126.93586499973071,37.375234901147905],[126.9159515997611,37.3692503030509],[126.91075909505561,37.3378797024521],[126.903878098847,37.3333498060321],[126.9071649962528,37.3280827995388],[126.9014329023782,37.322842104228805],[126.89154979900441,37.3244392032556],[126.89964029856161,37.3190689020312],[126.8877525005909,37.3180217053836],[126.8856713983322,37.301023405323996],[126.878279605724,37.3095922967551],[126.8791621007943,37.3225992007451],[126.8663581066387,37.319828405846096],[126.864612900806,37.331858799694196],[126.8571240017898,37.3401140004286],[126.832424902998,37.344017203382904],[126.8327766003207,37.3669608998975],[126.81652650592049,37.3635618056073],[126.81980560555759,37.377059595599],[126.8302944017507,37.385246000063],[126.802935105782,37.3989347012648],[126.8065625022651,37.4102011982908],[126.79504010031039,37.425636097904096],[126.8075289995987,37.435186299802695],[126.8050604018924,37.4431517973006],[126.80844259894221,37.4423515983632],[126.8055224033842,37.443790499726],[126.8103668994823,37.449681396833306],[126.805296904947,37.450710799553406],[126.80408970248321,37.4564187969084],[126.808946300877,37.475968299809196],[126.8031484002762,37.4761071001903],[126.8106586002054,37.4855900993997],[126.8164878992378,37.4829134989482],[126.8165413009112,37.4887571004212],[126.8100845006406,37.490396400217904],[126.80476730012799,37.4860402003852],[126.7952103004006,37.4931453011243],[126.7794575005481,37.4832764015007],[126.7909060981596,37.4786321996962],[126.7852762988746,37.4705916018191],[126.7907420975813,37.4644829998141],[126.7827512972457,37.4576330000856],[126.7858348955625,37.4508168034105],[126.7746131041385,37.4499966018128],[126.7680769010679,37.4433312041684],[126.7723789985314,37.4408856989183],[126.7711047006744,37.4289669029002],[126.7851322992967,37.4258770996572],[126.77596629937169,37.4195650031562],[126.7695847997727,37.402809006542896],[126.7858655957775,37.4029071909995],[126.78535769626721,37.384783202090404],[126.77681459977609,37.382596503706296],[126.76323540113749,37.3903734036838],[126.7531828105233,37.399330594833096],[126.75016820457991,37.41474439944329],[126.7376856043885,37.420617499974796],[126.71689640143259,37.4219134003539],[126.712415000151,37.4180987042053],[126.7037288018188,37.4247488992768],[126.70889020015859,37.4302148990402],[126.70922190163961,37.4604702000887],[126.7143947990154,37.4639272994755],[126.7087190016195,37.47223260021],[126.6948926999584,37.460917501364904],[126.68646459933879,37.458080700847695],[126.6811933003908,37.4624213003094],[126.67619180043759,37.4587176010835],[126.6932279981646,37.454332799581806],[126.6844443012015,37.4282282019655],[126.6747596023585,37.4257040027404],[126.6594023023152,37.43554490109619],[126.64727259867219,37.4284209009957],[126.65174549880061,37.420413000174506],[126.66752199748481,37.4203915011147],[126.669434898228,37.395932701274404],[126.65400509950511,37.394174102085],[126.6534771980181,37.3840748012003],[126.6457912993482,37.3812929026617],[126.6452685011149,37.389952197977905],[126.62700439900891,37.4021233008859]]]}}]}