{"type":"FeatureCollection","features":[{"type":"Feature","properties":{"interval":15,"stationId":"5916874392","profile":"peak"},"geometry":{"type":"Polygon","coordinates":[[[126.8991699994355,37.5658599981921],[126.9054567995796,37.5601908997552],[126.9029332999387,37.5514611999587],[126.9098912985618,37.544698700491395],[126.9437570995667,37.5456264996447],[126.9439619001036,37.55071710007],[126.93566480047029,37.549067400454796],[126.95096720080569,37.5570027000476],[126.93273860017429,37.5577556004274],[126.925495500422,37.5632639000426],[126.91508110012539,37.5589586006292],[126.8991699994355,37.5658599981921]]]}},{"type":"Feature","properties":{"interval":30,"stationId":"5916874392","profile":"peak"},"geometry":{"type":"Polygon","coordinates":[[[126.8354547991363,37.5685908997445],[126.8397548996011,37.5632237987719],[126.845756698353,37.5648203996839],[126.85122389953469,37.5539167991938],[126.8615231992894,37.554720698948394],[126.8698317992179,37.5381446998274],[126.8913186993253,37.536379099776596],[126.8815909001336,37.5301454010266],[126.8629575999027,37.5333003011375],[126.85087060103609,37.5283202001319],[126.85121030066401,37.533633100282806],[126.8457579006617,37.5365482002263],[126.8424985994717,37.5294314999162],[126.8533584990481,37.5191972998932],[126.8810541983594,37.515623498462],[126.8751694977728,37.499973402181304],[126.8962713993445,37.4890569987461],[126.90176940041991,37.4971992990367],[126.89851210171281,37.5043754997672],[126.9306173992138,37.513178499653705],[126.92913060213249,37.516966198034396],[126.9433087014992,37.534791498968296],[126.9640429989554,37.5313218987394],[126.96104199924231,37.52527710011319],[126.96914479909539,37.519940400273605],[126.9768134001379,37.5214529988716],[126.9679798012762,37.5271948998531],[126.9818925994374,37.5322782986074],[126.9729330012391,37.539570898540504],[126.9768494993888,37.5457071994779],[126.97400720032181,37.5503331995431],[126.97995260040571,37.556726499465505],[127.0003887997032,37.563109899423104],[127.0039365994228,37.5589789006093],[127.01586259974421,37.5594746995082],[127.0151719996452,37.5643755992797],[127.0234008002885,37.5650965991033],[126.9897436005739,37.575147900454],[126.9776761998811,37.575760700736495],[126.9523081008248,37.5668487015796],[126.91346920111259,37.5729760015874],[126.91563460176741,37.5785319988955],[126.9218375999059,37.5775890996054],[126.9236918004233,37.596491298215696],[126.93691280033771,37.611997099765006],[126.93187810102411,37.6227146001209],[126.924901498574,37.6130706002975],[126.9160775993812,37.6121354003657],[126.9012210975491,37.586897800947],[126.88915820130019,37.582672201208794],[126.8908786974366,37.569251799445105],[126.8862935001464,37.561010700653696],[126.88935809956939,37.559198699751306],[126.88385390503281,37.5532880055891],[126.86648170054839,37.5520062008562],[126.8582672002002,37.5661216999643],[126.8491029995075,37.5647307008829],[126.84036880069709,37.573299400513406],[126.8354547991363,37.5685908997445]]]}},{"type":"Feature","properties":{"interval":60,"stationId":"5916874392","profile":"peak"},"geometry":{"type":"Polygon","coordinates":[[[126.6885669991253,37.457961499214505],[126.69807039862411,37.4542564994815],[126.69525729976479,37.4341269009346],[126.6985771987413,37.4321346006898],[126.7001839019427,37.4430524990587],[126.7171096001164,37.4625818983961],[126.71504990117519,37.4670578002217],[126.72292290170991,37.4806839974819],[126.7351730991511,37.4850967983761],[126.7448403978709,37.481684298074796],[126.7449437012146,37.4896429006999],[126.7479321007617,37.4888804986172],[126.7624944972913,37.475740200880395],[126.7907420975813,37.4644829998141],[126.7858163991414,37.4471454999235],[126.7766949994004,37.443180901189],[126.77601989995159,37.4384153016352],[126.7888125995625,37.4302703998679],[126.7963641002859,37.4417755000232],[126.80426659887331,37.442702799601],[126.8073481000678,37.4695324989661],[126.817212399954,37.47405749793],[126.822669098958,37.471275697901],[126.8305117007993,37.4849576949153],[126.83712479462069,37.4805566989843],[126.8453663992064,37.460878101382505],[126.84982909930109,37.4640348975816],[126.85959199884951,37.4582604003596],[126.86705859825459,37.4593822985355],[126.8793406978747,37.4412639006664],[126.8823293026545,37.444952997101495],[126.89477169783561,37.4424996990805],[126.8884521990543,37.437326102273],[126.8988130974718,37.4283050013932],[126.89558899897371,37.4084305008461],[126.91095849914991,37.4000053981721],[126.912829099164,37.3933458008499],[126.9238042989903,37.39211249745421],[126.9222742997682,37.381722002207205],[126.9359679976534,37.3783305981884],[126.9342122995988,37.3659448001166],[126.93939619909331,37.362799800475194],[126.92986770045711,37.3643926002417],[126.9233961980039,37.3471406021492],[126.94139969933181,37.3558840977719],[126.94475389924649,37.3630119990678],[126.94943429911929,37.3545064994585],[126.9429070998694,37.3427499991355],[126.9578269011302,37.3550140984933],[126.9506892008212,37.3576025006179],[126.9492726021297,37.3645063985143],[126.9547511996539,37.367927799304894],[126.9522947016027,37.3746632982539],[126.9405650049958,37.379772899981],[126.966442900038,37.3907581999046],[126.9688401001345,37.3958282988652],[126.9622327011247,37.3982615005827],[126.9575924994635,37.3936013010599],[126.9405448005323,37.3917432009237],[126.93276040387781,37.403529398309],[126.9367069999129,37.4088672989528],[126.9307688005492,37.4047208044425],[126.9285082028098,37.410259698903594],[126.9213905017351,37.4109928020107],[126.922900302068,37.4205469989834],[126.917342002439,37.4215873013838],[126.91642020148501,37.4347735979771],[126.9112123032444,37.437081500236],[126.9170423978194,37.4402146973634],[126.9084406023389,37.444598401117],[126.9167118001865,37.4477865994779],[126.9155887015224,37.4598435002355],[126.9492965978075,37.4515013973079],[126.9610431037062,37.4627564951985],[126.968676296073,37.462033995921004],[126.96825479649449,37.458810399144596],[126.97436260043851,37.4622457964732],[126.9806033997507,37.4710080979516],[126.9884666994664,37.4660825001595],[126.9914109989426,37.4451236991351],[127.00218269653341,37.441126500316905],[126.9880821006249,37.4336636014174],[126.9842323000409,37.423488800813104],[126.9902737992703,37.426710099328],[126.9961643003858,37.4235902988028],[127.0036226997615,37.4282905993869],[127.0024591004803,37.4331829975106],[127.0130932997606,37.4299568984081],[127.0097647019445,37.4316980986914],[127.01782110278211,37.441856196458],[127.012154403076,37.444976502589704],[127.0150043993806,37.4574452986298],[127.0005726042313,37.4616383018114],[127.0089985987954,37.473225397817494],[127.0139371983477,37.476250196845704],[127.0172239994496,37.471869297766],[127.0271905001229,37.4837784995985],[127.03132019904889,37.462620201507505],[127.0482365000566,37.4600570989348],[127.0499270010706,37.4768831997118],[127.0548087990867,37.481847998312396],[127.06473529796989,37.479256698697704],[127.0770282000739,37.4904216985573],[127.0844687995869,37.4902150984762],[127.08125160035401,37.499691499838896],[127.0853036985248,37.5007904981299],[127.0962528986321,37.4973403973398],[127.1097625997086,37.501025198873904],[127.1116965994351,37.4910757004109],[127.1183735983024,37.487700399299],[127.11648919913941,37.4837166014265],[127.1261983002184,37.4760739021509],[127.1301464002147,37.48045419979589],[127.1163478018189,37.503753000021106],[127.1153879014554,37.513379698982405],[127.1208228999993,37.5170395997217],[127.1169424002649,37.5243768991433],[127.1284433002154,37.5297857985275],[127.1322196994088,37.5248662001472],[127.1248068999556,37.5158135019971],[127.1246774992142,37.5064490999492],[127.1403689991765,37.518403998053294],[127.1392775008659,37.528031696672],[127.15107769948361,37.526560099609796],[127.149063002881,37.5300000000366],[127.1421503009959,37.5273458010621],[127.1417625009061,37.5403483993438],[127.12830700105741,37.5437470006332],[127.13392999966031,37.5461799995442],[127.13184970022661,37.554754899615396],[127.1253157007133,37.5548712003145],[127.11744879973881,37.54188950172],[127.1087091007521,37.5530286006668],[127.09504510104719,37.5555421010952],[127.0960477047943,37.560141898622],[127.0893047023066,37.5633640010568],[127.09694489904639,37.5791456976608],[127.0951061000791,37.587776999465305],[127.1058314001011,37.599499599636204],[127.1120146998452,37.6002073996044],[127.11367260114581,37.608510599208905],[127.10166250043271,37.612991201133006],[127.0987129999243,37.6071638003897],[127.08574269991419,37.6038274024253],[127.0841844006388,37.6126759991219],[127.09893740018539,37.6144160999054],[127.09299729998489,37.6173715014231],[127.0936478009768,37.6239016985152],[127.0712392999787,37.6293490021006],[127.0628405997781,37.6206745016901],[127.0601918008031,37.630027998742804],[127.0710431996374,37.6355982994741],[127.0696339006186,37.6387036006987],[127.0561709028927,37.636900101163],[127.04571280124401,37.6574378010277],[127.0332734998134,37.6560884003409],[127.0337463998267,37.6527504009261],[127.02752399947249,37.6535908003729],[127.0187249993354,37.646373500794105],[127.0138108004242,37.6584925005072],[127.0106851999207,37.6574976008355],[127.0114702992823,37.6282895022255],[126.9964492988119,37.6183019015663],[126.9999596983327,37.6060681986513],[127.0047952975977,37.6064662979415],[127.0036126987803,37.600301804105996],[126.99119040248539,37.6015249017126],[126.98193630034311,37.5912798021521],[126.9637879012836,37.5944957999632],[126.964917698945,37.5891922004686],[126.9591389025997,37.5869323022845],[126.95697540233431,37.5988802999024],[126.95377409994491,37.5969814039526],[126.9497509019581,37.6043532997529],[126.9599699994329,37.6053908983242],[126.95885170202949,37.61247279746],[126.9480518052125,37.6101291032515],[126.9531400012486,37.6257171999891],[126.9391626051874,37.6346298002825],[126.93980640086039,37.643081799939594],[126.93163390373759,37.6442854023956],[126.9345867999033,37.6501677982707],[126.9225070049674,37.6545623003652],[126.92461030163089,37.660635997974],[126.919909201009,37.6634662005836],[126.914837397372,37.6543257057942],[126.9083756015555,37.655006803855905],[126.9096355002956,37.658771100091606],[126.9083756008808,37.6550068038689],[126.9050448042588,37.6643456985262],[126.8891453991732,37.6676925009681],[126.882633601476,37.6594220018209],[126.871772799534,37.6593820006499],[126.8695560987939,37.6542407034293],[126.8522079024108,37.648049406525196],[126.84776940684931,37.6534912010834],[126.8500450009027,37.6607622000626],[126.8458897980611,37.6582752048288],[126.8410524999126,37.6629631001341],[126.82925849778839,37.6583688011969],[126.8320212994819,37.6462901000593],[126.8170074002547,37.6383127006835],[126.81535599818669,37.6278101027797],[126.80604819955441,37.6234318006471],[126.8028999990962,37.6160783019311],[126.8093457982212,37.6110618003081],[126.8115995946542,37.6002448977958],[126.8202630005559,37.5967471994903],[126.81863540251601,37.586671909131496],[126.8096464003864,37.5867430026141],[126.800210601008,37.5940990996382],[126.7943188993671,37.5863947012447],[126.78819420155011,37.589722397974796],[126.7887793993929,37.579745603523506],[126.78454190103949,37.584805800297296],[126.78015860019639,37.5773479016188],[126.7904878988427,37.566374692500794],[126.7993937003088,37.5758302957253],[126.8043332988424,37.5680287006308],[126.7984198005241,37.563155202025094],[126.8139417975667,37.5471032001008],[126.80638169880861,37.5342177019767],[126.7924971000356,37.5294755028578],[126.7979377982714,37.5255966999051],[126.7950780998856,37.523039400563704],[126.7874188006638,37.5239530005464],[126.79857569524741,37.5142985025197],[126.7903804999785,37.509662004502],[126.7855020013879,37.5144854006591],[126.7726166009912,37.512159001033694],[126.76948919972959,37.507474601396105],[126.7652026004094,37.5119848999443],[126.7638783977563,37.508219101633195],[126.7525332000826,37.512822900418406],[126.7489375992337,37.5082167995033],[126.7452528010092,37.5134314981017],[126.7359648011912,37.5114251007091],[126.7325814009921,37.5203232001325],[126.7226760005511,37.522422601714496],[126.73391689981379,37.5296990998736],[126.7308072011976,37.5355663998424],[126.7400289999199,37.5356665999587],[126.7453173018876,37.5409122982673],[126.7478755015519,37.5524108995492],[126.7550293997129,37.5580379996597],[126.7456686008781,37.5763683999696],[126.7322264001362,37.5795234004645],[126.72072349599861,37.5678139005231],[126.7249591952398,37.5631748022126],[126.7386299977669,37.5655134937293],[126.7420816943152,37.5592202000226],[126.71905649930359,37.5453896011568],[126.71091579990839,37.5312984002708],[126.7163611996633,37.5239600006222],[126.71027330006089,37.5195392006776],[126.715662796708,37.5168263997601],[126.71341079896001,37.5126833039032],[126.7066230014225,37.5122924008809],[126.7053466011142,37.516165199925204],[126.6952398014106,37.5094049010532],[126.7026802998769,37.4996615990094],[126.7066847997218,37.5066000972884],[126.7165329979226,37.4934796995173],[126.70640329986091,37.4919706005037],[126.7047063006201,37.4815719013991],[126.69190579996,37.4789065001511],[126.69234179922219,37.4649846000364],[126.6979755983277,37.459210800238004],[126.6885669991253,37.457961499214505]]]}}]}