{"type":"FeatureCollection","features":[{"type":"Feature","properties":{"interval":15,"stationId":"5919544688","profile":"peak"},"geometry":{"type":"Polygon","coordinates":[[[126.8911453991201,37.5759521005699],[126.8970974983708,37.571580101449],[126.8958695004798,37.5617810005972],[126.9049301995143,37.5591021997797],[126.9088152997619,37.5489221001966],[126.9168408993867,37.5476721988135],[126.9153392006141,37.558231400495096],[126.909461099951,37.559951700599896],[126.90740840321749,37.5756043999828],[126.9156175001061,37.5799660992096],[126.9168739003125,37.6016701003153],[126.8911453991201,37.5759521005699]]]}},{"type":"Feature","properties":{"interval":30,"stationId":"5919544688","profile":"peak"},"geometry":{"type":"Polygon","coordinates":[[[126.87867179935671,37.5814002998586],[126.88405249790969,37.5786429996897],[126.8832599987022,37.5740700042627],[126.8808736010886,37.5774323009004],[126.8876477993627,37.5684392997671],[126.8870654989208,37.5597998008524],[126.9044051966379,37.5484115957478],[126.90352539751771,37.5430219011375],[126.89103849946119,37.538673600903905],[126.89192839992539,37.532519201032706],[126.8827901003325,37.524809201225],[126.89156389947429,37.5106449997097],[126.909584200208,37.5203781995216],[126.90633240354799,37.53662949795039],[126.9105571008771,37.5439333912341],[126.9256506931666,37.538223296385596],[126.9355809024277,37.5423235981157],[126.9466512998466,37.5344763997151],[126.9649831000857,37.5323028996286],[126.965423299693,37.5354100982714],[126.969771799005,37.5290160997744],[126.9803209003361,37.5342520997768],[126.9729330012391,37.539570898540504],[126.9696186007492,37.552779099127804],[126.9759819995765,37.553238799387],[126.9744055000862,37.5590851999677],[126.98578280079039,37.567976098858104],[126.9711880991593,37.5631061003555],[126.967017300331,37.5685995004685],[126.96051749977809,37.563200100432404],[126.947745101497,37.5622374026705],[126.9468578011195,37.5663557003241],[126.9335399003254,37.5654215004205],[126.9277741007556,37.5731087997402],[126.9247551015135,37.5927175986648],[126.9314196994631,37.5950451977371],[126.9374628988744,37.592808600048095],[126.9421570995864,37.5827357997279],[126.9492116985897,37.5822828981615],[126.9498025977269,37.5773066023545],[126.9622364994501,37.5704444998166],[126.9633865999849,37.57328479983801],[126.9541088007804,37.578319800621905],[126.9543138006416,37.584519299569095],[126.93874200216841,37.5989808984526],[126.94207590091061,37.611485898579396],[126.9353337007908,37.6172728006569],[126.94023420131131,37.6225703961278],[126.933973603276,37.6264878998559],[126.9129370003495,37.6238580030575],[126.9060631997383,37.6057645016186],[126.9017051034411,37.6059713011812],[126.8998854960372,37.593601702351],[126.896412700233,37.5895893018735],[126.8834346004361,37.5901883012885],[126.87867179935671,37.5814002998586]]]}},{"type":"Feature","properties":{"interval":60,"stationId":"5919544688","profile":"peak"},"geometry":{"type":"Polygon","coordinates":[[[126.6564397975019,37.647735701608],[126.6568292986813,37.64102720014991],[126.66871739751791,37.6346797991518],[126.6809126990155,37.6368555990954],[126.68225260083629,37.6434887989594],[126.6928221988119,37.6496504977978],[126.7002249975519,37.6456108006817],[126.6958605985066,37.6393269011059],[126.6881518006493,37.6398006027779],[126.6888455987489,37.6283326017827],[126.6967914963039,37.620481701253],[126.7119308965036,37.617341698923894],[126.7137816993414,37.6034992994904],[126.7267263981758,37.595107398810505],[126.7465606984454,37.5994473984111],[126.757805798204,37.5846002000417],[126.7603930005004,37.5906033966823],[126.7694039985222,37.5858370972622],[126.7868633978976,37.590268895498],[126.7887793993929,37.579745603523506],[126.78454190103949,37.584805800297296],[126.78103519719751,37.572320804131],[126.7904878988427,37.566374692500794],[126.7993937003088,37.5758302957253],[126.8043332988424,37.5680287006308],[126.7984198005241,37.563155202025094],[126.8139417975667,37.5471032001008],[126.80718159838241,37.538683202811605],[126.79736170019089,37.5379965026401],[126.7994939974746,37.532399502766694],[126.7905810017418,37.5370751009098],[126.7832268998753,37.531399300306695],[126.77953639999859,37.511590701048696],[126.76886350046,37.5108069011848],[126.76948919972959,37.507474601396105],[126.76561200044151,37.51192919994],[126.7638783977563,37.508219101633195],[126.7525332000826,37.512822900418406],[126.7489375992337,37.5082167995033],[126.7372467008463,37.5080862004749],[126.7288121013008,37.5130952996029],[126.733881399928,37.5170823993996],[126.72966340097281,37.524067098544705],[126.75525250081,37.542138296606396],[126.7493095999603,37.5406386005989],[126.7454433008109,37.5459952987308],[126.75179019988481,37.558545697645705],[126.7612608987706,37.5587983992307],[126.75625560173481,37.567019898673095],[126.7609223989467,37.572392599066],[126.7533707002529,37.567738401363805],[126.74673870296239,37.5727140981436],[126.7496760017519,37.5787639963494],[126.727502301502,37.584428200498294],[126.7203728969074,37.5710666027768],[126.708468000504,37.571063900217496],[126.71557109860781,37.5691755972065],[126.71791469626419,37.5649803014018],[126.71426739991149,37.5635469028352],[126.71791469850389,37.564980297359],[126.71989659486749,37.5577093984144],[126.72812909791051,37.5535853002988],[126.72263960012239,37.5541803005065],[126.7107617965399,37.538934001132496],[126.71436659840691,37.533805600629],[126.7089350991901,37.530574301025],[126.7162389971528,37.522618199974595],[126.70961239860439,37.5175975012683],[126.7207566953866,37.514185000348995],[126.7117603987586,37.5078154018115],[126.7165329979226,37.4934796995173],[126.7071420996863,37.4859413011713],[126.7071568990666,37.479381601515506],[126.6949060013879,37.4767205015327],[126.6945747994428,37.461760299400005],[126.69956040067649,37.465642798628],[126.70756449894661,37.461360299493904],[126.7143947999887,37.463927299318],[126.71212640515141,37.4721184986954],[126.7179045992963,37.4738746987499],[126.7192323007898,37.4835914972681],[126.7448403978709,37.481684298074796],[126.7449437012146,37.4896429006999],[126.7479321007617,37.4888804986172],[126.7624944972913,37.475740200880395],[126.7667091014014,37.478523798923895],[126.7785005954918,37.4717542971964],[126.7793121006265,37.475916896602705],[126.78284549709309,37.474154998364604],[126.7907420975813,37.4644829998141],[126.7858163991414,37.4471454999235],[126.7766949994004,37.443180901189],[126.77601989995159,37.4384153016352],[126.7888125995625,37.4302703998679],[126.7963641002859,37.4417755000232],[126.80426659887331,37.442702799601],[126.8086375010476,37.472358900117904],[126.8131792007993,37.4762814975631],[126.8207396989581,37.4737447974614],[126.8332433993655,37.488281896268],[126.8472630971719,37.4686572989108],[126.8632231984073,37.4642695980778],[126.86421489993009,37.4671958987313],[126.87054609905209,37.4579525010326],[126.88143559536441,37.4537959986657],[126.88077609743061,37.4461941001559],[126.89477169783561,37.4424996990805],[126.8965502991605,37.435509101465094],[126.8988991003516,37.4378832986212],[126.898848998589,37.4238380998643],[126.90433209240261,37.4203745985408],[126.9015229958696,37.41109630454039],[126.9130651999626,37.4078791994948],[126.92042099953771,37.394489999759195],[126.9302315988639,37.3937233993857],[126.92738159960291,37.3811152997799],[126.9402167991941,37.3755575006937],[126.9373427999231,37.3724949009242],[126.9409801989461,37.3676028994443],[126.9485179000951,37.36701829946],[126.9497082001242,37.3730225991127],[126.9404358046019,37.37998850271531],[126.9415402022791,37.3869040009848],[126.9317080023808,37.391809101433104],[126.93276040387781,37.403529398309],[126.9261869992708,37.4028232063769],[126.9209173016541,37.410550397744196],[126.918479101306,37.4074844032378],[126.92018979984411,37.4141869992049],[126.91459860274341,37.424083297504],[126.9023088002529,37.423295100240495],[126.91425680079871,37.433209598823694],[126.9140010004557,37.439818797498695],[126.9075529008877,37.443747400851],[126.91370169988281,37.450047499598995],[126.9114831018673,37.4672566001827],[126.91732810005111,37.4697345976504],[126.9330299975603,37.4565477991624],[126.9414881015315,37.459278998396705],[126.9488668998556,37.4558512992638],[126.9541923027014,37.4635570984352],[126.9760630982995,37.4642565979892],[126.9806033997507,37.4710080979516],[126.9884666994664,37.4660825001595],[126.9914109989426,37.4451236991351],[127.00218269653341,37.441126500316905],[126.9885764995879,37.4358206022313],[126.98402499964361,37.4259624998618],[126.9886674969443,37.4196604007127],[126.9872003020117,37.4269868984318],[126.9942974997084,37.4218533996766],[127.00140559971379,37.429237798468606],[127.01089329783811,37.4295621982843],[127.01782110278211,37.441856196458],[127.012154403076,37.444976502589704],[127.0150043993806,37.4574452986298],[127.0043290015185,37.4585221038443],[126.9978308028175,37.467128899988296],[127.00876239959989,37.4782600986038],[127.01641189792589,37.4751301978561],[127.0287000986133,37.482525000852],[127.0288143990059,37.47677139952879],[127.0349254990698,37.4738129000381],[127.0317755982619,37.4659809001703],[127.04588119933,37.4620267000709],[127.0479580007701,37.4726012992294],[127.0428191016931,37.4770281011812],[127.0527931006726,37.486320298583905],[127.05446219961951,37.4822036003926],[127.0595107982236,37.483551896376504],[127.06940110078189,37.4872815000255],[127.0703622997758,37.4954363988045],[127.0746820999317,37.4911718996992],[127.0842644999738,37.494806799092096],[127.0676454009467,37.5003978009628],[127.0717562970182,37.5053989960175],[127.0961943986278,37.4996808000593],[127.1114087003801,37.5020915996512],[127.11150490041,37.5088205992836],[127.1038951009307,37.511643398219995],[127.1072602007804,37.5245140002339],[127.0959047083552,37.5334047932379],[127.1012975009439,37.5365157990803],[127.07544870079799,37.5491013001681],[127.0842660986466,37.552397799302604],[127.0864586993765,37.546140699482905],[127.09364039990369,37.5486433981248],[127.10217919980309,37.5417660999451],[127.1079949013182,37.5493015990617],[127.09848910116119,37.5471305014593],[127.08560130101769,37.561011400073],[127.08616430037459,37.5758368009623],[127.0856234999885,37.5692618004001],[127.0720626007502,37.562201101320106],[127.05868890075591,37.5759572999359],[127.0682386002969,37.5909817998216],[127.079834099408,37.587769699679605],[127.08575619984451,37.5912091993072],[127.0876430982317,37.5856506001315],[127.08971790012009,37.5933750994975],[127.09970780009141,37.6003765994794],[127.0802972005243,37.6043166006423],[127.08156539986331,37.6167080990468],[127.0894860003218,37.6211991993542],[127.0864410018622,37.624182999999405],[127.0767119003453,37.6219020006915],[127.072608800764,37.626941100219604],[127.0674254998189,37.616953200350096],[127.0597029014404,37.6249385999378],[127.05613679977441,37.622750501941105],[127.0638311992057,37.6182647997772],[127.06083580045471,37.615809001486],[127.0522081012737,37.6175631018956],[127.04117339928001,37.6125446004307],[127.0328641005634,37.619096001574896],[127.0298557012593,37.633296699659105],[127.0330102996112,37.6439391987086],[127.04096990011129,37.6489471999212],[127.0388174005035,37.6526064997933],[127.0321768983825,37.6524283010383],[127.0283292003403,37.642915000967],[127.0133673992003,37.6418919996672],[127.012903996879,37.6221298007743],[126.9996645002164,37.618585800858895],[126.9994821987447,37.6092847999006],[127.0047952974943,37.606466298888904],[127.0009876011129,37.5977716017103],[126.9977721004346,37.6001464006863],[126.96985740387889,37.5909129021537],[126.96384300049219,37.6013121972508],[126.96795620038661,37.6060150990454],[126.954474306278,37.6196298054956],[126.9571412994503,37.6260531996527],[126.9492087046153,37.6275273038721],[126.9443500094388,37.634912296521506],[126.94685470078241,37.6427459999988],[126.9378402035003,37.6492432010227],[126.9401547019083,37.655894801102],[126.92237320386799,37.6557374028726],[126.9293256021033,37.6657284959284],[126.9185368014577,37.670971903241096],[126.9110249002011,37.6628527045727],[126.9050448005406,37.6643457011895],[126.9021980004309,37.671408601332196],[126.8825251002736,37.6725480010848],[126.87968450115619,37.666215904868196],[126.8841095955779,37.6612429042047],[126.8713067982117,37.6600319029685],[126.8604934027499,37.6616092017732],[126.8494316001962,37.6747097021918],[126.84255900191849,37.664895104301],[126.8331250040316,37.6699379027078],[126.82230709897951,37.6646209012643],[126.8036338046572,37.681579901650004],[126.805155802578,37.6847236991472],[126.7848875030225,37.6895438025112],[126.7810455008755,37.69801849992621],[126.76830350187001,37.7033317046646],[126.76901960103889,37.7129756992939],[126.7837572968245,37.7198958959875],[126.7786867007772,37.7272375020963],[126.78069769986111,37.7342529976066],[126.7731169012092,37.7350357039971],[126.76902270226809,37.7345902025748],[126.7677685988257,37.7250425004801],[126.7573253003262,37.7268006004265],[126.76552389823631,37.7212512008374],[126.7551104007842,37.7152393022734],[126.7469556003883,37.7177134998852],[126.7528874997418,37.6961167993723],[126.7467172991965,37.6859181035754],[126.7292827020971,37.68574490019191],[126.7286927972967,37.682261404136604],[126.7329871981171,37.6658257010521],[126.7626321955704,37.6544271968282],[126.75674720145541,37.6494128018426],[126.75721989798049,37.6436495028302],[126.77136949249281,37.6330912041969],[126.766995393737,37.6190843020191],[126.757464499059,37.6150971035024],[126.7406926024463,37.6235218001532],[126.737973900129,37.6186507031867],[126.7327409042299,37.6206222023691],[126.734590402328,37.633472098936],[126.7317838004739,37.635786200243096],[126.7317492001275,37.6301051031947],[126.71452960354101,37.635259601096095],[126.7115444999994,37.6441447993029],[126.698529301617,37.6467459008615],[126.69872000106109,37.653211999152504],[126.6881973010503,37.6537803013885],[126.68184860697589,37.6627628106117],[126.6713467996302,37.6619601009335],[126.6755784979607,37.655755400856194],[126.65736110028891,37.65193580099729],[126.6564397975019,37.647735701608]]]}}]}