{"type":"FeatureCollection","features":[{"type":"Feature","properties":{"interval":15,"stationId":"5919544686","profile":"peak"},"geometry":{"type":"Polygon","coordinates":[[[126.9060417996435,37.548690200681605],[126.9143409995679,37.5446654000696],[126.9340422005691,37.552641199143594],[126.9387136999255,37.5489988993774],[126.93900960183491,37.5539987990526],[126.9581825997884,37.5542845996629],[126.9555584010171,37.5563322999557],[126.9662119009683,37.5598291994211],[126.9349873000528,37.5589266010391],[126.9218479003474,37.565806500158104],[126.90760139988791,37.555844100535005],[126.9060417996435,37.548690200681605]]]}},{"type":"Feature","properties":{"interval":30,"stationId":"5919544686","profile":"peak"},"geometry":{"type":"Polygon","coordinates":[[[126.848443099192,37.5235218009642],[126.85870749860739,37.5194027998005],[126.8676185995804,37.524442798143504],[126.869812599412,37.5185841003278],[126.8822530993613,37.5191105995481],[126.8798886993548,37.5128264010637],[126.88656679925819,37.5078218005272],[126.8746891002027,37.5051611017091],[126.8751694977728,37.499973402181304],[126.8844860995911,37.499038999272805],[126.8864754997325,37.4928594995244],[126.8957525005247,37.4904196987139],[126.900207400196,37.4944911997472],[126.89977690027531,37.5065425996108],[126.9119974996652,37.5068833991827],[126.9217397996419,37.515824598803704],[126.9241325991565,37.5096621010283],[126.933145601208,37.521650999681896],[126.9395695992453,37.5214686999392],[126.9448079039357,37.5337597983793],[126.95794269654411,37.5318428976955],[126.9618906000359,37.5202487997567],[126.97805259939639,37.5182913993115],[126.9798179006825,37.5238231004644],[126.9679798012762,37.5271948998531],[126.9818925994374,37.5322782986074],[126.9729330012391,37.539570898540504],[126.98541950052521,37.5584620987064],[127.0011218003694,37.562146799394704],[127.0115780991559,37.5525270992298],[127.0160169012883,37.5607519996982],[127.03296180041309,37.564670799771704],[127.01334040085071,37.5692647003336],[127.0183519000865,37.573643899181],[127.01567129998759,37.5752100001759],[126.994741199998,37.572066500673195],[126.98503630069581,37.580067100201],[126.97114410029451,37.5759428006513],[126.96805000003201,37.570084701225],[126.9428669007864,37.5671925030807],[126.935261200292,37.5749644001116],[126.91199760159651,37.5736590016212],[126.91818220071741,37.5812842997082],[126.9208313001471,37.602219999469604],[126.9321724007002,37.6113225993175],[126.9292031003659,37.6124674009818],[126.9110883996302,37.600679200519004],[126.89760549916839,37.5840072012283],[126.884877500741,37.584692701124],[126.88813999883261,37.5730299988583],[126.89477049726311,37.5733598996338],[126.8899096001673,37.5593310008681],[126.8973703969834,37.5531942013366],[126.8898309993406,37.5443678009506],[126.8908374974314,37.532386601541106],[126.8844953998921,37.5317644004838],[126.8827214984387,37.526637702121505],[126.8655306005661,37.5325918000703],[126.848443099192,37.5235218009642]]]}},{"type":"Feature","properties":{"interval":60,"stationId":"5919544686","profile":"peak"},"geometry":{"type":"Polygon","coordinates":[[[126.68850299899749,37.637992501908805],[126.6876084998914,37.6320305999987],[126.6932950954555,37.6303425004067],[126.6903012985443,37.627402600930004],[126.6965374984541,37.6197914995684],[126.7119308965036,37.617341698923894],[126.712470399127,37.606473300957596],[126.7172358996054,37.6019419998474],[126.7360204976295,37.5972822010568],[126.7357877054398,37.6017749970094],[126.74144069978679,37.5993435994408],[126.74688749967319,37.6034310960163],[126.7540274987647,37.590276100945495],[126.7694039985222,37.5858370972622],[126.78686339611251,37.5902688977439],[126.7887793993929,37.579745603523506],[126.78454190103949,37.584805800297296],[126.78103519719751,37.572320804131],[126.7904878988427,37.566374692500794],[126.7993937003088,37.5758302957253],[126.8043332988424,37.5680287006308],[126.7984198005241,37.563155202025094],[126.8139417975667,37.5471032001008],[126.80718159838241,37.538683202811605],[126.79736170019089,37.5379965026401],[126.7994939974746,37.532399502766694],[126.7905810017418,37.5370751009098],[126.7834888996337,37.530780300217],[126.7808395994617,37.5252241006009],[126.7846863988339,37.5166837001587],[126.7802888000001,37.511588101046996],[126.7670566014043,37.5078808010894],[126.7556304012418,37.512077399838006],[126.7460860020853,37.5078064999136],[126.7448545996526,37.5136950984749],[126.73596480156661,37.511425099760395],[126.72946290046521,37.522736099214306],[126.7473299996011,37.5370241995526],[126.7454433008109,37.5459952987308],[126.75179019988481,37.558545697645705],[126.7612608987706,37.5587983992307],[126.7565846003789,37.562726101009495],[126.7583129008309,37.5732517990555],[126.7533707002529,37.567738401363805],[126.74673870296239,37.5727140981436],[126.7496760017519,37.5787639963494],[126.736841901402,37.5840218006685],[126.7265262009761,37.5826658017624],[126.7285618963427,37.577788800779004],[126.7203728969074,37.5710666027768],[126.7082184002496,37.5703152007487],[126.7203728963492,37.5710665972704],[126.7193553975581,37.5606022007854],[126.7286296983745,37.556236498431595],[126.71258570076121,37.5438244006611],[126.7149379985583,37.536897499907504],[126.7100314992978,37.5290263998947],[126.7161062972855,37.521251901340904],[126.70961239860439,37.5175975012683],[126.718788197516,37.516629899478396],[126.7103476000767,37.511484100646996],[126.7053466011142,37.516165199925204],[126.6985291000663,37.512420401126505],[126.6999078984798,37.508935702032204],[126.6929441000853,37.508826501235],[126.7027716999086,37.5003972992643],[126.7088408975657,37.5054393984491],[126.7165329979226,37.4934796995173],[126.7098563011516,37.493895998103596],[126.70548320038931,37.4812802012605],[126.69859220139749,37.4760017020635],[126.6932970002311,37.4774660019327],[126.6924140003957,37.4657648012396],[126.69797559859751,37.4592108017262],[126.69152079967621,37.4592588010244],[126.6990792994277,37.4455753000905],[126.6951188001505,37.4336727002444],[126.6985771987413,37.4321346006898],[126.698164901447,37.438951100000295],[126.71086150057809,37.460558899070804],[126.7171096001164,37.4625818983961],[126.7148256013995,37.468107699171796],[126.7199397004807,37.472711599576996],[126.7196117017151,37.4806764961976],[126.7351730991511,37.4850967983761],[126.7449527998876,37.4826785990057],[126.7478633001463,37.484600098806204],[126.74410420205409,37.4907021996406],[126.7531201995447,37.4879155993099],[126.7624944972913,37.475740200880395],[126.7907420975813,37.4644829998141],[126.7858163991414,37.4471454999235],[126.77700150032669,37.442747100144196],[126.77701179897569,37.435759000526396],[126.7828426969661,37.4315887017144],[126.7930027995737,37.433119999610405],[126.79569640004999,37.4435535987294],[126.8024535999572,37.4448408984968],[126.80408970248321,37.4564187969084],[126.7970591023695,37.452914901451706],[126.79208920070391,37.4569474002617],[126.7930884024068,37.4657543972759],[126.7967263987688,37.4682696947606],[126.8031046007667,37.4586936995715],[126.8067014002741,37.4626567993906],[126.80088590130279,37.4625360006768],[126.8012095032287,37.4672205984285],[126.8156858014806,37.4725835994039],[126.8149241008029,37.4759656979949],[126.822669098958,37.471275697901],[126.8305117007993,37.4849576949153],[126.83712479462069,37.4805566989843],[126.84435049880051,37.462501500446905],[126.86334479891079,37.463102897390705],[126.8793406978747,37.4412639006664],[126.8823293026545,37.444952997101495],[126.89477169783561,37.4424996990805],[126.8884521990543,37.437326102273],[126.8940642977533,37.429269205538404],[126.8972410990438,37.431111598586604],[126.898848998589,37.4238380998643],[126.8920254011499,37.4175909007283],[126.89202790077721,37.423914699936795],[126.88565130346451,37.422809401843296],[126.8854166036992,37.4287187959339],[126.8735645985266,37.421488201139596],[126.8747347962834,37.417480701414895],[126.88499149828729,37.4069674992525],[126.888986400894,37.412303598765604],[126.911095499863,37.4015048985005],[126.91419499977911,37.3927972002654],[126.92417069862391,37.3900652995014],[126.92319809907619,37.38009200163],[126.9359679976534,37.3783305981884],[126.9363894983409,37.3659448996288],[126.9484677985,37.36405769969689],[126.9492709987904,37.3531037002728],[126.94272489917161,37.344141699287604],[126.95704700077991,37.3546066004075],[126.9477452023504,37.3620558997061],[126.9535983004397,37.3722760005397],[126.9405650049958,37.379772899981],[126.94846419770231,37.382120298852996],[126.9474658006182,37.3885241981261],[126.9499843987643,37.3857951006935],[126.98191699994939,37.3963639977692],[126.9822344021524,37.405284098796706],[126.9701833007586,37.4059496004893],[126.9664386998902,37.397014602564695],[126.9598922998375,37.3991859003544],[126.95692359902169,37.3931393004386],[126.9465550002165,37.3929975007718],[126.9455395986574,37.3893018010612],[126.93867650131119,37.3925483010307],[126.9345043025281,37.4063916968879],[126.9225713988191,37.4082946026982],[126.9230762009874,37.418551897676195],[126.917342002439,37.4215873013838],[126.91642020148501,37.4347735979771],[126.9112123032444,37.437081500236],[126.9170423978194,37.4402146973634],[126.9084406023389,37.444598401117],[126.9166384993361,37.4479951998365],[126.9174885002493,37.4627826990331],[126.9298776996622,37.458694799569905],[126.9332299976285,37.452547399735],[126.93837779783709,37.4569597960189],[126.94997629949741,37.4518485997899],[126.96421030053901,37.4636722942827],[126.97436260043851,37.4622457964732],[126.9806033997507,37.4710080979516],[126.9884666994664,37.4660825001595],[126.9922611956211,37.4535594021874],[126.9861209954412,37.4448022044625],[126.9903535951192,37.4442587997392],[126.9814583987687,37.4286541063735],[126.98432599671439,37.4267266005386],[126.9783458007439,37.4234011008263],[126.9861415988222,37.416932700028994],[127.0008698996473,37.4263129987175],[127.00995859981441,37.4245705000201],[127.0203435002391,37.4359149998075],[127.0121255031049,37.449066798499395],[127.0194626019258,37.454383994465594],[127.0166114017522,37.4534218015253],[127.0184179025893,37.4592349992039],[127.0058475064104,37.4623663998264],[127.0096195008647,37.4733925990042],[127.0271905001229,37.4837784995985],[127.03132019904889,37.462620201507505],[127.0459835990461,37.4596232998129],[127.0487933008188,37.4773216998589],[127.0537080999159,37.4810539994029],[127.06473529796989,37.479256698697704],[127.0744890004394,37.489853599159794],[127.08376909986029,37.490643299318805],[127.082395102665,37.496759000632196],[127.0745987006097,37.4977076010834],[127.0777597995764,37.503985796615304],[127.0973634975215,37.4969399977402],[127.1097625997086,37.501025198873904],[127.1119742997853,37.495733501202],[127.1088367002727,37.4959071001966],[127.1264156997203,37.4757567000174],[127.1272891008285,37.4876249007105],[127.1155273013613,37.5055466993057],[127.1169424003242,37.5243768998513],[127.1374733994412,37.5250487982596],[127.1479674016143,37.5375668993071],[127.1485465006266,37.550902999966695],[127.144346802396,37.5532011007782],[127.1594618988059,37.5550941982599],[127.144506900018,37.5569652008309],[127.1359298992371,37.5430554004829],[127.1305628003804,37.5455131998981],[127.1337985998299,37.547277199035406],[127.1296580013515,37.5556114999589],[127.1112135994238,37.5454726025825],[127.1107829031225,37.5545735005676],[127.09504510104719,37.5555421010952],[127.0916113019313,37.5644207985545],[127.0952297009762,37.569676299022],[127.09101770185269,37.5695734007312],[127.09104430378629,37.5738054985094],[127.097433003962,37.5789490972558],[127.0955372000181,37.588143798965895],[127.11132440069031,37.6009669992404],[127.11367260114581,37.608510599208905],[127.1052785017167,37.6114840014909],[127.1011183997,37.6107911009142],[127.10121960042429,37.603379400362805],[127.0930063003351,37.6070376007023],[127.0839046011139,37.6041254021975],[127.0861632986599,37.613372898425],[127.09747110037651,37.615374198762],[127.0913513006879,37.616491401158],[127.0890647001782,37.6247130003631],[127.0785139003075,37.623747800816794],[127.0712392999787,37.6293490021006],[127.0628406019794,37.6206745023778],[127.0592242016386,37.6266339006785],[127.0710756010973,37.6376579987837],[127.0670547000651,37.6394509000414],[127.0642820004515,37.6335072013813],[127.06157280091239,37.639354100264896],[127.0537418986507,37.6332795023849],[127.0564126980222,37.621381601504396],[127.0389371024977,37.6205526002308],[127.0361822015832,37.6246618976147],[127.0420173003136,37.6443499983772],[127.05356929787041,37.6404253992011],[127.0514284042237,37.6521253975715],[127.0644603981531,37.651003798992896],[127.07689979884121,37.658346898722996],[127.083955100436,37.6704237995009],[127.0783555005488,37.6737682999673],[127.0764499974185,37.6674040010624],[127.0588042000135,37.661152400260995],[127.0580147001125,37.655101900449395],[127.0489133998982,37.6534751000488],[127.0385550000729,37.658684500258],[127.0217331005457,37.649649200469796],[127.0152910004913,37.6614883982349],[127.0080348979523,37.6645939008119],[127.0072901981409,37.624157703215296],[126.99489300010741,37.620419406149104],[126.99963219940899,37.6111483999932],[126.9943825003056,37.6110095001388],[126.996357200833,37.601465600681195],[126.9749593987769,37.5905895024771],[126.96327890009191,37.597372400268696],[126.9580486011903,37.5916169011457],[126.94773620271289,37.6101892071471],[126.9496179983373,37.6076441022373],[126.9430022005684,37.604849903652195],[126.9437588066903,37.618373298963],[126.9500527003964,37.6206099967263],[126.949208701883,37.6275272975063],[126.9516968993948,37.6253319997016],[126.9391626051874,37.6346298002825],[126.9287261001823,37.6508207000448],[126.9083756015555,37.655006803855905],[126.8959496012685,37.6638503995102],[126.8860838007451,37.6541644029212],[126.87934490476471,37.659664901578005],[126.85304000157869,37.647980006594594],[126.84776940684931,37.6534912010834],[126.84804170150039,37.6671172010368],[126.8293574992181,37.6628704006419],[126.8238560000933,37.6571329009104],[126.82870899745781,37.654616299917],[126.8251593995471,37.646544401907704],[126.8142160029911,37.6408767028341],[126.81287230194029,37.6491003985789],[126.8170053978072,37.6506404970388],[126.8078407050196,37.6577612974571],[126.81282689939191,37.6644412968387],[126.8106546001226,37.6684773000818],[126.8018647005553,37.6698167007756],[126.80189230102711,37.6768555980637],[126.7916867005591,37.6845927997518],[126.7820084007596,37.6814707013603],[126.78279840006141,37.687579098438],[126.76748480005631,37.7016329001116],[126.76061390123499,37.6992999011137],[126.7625165002005,37.716214899041795],[126.7592598001101,37.7172140001691],[126.75691829800199,37.711160999223495],[126.7624614975957,37.697616700565696],[126.7534489999161,37.690660300000395],[126.75871589910369,37.680355400364206],[126.74067000126679,37.6825152015012],[126.73995209772549,37.6696655004559],[126.757024299621,37.6638367003519],[126.7637437998652,37.6467008000801],[126.7712079980502,37.6470922011444],[126.7751082975853,37.6335036003373],[126.8036184976571,37.6272504983884],[126.79523950139469,37.6222012023779],[126.8032240990806,37.6223960994418],[126.8115995946542,37.6002448977958],[126.8202630005559,37.5967471994903],[126.81863540251601,37.586671909131496],[126.8096464003864,37.5867430026141],[126.800210601008,37.5940990996382],[126.7943188993671,37.5863947012447],[126.79020080012299,37.5880433010252],[126.7846020041661,37.596110797788995],[126.7877400005908,37.603410499363804],[126.7845775031717,37.6101980993491],[126.7672508066662,37.6189987126851],[126.765887398632,37.6087440035864],[126.7619701025493,37.6102287021017],[126.7607997034062,37.616657098835695],[126.7641905000154,37.616444299048496],[126.75910019836431,37.613733701363394],[126.7524946008736,37.6177812006603],[126.7510196003288,37.613811902428104],[126.74069260153631,37.6235217991478],[126.737973900129,37.6186507031867],[126.7327409042299,37.6206222023691],[126.7325673020231,37.633328400143704],[126.723673201507,37.6292866036887],[126.7103112005727,37.6443710994485],[126.7019129006566,37.6458570007097],[126.6934768976669,37.6373979028399],[126.68850299899749,37.637992501908805]]]}}]}