{"type":"FeatureCollection","features":[{"type":"Feature","properties":{"interval":15,"stationId":"5930287078","profile":"peak"},"geometry":{"type":"Polygon","coordinates":[[[127.0925676987209,37.484953102062995],[127.105769600071,37.4791609997162],[127.1077086006096,37.4886707975346],[127.1206598986987,37.4837897981951],[127.1261359991915,37.475774099988506],[127.1282122006555,37.4922943988329],[127.1393405999376,37.495604799808],[127.1255113007831,37.5105487012692],[127.1225447989225,37.5006100009002],[127.1162324003492,37.4993113008636],[127.1113712001327,37.507460699521204],[127.1050125006564,37.508368601029595],[127.1023256997112,37.503259900821504],[127.11048769968,37.501301998553004],[127.1119742997853,37.495733501202],[127.106065300129,37.4898535028664],[127.0968362013318,37.4936622026103],[127.0925676987209,37.484953102062995]]]}},{"type":"Feature","properties":{"interval":30,"stationId":"5930287078","profile":"peak"},"geometry":{"type":"Polygon","coordinates":[[[127.0053940992321,37.4915730014522],[127.00738009902521,37.4832934004327],[127.01604280050299,37.4792493986077],[127.0278896994237,37.483525199851805],[127.0292025996644,37.476870999913906],[127.0377379989592,37.480982498158106],[127.038027499495,37.4778247002319],[127.0611708988231,37.4770989993565],[127.07018909660309,37.4825540952299],[127.0676148991773,37.4775614002226],[127.08454369452289,37.4727825945993],[127.0950185995128,37.4760385994252],[127.10712220006441,37.4692312993043],[127.1144115003117,37.4747835999585],[127.1183716978162,37.472258400705904],[127.1144768004157,37.4706334011519],[127.115794697599,37.4629887991486],[127.1211087998995,37.4669586986992],[127.127031498002,37.4635682000864],[127.1210428994371,37.451835200522],[127.1239716967933,37.441797402598596],[127.11981930094571,37.442326102069906],[127.1195983983402,37.438045499474],[127.12336309941931,37.4394174984129],[127.1215159998972,37.4308203005665],[127.1289507991358,37.423944298796904],[127.14823009964661,37.440940898617804],[127.1363760008195,37.4443047002459],[127.1390701002676,37.4503726993955],[127.1285331009358,37.4594867987305],[127.1330217005207,37.467423797941],[127.1383440993053,37.455616399994994],[127.1446251955351,37.455750996324],[127.14496069615029,37.4502193012055],[127.1521632971713,37.4484284986684],[127.1495955996899,37.4417355005778],[127.162589099339,37.4404298993937],[127.1669655003397,37.450208699730794],[127.164930400386,37.45900610101771],[127.149385301975,37.4648102010105],[127.1393659001057,37.4762819997887],[127.1407563997694,37.482201599360906],[127.1622636001516,37.4877325993739],[127.1630922012955,37.4914511985167],[127.1605991004938,37.5017310001584],[127.1458587004593,37.502726000947504],[127.1413376016023,37.5078070014531],[127.15110460006589,37.5159745994712],[127.14691250139789,37.5204254009245],[127.1536101015229,37.5301216971848],[127.1448386039462,37.5569084994651],[127.13614620099099,37.5465497013944],[127.1301796010015,37.557359900077],[127.12322780067359,37.5543190025193],[127.1210256993584,37.544114300429996],[127.1117108019526,37.536151001386195],[127.1111927999083,37.5250275013693],[127.1048733005338,37.5245438013122],[127.09590470633671,37.5334048021913],[127.1092443010177,37.5472335990751],[127.1059494017966,37.549056400995894],[127.0975935002548,37.5461776004218],[127.098469399777,37.5393668020232],[127.0843378000936,37.5424910002226],[127.0782555001445,37.538836000217806],[127.07995699936119,37.532510200206296],[127.0904361986261,37.53030360046181],[127.0963764946768,37.521841708249504],[127.086626600786,37.515802301430995],[127.0733038983866,37.5189285006932],[127.06729280106241,37.5157587015265],[127.05603530105981,37.5222776000368],[127.0426092000668,37.5192996003032],[127.04608280029139,37.5263215997495],[127.03727979972979,37.5297750002141],[127.03759769902601,37.5206746002047],[127.0274815995066,37.5138166010436],[127.0309338998401,37.501398300380195],[127.02269419937531,37.5046056013219],[127.02101159975409,37.495977900726],[127.010614499932,37.4977752010219],[127.0053940992321,37.4915730014522]]]}},{"type":"Feature","properties":{"interval":60,"stationId":"5930287078","profile":"peak"},"geometry":{"type":"Polygon","coordinates":[[[126.8812060997115,37.487315000555505],[126.8896106996531,37.4816973992399],[126.8945781995729,37.4896781976382],[126.9157524989848,37.476475099828505],[126.922967697886,37.480083198233906],[126.9216454997879,37.475026200235504],[126.9276416989283,37.4749266972239],[126.92710869875151,37.4662696017435],[126.93167779628921,37.4633338977733],[126.94600539996661,37.468423198438096],[126.9487928996184,37.462355199513496],[126.9537161999259,37.4703373968341],[126.9579103988314,37.463722601700695],[126.968676296073,37.462033995921004],[126.97436260043851,37.4622457964732],[126.9806033997507,37.4710080979516],[126.9884666994664,37.4660825001595],[126.9903535987343,37.4442588046065],[126.99936479980829,37.4383811017412],[126.98466100074491,37.4311341025752],[126.9831299994093,37.4233687003356],[126.9886674969443,37.4196604007127],[127.0175202000464,37.4358115988662],[127.0121255031049,37.449066798499395],[127.0184179003936,37.4592349963578],[127.0273870978566,37.452108299199196],[127.0366480928075,37.451508598900595],[127.0369022960231,37.4466623982582],[127.0433234949404,37.4508386944969],[127.04457879368509,37.4402141051215],[127.0358295996003,37.439179701931295],[127.04725259771779,37.4322285973755],[127.0459434990269,37.4292318003723],[127.0699220000119,37.4341684996747],[127.0723027017981,37.442386196871205],[127.0674286024856,37.4511892984112],[127.07529189752789,37.455181099315496],[127.0640789044626,37.4616448975541],[127.06162410364,37.4689519961506],[127.077111598348,37.4750565942953],[127.08454369452289,37.4727825945993],[127.0793797997892,37.4633007002706],[127.0835222995169,37.4584720996785],[127.0900818985798,37.4609764965685],[127.100258495386,37.4570836988555],[127.10476059793871,37.448035599094396],[127.1179704905194,37.4517759956982],[127.1167570002008,37.4293677028343],[127.103326401179,37.429560701028706],[127.09905209952319,37.4248329000066],[127.1074314964186,37.41867099923],[127.106622099427,37.4104897001136],[127.0980248999004,37.4165755006891],[127.0914071983567,37.4101352005997],[127.09730949906209,37.4078203992008],[127.10032819901011,37.397639500960096],[127.09342360023639,37.4033797013049],[127.08542680316779,37.3986209049287],[127.0903041977693,37.4024106950179],[127.08360499904211,37.3888435004393],[127.0925983915127,37.3719990032928],[127.0813550010316,37.3391671008932],[127.0865846982368,37.3330847980268],[127.0810555002644,37.3311539014966],[127.0838941965154,37.3254699006849],[127.07793650092921,37.326873399613795],[127.0647093008946,37.319661901164],[127.0673533965638,37.3106375004917],[127.0633461992075,37.2909852999271],[127.05739850045191,37.2921158004877],[127.059420099229,37.2982891981135],[127.05395650026409,37.2946133008357],[127.0372723001891,37.3005072002654],[127.0440207996733,37.2852739997355],[127.0589494004406,37.2835507978143],[127.0627778997216,37.2887423988703],[127.068726799329,37.2869026997324],[127.0831864970741,37.2938485002142],[127.07988420126469,37.2996827996491],[127.0889470999893,37.3026022985814],[127.09708690060049,37.3141082985589],[127.1058301989958,37.3059608015991],[127.100664700908,37.2943814011792],[127.1124246000043,37.294784699672604],[127.108215099427,37.3061022981096],[127.1222665006915,37.3234227985535],[127.12053550146081,37.335127899979106],[127.1273969008515,37.339013399525996],[127.12718220742379,37.358809798518806],[127.133727802628,37.3680033959677],[127.1475813000346,37.3715340994448],[127.1434122040818,37.381251596923796],[127.15217130041141,37.3843751990409],[127.1413861055956,37.3908833013815],[127.1610819993546,37.4122267998248],[127.15651060199191,37.4171631996865],[127.1607502013684,37.423771697703],[127.1639032982153,37.4220233994513],[127.15419060597101,37.4292006986526],[127.17666679706231,37.4280289957044],[127.1814744992586,37.4315743962235],[127.18061280367691,37.440386496111906],[127.1893666027176,37.4530519981019],[127.1809139030479,37.4596761998168],[127.1856271039194,37.4866704021889],[127.17894670581529,37.4846897046761],[127.1752662102696,37.499799498491804],[127.1662101005255,37.5074865010683],[127.1615047020582,37.536040798977204],[127.1692154963374,37.5409618957987],[127.1643864990763,37.5288162013329],[127.1678863983577,37.5230964993043],[127.1754150992596,37.541800897026796],[127.1848620021613,37.544488496584],[127.19244139885451,37.5439351993652],[127.1987685993056,37.526344300369395],[127.2049359000395,37.5346388972444],[127.2212487977704,37.529217700062496],[127.2344364962838,37.5335847959631],[127.2376445000228,37.5405981991044],[127.2049793025952,37.5616262009406],[127.20770950237501,37.568391298778],[127.20356349947811,37.5776573008687],[127.1996510012903,37.5776155007191],[127.199151899018,37.5691733011216],[127.1926656009164,37.5793010000041],[127.1797240999789,37.5782859001786],[127.1705452005247,37.5750642000155],[127.171555999828,37.564815500179805],[127.15891500037279,37.5700211007724],[127.1511847002546,37.5621201029535],[127.13305430176389,37.5679201058674],[127.1312051022955,37.5741014991684],[127.12928049737499,37.5626744070862],[127.1191186006832,37.5690403003485],[127.1024710004744,37.5653482020477],[127.1020837052608,37.5772690958468],[127.1077941995503,37.576745296370596],[127.1044431003692,37.596590298654405],[127.1119337956447,37.598872798316805],[127.1139402016492,37.607053296805894],[127.10166250043271,37.612991201133006],[127.0989212006487,37.6081351014258],[127.0847134021457,37.609098799640996],[127.0913512978565,37.6164913991789],[127.09011890011249,37.6222632994795],[127.0829320010244,37.6223600018549],[127.0792274005289,37.6314747002153],[127.07286170098061,37.631850200008905],[127.07536370082549,37.6387113981273],[127.0666345033855,37.6454372023028],[127.0695769004431,37.6492013985386],[127.0626135018469,37.649996701007105],[127.0661712003706,37.6555855990655],[127.0555626001829,37.6671039004028],[127.0605897990438,37.657195699179205],[127.05457730031131,37.6539608008343],[127.0600767988528,37.650655998709595],[127.056848400125,37.6469575008449],[127.052831403138,37.6460163028821],[127.04571280124401,37.6574378010277],[127.0400329006062,37.6542880008765],[127.0444810993933,37.6421610004688],[127.0549499975022,37.6359778000472],[127.0511689991423,37.6264981007447],[127.0578475980636,37.6226805020111],[127.03460459987289,37.6039301007087],[127.0373605995075,37.5984186994525],[127.03053630002289,37.5912010026141],[127.021941200803,37.5976448001214],[127.0300806004159,37.6068748],[127.0237956004323,37.6088270999783],[127.01814210103481,37.604528300831],[127.0125831001322,37.607565701782704],[127.0119962005954,37.6143786001077],[127.0059077018569,37.6152935001129],[127.0036276994468,37.6122579013943],[127.00868359952389,37.6086726993855],[127.00675559912821,37.602347000610905],[127.0110376994556,37.596561099947],[126.9983959996493,37.5942565008264],[126.99237580022131,37.5826589007411],[126.98463190023,37.5867192009098],[126.97030259990329,37.5842839007511],[126.9645834996401,37.577333402361],[126.9410150004176,37.5927025997606],[126.9402834993356,37.5859360990549],[126.9492116985897,37.5822828981615],[126.9579283978995,37.566962900201],[126.95291399914801,37.5609458015208],[126.9313263003744,37.5576303005476],[126.9384411995682,37.5491647000951],[126.9395666984419,37.539096401342896],[126.9319007061079,37.5303241101152],[126.9151808021929,37.5349287076787],[126.9081431006412,37.5316719000041],[126.90060250112,37.5405379015439],[126.888975900177,37.541478601288794],[126.8932367986916,37.5324509000683],[126.8827901003325,37.524809201225],[126.89078999907339,37.5197536011598],[126.8903661994495,37.512803900349404],[126.90509589904231,37.507772499599],[126.8998240004009,37.503180200962504],[126.8916106003347,37.509523200463796],[126.8812060997115,37.487315000555505]]]}}]}