{"type":"FeatureCollection","features":[{"type":"Feature","properties":{"interval":15,"stationId":"5930698986","profile":"peak"},"geometry":{"type":"Polygon","coordinates":[[[126.9698553995496,37.576105399722906],[126.981890699972,37.5691276999382],[126.9826869995653,37.56210720017],[126.97730340058979,37.557706400634004],[126.9802305001278,37.5566878995041],[126.99545719898461,37.5569705998331],[127.0017359003952,37.563734099678996],[127.00321269911261,37.554972900182406],[127.01363959950861,37.5523299998045],[127.00892020032511,37.559902100513],[127.0220614009181,37.564471198989],[127.021258900324,37.5678574997902],[127.0133943004528,37.5666231006013],[127.01001220034101,37.5734980001903],[126.995842198897,37.572014700725],[126.9850565004849,37.5806070003877],[126.9796431997781,37.5763744006234],[126.9809986996107,37.5703950004978],[126.9747235011502,37.5721410001008],[126.97438970044,37.5790396996847],[126.9698553995496,37.576105399722906]]]}},{"type":"Feature","properties":{"interval":30,"stationId":"5930698986","profile":"peak"},"geometry":{"type":"Polygon","coordinates":[[[126.9155483995212,37.6204601002455],[126.91874169910359,37.6151028994842],[126.9249858993305,37.6150567997745],[126.9241151994624,37.609152100423806],[126.9296900987985,37.6046974003167],[126.926487099564,37.600520599906105],[126.9346804995165,37.5953061996205],[126.9380167999475,37.5838363003998],[126.94949759830381,37.5801133003311],[126.9554348979179,37.56741799979],[126.9507395001543,37.5602816006321],[126.9448034001249,37.5638893003132],[126.91991179939029,37.5601181007849],[126.9189439992627,37.5531706002838],[126.9316071992087,37.5527278001702],[126.92745499988729,37.547628600090306],[126.9396903983182,37.5408248996144],[126.9272888000079,37.523773601406596],[126.9213957002719,37.5245393010403],[126.924297897605,37.5180072990924],[126.9297038001113,37.528633598213],[126.9361640999509,37.523363199353795],[126.9433087014992,37.534791498968296],[126.9543078002059,37.5394627991011],[126.9640429989554,37.5313218987394],[126.9619103998147,37.522383800178],[126.9659947987346,37.524311998495705],[126.9737650998883,37.5180779997802],[126.9796467995013,37.520756499767096],[126.9679798012762,37.5271948998531],[126.98110680078581,37.5323621999161],[126.9742997002009,37.536743901048595],[126.9738175002496,37.5457287994564],[126.9836593000889,37.545583599731],[126.985626500995,37.5537054990833],[126.9917134968075,37.5560080959839],[126.9996731970121,37.544271800134],[126.98562650038619,37.5417320005222],[126.9934863988306,37.5280898998628],[127.00878689984201,37.531806199272395],[127.007454000716,37.537698997541604],[127.0201214942982,37.537420798766],[127.0196209999826,37.5228816006684],[127.0070242991286,37.5148277014726],[127.00110819878931,37.5033956996605],[127.0072666990179,37.5010048991401],[127.0101800997478,37.5076835985619],[127.0166164001243,37.5089808995466],[127.0267333003609,37.501720899244305],[127.0333710007243,37.525570198739494],[127.0391551996206,37.521546499909],[127.04719360030779,37.5263676994114],[127.0428565055,37.531398004729105],[127.0452592030973,37.536984499142605],[127.0741684999364,37.5386257991976],[127.0717120006319,37.5442593001802],[127.0621345004139,37.5433949007322],[127.0504316023376,37.5536902991443],[127.0530562003579,37.5603631992351],[127.0660522988911,37.5567384986676],[127.07173319925529,37.5604109997708],[127.0684657003391,37.5657943005189],[127.0457710000651,37.5726329000989],[127.0510656002296,37.580160899538704],[127.0475038000229,37.578201401150395],[127.0469984003121,37.5853546001633],[127.0404023999891,37.584339700216404],[127.0359752004681,37.5951909001452],[127.0313087000813,37.590547800320806],[127.0221762018532,37.590864399720104],[127.0249707020425,37.6000538985661],[127.0330696999094,37.6028392995724],[127.0320398009306,37.617586599554905],[127.0266046998176,37.6172672007666],[127.0285367978758,37.6111115992205],[127.01917689799771,37.605359300728004],[127.0091162999986,37.6056918006128],[127.00804529808761,37.5937792016454],[126.999588100567,37.596454799791495],[126.9909522991251,37.5875129009216],[126.98245150179599,37.589779300055994],[126.9795457996229,37.583859599859196],[126.9732932003652,37.5836735001154],[126.96935049952751,37.5878905018643],[126.9595816003259,37.5803758015988],[126.9468523006884,37.5948010001501],[126.9392513016591,37.5964834009501],[126.9357496001031,37.6125185995084],[126.92677600109971,37.615142800239404],[126.9255366002475,37.6219046001091],[126.9155483995212,37.6204601002455]]]}},{"type":"Feature","properties":{"interval":60,"stationId":"5930698986","profile":"peak"},"geometry":{"type":"Polygon","coordinates":[[[126.78907979920399,37.4849836996367],[126.79619869999891,37.4785191993042],[126.79765880156309,37.4830437990802],[126.8070367002707,37.4846793988336],[126.81777959805639,37.4818025978945],[126.8204615996041,37.490930898221805],[126.8266996991551,37.4889409995139],[126.8302749994326,37.4935727993086],[126.83637590065649,37.4819054018372],[126.8444975000931,37.482902597589806],[126.8487003995024,37.4734093997914],[126.8593112990624,37.4729788989578],[126.86654919917909,37.4666724002144],[126.9099781999346,37.4802876972665],[126.9169345993878,37.4745918996741],[126.9209800993886,37.477419599844396],[126.9265699979128,37.4721506017848],[126.9241025998721,37.4652891007628],[126.9313230987817,37.4602119005532],[126.94600539996661,37.468423198438096],[126.9490608996808,37.460608399544995],[126.9537161999259,37.4703373968341],[126.9578834957586,37.4685551986163],[126.95689369771229,37.461992302319295],[126.9684725001612,37.4660854962426],[126.97436260043851,37.4622457964732],[126.9806033997507,37.4710080979516],[126.9884666994664,37.4660825001595],[126.9922611956211,37.4535594021874],[126.9861209954412,37.4448022044625],[126.9910699944234,37.4427248977064],[126.9775243000004,37.4234790009789],[126.9845770975479,37.4229187973119],[126.9860691969838,37.4179195994293],[126.9987562998567,37.4230539995498],[126.9993410978248,37.4196354980665],[127.0023616020531,37.4267750961354],[127.0175520995019,37.426628199594504],[127.01918900369729,37.441673095885506],[127.0121255031049,37.449066798499395],[127.0217722008241,37.4618085980866],[127.032050297184,37.4558045971272],[127.0469598961949,37.4549525981866],[127.0407989974649,37.4382830070526],[127.0435457997147,37.4359033003179],[127.0699220000119,37.4341684996747],[127.0718062004965,37.44301869936751],[127.0666571054002,37.4464463004604],[127.0676926035705,37.4543955999553],[127.0608600031131,37.4610822006421],[127.0596329001793,37.472205397205],[127.0706953986091,37.4721507018952],[127.0725028023107,37.4783282977552],[127.1068384995663,37.4736629996195],[127.1127210987293,37.484146897980295],[127.1199958973128,37.4758475985713],[127.1168602996593,37.4661116020432],[127.127031498002,37.4635682000864],[127.1203112992871,37.4391640988814],[127.1267495994444,37.427439700000704],[127.13369339980869,37.428196199294504],[127.1366965001841,37.449446899589795],[127.12599990081749,37.4580030999597],[127.1330217005207,37.467423797941],[127.1383440993053,37.455616399994994],[127.1412048034204,37.460779794971195],[127.1554478996138,37.4542742996594],[127.1541397977437,37.443704102203895],[127.1608192996839,37.4443410984596],[127.1640769000021,37.4527823996563],[127.15657590067441,37.4531734017706],[127.1419558003739,37.469491800389],[127.12493020018549,37.4701223004118],[127.1256739004506,37.4735260997298],[127.1360449000114,37.4730068994439],[127.1366057003998,37.4831676993263],[127.1599527002013,37.487706099775096],[127.15995790064119,37.5011357005953],[127.1484228988779,37.5019430020488],[127.14420730204981,37.5077522000977],[127.1477400008046,37.5144610986443],[127.1546334000124,37.514969899813494],[127.1536101015229,37.5301216971848],[127.1602526961374,37.529942098948396],[127.1544373026868,37.5323049022055],[127.15676160198339,37.546079394090505],[127.1628640992998,37.5509622981504],[127.16911799998479,37.549256899614804],[127.1766339987316,37.5570014991919],[127.1707474014026,37.563373500223996],[127.1567723022262,37.56539380099],[127.1399924016646,37.5560290052629],[127.1396582019988,37.562111899179996],[127.133748700433,37.5647580003227],[127.1259341948053,37.5589419073938],[127.11510870397959,37.5613228044222],[127.1155311035572,37.5647197010253],[127.1101633985762,37.560822300076296],[127.0966863057847,37.564156501191704],[127.1020837052608,37.5772690958468],[127.1077941995503,37.576745296370596],[127.1052806029577,37.593775299355094],[127.1137885001019,37.6041634975823],[127.1050075004084,37.6168943988701],[127.1082920006968,37.625703599801],[127.1040589042909,37.633687194413],[127.1127793002036,37.6343153986346],[127.11144090142281,37.6407660992359],[127.1193392970437,37.6422381988234],[127.11099999991191,37.6265420011909],[127.11326129730311,37.62357139880881],[127.1273918948693,37.628195896636804],[127.12267440192299,37.633938298764996],[127.12807689907869,37.636476599222604],[127.1287433000461,37.645993399919],[127.1400385988283,37.639364798910805],[127.1432454991006,37.643651697737],[127.148137396814,37.6410202994505],[127.15350880081739,37.6503521989038],[127.146604704685,37.6589211988384],[127.1382461017081,37.6574295022319],[127.1322628995386,37.6493950041453],[127.1284483013307,37.654919801040805],[127.121397300769,37.647526201637405],[127.1133849998691,37.6494138007606],[127.1127726007557,37.641731401101],[127.1057415995195,37.6436432003788],[127.103911795368,37.63769080302],[127.0901133009782,37.629182212028105],[127.0831913053723,37.6366279043234],[127.0849363006157,37.6406428001521],[127.07645000561959,37.6444480010963],[127.0941919016595,37.6602283992304],[127.0884260069425,37.6713271979216],[127.0905210038803,37.680848500273505],[127.0680656008046,37.676646404524],[127.0455470020429,37.6976782010665],[127.0417465977,37.6908346032287],[127.0364363030103,37.6925146015487],[127.0331594995844,37.6782523005666],[127.04269089846339,37.6750263002844],[127.0298593991932,37.669845500235304],[127.0305153980445,37.6653940026012],[127.01799270562549,37.6660874020355],[127.0141516061514,37.6748352964362],[127.0009558018985,37.6715121038972],[126.99950249460251,37.658026303748706],[127.00793319207929,37.654995298365606],[127.00048019364729,37.6336273071627],[126.9842425052335,37.6267150064065],[126.98874589721319,37.609904802403804],[126.9855155998275,37.607332204456],[126.9897691963637,37.6039255019993],[126.98588440024851,37.5980129079119],[126.9603755018745,37.6061546008557],[126.9556603016689,37.6140924001581],[126.9480518052125,37.6101291032515],[126.9532016008756,37.6233907987233],[126.9391626051874,37.6346298002825],[126.9434797996296,37.6406223971889],[126.94086310314181,37.643240400299106],[126.9325818031476,37.6439507014142],[126.93110400426751,37.6481010985799],[126.9374689995083,37.647547499379],[126.936030800684,37.654987500431794],[126.9225070049674,37.6545623003652],[126.9206258008546,37.667085400005895],[126.9117912018521,37.6626949036679],[126.8859409001949,37.6707232010359],[126.8841095982912,37.6612429043696],[126.8713067982117,37.6600319029685],[126.8623141981792,37.6530670085422],[126.84971920454859,37.656100800152394],[126.84804170150039,37.6671172010368],[126.8293574992181,37.6628704006419],[126.8238560000933,37.6571329009104],[126.82870899745781,37.654616299917],[126.82917069924491,37.6434868012476],[126.8160284998185,37.6369173004443],[126.8275922987063,37.620645601344],[126.809383698802,37.6180799009369],[126.8151299966091,37.6138473984022],[126.8160672994252,37.60402530057161],[126.8266199999836,37.5997613995609],[126.83429389854591,37.607078297625996],[126.8460094971434,37.6019221004047],[126.8496385007403,37.608364995786],[126.8589414977086,37.6049388984213],[126.8599854956063,37.5920125018416],[126.877038198662,37.5899821004045],[126.87942619901669,37.5939886971046],[126.876822299132,37.5804730014687],[126.8894642987446,37.5664792007946],[126.8780566020088,37.5537564103467],[126.8595211088125,37.567348303588],[126.8642369026165,37.573749398970094],[126.8558023060148,37.567675706567],[126.8384187063841,37.5774975065542],[126.8335961990398,37.5742725019593],[126.8289614021511,37.5786130983033],[126.8118677018623,37.579955700944296],[126.80554959981701,37.5749774025824],[126.80001780209031,37.58135420101],[126.8042669989087,37.5688747997847],[126.7970553001239,37.562509900990804],[126.80971429714299,37.5539131004016],[126.8225277995476,37.5530760995412],[126.8293208992651,37.5282583998086],[126.8595860999497,37.5025972019277],[126.8438866998953,37.4997333008542],[126.8393797998946,37.4912754002865],[126.8258476991946,37.4994489025777],[126.8229236983616,37.493087802261996],[126.8182203005901,37.495826900042495],[126.8160390995111,37.4898486011187],[126.810314699873,37.4916109010331],[126.80227910012951,37.4826755005838],[126.79393400243119,37.4876297020735],[126.78907979920399,37.4849836996367]]]}}]}