{"type":"FeatureCollection","features":[{"type":"Feature","properties":{"interval":15,"stationId":"5933687294","profile":"peak"},"geometry":{"type":"Polygon","coordinates":[[[127.04235879940781,37.549359998632],[127.054879999595,37.538849999852395],[127.0608847994627,37.540768799831504],[127.0671302990299,37.5302902990923],[127.07358119841561,37.5361666989576],[127.0795441997719,37.5285416994927],[127.0942459998913,37.5330554993212],[127.10195379893301,37.518964399297204],[127.1079943006949,37.5190847973926],[127.0959047083552,37.5334047932379],[127.10061790067961,37.536917599598205],[127.0970298004237,37.542253400128],[127.0894902015314,37.5456460006795],[127.0775250997841,37.5403018012291],[127.0705944005488,37.546818400571496],[127.04235879940781,37.549359998632]]]}},{"type":"Feature","properties":{"interval":30,"stationId":"5933687294","profile":"peak"},"geometry":{"type":"Polygon","coordinates":[[[126.9723104989816,37.563165299690304],[126.9802852997433,37.5656926991778],[126.9931842001984,37.5584699993731],[127.0014911999412,37.5615414995656],[127.00748159964071,37.5529316002037],[127.0168765993686,37.5533133998825],[127.0185386994265,37.5467894990766],[127.03052560021841,37.5517783995327],[127.04115969898079,37.5392909998142],[127.0428564992157,37.5313979997789],[127.0323282997979,37.5296788004871],[127.033105600224,37.5204124008816],[127.0193959007594,37.51970790037],[127.00241369869451,37.502216401179304],[127.0166164001243,37.5089808995466],[127.0240332996707,37.4949957994639],[127.0303659997513,37.492933099792204],[127.04711969932869,37.4993146977881],[127.0593026974192,37.486299000539006],[127.0624578995384,37.486995799042305],[127.0560168005712,37.4942852995952],[127.0567000999014,37.5024597992109],[127.0660217989756,37.5005560993669],[127.0717563004636,37.505398995189196],[127.0962528986321,37.4973403973398],[127.1097625997086,37.501025198873904],[127.1119742997853,37.495733501202],[127.1052480001258,37.494468500455504],[127.12547839744171,37.4741699007883],[127.13066280024489,37.477606799646495],[127.1303742003062,37.4865845991956],[127.1250445006981,37.4908434003871],[127.1314701002092,37.5036214998522],[127.1249586013883,37.5041107005979],[127.1228600007048,37.498805700959196],[127.11720000096669,37.5021182016559],[127.1173300009189,37.5087635001598],[127.1217476002205,37.51354279841701],[127.1331592999384,37.510971399555004],[127.13897850056699,37.5189400975172],[127.14303189948549,37.5174648988946],[127.1344675022403,37.5215920010755],[127.1257442015247,37.5208742015095],[127.1254106993518,37.5174104004002],[127.1185591030554,37.5230237004528],[127.1181368007747,37.5264099985146],[127.1284574997263,37.5254639995976],[127.129593900434,37.5312265998761],[127.13602389972739,37.5333150993735],[127.1267114002128,37.5429187994321],[127.13295890043831,37.5499200995952],[127.1296580013515,37.5556114999589],[127.12366940021239,37.551476200549004],[127.1244866997841,37.5450327006721],[127.11688289924969,37.5391618006821],[127.11394109894181,37.5281784995973],[127.1075899009463,37.5298544999569],[127.10406910694671,37.5406262944823],[127.1092443010177,37.5472335990751],[127.0991599995452,37.5494200003578],[127.08913390091499,37.5585463002645],[127.09577269972159,37.579889199626294],[127.0889693005508,37.5950797994826],[127.0824500001833,37.5956881003685],[127.08201549955369,37.5769192007229],[127.07432399848881,37.561428402092794],[127.0601779004546,37.5640487002296],[127.0541750008256,37.5722359998777],[127.04499990064379,37.5707362004801],[127.0390942007645,37.5807978004499],[127.0192409996657,37.575903100420796],[127.01959150067451,37.587785199955],[127.0057066999953,37.5711670003896],[126.9879857997457,37.573406100164],[126.9888743998153,37.5682877008757],[126.9831779002797,37.5703416999316],[126.9723104989816,37.563165299690304]]]}},{"type":"Feature","properties":{"interval":60,"stationId":"5933687294","profile":"peak"},"geometry":{"type":"Polygon","coordinates":[[[126.8509299995367,37.5240525999036],[126.8817089996464,37.5213465989328],[126.87854709964381,37.5117192006905],[126.891995999379,37.508904799941305],[126.87558249949389,37.5003084024417],[126.8845289998175,37.505287498888904],[126.8857453997836,37.502405199786],[126.87573899879119,37.478133900600106],[126.88030399853629,37.4757019997683],[126.8998107991454,37.4857946995916],[126.9039285985625,37.479787199760395],[126.9157524989848,37.476475099828505],[126.922967697886,37.480083198233906],[126.9261473992984,37.4649406997859],[126.93167779628921,37.4633338977733],[126.94600539996661,37.468423198438096],[126.9493070996972,37.4617322990198],[126.9537161999259,37.4703373968341],[126.9578834957586,37.4685551986163],[126.9559748996504,37.4613047000871],[126.97436260043851,37.4622457964732],[126.9806033997507,37.4710080979516],[126.9884666994664,37.4660825001595],[126.9913226001676,37.4467341023807],[127.00218269653341,37.441126500316905],[127.0003112006052,37.434642101062096],[126.9950140996322,37.437971100546896],[126.9889301997768,37.434096100984895],[126.98484569948029,37.426186400540196],[126.9887939987377,37.4209298005632],[126.9872003020117,37.4269868984318],[126.9961642989816,37.423590299002],[127.0009738015757,37.433175597352],[127.0094270984561,37.4301873980126],[127.0144235986998,37.435739494299],[127.00957410596709,37.4389227993866],[127.0184702007188,37.441877499795595],[127.0129600027971,37.4441875005584],[127.0132970009726,37.455301700051],[127.0058475064104,37.4623663998264],[127.0081222041357,37.469623992568806],[127.01667359558431,37.4696352925575],[127.0276246997624,37.4522340998742],[127.0428341941796,37.4527490978072],[127.03779659921719,37.4493451012112],[127.0433234949404,37.4508386944969],[127.04457879368509,37.4402141051215],[127.0407989974649,37.4382830070526],[127.04725259771779,37.4322285973755],[127.0699220000119,37.4341684996747],[127.0723027017981,37.442386196871205],[127.0666571054002,37.4464463004604],[127.07081430044879,37.4554602988906],[127.06086000315811,37.4610822016931],[127.061624102394,37.4689519938233],[127.0865052017244,37.475355996908796],[127.0906961983725,37.4744877979345],[127.090420796136,37.4670207992167],[127.0958591982944,37.468518798831596],[127.10596459983849,37.455421800197406],[127.1078905003625,37.462021898029306],[127.11579469763069,37.462988797790196],[127.11975629818231,37.4362048013147],[127.11232149925479,37.4276913020086],[127.1165463968924,37.4274120949769],[127.1193261984183,37.4118205011059],[127.1064626984723,37.403966901428504],[127.10002490017389,37.4064381008014],[127.1013156988908,37.3999734005949],[127.0963222994789,37.3982312011757],[127.1004909992657,37.393484799986105],[127.1042811988208,37.3957435000492],[127.0984577001456,37.3881098007472],[127.1063706960768,37.3834350998162],[127.1049339989307,37.3655994997395],[127.0970924972279,37.3618021012042],[127.1042371989991,37.3637168980553],[127.10464219879461,37.3605171012166],[127.0981198968027,37.3498226048327],[127.0930122019104,37.3493268053285],[127.0972269958971,37.345613800723704],[127.09124389923339,37.3378177001253],[127.10067329886479,37.3301017002518],[127.08838510074119,37.327194301617205],[127.0870236998096,37.318949199897595],[127.0739454002313,37.3165178006336],[127.07484079938041,37.3101831003986],[127.08169399956,37.3086678998675],[127.0882180004924,37.3187966992578],[127.0983046997049,37.316953198822404],[127.11015759996859,37.3233591989613],[127.1070941003124,37.327681400598806],[127.1029135005009,37.3245146002914],[127.10284880075541,37.3309082994706],[127.11365290080471,37.3363669986826],[127.1098019012494,37.342512400591694],[127.1190134000537,37.34611789927661],[127.1212287002027,37.3547604000615],[127.1121420999035,37.3552929007388],[127.1177639007732,37.3654071005719],[127.12380589950209,37.367245699643],[127.1241150008682,37.3762561992445],[127.1367280006292,37.379880798931005],[127.143120003409,37.395179998087],[127.13570610179539,37.4010904984761],[127.1469844002685,37.406657099280594],[127.147018900003,37.414986698526],[127.1381632023943,37.4250912998737],[127.17402420011581,37.434652497757895],[127.17313040424851,37.4420757995709],[127.1786843003982,37.4449645994246],[127.1743843033045,37.4671800000294],[127.16571980259191,37.4671595018659],[127.1495365017413,37.483066698738604],[127.1668448009064,37.4856798990822],[127.16772310063351,37.4893644966711],[127.16111810464399,37.4964304988573],[127.1667177996168,37.5143142992421],[127.1616733041787,37.520333699629504],[127.1605774020413,37.5357329964104],[127.17180570042919,37.547427499197696],[127.1878442995474,37.5542157991999],[127.19815719754159,37.5518427993806],[127.2017788995413,37.5349346997524],[127.2165555001953,37.5408739995884],[127.2162087995916,37.537114700342094],[127.229867599141,37.5374786998438],[127.2239815008727,37.5444653013031],[127.2162884000059,37.5421588005804],[127.2150444990871,37.5503303976961],[127.1929674001352,37.573396100363496],[127.1694480010275,37.563786201366206],[127.15686890069681,37.569307700501206],[127.1511847002546,37.5621201029535],[127.1305230029776,37.570850902419004],[127.12928049737499,37.5626744070862],[127.10734450636049,37.573115896573796],[127.1172505998954,37.5751505977571],[127.11302070592511,37.587296801139395],[127.11614420378399,37.597599297860796],[127.12178230212221,37.6008481976732],[127.1336209996418,37.5935404999082],[127.1502144997481,37.5914329000688],[127.1564981000379,37.593506499914895],[127.1500507022525,37.6010036991627],[127.16747120013679,37.605082599371],[127.1720444001395,37.613985198700504],[127.1629669005648,37.6143559005124],[127.16364250176629,37.6190941002886],[127.1495244003416,37.611496600928405],[127.1379278019404,37.6164122989757],[127.1293186002016,37.6101071010107],[127.1269809977789,37.600983400880494],[127.1139402008782,37.607053300666195],[127.1070313007459,37.6171378996031],[127.1044011010148,37.6148672008973],[127.1082920006968,37.625703599801],[127.1022222016894,37.6189684012437],[127.1055036006944,37.6272447993025],[127.0901133009782,37.629182212028105],[127.0831913053723,37.6366279043234],[127.0865949019687,37.640764000187296],[127.07645000561959,37.6444480010963],[127.0818986003662,37.6509930991676],[127.0781700024296,37.653513800748996],[127.0853020013205,37.6751212000965],[127.07892770337949,37.677384299249],[127.0714572974438,37.6679067048642],[127.0659758013635,37.680621796145594],[127.0455470020429,37.6976782010665],[127.0417465977,37.6908346032287],[127.0364363030103,37.6925146015487],[127.04808779836121,37.671188500018],[127.04089960000411,37.667815600440896],[127.0426342000705,37.6591827013565],[127.0227857001164,37.653324400216],[127.0199882016019,37.6561824980973],[127.0244041985902,37.657210299396205],[127.0175699015782,37.6614723994428],[127.020846098302,37.6625205983946],[127.01319650479621,37.663031003056396],[127.00752180662981,37.6704251044102],[127.00299369328981,37.6252988039026],[126.99489300010741,37.620419406149104],[126.99101949733789,37.6124990059333],[126.99367579704361,37.603237500748],[126.9836760994819,37.5958468015348],[126.985408396871,37.5921530012789],[126.9665623013295,37.593105800905995],[126.9611550002016,37.5840366026036],[126.9497082008753,37.601911099900505],[126.9415321014701,37.6029920018579],[126.936214899987,37.6186903994737],[126.9388650026805,37.621794096904104],[126.92607720193459,37.631487197268804],[126.92793790194071,37.6399920988812],[126.9195778007401,37.6520692997971],[126.9092685994744,37.651978301887006],[126.91344409846931,37.6503204983442],[126.90893850096491,37.647879003175206],[126.9149082957584,37.6391517017291],[126.91135409686899,37.6341704997805],[126.918051297166,37.6324799983879],[126.9081281997602,37.613823600533806],[126.9128048997089,37.605057199980095],[126.9034394987412,37.5851564011867],[126.8917539021235,37.5857262005332],[126.8855965988469,37.57965670092],[126.89477049726311,37.5733598996338],[126.8917482996079,37.562996800758],[126.9023901988168,37.549694300595],[126.8896622004458,37.541233600588996],[126.8908374974314,37.532386601541106],[126.88146569866491,37.5243569027959],[126.86404140044341,37.5310100006012],[126.8509299995367,37.5240525999036]]]}}]}