{"type":"FeatureCollection","features":[{"type":"Feature","properties":{"interval":15,"stationId":"5991943866","profile":"peak"},"geometry":{"type":"Polygon","coordinates":[[[126.8619936967597,37.6478633003535],[126.8725564975433,37.6413350997547],[126.8879481996495,37.6519416978074],[126.8974189000629,37.6488563995823],[126.9022865008546,37.6534372989709],[126.8962405011252,37.6577851001341],[126.8853655024412,37.6515485007049],[126.8765213030343,37.6570035008639],[126.86272379987659,37.6526803001165],[126.8619936967597,37.6478633003535]]]}},{"type":"Feature","properties":{"interval":30,"stationId":"5991943866","profile":"peak"},"geometry":{"type":"Polygon","coordinates":[[[126.815989699727,37.6307523998019],[126.8188249995196,37.6333870983274],[126.8241908993801,37.624360199796996],[126.834454899781,37.6219425995293],[126.8414786995329,37.6254926990052],[126.8383783033406,37.631684400854596],[126.84800749875899,37.6446766967574],[126.8600340987873,37.6450724939214],[126.8593952994261,37.6378578011361],[126.87519109932269,37.6311964000804],[126.8749305005244,37.6355364983721],[126.8821494985978,37.6353979999529],[126.8875568998976,37.642621297155],[126.90300630326941,37.6421083905232],[126.9074388988368,37.6336247990068],[126.918051297166,37.6324799983879],[126.9080621001185,37.6158892003506],[126.9131854996888,37.6050896994124],[126.9064361996402,37.5825139004955],[126.91243110032791,37.58236199938381],[126.924240500246,37.6043165993898],[126.9384606987241,37.596144298404695],[126.9402834993356,37.5859360990549],[126.9525010009832,37.5823182992854],[126.93859140041181,37.5967009001914],[126.9367586034845,37.620131896542],[126.92302220071471,37.6273855007203],[126.9218845018524,37.6309552971505],[126.92918139883041,37.6297876989683],[126.9305788006488,37.6333626987723],[126.9282487008035,37.650725298993194],[126.91998200121361,37.6587581014478],[126.914837397372,37.6543257057942],[126.9083756015555,37.655006803855905],[126.9096355002956,37.658771100091606],[126.9083756008808,37.6550068038689],[126.9050448042588,37.6643456985262],[126.8891453991732,37.6676925009681],[126.8793449003426,37.659664905782705],[126.86642230231439,37.6627132996437],[126.86834999214341,37.6576700039392],[126.8623141981792,37.6530670085422],[126.85056760375821,37.658047599449404],[126.84804170150039,37.6671172010368],[126.8293574992181,37.6628704006419],[126.8238560000933,37.6571329009104],[126.82870899745781,37.654616299917],[126.82888909952649,37.6425186022158],[126.8182050011973,37.6393973008375],[126.815989699727,37.6307523998019]]]}},{"type":"Feature","properties":{"interval":60,"stationId":"5991943866","profile":"peak"},"geometry":{"type":"Polygon","coordinates":[[[126.7211862962942,37.6821427010036],[126.7273497961951,37.6687567990275],[126.7247789995434,37.6626719009264],[126.7413376981416,37.6614970998739],[126.741725199483,37.6555750022985],[126.7519751971181,37.659396294721],[126.7529676988411,37.644035100929],[126.7931318946173,37.6207676887795],[126.8032240990806,37.6223960994418],[126.8115995946542,37.6002448977958],[126.8274720948983,37.593520291500404],[126.8310088003069,37.594307797744],[126.82833480179109,37.600493699527],[126.83906559968119,37.6048205993203],[126.835974299918,37.5990962003379],[126.8534725989663,37.599942299786505],[126.8599854956063,37.5920125018416],[126.8558335997582,37.5922558015983],[126.8575086992237,37.5891625003485],[126.8753121990416,37.5898780981279],[126.88325999624001,37.5740700001561],[126.88176880128181,37.56506920262591],[126.8935938925124,37.555838193777596],[126.888630198907,37.547896500625],[126.897370393746,37.5531941933068],[126.8898309993406,37.5443678009506],[126.8908374974314,37.532386601541106],[126.8844953998921,37.5317644004838],[126.8827214984387,37.526637702121505],[126.8649697005609,37.5325222000696],[126.8533312998228,37.527811100798004],[126.846124600232,37.5355800004367],[126.840925899978,37.5320566004123],[126.8544558001905,37.517602499855805],[126.8676185995804,37.524442798143504],[126.8701422999758,37.5187417003904],[126.8789135988076,37.518654899130205],[126.8751694977728,37.499973402181304],[126.88448409972399,37.497860499705205],[126.88738739963159,37.4924642999437],[126.8987535002027,37.4924803997964],[126.89977690027531,37.5065425996108],[126.9119974996652,37.5068833991827],[126.9213817006334,37.5146282996123],[126.9306173992138,37.513178499653705],[126.92913060213249,37.516966198034396],[126.9388149000074,37.5214078996186],[126.9448079039357,37.5337597983793],[126.9624935999414,37.5297387987452],[126.96187899935009,37.5228858003858],[126.9708582998509,37.5173805003677],[126.9781458000321,37.5197231988232],[126.9794476004221,37.524444600198],[126.97302450124519,37.5216151004475],[126.9679798012762,37.5271948998531],[126.97891520048731,37.5340094989128],[126.98337029942961,37.5321558989265],[126.9729330012391,37.539570898540504],[126.9738175002496,37.5457287994564],[126.9840291998525,37.5435477984036],[126.9934863988306,37.5280898998628],[127.0023863973126,37.5320903953955],[127.0030085996686,37.527271399844096],[127.0056423998714,37.5332869989319],[127.0032394004384,37.526198700616604],[127.0084094999217,37.5300862994192],[127.00617260086,37.5423250992107],[127.0103219979769,37.5368106028684],[127.0201214942982,37.537420798766],[127.0213773997346,37.5263299011532],[126.99471610046601,37.5043152003354],[126.996616899889,37.5000123999568],[126.9994486995538,37.5052414983047],[127.0076826001318,37.5002784992948],[127.0077470007936,37.5040112994728],[127.0162636992057,37.50268169924129],[127.0130541010073,37.5085293998335],[127.0166164001243,37.5089808995466],[127.02847920064431,37.4944510984897],[127.0275573004712,37.5114439996986],[127.0336343989964,37.5099575000368],[127.03656820061731,37.5158556992941],[127.0439564013377,37.516944800245696],[127.0307288003779,37.517175300503595],[127.0305128009978,37.520386599523405],[127.03429810022661,37.5253818990267],[127.0443118000052,37.5261638993791],[127.020321908255,37.5376219039081],[127.0240940044829,37.5434421980878],[127.03760080047331,37.5533603985237],[127.0419446967194,37.5512665988129],[127.04046699907471,37.541736899444],[127.0722841018844,37.5391300994957],[127.0694089002312,37.5444900005019],[127.0634898001718,37.5426122002575],[127.0503154024538,37.551196601638],[127.0530562003579,37.5603631992351],[127.0660522988911,37.5567384986676],[127.07173319925529,37.5604109997708],[127.06956130050341,37.563367999795595],[127.0600174001605,37.5629720010767],[127.054196800109,37.5726712999951],[127.0457665000858,37.5703856009116],[127.0681205002994,37.59382479929],[127.06645850011759,37.605483800483604],[127.06203579889821,37.6008558991511],[127.0644658995911,37.5964673006387],[127.04885610033439,37.5870817003587],[127.0396586001302,37.586994700106096],[127.0339854991406,37.5940492007367],[127.0235744004784,37.5893074001152],[127.02519480211859,37.6008205984898],[127.0307078001083,37.599297999768794],[127.0354686002628,37.6105918991869],[127.0280619998153,37.6191050004473],[127.01946079925561,37.606038402542005],[127.0059077018569,37.6152935001129],[127.00804529808761,37.5937792016454],[126.99645000070889,37.5967600006347],[126.9937146002115,37.5911520008436],[126.96985740387889,37.5909129021537],[126.9565577033606,37.596825001153604],[126.9626013990958,37.5977302992759],[126.9615588021776,37.6158111969333],[126.9504491024864,37.6173362999025],[126.9543886007667,37.625706300085895],[126.9443500094388,37.634912296521506],[126.953473201128,37.6422033994384],[126.9477610062879,37.6518040982891],[126.951134800047,37.6606685980349],[126.941581805683,37.6604363039961],[126.9386511086137,37.6697342946981],[126.934609299222,37.6658623060798],[126.9230794015322,37.6796193011443],[126.91521100004469,37.6774090009355],[126.9152083010183,37.6807289991344],[126.8911584989345,37.6862024056893],[126.8724028000216,37.6766942094636],[126.85335690165479,37.687675599504196],[126.8457640989715,37.677043009601],[126.83439800342369,37.681794806153896],[126.8285864991699,37.679548400304604],[126.8318767952512,37.6726526037232],[126.82417430250159,37.669576006464396],[126.8187613016578,37.6769392995575],[126.8036338046572,37.681579901650004],[126.80141500175421,37.6887868001618],[126.7737948014125,37.7030520008687],[126.7730291013933,37.712593398520205],[126.77882600175579,37.718594597288806],[126.7857749992742,37.7172520008785],[126.7881905012507,37.7288861996919],[126.7735767007489,37.745032397874496],[126.7827507964183,37.7450981978465],[126.7819688010308,37.751138296973004],[126.7850978979017,37.7477522003591],[126.7829151028661,37.76817349890101],[126.78705529897,37.7699874978843],[126.7882393981468,37.7654554008111],[126.7893634005226,37.7737925997026],[126.7841323032924,37.7706328041166],[126.7787501060742,37.7775323052211],[126.7603251009108,37.7709864006145],[126.7638442951503,37.7620901013764],[126.7601048986625,37.759219901151695],[126.7652378963175,37.7577488989222],[126.76518150055449,37.7452956051807],[126.7612518992792,37.745410001540996],[126.7644762969603,37.7453144980145],[126.7643904979018,37.7330332007278],[126.7422776005361,37.7197581013165],[126.74002419775539,37.7130156009639],[126.7474047997722,37.7004448000849],[126.7439518996944,37.6955799002517],[126.72406140022319,37.6909199011265],[126.7211862962942,37.6821427010036]]]}}]}