{"type":"FeatureCollection","features":[{"type":"Feature","properties":{"interval":15,"stationId":"5991943795","profile":"peak"},"geometry":{"type":"Polygon","coordinates":[[[126.8207046980113,37.6344341004809],[126.8334279985754,37.6253255992501],[126.838835700157,37.628239899676096],[126.8408992992243,37.6392051983912],[126.8332630002092,37.6445565009759],[126.8207046980113,37.6344341004809]]]}},{"type":"Feature","properties":{"interval":30,"stationId":"5991943795","profile":"peak"},"geometry":{"type":"Polygon","coordinates":[[[126.7401600987299,37.6786393007788],[126.7452140984073,37.6711829968383],[126.7648362988745,37.664960999989596],[126.76512409919559,37.6512101017906],[126.77704169740869,37.643676997301995],[126.7793609977407,37.6342340996392],[126.79782739942401,37.6348507956174],[126.80105519619619,37.629742300725894],[126.8064391982842,37.640846097904195],[126.816807399277,37.624531098634],[126.8126686020584,37.619569203929004],[126.81705679807321,37.6128972009502],[126.8185485992424,37.6159185964211],[126.8199773995911,37.605603799919194],[126.83005839945059,37.6090995979053],[126.82447450327989,37.6108660019965],[126.8359632010272,37.6188256988041],[126.8462038997595,37.6076550993518],[126.8506856986569,37.61354559785],[126.8430909005054,37.6162538005308],[126.8493129007843,37.6238790988678],[126.84354780416889,37.637373697920594],[126.8515675985518,37.6395704978196],[126.8533933995952,37.6449223971769],[126.8600340987873,37.6450724939214],[126.87244049982489,37.6356599998428],[126.89030540045971,37.6442235974521],[126.9115921990745,37.6436085972722],[126.9149082957584,37.6391517017291],[126.9082230992158,37.6339509996738],[126.918051297166,37.6324799983879],[126.9118942996056,37.6086153995981],[126.9305756991144,37.6047819999154],[126.93251219731191,37.598075000366805],[126.9385913996756,37.596700899679],[126.9343885010569,37.6211077006454],[126.9202824006976,37.6283150987106],[126.92910290009931,37.632187099974104],[126.92464240205089,37.643826800371],[126.927255500681,37.6501429987295],[126.9083756015555,37.655006803855905],[126.90466770247521,37.6628003983848],[126.8920984004493,37.666195900224196],[126.8884776983354,37.6581813007389],[126.8713067982117,37.6600319029685],[126.85304000157869,37.647980006594594],[126.84776940684931,37.6534912010834],[126.85048380108371,37.6641665988901],[126.8552483992288,37.6645512931783],[126.85189620044859,37.664002500349504],[126.85071550211521,37.6710018987037],[126.85001519952691,37.6651388030152],[126.8244896008036,37.663103302939305],[126.8270013979362,37.650428301101805],[126.8120256037494,37.6439158029877],[126.80101680107249,37.6572930000318],[126.8035051009522,37.6667936986819],[126.7950666000281,37.6657407007993],[126.79429790083721,37.677385600118],[126.777021501174,37.6788150007413],[126.7749934004995,37.687950400325896],[126.7625716989779,37.6848884010885],[126.7754268991221,37.6801574996804],[126.7743526996525,37.667213000065],[126.7682930009547,37.6692952002157],[126.7666220005639,37.6764145997386],[126.7540339014311,37.6761565002002],[126.7510154007286,37.6819326997],[126.7401600987299,37.6786393007788]]]}},{"type":"Feature","properties":{"interval":60,"stationId":"5991943795","profile":"peak"},"geometry":{"type":"Polygon","coordinates":[[[126.71605049982139,37.683791401590796],[126.7228784971196,37.6785365016765],[126.7219622994534,37.6582694997086],[126.7382535988771,37.6622516001011],[126.7472004974624,37.645994002996105],[126.7931318946173,37.6207676887795],[126.8032240990806,37.6223960994418],[126.8115995946542,37.6002448977958],[126.8274720948983,37.593520291500404],[126.8310088003069,37.594307797744],[126.82833480179109,37.600493699527],[126.83906559968119,37.6048205993203],[126.835974299918,37.5990962003379],[126.8485489000157,37.597385698548294],[126.8529078004209,37.5855985023272],[126.8694707988412,37.5877063977144],[126.8749131968187,37.5804710005735],[126.8714136000839,37.5794865004892],[126.880905299516,37.5798834999472],[126.8894642987446,37.5664792007946],[126.8850427988111,37.5613695919184],[126.90193619927079,37.5504200998692],[126.8992705019365,37.544340105949196],[126.8896622004458,37.541233600588996],[126.8908374974314,37.532386601541106],[126.88146569866491,37.5243569027959],[126.85143000122899,37.5401200999719],[126.8557769988096,37.5500303987646],[126.8640333996801,37.5419040993278],[126.88464499883351,37.5389423004707],[126.88240930155631,37.5454213014578],[126.8861292977481,37.546200497523195],[126.8595211088125,37.567348303588],[126.8348612077972,37.5787932067942],[126.8168942009732,37.580768501483796],[126.8144506027807,37.583393799390905],[126.81806789916341,37.584668898115794],[126.8096464003864,37.5867430026141],[126.8063337005939,37.593443899670994],[126.79489289932299,37.5869201017893],[126.78819420155011,37.589722397974796],[126.7887793993929,37.579745603523506],[126.78454190103949,37.584805800297296],[126.78103519719751,37.572320804131],[126.7904878988427,37.566374692500794],[126.7993937003088,37.5758302957253],[126.8043332988424,37.5680287006308],[126.7984198005241,37.563155202025094],[126.8139417975667,37.5471032001008],[126.80718159838241,37.538683202811605],[126.79736170019089,37.5379965026401],[126.7994939974746,37.532399502766694],[126.7905810017418,37.5370751009098],[126.7834888996337,37.530780300217],[126.7808395994617,37.5252241006009],[126.7846863988339,37.5166837001587],[126.7802888000001,37.511588101046996],[126.7670566014043,37.5078808010894],[126.7556304012418,37.512077399838006],[126.7460860020853,37.5078064999136],[126.75046769939,37.5008987008944],[126.75986529994451,37.4997290993701],[126.75910979973061,37.4935797013627],[126.7410706988259,37.494822200720705],[126.73398690061191,37.488265401763904],[126.7212391998636,37.5004567009927],[126.7179408009922,37.4922872009587],[126.7415643990449,37.4817653979176],[126.7478633001463,37.484600098806204],[126.74410420205409,37.4907021996406],[126.74793479859879,37.4897961003914],[126.7624944972913,37.475740200880395],[126.7716877993483,37.4793793991831],[126.7851695989813,37.4736923987183],[126.7907420975813,37.4644829998141],[126.7858163991414,37.4471454999235],[126.77700150032669,37.442747100144196],[126.77701179897569,37.435759000526396],[126.7828426969661,37.4315887017144],[126.7930027995737,37.433119999610405],[126.79569640004999,37.4435535987294],[126.8024535999572,37.4448408984968],[126.80408970248321,37.4564187969084],[126.7970591023695,37.452914901451706],[126.79095800101861,37.4619670951701],[126.7967263987688,37.4682696947606],[126.8031046007667,37.4586936995715],[126.8067014002741,37.4626567993906],[126.80088590130279,37.4625360006768],[126.8012095032287,37.4672205984285],[126.808318500002,37.4696198998774],[126.8112400008107,37.481822698813005],[126.8315563010526,37.487700896849],[126.85209969972,37.4723081982736],[126.8593698003909,37.477533197420705],[126.8668697996147,37.4711529996264],[126.8728317000229,37.4731745997759],[126.86990210108071,37.4744428007912],[126.8739542005198,37.478629200044104],[126.8617100001663,37.4799566002171],[126.8576225012591,37.4861926014278],[126.84882190164541,37.4829929013669],[126.84369000204339,37.489110699536496],[126.8469345012583,37.495354299280905],[126.8109475010932,37.492005799621],[126.819732098491,37.5071971968245],[126.8282092997059,37.5063498984135],[126.8212983029093,37.5072747009248],[126.81854080357289,37.5130142994881],[126.8264273019314,37.5270112994816],[126.8214037004103,37.5348982000467],[126.8071816052651,37.5386832021212],[126.8117315007152,37.5445131962912],[126.8282531992224,37.5449612996294],[126.8241466998524,37.5392725010983],[126.8509905979208,37.5142695989582],[126.8579695995604,37.513730200095395],[126.8613640003791,37.520346697841],[126.8836082985468,37.5207221995511],[126.87854709964381,37.5117192006905],[126.891995999379,37.508904799941305],[126.87558249949389,37.5003084024417],[126.8845289998175,37.505287498888904],[126.88911139897671,37.5006996012312],[126.8868630998655,37.4945262010114],[126.89643339989941,37.491360199472105],[126.8988811008652,37.500027499661705],[126.89473500114019,37.5079054992172],[126.9029768006781,37.51417689963],[126.9099665996959,37.508167199865305],[126.919526500385,37.5169701991217],[126.9279656997226,37.5139788994511],[126.9448079039357,37.5337597983793],[126.9579426966546,37.5318428967011],[126.9612508995169,37.522169399705106],[126.9710171999673,37.5165863999598],[126.97707539941851,37.5188985991928],[126.9781305013138,37.5236320003786],[126.97503810128211,37.520940301083996],[126.9679798012762,37.5271948998531],[126.9818925994374,37.5322782986074],[126.9742997002009,37.536743901048595],[126.9738175002496,37.5457287994564],[126.9804300003766,37.5462699979821],[126.9857408994027,37.5557382996146],[127.0018499952113,37.5480673000837],[126.9997052995851,37.5380873011332],[126.985626500556,37.5417320003283],[126.990873199433,37.530215299382604],[127.0058960989918,37.535316099232205],[127.0073544998161,37.544445097624894],[127.0103219979769,37.5368106028684],[127.0228724984799,37.533976696129095],[127.0224706996086,37.5243139013901],[127.00702430113759,37.5148277021386],[127.00285239956129,37.502385399831],[127.00870970014729,37.504497999321295],[127.0026535014153,37.506453200982705],[127.00536460020429,37.5105631993147],[127.0247699002211,37.5098532995296],[127.0369197998238,37.5287342995245],[127.020321908255,37.5376219039081],[127.03760080047331,37.5533603985237],[127.0419446967194,37.5512665988129],[127.0424373993672,37.5418294001805],[127.0596468989673,37.5423646000327],[127.0440025001991,37.5580321001548],[127.0576584000449,37.562889499578596],[127.0572471011874,37.5666872992638],[127.03933740052389,37.570536700310996],[127.05160340068561,37.580055099152304],[127.0454834015267,37.5780398009847],[127.0516877000633,37.5856265998151],[127.0404023996427,37.584339700457],[127.03845710048421,37.592331199838],[127.03513530012759,37.592422600907],[127.037232799241,37.586659600468295],[127.02217620137141,37.5908643988043],[127.021941200803,37.5976448001214],[127.0318383004242,37.603241599522896],[127.0323233004298,37.6159684003029],[127.02691419962619,37.6156026005047],[127.0289731996035,37.609514299585],[127.0193265997368,37.602753300041506],[127.0104128001499,37.6063255007769],[127.00804529808761,37.5937792016454],[126.9980453005735,37.5950829005429],[126.9913109004092,37.5882438010198],[126.9854084022962,37.592153000490704],[126.9603120003607,37.5915372013559],[126.9558751033638,37.595897796864804],[126.9622020000947,37.6080185994432],[126.9504491024864,37.6173362999025],[126.9531400012486,37.6257171999891],[126.9443500094388,37.634912296521506],[126.9509922027966,37.6394376919961],[126.94430420270791,37.652746202795704],[126.9487372992955,37.6584283989331],[126.9334464064015,37.659341403965705],[126.93460930523861,37.665862297444804],[126.9213269043636,37.6694954059392],[126.9218499038406,37.6754009000337],[126.90667150274331,37.6766562026995],[126.89159049956801,37.6858169003855],[126.8724028000216,37.6766942094636],[126.85410300159279,37.6923087974158],[126.8457640989715,37.677043009601],[126.83439800342369,37.681794806153896],[126.8210129025522,37.6805330020918],[126.8100286027635,37.6864805998406],[126.8120251022134,37.6900891969761],[126.7855549026189,37.699258101240105],[126.78551090050891,37.7072467990707],[126.77909000051339,37.7066645009074],[126.7772389008414,37.7002009026028],[126.7737948014125,37.7030520008687],[126.7750030013198,37.7148833972172],[126.7921745003136,37.7134752996214],[126.7927608017579,37.736462098047994],[126.7838304033406,37.7410900993629],[126.7906698965011,37.746100994352005],[126.7903057007433,37.7519605988813],[126.7828044014185,37.763157500548196],[126.78705529897,37.7699874978843],[126.7878197989097,37.7617339018295],[126.7941415006783,37.7652985982966],[126.7946855012507,37.7687995997212],[126.7891482040821,37.7671725020836],[126.7941530990772,37.771093798162305],[126.78988600406079,37.7734952009336],[126.7921683983947,37.7768775986291],[126.77576770433281,37.7794453056418],[126.7530592977036,37.769693802949],[126.7619068968605,37.760554399817195],[126.7549822981772,37.755364301399496],[126.7649932957558,37.754120100644904],[126.76518150055449,37.7452956051807],[126.7515899997173,37.7433600010268],[126.75830619653851,37.7415960976937],[126.7563667989252,37.7331334991983],[126.7341980996293,37.718331002669096],[126.7394935994996,37.6991336000305],[126.7311548013182,37.6923597009811],[126.72980550074419,37.6958252998146],[126.7193152987808,37.6918860029654],[126.71605049982139,37.683791401590796]]]}}]}