{"type":"FeatureCollection","features":[{"type":"Feature","properties":{"interval":15,"stationId":"6033314482","profile":"peak"},"geometry":{"type":"Polygon","coordinates":[[[126.9064305991878,37.4867297013703],[126.930819298792,37.474335700923696],[126.9314336977145,37.4654033008463],[126.9477000987714,37.467032699225996],[126.94146050066381,37.4736689998865],[126.94625030069601,37.4776781993767],[126.9699614000631,37.4751606997021],[126.9552305006972,37.4870748002566],[126.93930880022471,37.4876474004161],[126.92837130068449,37.494474600287695],[126.924041000643,37.4992790995673],[126.9282514983885,37.4992903999636],[126.9209375006308,37.4999035016806],[126.9220781005554,37.5080179010371],[126.91558949937419,37.498425000755496],[126.9165201980515,37.4918440003443],[126.9064305991878,37.4867297013703]]]}},{"type":"Feature","properties":{"interval":30,"stationId":"6033314482","profile":"peak"},"geometry":{"type":"Polygon","coordinates":[[[126.8751694977728,37.499973402181304],[126.8788977987341,37.5009756979715],[126.8808403997024,37.4881989000714],[126.876320999418,37.478572199561704],[126.88171199914159,37.4760840000381],[126.88339639963209,37.4860631985084],[126.8875275993156,37.4803158982888],[126.8960608993512,37.4839406991662],[126.9042364998053,37.4747327991378],[126.911250899829,37.4748422991579],[126.9121303998044,37.4792756978929],[126.9126065994952,37.4731574991267],[126.9330299975603,37.4565477991624],[126.95004879996141,37.455071299443],[126.956866200417,37.461497699751604],[126.9541923027014,37.4635570984352],[126.9772968992246,37.465246799371805],[126.9806033997507,37.4710080979516],[126.99570889725949,37.4546053986619],[126.99499189974951,37.4477469004744],[127.00586589804381,37.4456242000947],[127.00816499945901,37.438201001119296],[127.00277339778029,37.433889700025304],[127.0074135985038,37.4326409976106],[127.012509902983,37.4436008963774],[127.0030952006398,37.450584099734],[127.0054505985067,37.4549567978828],[126.9885779016484,37.457269300819],[126.99337640061471,37.4722495989852],[127.00236629558191,37.471743699492094],[127.0110576004022,37.483182899162706],[127.0204326004667,37.4844135996285],[127.021808901199,37.4939839989546],[127.0297399989961,37.491260200142996],[127.0429259006881,37.502785600193604],[127.031106100163,37.5018456008843],[127.0229741000844,37.5075998011848],[127.0205069001534,37.499016400495805],[127.01130849943,37.5012701007384],[127.0059029998159,37.497487000489],[127.0101800997478,37.5076835985619],[127.0026757026889,37.509570100993095],[126.99103890138191,37.5023297018544],[126.97224060086981,37.506740908830494],[126.98450959881549,37.5008868002009],[126.97157339995209,37.490786300381906],[126.9731123981704,37.4879376002157],[126.9643796019097,37.490861301146296],[126.9645176974973,37.4859579018434],[126.96047130154369,37.487097900703404],[126.9623021005968,37.493693498538896],[126.95361950282211,37.4995806008793],[126.9570728009418,37.513712299640105],[126.9353520013257,37.5139606002099],[126.9408573997824,37.5194792983129],[126.9351690999155,37.5275138007898],[126.9300726999638,37.525031900407704],[126.9156022002902,37.532096501368],[126.9165248996045,37.5183918019024],[126.910752400478,37.520635900807605],[126.9051396002056,37.513479601650296],[126.91070409994781,37.5232027990835],[126.90593030189409,37.5239717004066],[126.9073356012234,37.533103400775104],[126.8983855003008,37.5393041011283],[126.8827901003325,37.524809201225],[126.8867495989079,37.5184294001652],[126.8751315007906,37.506768500202696],[126.8751694977728,37.499973402181304]]]}},{"type":"Feature","properties":{"interval":60,"stationId":"6033314482","profile":"peak"},"geometry":{"type":"Polygon","coordinates":[[[126.6894210991845,37.4579131005644],[126.69830679947779,37.4532290000244],[126.6985771987413,37.4321346006898],[126.7062110001196,37.4539552991469],[126.71686410036189,37.4625355984424],[126.71497340125171,37.4675843996951],[126.7222139017861,37.476955699142195],[126.7196117017151,37.4806764961976],[126.7351730991511,37.4850967983761],[126.7448403978709,37.481684298074796],[126.7449437012146,37.4896429006999],[126.7624944972913,37.475740200880395],[126.7907420975813,37.4644829998141],[126.7858163991414,37.4471454999235],[126.77700150032669,37.442747100144196],[126.77701179897569,37.435759000526396],[126.7931872998054,37.432439799688],[126.7957114005561,37.4413325004723],[126.8037015030002,37.4464487016675],[126.8072206013717,37.4660270003497],[126.8042301001564,37.460443602853495],[126.8012095032287,37.4672205984285],[126.817212399954,37.47405749793],[126.822669098958,37.471275697901],[126.8311376991998,37.4790031940578],[126.84071309888961,37.4627551005535],[126.86921049818959,37.456304195673695],[126.8793406978747,37.4412639006664],[126.8823293026545,37.444952997101495],[126.89477169783561,37.4424996990805],[126.8884521990543,37.437326102273],[126.8988130974718,37.4283050013932],[126.8948794999116,37.4114302052163],[126.9131282996465,37.394911200057805],[126.92345469775249,37.3925425987303],[126.92319809907619,37.38009200163],[126.9359679976534,37.3783305981884],[126.9178706001181,37.3467261015143],[126.9242695954109,37.340288399778196],[126.9376701016137,37.3557554974287],[126.94400609994369,37.3533892989898],[126.9453955009108,37.357487300383205],[126.9492709987904,37.3531037002728],[126.9415268997907,37.3440655997775],[126.9475795997591,37.342769999802805],[126.9560278990403,37.3506744993189],[126.9527988015698,37.364588697981],[126.9580930001391,37.3650919994287],[126.9584611998069,37.3751883990357],[126.9956492981182,37.3889304993766],[126.99059270174669,37.3960169026715],[126.99414299808889,37.402751796591296],[126.984386800758,37.404080803637605],[126.9863965987482,37.4111849965334],[126.99598039712599,37.4080186980536],[127.0243674005904,37.419724099201105],[127.0165118017939,37.4285273000164],[127.0233913023436,37.4335323937841],[127.0269283988065,37.428073399243104],[127.027788205623,37.4354973991177],[127.03542990039969,37.4411109980687],[127.04725259771779,37.4322285973755],[127.0699220000119,37.4341684996747],[127.0723027017981,37.442386196871205],[127.0666571054002,37.4464463004604],[127.07081430044879,37.4554602988906],[127.06086000315811,37.4610822016931],[127.0609518018377,37.472155197038504],[127.0748134974382,37.4760834959143],[127.08454369452289,37.4727825945993],[127.0921277006373,37.4773468984669],[127.1068384995663,37.4736629996195],[127.1127210987293,37.484146897980295],[127.11874399728681,37.4766816984144],[127.1168602996593,37.4661116020432],[127.1237902006719,37.466737797576194],[127.1255826992516,37.4600807012745],[127.1330217005207,37.467423797941],[127.1493471976286,37.4540059971162],[127.1547563003944,37.457091799886],[127.154824700348,37.460284398961996],[127.14830229979229,37.458371102601504],[127.1446804017791,37.4679900006831],[127.1362332995637,37.46613120075],[127.1257756003489,37.4743382989176],[127.1359770996855,37.4744767990113],[127.1328550005455,37.4758528002973],[127.13716360014449,37.4936358995265],[127.1487183010422,37.4924814990373],[127.1451500005855,37.497350000706795],[127.13926340046011,37.4958713005627],[127.13671990100231,37.513921800547095],[127.14223719900579,37.514130599126105],[127.1536101015229,37.5301216971848],[127.1487494002834,37.534496000360896],[127.1491999033624,37.5501896991077],[127.1594618988059,37.5550941982599],[127.1449019038579,37.5578681996733],[127.1408065995806,37.5516812008957],[127.1325162026355,37.5586037997313],[127.1248236011106,37.5571078018341],[127.11916409474131,37.5473863077548],[127.10784360029129,37.5518408009483],[127.1018004022743,37.5488333011649],[127.1033154007593,37.5516868983113],[127.0917041004057,37.5567054011433],[127.0893047014729,37.5633639984567],[127.09687250007241,37.579297699848],[127.09094400019029,37.5948196994847],[127.0964187998987,37.596276499686404],[127.096751500368,37.6013541002986],[127.0788369005157,37.6048908004938],[127.0742724004362,37.6006212006236],[127.0672657022693,37.6084221000294],[127.0612411003736,37.606779300338296],[127.0619372005342,37.6127368999359],[127.074901799863,37.6161036994073],[127.0747195008753,37.620203800069696],[127.0368153006701,37.6061605999476],[127.0308407010381,37.6262994002189],[127.0247156004001,37.6320039001083],[127.0120242983538,37.6204276007309],[127.0251771997269,37.6219114995096],[127.022674999347,37.6114925007739],[127.015810600598,37.6074471017737],[127.0084722003355,37.6173669998975],[127.00871199905261,37.6140185013879],[127.00294170005779,37.6143618004404],[127.0076547994148,37.6078428997042],[127.0065626994337,37.5964715018723],[126.9973200011393,37.5983399999732],[126.9910055004086,37.590545300917405],[126.9801394001662,37.5887751003533],[126.97827950069559,37.583410000396704],[126.9693505019615,37.587890500570204],[126.9595816003259,37.5803758015988],[126.93874200216841,37.5989808984526],[126.94207590091061,37.611485898579396],[126.9353337007908,37.6172728006569],[126.94023420131131,37.6225703961278],[126.9296522014239,37.6278934007918],[126.9234150999598,37.6257894001659],[126.9207142019502,37.6301845973157],[126.9258818007111,37.6386001977644],[126.9165098005193,37.64338040077],[126.9120500999793,37.6356010005624],[126.9218531984292,37.6272775010376],[126.91003689724229,37.6225357993818],[126.90916749966169,37.6100924010368],[126.9017051034411,37.6059713011812],[126.896412700233,37.5895893018735],[126.88013530012161,37.5887922007939],[126.87797609813539,37.5818783014131],[126.88436969991179,37.5668960003007],[126.87869400020189,37.5653110000419],[126.8746962030468,37.554989209591405],[126.86510920750251,37.5623362053583],[126.8702719005918,37.5699986995335],[126.8621569001077,37.5772281999929],[126.85905150182121,37.5778715001292],[126.8642368975802,37.5737494004933],[126.859521102296,37.5673483068944],[126.8348612077972,37.5787932067942],[126.8144506027807,37.583393799390905],[126.80001780209031,37.58135420101],[126.7975013001215,37.586112801031604],[126.7954923997577,37.575665202439204],[126.7901986994585,37.5765489007222],[126.7971767953704,37.5697638028177],[126.7993937003088,37.5758302957253],[126.8043332988424,37.5680287006308],[126.7984198005241,37.563155202025094],[126.81098919567499,37.5510347031301],[126.8187574996364,37.5499997987259],[126.82146759981771,37.5455293993886],[126.8172645991389,37.5384101004285],[126.82572099854261,37.530860298628],[126.823101100109,37.527568100585704],[126.828869898977,37.5235333996753],[126.82984589940459,37.5151016012502],[126.8354127989409,37.5133146985928],[126.83819369813031,37.5020909035455],[126.8212983029093,37.5072747009248],[126.8165880003883,37.5185670003968],[126.8089953014484,37.5156024012679],[126.8121109,37.522871199453],[126.8053065023171,37.5306551997031],[126.7969797990618,37.523442800561895],[126.8035343997299,37.516088301402],[126.7903804999785,37.509662004502],[126.7855020013879,37.5144854006591],[126.7726166009912,37.512159001033694],[126.76948919972959,37.507474601396105],[126.7647089004937,37.512051899933006],[126.7638783977563,37.508219101633195],[126.75224279992621,37.5121508002705],[126.74971269894141,37.5072011001616],[126.7352416001211,37.5107736007195],[126.7331703010856,37.5190553992899],[126.7222607009664,37.5252217989153],[126.7337052002117,37.5301315995675],[126.72929050175061,37.5351873996394],[126.74292939990079,37.5473205992599],[126.7277201007114,37.5480969008937],[126.71674229942151,37.5410172008463],[126.71388229984579,37.527891799791796],[126.7192026986061,37.5239854003857],[126.70961239860439,37.5175975012683],[126.715662796708,37.5168263997601],[126.71341079896001,37.5126833039032],[126.7066230014225,37.5122924008809],[126.7053466011142,37.516165199925204],[126.6986734993923,37.5143816028428],[126.6999078984798,37.508935702032204],[126.6930294014701,37.510061503481396],[126.7027716999086,37.5003972992643],[126.7088408975657,37.5054393984491],[126.7165329979226,37.4934796995173],[126.7098563011516,37.493895998103596],[126.7047063006201,37.4815719013991],[126.6915139998956,37.4765201009179],[126.6914783007494,37.464157700463],[126.6976568995652,37.458051300765],[126.6894210991845,37.4579131005644]]]}}]}