{"type":"FeatureCollection","features":[{"type":"Feature","properties":{"interval":15,"stationId":"6033314413","profile":"peak"},"geometry":{"type":"Polygon","coordinates":[[[126.8836225983864,37.5207736000851],[126.88891490003961,37.509846200877796],[126.89816959862381,37.5101379000066],[126.9059303020283,37.5239716999793],[126.9002438010891,37.5283786995874],[126.9056110999916,37.531203599029695],[126.90421000062571,37.5374276004185],[126.8976836999559,37.5370871009976],[126.8991901992272,37.5310860018689],[126.886441101069,37.526451599837],[126.8836225983864,37.5207736000851]]]}},{"type":"Feature","properties":{"interval":30,"stationId":"6033314413","profile":"peak"},"geometry":{"type":"Polygon","coordinates":[[[126.8344071994966,37.5689102997098],[126.8386028988154,37.5686843989628],[126.83899149960371,37.5633221987192],[126.845756698353,37.5648203996839],[126.8477297993435,37.556168800156],[126.86046429820091,37.5531536980614],[126.8645428991706,37.540935900296],[126.88244459939929,37.5339517002185],[126.8707011004514,37.5305139006244],[126.8618170999743,37.5333572003521],[126.8540751002779,37.528384500372304],[126.8455830010695,37.537230800346805],[126.8407204001331,37.5332057004353],[126.8459602991178,37.5275755994533],[126.845644098263,37.5180279006352],[126.8571025995771,37.5075125996807],[126.8716892993529,37.507550599276904],[126.86905819950219,37.4934347004242],[126.8596138009151,37.4930528011124],[126.85640240071139,37.5010087005953],[126.84974109939671,37.495005201375704],[126.8528217997391,37.489268599840706],[126.8719143003615,37.4910402979745],[126.8788977987341,37.5009756979715],[126.8803029990996,37.4882009994156],[126.87571979951309,37.4800978002892],[126.8844807976551,37.47384679905149],[126.8823847021379,37.4789707990456],[126.896309999942,37.4857899989306],[126.9324479989307,37.4762868996441],[126.93397759993651,37.4686045997196],[126.9417090998563,37.4787480982883],[126.96689450061079,37.474997299308896],[126.9571818001067,37.4852592011444],[126.9389897997171,37.4867967004835],[126.92837130068449,37.494474600287695],[126.9336831007668,37.502105199477505],[126.9266646008992,37.5028055018695],[126.9266165023349,37.5109960986446],[126.9349292990908,37.509282399094396],[126.9355876993286,37.5039908000703],[126.961004898606,37.5115603000732],[126.9596097990606,37.508540000558206],[126.9656522998474,37.5066259993528],[126.94735800225209,37.5166172999895],[126.9475760000259,37.5133928013248],[126.9348802004718,37.5131473008133],[126.9338229009952,37.5204112989708],[126.9402922993024,37.520865799674006],[126.9433087014992,37.534791498968296],[126.9530751998896,37.5397654996207],[126.9624802992104,37.5339793996696],[126.9676494009692,37.5390734003032],[126.9568702002392,37.5436619004049],[126.9563486013651,37.5501284987795],[126.982575299677,37.562488299788896],[126.98578280079039,37.567976098858104],[126.9515535994987,37.561552500124996],[126.91248560051099,37.567910300855004],[126.9060581022917,37.5743334989598],[126.9156263999911,37.5804933994727],[126.9168739003125,37.6016701003153],[126.90805019999,37.5932940005904],[126.90490679929,37.581740700804],[126.89233659907639,37.5771466005779],[126.8995566994684,37.569520700488],[126.8917482996079,37.562996800758],[126.8985190986819,37.5543098003596],[126.8916955994208,37.5460439004571],[126.8790312009415,37.5490401014357],[126.881089499455,37.5524252993592],[126.8746962053692,37.5549892091139],[126.8676559013536,37.553595499919],[126.8595211022663,37.5673482968238],[126.8481067000728,37.564798100214496],[126.8410659002528,37.5738128005458],[126.8344071994966,37.5689102997098]]]}},{"type":"Feature","properties":{"interval":60,"stationId":"6033314413","profile":"peak"},"geometry":{"type":"Polygon","coordinates":[[[126.62486419917231,37.4796223989652],[126.63230469933451,37.467914299144],[126.6408677993625,37.4635842994363],[126.65555819874591,37.466984699239],[126.680673598975,37.4526804999232],[126.68758939864469,37.454801598845705],[126.69476229862299,37.4242881995684],[126.6893950997262,37.4205653017633],[126.6903077984429,37.4131578006287],[126.68370320065749,37.414507300451895],[126.6876992975541,37.4091471992144],[126.6988800003368,37.4183399980912],[126.69364590150171,37.4217691001092],[126.70309629995,37.4240596996408],[126.70137740400399,37.435947899958705],[126.7109386005209,37.4523100993549],[126.72639789995729,37.454001399548304],[126.73140859890209,37.4502134998817],[126.7361266013973,37.4548891990327],[126.7210290010107,37.4575316999156],[126.7186754014778,37.466692100836006],[126.733251201073,37.4845864988864],[126.7468383980927,37.4730633989302],[126.7597857947089,37.476620596120895],[126.76563399691611,37.4663644018931],[126.7684457021685,37.4724160993923],[126.7785005954918,37.4717542971964],[126.78628089647039,37.457889999742996],[126.7858163991414,37.4471454999235],[126.7753233007721,37.4434716008983],[126.7814468977195,37.430923900478305],[126.7911581999373,37.4307064994239],[126.79910959853879,37.4385844975573],[126.8067016988207,37.4481161956743],[126.80364820190229,37.447346601694406],[126.8042301045711,37.4604435980174],[126.8126821991531,37.4682941985503],[126.8295434999216,37.4662758995476],[126.83394079619349,37.4741176981495],[126.84269789813591,37.461305197253495],[126.86921049818959,37.456304195673695],[126.8793406978747,37.4412639006664],[126.8823293026545,37.444952997101495],[126.89477169783561,37.4424996990805],[126.8884521990543,37.437326102273],[126.8988130974718,37.4283050013932],[126.8948794999116,37.4114302052163],[126.889004002189,37.4145639013125],[126.892989200608,37.4204128997115],[126.88176870184799,37.4245322002364],[126.8747348017662,37.4174807033311],[126.87975349030461,37.4126149956445],[126.8948794987254,37.4114301993491],[126.9066767983872,37.397052699061106],[126.9079091988347,37.388905197161804],[126.9209589987105,37.3881596961171],[126.9286025973179,37.3743713985803],[126.9208550996645,37.3557330005298],[126.9244902953693,37.3510087999572],[126.9179821969927,37.3448687993662],[126.9272971977327,37.3400953979064],[126.9340144016728,37.351905097059806],[126.94443469880011,37.3501151997599],[126.939976899209,37.348139000207105],[126.94339020172809,37.3424118997656],[126.95902099972771,37.353055099111096],[126.9531289027149,37.3619385984165],[126.96174219815491,37.3620306973569],[126.95956010137401,37.3707977997878],[126.9632244021728,37.3722711978776],[126.9405650049958,37.379772899981],[126.9450377005231,37.3827037970501],[126.957370399105,37.378799299947],[126.9691264995047,37.385080699515605],[126.9747464006481,37.392688898261405],[126.9846968012288,37.3955363986765],[126.9810458027318,37.4020217982927],[126.98438679939079,37.4040807962337],[126.98038530108849,37.4104851994452],[126.954562200631,37.3990753027036],[126.9441727995601,37.399547904059204],[126.9345043037719,37.406391700565],[126.9333595017289,37.4137138995724],[126.9233591015771,37.413774202556496],[126.9206634034002,37.4166549995731],[126.9258131014021,37.4198467000077],[126.9184908012902,37.4210614019097],[126.91505550314909,37.4320332997436],[126.91902990486909,37.4405383970116],[126.9107795044632,37.445715398922395],[126.9167118001865,37.4477865994779],[126.9199087001112,37.456083998549296],[126.9314029993135,37.44856880008199],[126.94710409922351,37.4488092990266],[126.95853350574531,37.459023493561304],[126.96614669813209,37.454464898119895],[126.9693190014392,37.4594939949893],[126.97480109595709,37.4587189957643],[126.9806033997507,37.4710080979516],[126.9884666994664,37.4660825001595],[126.9922611956211,37.4535594021874],[126.9861209954412,37.4448022044625],[126.9910699944234,37.4427248977064],[126.9775243000004,37.4234790009789],[126.9845770975479,37.4229187973119],[126.9842153990103,37.415512800637],[126.9993410978248,37.4196354980665],[127.0023616020531,37.4267750961354],[127.0075158968988,37.4233593995511],[127.01803389978521,37.4261017992633],[127.0206032022831,37.4383141992444],[127.0121255031049,37.449066798499395],[127.0210072001448,37.4584388999085],[127.0058475064104,37.4623663998264],[127.0081222041357,37.469623992568806],[127.02350519848011,37.4761747969628],[127.0271905001229,37.4837784995985],[127.0303690980388,37.4641277013209],[127.0479189988471,37.457282000480596],[127.04673349929371,37.4488476015003],[127.0525457949028,37.449517296588894],[127.0495687978798,37.4403905057157],[127.06235669965639,37.437334196979],[127.065408801141,37.450202096367896],[127.0495824006219,37.460613599023205],[127.0527303006554,37.478683600626695],[127.0548087990867,37.481847998312396],[127.0552025997663,37.4778843003918],[127.0627051984657,37.4779543991446],[127.0751340008114,37.4848463982566],[127.0856558006175,37.4800323989964],[127.0852001010007,37.4874510004059],[127.0806819021557,37.4873690995773],[127.08716310106709,37.4940655003338],[127.0818307001805,37.498387100285505],[127.0853036985248,37.5007904981299],[127.0962528986321,37.4973403973398],[127.1097625997086,37.501025198873904],[127.1119742997853,37.495733501202],[127.1052480001258,37.494468500455504],[127.1115266990278,37.4944220982382],[127.1102710005689,37.4901115019685],[127.1135979991515,37.4910371975037],[127.1228673999007,37.4764226999373],[127.13062860005769,37.4786378998398],[127.1300324003418,37.486836599747996],[127.1163478018189,37.503753000021106],[127.1186566996935,37.5152704995138],[127.0959047083552,37.5334047932379],[127.1092443010177,37.5472335990751],[127.09592410134131,37.5481995020752],[127.0967811000789,37.5544440994233],[127.085618401117,37.560505899900605],[127.0890165005058,37.575591400540404],[127.0720626007502,37.562201101320106],[127.07089670068511,37.568140601159996],[127.0640707001755,37.5671638012042],[127.05869320128079,37.5746683996003],[127.0667887998788,37.5883010987365],[127.07831019925901,37.5856253992458],[127.0852153989775,37.590533798420104],[127.09070059968,37.5864392995596],[127.0903591009256,37.5935081990425],[127.09812240000379,37.5963728994838],[127.0981686005202,37.6018726003508],[127.07803630009519,37.6061392005542],[127.0734521001429,37.6018178012298],[127.0641939999497,37.6097169006949],[127.0781261002958,37.616828399468005],[127.0767411002854,37.6197794000631],[127.06513459875849,37.617024801195804],[127.0589181003061,37.625914500719404],[127.0573016998471,37.619608300121705],[127.0633034991131,37.6151929997262],[127.054567400372,37.612067101079695],[127.0513801008239,37.6154711005375],[127.0395886009266,37.6087997004894],[127.0408058998883,37.614027899650104],[127.0328641005634,37.619096001574896],[127.0298557012593,37.633296699659105],[127.0330102996112,37.6439391987086],[127.0410812000787,37.6488683990683],[127.0369437003746,37.653964800599894],[127.0289773992326,37.6490009005624],[127.0302076002633,37.6437578005805],[127.0152627998379,37.641867500493596],[127.012903997733,37.622129801946905],[127.0006422998663,37.617616300308605],[127.0065626991078,37.5964715016364],[126.9923199998513,37.599670001214],[126.98665640104821,37.589019803623906],[126.9798672998642,37.5898771029084],[126.9795457996229,37.583859599859196],[126.9732932003652,37.5836735001154],[126.9755423994377,37.5896346967167],[126.96985740470639,37.5909128994247],[126.9618299008838,37.5837243016585],[126.950302401134,37.6032416997302],[126.9441960019691,37.6010937018839],[126.9412271023435,37.6060236024785],[126.9437588066903,37.618373298963],[126.9500527003964,37.6206099967263],[126.949208701883,37.6275272975063],[126.9375318065229,37.628642801004],[126.94147420258051,37.632233497413296],[126.9350758991507,37.633792501757696],[126.9350502997231,37.642556297507106],[126.91998200121361,37.6587581014478],[126.91950889967289,37.6549730031293],[126.9051507008996,37.653748204348005],[126.8959611999884,37.6637777000727],[126.8860838007451,37.6541644029212],[126.8765213030343,37.6570035008639],[126.8626003997138,37.652796800270195],[126.8626727967873,37.648623803751],[126.8725564975433,37.6413350997547],[126.8721417033061,37.6447607981421],[126.8842202997872,37.6485841994337],[126.91066669654069,37.640880799808095],[126.9071369933941,37.6248349014332],[126.8956392995192,37.61284110096],[126.90121089663289,37.611796496682395],[126.9014158975142,37.5982735012405],[126.8959227030074,37.595952703561295],[126.88996120064151,37.6013689006776],[126.88481520207061,37.607841200110606],[126.8866515001354,37.6138870999676],[126.8785353018823,37.6211631987784],[126.88187149911191,37.621900498137904],[126.8597099991277,37.6208432016169],[126.8622934961774,37.6128716037522],[126.8573492011217,37.6149767016471],[126.8486847010613,37.632298698232496],[126.8443336001,37.6272952034382],[126.8383783019644,37.6316843990057],[126.8416040001149,37.6349848975541],[126.83714960034901,37.6439415001869],[126.8182825018591,37.6370570015418],[126.821867996848,37.6361950987199],[126.8166443987116,37.6276010002091],[126.805602598902,37.6240789027569],[126.8028845988651,37.6188040018537],[126.8128266986778,37.607233500235196],[126.8115995946542,37.6002448977958],[126.8202630005559,37.5967471994903],[126.81863540251601,37.586671909131496],[126.8096464003864,37.5867430026141],[126.8002106010498,37.5940990997538],[126.7943188993671,37.5863947012447],[126.788136801242,37.5903010997394],[126.7887793993929,37.579745603523506],[126.78454190103949,37.584805800297296],[126.78015860019639,37.5773479016188],[126.7904878988427,37.566374692500794],[126.7993937003088,37.5758302957253],[126.8043332988424,37.5680287006308],[126.7984198005241,37.563155202025094],[126.8139417975667,37.5471032001008],[126.8124466967289,37.5408044019297],[126.7991161984364,37.5375927030439],[126.7994939974746,37.532399502766694],[126.7945500024186,37.535873099293106],[126.7924971000356,37.5294755028578],[126.787489799309,37.5300047002844],[126.7979377982714,37.5255966999051],[126.7950780998856,37.523039400563704],[126.7856851011921,37.5266134003145],[126.7868800987394,37.518303400011604],[126.7760734010922,37.5114831035615],[126.7752780018876,37.5146395004051],[126.76886350046,37.5108069011848],[126.7536854003791,37.5152961004895],[126.74722470033771,37.511438303343205],[126.745848901416,37.514772400122496],[126.73638030025009,37.5134995011905],[126.73844919964891,37.517967498861296],[126.7337268022496,37.5237616003642],[126.73748930086629,37.5321758005392],[126.7448633987508,37.538322100983],[126.75179019988481,37.558545697645705],[126.7575675001533,37.5593712990236],[126.7508078024283,37.5640814990058],[126.74654670038629,37.5763379995878],[126.7341603999014,37.5808015011929],[126.72767230135,37.571356305012195],[126.72037290168,37.571066602622004],[126.72443299576601,37.5671537982336],[126.7220697999128,37.5598529017504],[126.733804899574,37.566638090693296],[126.7420816943152,37.5592202000226],[126.71258570076121,37.5438244006611],[126.7119845999882,37.534427202451205],[126.7067321990246,37.5315526999338],[126.7104553972377,37.521609900932404],[126.6888405003344,37.5089263017406],[126.7025571913346,37.498671001093804],[126.70183869828199,37.4895511015001],[126.682120500259,37.4904589003251],[126.6734170008785,37.4853199006474],[126.67362070123531,37.4969927987278],[126.6859501003015,37.5066802987609],[126.67629340062311,37.5149638997124],[126.68128869977,37.5247441984262],[126.6734569011064,37.5261275012832],[126.6695723997563,37.512368800583296],[126.661823501839,37.506879403376004],[126.6691184991136,37.509420900510804],[126.66847829920991,37.5001437005186],[126.673547298144,37.4957719013211],[126.6677660001832,37.4908858027038],[126.6780401979233,37.483368500171],[126.6726032990358,37.4747741016145],[126.6454586002601,37.474804600667596],[126.64119600104729,37.48098619891859],[126.6320501007757,37.483036200123],[126.62486419917231,37.4796223989652]]]}}]}