{"type":"FeatureCollection","features":[{"type":"Feature","properties":{"interval":15,"stationId":"6035746706","profile":"peak"},"geometry":{"type":"Polygon","coordinates":[[[126.9394632979709,37.3901390009445],[126.94055499959471,37.383935800923304],[126.9549339990752,37.3814154993832],[126.9689746001538,37.394693498701905],[126.9634602019038,37.398648800627896],[126.95353990124579,37.395265802154995],[126.947334701892,37.3982421006602],[126.9394632979709,37.3901390009445]]]}},{"type":"Feature","properties":{"interval":30,"stationId":"6035746706","profile":"peak"},"geometry":{"type":"Polygon","coordinates":[[[126.89940019776431,37.3058147003407],[126.9005633996953,37.3028519996963],[126.9115061996594,37.3070621994006],[126.9113286007219,37.3168310975325],[126.92162589860739,37.3221955995189],[126.91811850091541,37.3228611019131],[126.9209058014564,37.328684697700794],[126.9271079983955,37.3273549989893],[126.9299809999027,37.3339738966331],[126.92502990458429,37.3380017998466],[126.93410819975979,37.339411399754006],[126.9297287017065,37.343882900337],[126.9358589002487,37.3486383967643],[126.941390099461,37.3422839989563],[126.95959950126489,37.348156899474],[126.9632300013183,37.3552453998768],[126.9561738007656,37.359538100071205],[126.9616663000525,37.3646594999543],[126.95956010137401,37.3707977997878],[126.9763017013231,37.387923898409696],[126.98982150041651,37.392860499632896],[126.9810458027318,37.4020217982927],[126.985994001699,37.4152191978146],[126.9993410978248,37.4196354980665],[127.0023616020531,37.4267750961354],[127.0115424013115,37.4301404982245],[127.01043600127319,37.4342396961498],[127.0174707000495,37.436040499771096],[127.0095741059188,37.4389228010555],[127.0156752998176,37.4418391981391],[127.0121255031049,37.449066798499395],[127.0036067002151,37.449896600536],[127.0054505985067,37.4549567978828],[126.9977769983232,37.4566494010012],[126.995020999763,37.4506837002833],[127.001017898524,37.4479475988392],[127.00218270093521,37.441126502885005],[126.98803920303081,37.4382461044788],[126.9769832008715,37.424677000929],[126.9856117965132,37.4203730998576],[126.9829581996086,37.4122927021804],[126.9706255023276,37.4139391029971],[126.9610722008948,37.4080548029619],[126.9470958020259,37.4090937032899],[126.93895170042501,37.4034020010462],[126.9261869992708,37.4028232063769],[126.91612240013461,37.4094297014491],[126.91461389876021,37.402653399973396],[126.9254828997966,37.3949942991861],[126.9273994965979,37.385439299196705],[126.92319809907619,37.38009200163],[126.9286025973179,37.3743713985803],[126.91817499940221,37.3561431006529],[126.9245948949789,37.353040199217105],[126.9149748985981,37.3442350053299],[126.9242695954109,37.340288399778196],[126.9136618970972,37.333741704138],[126.91167929645181,37.326581307524904],[126.9071650009661,37.328082806023396],[126.9052855985255,37.324181102889796],[126.9103684964968,37.323243499200494],[126.89940019776431,37.3058147003407]]]}},{"type":"Feature","properties":{"interval":60,"stationId":"6035746706","profile":"peak"},"geometry":{"type":"Polygon","coordinates":[[[126.72595699814019,37.3619772011852],[126.73155629895159,37.344946700655804],[126.747433799405,37.3443213988193],[126.7529557991419,37.3365958999265],[126.7586279968858,37.3381706970078],[126.7575139979998,37.333941301237196],[126.7675381984216,37.334839095534605],[126.766185597337,37.3226673006035],[126.7820556966618,37.314413299405196],[126.77024809923961,37.3064924024719],[126.77695889673019,37.2969745980225],[126.7890981000416,37.2932411999209],[126.8070091000708,37.3027972968763],[126.8287085987033,37.297590896874205],[126.8450308961792,37.2858051976555],[126.8427928984172,37.2820104014503],[126.849816194507,37.2746374944731],[126.8554712986235,37.278019794722006],[126.8617700002583,37.2730769994356],[126.85987410112399,37.2763652995813],[126.8823338986578,37.2802308955561],[126.8806749029835,37.2848354971769],[126.8947357048082,37.2949921873998],[126.90911870292399,37.299336693045596],[126.9186817000395,37.2909084940263],[126.93297780213881,37.3049559973815],[126.97439949782421,37.2637238001941],[126.95614999879699,37.2467090040542],[126.9527197022273,37.2495131012501],[126.9561499946458,37.246709000319704],[126.9510324005718,37.2436109004113],[126.9514359995072,37.236572099914795],[126.95655139864189,37.2327010994897],[126.989044799907,37.2381641983171],[126.98731170252121,37.241433999497],[126.99947340121,37.2572956964025],[127.021916998923,37.2366109982283],[127.0265533004835,37.2472423968213],[127.036003997844,37.2389696996441],[127.0466339999733,37.245190899695196],[127.0520575991971,37.2360003014612],[127.0613749986742,37.2359664989985],[127.0809889004059,37.2467067990647],[127.08355390042689,37.2670092999174],[127.0774181001604,37.266773700346],[127.07127459726759,37.2575917014549],[127.0645025013074,37.2599972001904],[127.0574835993214,37.2488148010952],[127.0378810003648,37.2766825998921],[127.0317402013856,37.273566400666],[127.01591029978181,37.2823680004497],[127.016389700909,37.295098098944095],[127.005241800374,37.3012413003965],[126.9869796026496,37.3236181991913],[126.97236890185951,37.320892806750905],[126.965556408672,37.3275113001324],[126.9876585018519,37.3445664957056],[126.980803903199,37.3502569984662],[126.9886190985485,37.3525051978453],[126.9864920033307,37.355502797777596],[126.9789720056953,37.35607430169],[126.9847618999054,37.3589674987968],[126.9801145073546,37.3616386994864],[126.9828586032759,37.373614296997],[127.00226770073961,37.377012595934],[127.0051383019263,37.3829901943499],[127.01254859971691,37.384633098799405],[127.0021409009517,37.3854842022549],[127.0021768008578,37.3926796990986],[127.01500219722149,37.3894322001509],[127.00110030776861,37.4059366982452],[127.0085371003318,37.4122196919622],[127.0211405970957,37.4123850957898],[127.0168663020458,37.4135719007334],[127.0244725023565,37.422477500119996],[127.0165118017939,37.4285273000164],[127.0233913023436,37.4335323937841],[127.0269283988065,37.428073399243104],[127.0370334058244,37.4363552915298],[127.0382639025351,37.4453355929474],[127.0291209038045,37.4409487039719],[127.0223480008564,37.448324899717306],[127.03205030459779,37.455804595704],[127.0297880010852,37.4682374002999],[127.0247370005858,37.4654668030235],[127.0104595038783,37.4697719032144],[127.0139372004006,37.4762501967361],[127.0287000986133,37.482525000852],[127.0288143990059,37.47677139952879],[127.0360411993848,37.4749391000684],[127.0331603997382,37.4692237000979],[127.04509469891251,37.4635679991531],[127.0423006005185,37.4788794981486],[127.052212701253,37.4856815992226],[127.0554823999847,37.4823359004421],[127.06469969843391,37.485527098206596],[127.0691542003589,37.493007899834005],[127.08176009833599,37.4928988988474],[127.0842644999738,37.494806799092096],[127.07062540164189,37.4989341013938],[127.0717563004636,37.505398995189196],[127.07982510008259,37.5081692996704],[127.0889860998464,37.5027554996613],[127.09698799977019,37.5127785971821],[127.10329199946659,37.5084011999586],[127.104854601047,37.5206152996826],[127.10148440093221,37.5224038008973],[127.10373899937771,37.5159417008506],[127.0928537995907,37.5120655011194],[127.0849549009058,37.5183538984195],[127.0805857989416,37.5142295021496],[127.06138460080359,37.519001300437],[127.0591598028011,37.5231685984635],[127.06268649927439,37.521906099726],[127.0665350976611,37.5287175922587],[127.0759749987316,37.5292401990346],[127.07199680158439,37.5351243010424],[127.0774762992749,37.5449903992787],[127.0752624010172,37.5510716984155],[127.05976220021269,37.533668000756],[127.0654360995201,37.5303353992268],[127.0630166019607,37.522088607466195],[127.020321908255,37.5376219039081],[127.0394784002242,37.5543484996706],[127.0435850987737,37.5485771007829],[127.0393984997511,37.543816800335804],[127.0466337010365,37.5410903988162],[127.0501343002416,37.5457115988878],[127.0445687006084,37.5499330992297],[127.04864220052501,37.5541888996395],[127.046919599953,37.5515630005442],[127.0419833004662,37.559270299196605],[127.0462349005518,37.56559269886171],[127.0555593994586,37.5644548992606],[127.05168980039531,37.5694732996477],[127.0495168985339,37.565845801245096],[127.0450161012511,37.5695295990046],[127.0235360007234,37.5668099005057],[127.01620050005779,37.5749682003116],[126.995842198897,37.572014700725],[126.9850565004849,37.5806070003877],[126.9779352002419,37.5736073007348],[126.97137499990569,37.5773455003043],[126.9747234991622,37.5721410003462],[126.9615025990782,37.5597123004935],[126.9519827999816,37.5571092001175],[126.93319299999601,37.558377900238504],[126.92569060026639,37.5636177001457],[126.9119863002217,37.5599079007642],[126.9007722018202,37.5669698003706],[126.9004145001753,37.572305300392394],[126.8997077994522,37.5626098014502],[126.90477919951319,37.559317399779594],[126.9070687991567,37.547545199694],[126.9018985998239,37.5393747027071],[126.8956909000382,37.542237200120105],[126.8904434996507,37.5384391007696],[126.8909802003186,37.5324698025523],[126.88146569866491,37.5243569027959],[126.86458050063341,37.5307306004063],[126.85188550021759,37.5265220009765],[126.84810519983701,37.5211268001217],[126.85276399897079,37.5171885996987],[126.8676185995804,37.524442798143504],[126.87689379991751,37.5196262994617],[126.8613364013747,37.5169718005197],[126.8568240995134,37.5054989014669],[126.8424177003819,37.5020557008953],[126.8387561001813,37.4967120011051],[126.81891629930679,37.4989286050931],[126.8118140020958,37.492138601490794],[126.8086220015504,37.493711200962],[126.81152120167211,37.5025506956935],[126.82256530019109,37.5060001994446],[126.81587810199031,37.5150011020132],[126.78391220000421,37.5115800005396],[126.7778170005661,37.505987001314296],[126.7762255007527,37.5088831003168],[126.7592229998115,37.503252800001896],[126.7788254994358,37.496830799912196],[126.80202370131781,37.500440297645504],[126.8084658966051,37.4970622985335],[126.8033889999023,37.484643000254195],[126.790957000912,37.4884931001],[126.7764050008001,37.4849660003373],[126.78139399910161,37.4776314998038],[126.7876176980398,37.481026796659805],[126.7947860992323,37.4763231],[126.80321770130851,37.482042599165],[126.8262939999191,37.4840965995209],[126.8251189998297,37.481241200947],[126.8305117007993,37.4849576949153],[126.8398614985115,37.473665199191],[126.8449051970217,37.474417798859996],[126.8442294994626,37.468102600524105],[126.8580024965965,37.466071998671694],[126.867058595197,37.459382301111305],[126.87085049654961,37.4515513004266],[126.86778029961981,37.4510125009654],[126.8852743957736,37.4287471007624],[126.8747348017662,37.4174807033311],[126.8898803957989,37.4110691988788],[126.8923136981075,37.407375802381296],[126.8878884011441,37.4056686030402],[126.8934148988788,37.3941662012594],[126.8997058939608,37.395267795280596],[126.9000714936593,37.3850637012177],[126.91016739476491,37.3766909015826],[126.9048571000752,37.372898505375],[126.90546139567289,37.3589379049265],[126.9010119001224,37.358208105656296],[126.9075245960102,37.3563408006353],[126.8971463002248,37.3488822047146],[126.89528609624281,37.341404297726804],[126.902725098614,37.3393818940009],[126.9052855985255,37.324181102889796],[126.8905542101158,37.327694800286906],[126.8903311013309,37.3349090999686],[126.8777499989666,37.3197900047351],[126.8663581066387,37.319828405846096],[126.8522854049921,37.3284949001969],[126.8536328006509,37.3329398001955],[126.824241404117,37.337914400030904],[126.825040901894,37.3483551998533],[126.8091271029278,37.353670696682705],[126.82133889843,37.3522542991569],[126.8091271051479,37.3536707063693],[126.80721270706229,37.3624690975709],[126.81356010055491,37.3656283989584],[126.810752202852,37.3712332005042],[126.81504630060441,37.3797843987565],[126.8092052028041,37.3796007022912],[126.8068195009547,37.3906798002546],[126.7965099004936,37.3840802041109],[126.8043569969861,37.3724979988599],[126.8000251974119,37.3623551005715],[126.8072126973258,37.3624690944324],[126.8091270954114,37.353670703230804],[126.7973987002089,37.3504230020722],[126.79606839975129,37.347307599709204],[126.80444279612091,37.3490790000503],[126.7969791991813,37.340395203634],[126.768035603879,37.3427332022679],[126.7669876026953,37.3474098990319],[126.7530912028743,37.352346202429],[126.7507966027049,37.3635959010214],[126.7486083006862,37.36051720275459],[126.7410486004672,37.3668534055797],[126.7411951003207,37.3723732000599],[126.74104859748999,37.366853403818794],[126.7350412019959,37.3685654018681],[126.72595699814019,37.3619772011852]]]}}]}