{"type":"FeatureCollection","features":[{"type":"Feature","properties":{"interval":15,"stationId":"6035746726","profile":"peak"},"geometry":{"type":"Polygon","coordinates":[[[126.9947839993414,37.4509670010346],[127.00219919752331,37.4443427003369],[127.00277339778029,37.433889700025304],[127.0074135985038,37.4326409976106],[127.0092717035592,37.438740797227595],[127.01918900141419,37.441673096641104],[127.0129600027971,37.4441875005584],[127.01440980115319,37.4513853966309],[127.0082606009928,37.4499855010898],[127.00138750294151,37.456948101574],[126.9947839993414,37.4509670010346]]]}},{"type":"Feature","properties":{"interval":30,"stationId":"6035746726","profile":"peak"},"geometry":{"type":"Polygon","coordinates":[[[126.9164442982827,37.4943788003573],[126.9241020988389,37.4886311997853],[126.9213240999055,37.4823758003095],[126.92652229998791,37.479134099622],[126.9513558996192,37.4777402991826],[126.963799398489,37.4689860997454],[126.9772968992246,37.465246799371805],[126.9806033997507,37.4710080979516],[126.9884666994664,37.4660825001595],[126.9922611956211,37.4535594021874],[126.9861209954412,37.4448022044625],[126.9910699944234,37.4427248977064],[126.9811639992436,37.4361411010063],[126.9846609955661,37.4311341038935],[126.9769832008715,37.424677000929],[126.98821249858591,37.415879699314],[126.9993410978248,37.4196354980665],[127.0023616020531,37.4267750961354],[127.0105841999392,37.4227377990893],[127.01803389978521,37.4261017992633],[127.02445950026541,37.4357316991101],[127.01918900369729,37.441673095885506],[127.0243540007236,37.4513686991396],[127.02438190300519,37.456232295876006],[127.0198924026967,37.45546030163],[127.0217722008241,37.4618085980866],[127.0141437981536,37.4592098029218],[126.99337640061471,37.4722495989852],[127.0032521991141,37.4740317977119],[127.00894420152841,37.482984200019295],[127.0191243009693,37.4838770997148],[127.0158361015024,37.490663900293704],[127.0191786991732,37.4889473993748],[127.02423349972369,37.4966958992367],[127.0296681994553,37.4939342990065],[127.0394956013848,37.5023294004086],[127.0305525001835,37.500074001144995],[127.0255837008954,37.5041435000118],[127.0219919996904,37.4977023002742],[127.01242120030531,37.5000085012758],[127.0076517000043,37.494190203002],[127.0040235004638,37.499772499516595],[127.0133163990074,37.5080108986104],[127.011199602048,37.5122950007394],[126.9903664000701,37.5032182030007],[126.989278501158,37.5065591996597],[126.97224060086981,37.506740908830494],[126.9773012993248,37.5012213998484],[126.98159289870159,37.50435229949],[126.9798237990087,37.498537901344704],[126.97361209954799,37.4914894019737],[126.9643796019097,37.490861301146296],[126.96214349992809,37.4827509027471],[126.95690070018101,37.489124300759],[126.9342029003208,37.4868982009085],[126.9308702006531,37.4918915005177],[126.9164442982827,37.4943788003573]]]}},{"type":"Feature","properties":{"interval":60,"stationId":"6035746726","profile":"peak"},"geometry":{"type":"Polygon","coordinates":[[[126.7761717994633,37.4838559000206],[126.78133599931729,37.4787070999179],[126.78992279931519,37.4831170994876],[126.7941256993196,37.4779407999999],[126.8315562993159,37.4877008972938],[126.8508625989354,37.4682087996863],[126.8786743989691,37.465292399287605],[126.8756900989234,37.4602667994394],[126.8773587996844,37.462951699394196],[126.8820395987365,37.4467228994712],[126.8955684976923,37.4465264969974],[126.89149070007741,37.4376924016791],[126.898848998589,37.4238380998643],[126.8920254011499,37.4175909007283],[126.8930872004692,37.4205719998656],[126.8776220035372,37.4237912022712],[126.8805033959976,37.4215000993117],[126.8747348017662,37.4174807033311],[126.87975349030461,37.4126149956445],[126.8948794987254,37.4114301993491],[126.9080175998916,37.3897828991223],[126.91558959595051,37.3877826991423],[126.9144106957567,37.375269701421196],[126.919737695975,37.3741530981481],[126.91058099719889,37.3577330028516],[126.9093813965263,37.3453836048984],[126.9149947957643,37.341760796118905],[126.9149715957875,37.3339423039374],[126.90813110236431,37.3341062021054],[126.9052855985255,37.324181102889796],[126.8976451030249,37.3239440040377],[126.8991049957779,37.313127898553596],[126.891352198132,37.3088092031472],[126.8952387999505,37.3004213986644],[126.9109380009818,37.2992282994426],[126.9111656016431,37.3064627931278],[126.9185555980745,37.30502889905431],[126.91150620381231,37.3070622015859],[126.9129880023305,37.3115594970886],[126.9205343984456,37.3106788982362],[126.92132730288431,37.318671599484205],[126.9310758015788,37.3295769993349],[126.9381270993169,37.329789499502695],[126.93343090169091,37.3348203989446],[126.9446526004657,37.3438753983021],[126.9554783012524,37.3385974984067],[126.96530080216449,37.3457630966777],[126.9648973001393,37.3517037951922],[126.9708073003209,37.3521301994072],[126.96691370075371,37.3536388004417],[126.9688570007152,37.373508594971],[126.980641499018,37.3725765984668],[126.9786273042313,37.377214696399605],[126.9881145985684,37.3778783969416],[126.9907995043226,37.387586898033504],[126.9987634982522,37.3832563954848],[127.0009970995906,37.3881328988669],[126.9979047999459,37.377952500679],[127.0051382972207,37.3829901945538],[127.0002744012583,37.3891731997544],[127.0045858988988,37.3951586962989],[127.0083282951564,37.391758599699],[127.0048492986354,37.3894777019799],[127.0083282969998,37.3917585974064],[126.99848640259131,37.3962861036267],[126.9978225032552,37.4013776985351],[127.0085371003318,37.4122196919622],[127.0211405970957,37.4123850957898],[127.018521103416,37.4148432008026],[127.0244725023565,37.422477500119996],[127.0165118017939,37.4285273000164],[127.0233913023436,37.4335323937841],[127.0269283988065,37.428073399243104],[127.0370334058244,37.4363552915298],[127.0699220000119,37.4341684996747],[127.0723027017981,37.442386196871205],[127.0666571054002,37.4464463004604],[127.0676926035705,37.4543955999553],[127.0608600031131,37.4610822006421],[127.0596329001793,37.472205397205],[127.0725028023107,37.4783282977552],[127.08454369452289,37.4727825945993],[127.0921277006373,37.4773468984669],[127.1086133001279,37.476291598845805],[127.1064837004415,37.4792091996177],[127.1127210987293,37.484146897980295],[127.1212535972237,37.4742002981018],[127.1208410999141,37.4653421985308],[127.1338216997207,37.466253899110896],[127.1528461006086,37.455241197271306],[127.1429778004574,37.4671122008297],[127.1362333008328,37.4661312004393],[127.1257756003489,37.4743382989176],[127.1319144995622,37.475110097748804],[127.13339089999779,37.4931789992556],[127.14569059984349,37.4881193986948],[127.1564470012599,37.498388997960106],[127.143967299828,37.4977821007001],[127.134705401892,37.5070136004513],[127.1379811015644,37.5168691995881],[127.1436453996555,37.5165044996546],[127.1376755024679,37.5249225997811],[127.1378277008163,37.531429899806],[127.1453050997495,37.537592099207394],[127.1443468017888,37.5532010985044],[127.1413806993012,37.543419900169305],[127.13207370070741,37.5395239005506],[127.1360473007975,37.5526922999837],[127.1311811013351,37.5574369011669],[127.1240264006347,37.555054401474905],[127.1117108019526,37.536151001386195],[127.10878050008999,37.5503665999563],[127.09592410134131,37.5481995020752],[127.0967811003279,37.554444099977495],[127.090777602765,37.5618207011546],[127.0997684001866,37.6016569998622],[127.08075650057451,37.6058182000409],[127.0790622009702,37.6194382003672],[127.0727601006699,37.6213915005781],[127.0681940990503,37.616574200729104],[127.0597029014404,37.6249385999378],[127.0567629985849,37.619507400012104],[127.0638311992057,37.6182647997772],[127.062476499684,37.6155182009364],[127.0389388000353,37.6049594009384],[127.0394737999944,37.6125281991945],[127.0314406004579,37.6218758001275],[127.0313495002367,37.641743300010404],[127.02502420028371,37.6425196004458],[127.0167133000825,37.6352646003119],[127.0212755001598,37.631361701028396],[127.0170747995852,37.6238464001791],[127.0005008989584,37.6112853006571],[127.00574259905271,37.6072815991847],[127.0065626994337,37.5964715018723],[126.9961809005812,37.599567400824895],[126.9893304995195,37.588648802239504],[126.98227430113,37.5905705997884],[126.9795457996229,37.583859599859196],[126.9732932003652,37.5836735001154],[126.9688780003682,37.5897548006647],[126.9595816003259,37.5803758015988],[126.9567812022768,37.5875377986597],[126.9495428020279,37.5889020006692],[126.9496740002199,37.594376499428904],[126.9392513016591,37.5964834009501],[126.9343885010569,37.6211077006454],[126.9216322004459,37.623441500445296],[126.9159344991632,37.6183344001272],[126.9253393985263,37.612295300631],[126.9179743004038,37.6114395001386],[126.9048690992347,37.588428901289994],[126.884877500741,37.584692701124],[126.8883646988197,37.5760001011243],[126.8968985984102,37.5709917003929],[126.88385390503281,37.5532880055891],[126.8790706994826,37.5520276008312],[126.8439458033927,37.5751408066471],[126.82676190043989,37.5738419009653],[126.8212485001034,37.569052901581905],[126.8123954000212,37.5709304006309],[126.8059574005233,37.560189701362404],[126.8040410015744,37.565736798948606],[126.797213300431,37.562617500764],[126.8109316998486,37.561273099249505],[126.8218722994268,37.5684969986526],[126.8270374984298,37.560882199465404],[126.8361003992004,37.563576099797096],[126.8366304998638,37.5559541998948],[126.8460632991357,37.562014699685996],[126.8485722995766,37.553732499252504],[126.85728679803,37.5510389004121],[126.8655249987966,37.538005699953],[126.87734669899021,37.536165499801],[126.8707010999107,37.5305139010673],[126.8622813999486,37.5344130006703],[126.8546456009561,37.5280810008322],[126.85383180043989,37.5344565008402],[126.8451532008909,37.5384042002344],[126.845220000289,37.544854399758],[126.8386935006273,37.5456029003357],[126.8366377003392,37.5535444994365],[126.8317024998919,37.5493473009063],[126.84085349928199,37.5336410012274],[126.8378422998189,37.531779200304],[126.8553939003513,37.5056880003298],[126.8369757999946,37.4942052000531],[126.8223682026741,37.498922303104294],[126.80291460004959,37.484227100717796],[126.7905976003594,37.4877014007917],[126.78474130004929,37.4829681011365],[126.7761717994633,37.4838559000206]]]}}]}