{"type":"FeatureCollection","features":[{"type":"Feature","properties":{"interval":15,"stationId":"6039313049","profile":"peak"},"geometry":{"type":"Polygon","coordinates":[[[127.1135979982037,37.491037199315],[127.1428077997929,37.4892215998919],[127.1487183010422,37.4924814990373],[127.14060140004969,37.5064791001383],[127.13152480061679,37.5110180995299],[127.1378990998231,37.5152791991897],[127.1335493031817,37.5201137991674],[127.119020300227,37.5114918013673],[127.1205439995526,37.4960560012331],[127.1135979982037,37.491037199315]]]}},{"type":"Feature","properties":{"interval":30,"stationId":"6039313049","profile":"peak"},"geometry":{"type":"Polygon","coordinates":[[[127.0379664989579,37.5085470003397],[127.0497406991149,37.502959799734],[127.0456553009845,37.507889299568],[127.051076900113,37.5123857989258],[127.0609574980773,37.5110853986895],[127.0625614999628,37.5060265996676],[127.07042389955299,37.5106251994643],[127.0808434985649,37.5019349014174],[127.0745987006097,37.4977076010834],[127.06615940084241,37.5031438009071],[127.0522406998947,37.4989669012557],[127.049477599097,37.496024401748606],[127.0545666987033,37.492756700760204],[127.0400423998566,37.4855339006144],[127.0455196995976,37.482476999758205],[127.0471271005519,37.488391398358395],[127.0564782985467,37.485019200772],[127.05446219961951,37.4822036003926],[127.0662753975913,37.4848426960255],[127.08651039924739,37.4758742996626],[127.0921899001,37.481336297009506],[127.1041634976164,37.4754686999569],[127.1112522999984,37.479687297656405],[127.1097692016812,37.483148998978194],[127.1166719980354,37.483360899221],[127.1260938989396,37.462042001612595],[127.1338216997207,37.466253899110896],[127.1528461006086,37.455241197271306],[127.1425787002399,37.4669040001854],[127.1362333008328,37.4661312004393],[127.1257756003489,37.4743382989176],[127.1373391990023,37.4820474984012],[127.13796529838551,37.4790748009312],[127.1638910994448,37.4870571989776],[127.1612591010632,37.5048339987649],[127.1540951007837,37.5031769033468],[127.146749202067,37.5110168988216],[127.15662199976809,37.5311155977749],[127.1481016011934,37.5400073005306],[127.1525299003776,37.5465792937057],[127.1497300028323,37.551579997717404],[127.16798869886,37.5568623973142],[127.1661632024442,37.5598682993434],[127.1465223022667,37.5547198015747],[127.1449019038579,37.5578681996733],[127.1390632999333,37.5546452000746],[127.1427388972871,37.5547294998687],[127.1408065995806,37.5516812008957],[127.1287981016272,37.557972501886695],[127.11916409474131,37.5473863077548],[127.0973988011866,37.5535221019064],[127.0819519002342,37.5671595004352],[127.0830287992297,37.563593600800296],[127.07285059921199,37.5600953021058],[127.0582570000095,37.5626344003462],[127.06263659952141,37.5566277994267],[127.0704178005707,37.5601573000245],[127.0748889995791,37.5523273996153],[127.0842660986466,37.552397799302604],[127.0850419990534,37.5452151998782],[127.0969670987721,37.5470849985233],[127.09701389874229,37.538232798750705],[127.1095441019821,37.5436036926884],[127.1137249991579,37.5273392004366],[127.10148440093221,37.5224038008973],[127.096758198785,37.5099607017497],[127.0767507997375,37.5177960007357],[127.067560200307,37.5101598007169],[127.067292801147,37.515758699680596],[127.05884360170481,37.5196810004554],[127.04769260100271,37.5125068005519],[127.0408711003522,37.5183659004093],[127.0379664989579,37.5085470003397]]]}},{"type":"Feature","properties":{"interval":60,"stationId":"6039313049","profile":"peak"},"geometry":{"type":"Polygon","coordinates":[[[126.8533907994432,37.524650599866604],[126.8873214998814,37.5207763995131],[126.8931002992956,37.511044799634604],[126.8755131995608,37.5028361009444],[126.8903177000085,37.503087699138305],[126.89584029878961,37.4922390003955],[126.89874740071251,37.4932156992482],[126.892749401049,37.5005539998052],[126.8958752001816,37.507122699026496],[126.90733359916,37.5058525984851],[126.9048194997689,37.499935800201904],[126.9164442982827,37.4943788003573],[126.907455598975,37.486672500057196],[126.9163200001572,37.4847626992917],[126.9201754999971,37.4931704989025],[126.9224978975067,37.4812523996954],[126.9310273001523,37.4762849993896],[126.9332422993663,37.4690242004934],[126.9385276005584,37.471692699629095],[126.9363083008189,37.4739624996608],[126.9499879003488,37.4770700983031],[126.9713197988317,37.4659866998879],[126.9779310993658,37.4660721991746],[126.9806033997507,37.4710080979516],[126.9884666994664,37.4660825001595],[126.99016859954041,37.4565612994207],[126.9944067019124,37.468929797818],[127.0122848981993,37.473095899300894],[127.028407899789,37.465448597857105],[127.0290093998707,37.4580321987524],[127.046766099131,37.4577625998488],[127.04457879368509,37.4402141051215],[127.0548408938395,37.4335890969566],[127.0690339008076,37.4352209993368],[127.0633288021466,37.4427550944741],[127.0690888017255,37.4562129992473],[127.0608600022537,37.4610821989453],[127.0573689022269,37.4585222041018],[127.0563676032282,37.4683910942329],[127.077111598348,37.4750565942953],[127.08454369452289,37.4727825945993],[127.0900818967668,37.4609764987799],[127.1068043995854,37.4507372000307],[127.11579469763069,37.462988797790196],[127.11975629818231,37.4362048013147],[127.1167570002008,37.4293677028343],[127.1064523004712,37.4275601020656],[127.1102141981972,37.4172748030053],[127.106622099427,37.4104897001136],[127.1087121001109,37.4135615979802],[127.1139486979035,37.4094372003687],[127.1049349986543,37.40539540290651],[127.0965542001733,37.409351801084],[127.10032819901011,37.397639500960096],[127.09342360023639,37.4033797013049],[127.09006139987899,37.3896231003537],[127.1007131993499,37.3759190991956],[127.101756798501,37.3716639032058],[127.0937328004033,37.3655941047137],[127.0993892985175,37.353480902475404],[127.0949226029842,37.354655301300994],[127.0899611996486,37.3440588003475],[127.092790896438,37.3408280992627],[127.0869910997129,37.3374064008674],[127.0919633995897,37.3302626011657],[127.08026640022099,37.32137500026651],[127.0829865988163,37.3188158000312],[127.0711430001843,37.317116500592796],[127.074001298135,37.303035103793505],[127.0639661006817,37.3010770010973],[127.06813249910381,37.2923956010295],[127.0778119987165,37.295533899172604],[127.0755803008694,37.303992398974195],[127.0867050998122,37.3073202995284],[127.0862603012427,37.312413000193],[127.0924198005795,37.316637598962],[127.10808499818721,37.3157525991339],[127.1101605992655,37.30892090034369],[127.1103071024968,37.315838799709],[127.1061006025116,37.3157908008827],[127.115083,37.3201106995084],[127.1225737004937,37.340626099656305],[127.11797720195109,37.3402310020558],[127.1236126007063,37.349875898073],[127.118542001281,37.3605450998419],[127.1281732997119,37.3645433997862],[127.14615060205149,37.383337796352],[127.1413861055956,37.3908833013815],[127.1525019995282,37.404492899643],[127.1522186008083,37.4192281996918],[127.14871670230909,37.418134202426394],[127.14670940431641,37.4259422946183],[127.1546963986309,37.4220089988379],[127.1541906043256,37.429200694018405],[127.1742351011805,37.4312056991016],[127.17862310018249,37.437914898160706],[127.1833830990025,37.452887098141],[127.1759668048789,37.4635220992379],[127.1768587012689,37.471201300896695],[127.1839599999252,37.4769799994206],[127.1856271039194,37.4866704021889],[127.17894670581529,37.4846897046761],[127.1763611084009,37.488947400418404],[127.1593668017382,37.5328886983121],[127.1681627988804,37.534064398869496],[127.1643864990763,37.5288162013329],[127.1678863983577,37.5230964993043],[127.18864289838041,37.545215495857],[127.1980741978538,37.5267137003171],[127.2104291977561,37.5281134975717],[127.2145481017077,37.5331419983297],[127.2240965004715,37.527735798518904],[127.2344364962838,37.5335847959631],[127.23586319530119,37.5302580986652],[127.23993800281809,37.535801496740596],[127.2344365014567,37.5335848043369],[127.2366577008475,37.5435216994633],[127.2099551008464,37.556422102038496],[127.2030416060693,37.578526004641],[127.199151899018,37.5691733011216],[127.1928805011328,37.580232700950305],[127.18610319943511,37.579784701310295],[127.1692722997228,37.575938301649394],[127.1694480010275,37.563786201366206],[127.15691990367351,37.5717815995966],[127.1567722987624,37.565393801138704],[127.1511847002546,37.5621201029535],[127.13305430176389,37.5679201058674],[127.1312051022955,37.5741014991684],[127.12928049737499,37.5626744070862],[127.1210017026766,37.571762601333],[127.11668730088509,37.5691131032461],[127.1073445050391,37.5731159025736],[127.11328660002009,37.5786868974901],[127.10790920199659,37.5846502006163],[127.1075785026304,37.5971895967448],[127.1155894000972,37.6038591978507],[127.0959453009103,37.6156769008515],[127.09401670191549,37.6255440001447],[127.0866586034292,37.6269147019076],[127.081686301505,37.637877698750195],[127.0771401057792,37.6381066025793],[127.07043310052751,37.6592282995842],[127.0634269007615,37.6615927006663],[127.06704209942819,37.663795799108804],[127.05742240065379,37.6714431005099],[127.06071300126031,37.6789550957684],[127.05841630044131,37.6769191030634],[127.0553544002777,37.6835338007753],[127.0495505006227,37.6801854017947],[127.0540309989442,37.670701801321805],[127.05056379955181,37.667217900112995],[127.05817650029441,37.6576097991773],[127.04913169990111,37.6524464003036],[127.0495332995458,37.6469486048075],[127.0606054987688,37.6369208008994],[127.0543406991411,37.6171496023091],[127.0475891996946,37.617314100722],[127.0342005997273,37.6053248001404],[127.0313592003907,37.6172262002289],[127.0256279996825,37.615219700154896],[127.0285766983436,37.609099300953],[127.0194607998597,37.6060384025099],[127.00953500084199,37.6098531996789],[127.0108697003463,37.6143519999037],[127.0045937986601,37.613359800964496],[127.00966529959929,37.5964966019105],[126.9991088004793,37.5957275007273],[126.989232898572,37.582921502656596],[126.970502499874,37.5834481003955],[126.96642899931281,37.5780193013883],[126.95618659985199,37.5771379014127],[126.9419910006599,37.590905199235],[126.9577190976173,37.5686237997405],[126.9515947997584,37.560632400522906],[126.92567590044081,37.5613745002556],[126.9178056996932,37.5531490009195],[126.9071426999672,37.5553063007432],[126.90729399970219,37.5482255005801],[126.9123469997851,37.5452876994472],[126.9243789997026,37.5477320987871],[126.91854770093241,37.550224999589496],[126.9197983004182,37.553680198989305],[126.9320562996565,37.5534515996532],[126.9313511994374,37.5445858998943],[126.938364198818,37.5438855003883],[126.9319007011547,37.5303241114216],[126.9151808021929,37.5349287076787],[126.90973750054951,37.5321987002704],[126.90290900079229,37.5422386007293],[126.8898162009891,37.5438811002888],[126.8888925996612,37.527298201118],[126.8789825995745,37.5242115016316],[126.86412150035899,37.529098900637],[126.8533907994432,37.524650599866604]]]}}]}