{"type":"FeatureCollection","features":[{"type":"Feature","properties":{"interval":15,"stationId":"6039313681","profile":"peak"},"geometry":{"type":"Polygon","coordinates":[[[126.8509299995367,37.5240525999036],[126.8907711994777,37.519673599193],[126.8927481995364,37.5138111002222],[126.9115715997608,37.5173756987636],[126.9186481989458,37.5138895987947],[126.92754699874381,37.5183603989135],[126.9291432009295,37.524727400304506],[126.9151422009872,37.5196811006131],[126.9112512010685,37.5254592994811],[126.9176852009328,37.5289440992283],[126.91162250004069,37.526002701669796],[126.90083210130051,37.5374820001014],[126.8991901992272,37.5310860018689],[126.88146569866491,37.5243569027959],[126.86404140044341,37.5310100006012],[126.8509299995367,37.5240525999036]]]}},{"type":"Feature","properties":{"interval":30,"stationId":"6039313681","profile":"peak"},"geometry":{"type":"Polygon","coordinates":[[[126.806484899493,37.564157700941905],[126.81152759965441,37.5562810988958],[126.8152090011199,37.560931098157596],[126.82631089840919,37.555036799507],[126.825578199432,37.5493954006054],[126.82969249847379,37.5477742987092],[126.8258249996599,37.5397347001966],[126.8458813995248,37.514242101302095],[126.8574199994659,37.5135087993756],[126.8609768982051,37.5084648997021],[126.87080109889389,37.5128785006824],[126.87480599929391,37.5084972998155],[126.8721287998537,37.4992930999985],[126.8788977987341,37.5009756979715],[126.88261219944519,37.4969056000622],[126.8859950996656,37.4915553992546],[126.8822773996266,37.486209900753096],[126.8866042988635,37.4817080995054],[126.899048199478,37.4889234992482],[126.9030695002234,37.5041902996687],[126.9064935978751,37.5043376989147],[126.9069283997035,37.4979894998304],[126.9164442982827,37.4943788003573],[126.9163728981988,37.4909209012674],[126.9067326006821,37.4894465008243],[126.907585398931,37.4836573998112],[126.9177101998918,37.483080299220696],[126.9235492998028,37.4903991994362],[126.9268620986463,37.4890314998319],[126.9231318996905,37.484081000432106],[126.9335727999208,37.4761203986985],[126.9361236007022,37.485837499862804],[126.92350670200571,37.493908400163406],[126.9323797006453,37.5007527998736],[126.926257201659,37.5085223982712],[126.9393995998559,37.5051786008074],[126.9585036995818,37.5106274989774],[126.95846739982301,37.506889001663104],[126.9654996989454,37.5059787972501],[126.9585245009621,37.516837000647],[126.9463059010664,37.5162045004987],[126.9405485081951,37.5234010087381],[126.9448079039357,37.5337597983793],[126.95077449796909,37.5308596012795],[126.969738400228,37.538530499317],[126.97097259959439,37.5349190014392],[126.96104199924231,37.52527710011319],[126.9641054991943,37.5238899990943],[126.97936210078531,37.5346144993742],[126.9742997002009,37.536743901048595],[126.9733669004506,37.545569200159605],[126.96200300072539,37.5456203993598],[126.9661445005341,37.556709899204805],[126.9717974997909,37.5581994991403],[126.9682960002634,37.554081500504104],[126.9740404993089,37.552651899607504],[126.9722846005178,37.5613972996492],[126.983011700193,37.570695900122594],[126.9725345005071,37.576314500192105],[126.9691519998314,37.5700224009028],[126.9601451995452,37.570934100810206],[126.9493240009438,37.560182100697496],[126.9165067000829,37.5705525006808],[126.91420719987741,37.5609074010195],[126.90667620047181,37.5695947001264],[126.90702810103741,37.5772614998375],[126.89888949917409,37.580753201574],[126.9002455994849,37.569275700282],[126.89311619979719,37.5619412003459],[126.90310899882721,37.551207499212595],[126.8992705019365,37.544340105949196],[126.8898162003704,37.5438811006097],[126.88731440063519,37.5377574021312],[126.8818278005203,37.5423054012089],[126.8861292977481,37.546200497523195],[126.8754309998924,37.5519415004775],[126.8667218011385,37.5510034002649],[126.8627743006335,37.5600422990638],[126.85368680056061,37.563029400205195],[126.8627305993151,37.5466511001395],[126.87441779868891,37.5422751993479],[126.8719072000083,37.536943900614894],[126.8643663006828,37.5420251001475],[126.8509079003332,37.54094710086979],[126.8491135009868,37.5502717002026],[126.8434900021459,37.554100000388],[126.8486712007086,37.5573061991772],[126.8415866001783,37.5656366991935],[126.8246818003332,37.5657245010619],[126.819841398607,37.5604431019513],[126.806484899493,37.564157700941905]]]}},{"type":"Feature","properties":{"interval":60,"stationId":"6039313681","profile":"peak"},"geometry":{"type":"Polygon","coordinates":[[[126.6291423987267,37.4786893001297],[126.6431875001248,37.4622240997447],[126.659032799894,37.4673669995146],[126.6927634995608,37.4634983993417],[126.6886339988493,37.4588566004834],[126.6803028000169,37.4630203003294],[126.6748505000012,37.4597272013006],[126.67908279865361,37.4550188006074],[126.6953402993467,37.4546963991921],[126.693542199793,37.433589501971895],[126.6995220004721,37.4247139995226],[126.7024372999894,37.425554399839804],[126.69786930329829,37.4341731990327],[126.71148339939771,37.454475698360305],[126.7086391031328,37.4572155006517],[126.7179591999828,37.4607190996409],[126.72292290170991,37.4806839974819],[126.7478432987297,37.4811671984784],[126.74410420205409,37.4907021996406],[126.753069399519,37.478357000223],[126.7549390986215,37.4830488976895],[126.7883233966289,37.4642970997047],[126.7836930970188,37.446136801269596],[126.77427739975191,37.443394400646405],[126.7775765992702,37.431382600031796],[126.7961896001464,37.4330284994899],[126.80670170232,37.4481161976513],[126.80364820190229,37.447346601694406],[126.8042301045711,37.4604435980174],[126.8091220003065,37.469178898699504],[126.8207396989581,37.4737447974614],[126.8229261998902,37.4681400005042],[126.8276176027199,37.4782446948163],[126.8373029966378,37.4792471948705],[126.8415376995348,37.462888799874804],[126.8653131968417,37.4579177960488],[126.8655033990965,37.452512101102],[126.86624550115461,37.4564520955258],[126.87133489606519,37.4544254975524],[126.879261698986,37.4411132971275],[126.8823293026545,37.444952997101495],[126.8917591956967,37.4415018004921],[126.8884521990543,37.437326102273],[126.8940642925203,37.4292692026792],[126.8972410990438,37.431111598586604],[126.898848998589,37.4238380998643],[126.8920254011499,37.4175909007283],[126.8930872004692,37.4205719998656],[126.8776220035372,37.4237912022712],[126.8805033959976,37.4215000993117],[126.8747348017662,37.4174807033311],[126.87975349030461,37.4126149956445],[126.8948794987254,37.4114301993491],[126.91095849914991,37.4000053981721],[126.91488149956241,37.3906963998075],[126.92417069862391,37.3900652995014],[126.92227429774479,37.3817220020803],[126.9359679976534,37.3783305981884],[126.920707597163,37.3457280009981],[126.92627460063,37.3433299994411],[126.9298065020927,37.350350198646105],[126.94212519933731,37.3556440981849],[126.9433569000507,37.361717299049104],[126.9495862984196,37.3594061994375],[126.9492709987904,37.3531037002728],[126.9414965006446,37.3488726004059],[126.94006089966521,37.3429139002039],[126.94339020172809,37.3424118997656],[126.95747349965701,37.3497149995731],[126.9585502012227,37.3572365988679],[126.950095601727,37.3617619998702],[126.9563442001786,37.367581798883],[126.9522947022585,37.3746632992408],[126.9405650049958,37.379772899981],[126.9554628997688,37.382817599719104],[126.9689746001538,37.394693498701905],[126.9597298005153,37.3995403018844],[126.95875919904171,37.3957319005212],[126.94278589951371,37.3922315005881],[126.9384914021397,37.4018262003491],[126.932760404272,37.4035293997502],[126.9367069999129,37.4088672989528],[126.9307688005492,37.4047208044425],[126.9285082028098,37.410259698903594],[126.9213905017351,37.4109928020107],[126.9249682999596,37.4195303981821],[126.9166307034648,37.4268978995408],[126.91744920162799,37.443682900917295],[126.91322600256389,37.4417825008493],[126.91934589968349,37.4495017994417],[126.91620210010241,37.4505701014564],[126.91894960095911,37.457141398942596],[126.92381350126479,37.4590925971481],[126.93052669817911,37.4519810989556],[126.9383778012526,37.4569597941436],[126.9492965978075,37.4515013973079],[126.9610431037062,37.4627564951985],[126.968676296073,37.462033995921004],[126.96825479649449,37.458810399144596],[126.97436260043851,37.4622457964732],[126.9806033997507,37.4710080979516],[126.9884666994664,37.4660825001595],[126.9903535987343,37.4442588046065],[126.99453269627769,37.443519800074796],[126.98466100074491,37.4311341025752],[126.9831299994093,37.4233687003356],[126.9886674969443,37.4196604007127],[127.0004160004539,37.4270871992258],[127.0152881987494,37.4292533986993],[127.01043600127319,37.4342396961498],[127.0169883995233,37.432817701097804],[127.01782110278211,37.441856196458],[127.0121255031049,37.449066798499395],[127.01694069909091,37.455260798365195],[127.0058475064104,37.4623663998264],[127.0096195008647,37.4733925990042],[127.0172239994496,37.471869297766],[127.0271905001229,37.4837784995985],[127.0266104987753,37.473247200269],[127.0329860985645,37.4600894000738],[127.0389128999105,37.4585655999361],[127.0403545998345,37.4634989995356],[127.0479189988471,37.457282000480596],[127.04673349929371,37.4488476015003],[127.0525457949028,37.449517296588894],[127.0495687978798,37.4403905057157],[127.06235669965639,37.437334196979],[127.0654088020198,37.4502021009872],[127.0584834041438,37.4519174007154],[127.06322109936261,37.4532192999611],[127.05913650224389,37.4579211011426],[127.0561109995075,37.4547280006673],[127.05058100309729,37.4574698021436],[127.0548087990867,37.481847998312396],[127.0583711997884,37.4773182990696],[127.07018909660309,37.4825540952299],[127.0676148991773,37.4775614002226],[127.0751340008114,37.4848463982566],[127.0862732950425,37.4790287982093],[127.0853036993897,37.5007904971674],[127.0962528986321,37.4973403973398],[127.10976260040509,37.5010251988298],[127.1119742997853,37.495733501202],[127.1052480001258,37.494468500455504],[127.10887199960821,37.489744400951096],[127.0997684004837,37.4928107998033],[127.0945979982709,37.4843824010212],[127.10784309887589,37.483521299413],[127.1077086006096,37.4886707975346],[127.115090500043,37.489768397733606],[127.12547839744171,37.4741699007883],[127.1316664002665,37.480462499816305],[127.1264533004205,37.494402399297],[127.11720000096669,37.5021182016559],[127.1168464007091,37.5183622997965],[127.10376870067991,37.5242208011971],[127.0994498011574,37.541960596821006],[127.1123994013646,37.545001394850594],[127.1105040001334,37.549661098394004],[127.1018004022743,37.5488333011649],[127.10121720221919,37.554269098412696],[127.0893047014729,37.5633639984567],[127.09576109979031,37.579704299400106],[127.0912588003615,37.5909682000862],[127.1005809003966,37.5997004996781],[127.07943640073171,37.6054525007401],[127.0814424003212,37.6104714993275],[127.076022800313,37.620758600654405],[127.0681940990503,37.616574200729104],[127.0597029014404,37.6249385999378],[127.0567629985849,37.619507400012104],[127.0638311992057,37.6182647997772],[127.062476499684,37.6155182009364],[127.0570416997954,37.6121463013475],[127.0522040000112,37.6160086007163],[127.0419763011634,37.608690301654896],[127.0409901003601,37.616549199636204],[127.0334275029909,37.6206708990939],[127.0332190009635,37.6442729988145],[127.039106300097,37.6445412995224],[127.0397748018142,37.650751900114706],[127.0490790999231,37.6517560953611],[127.0458806024981,37.6569753992447],[127.0424308999879,37.651874801567004],[127.0368265003439,37.6549727003894],[127.02847039982281,37.6510333010739],[127.02959410036169,37.6440964005059],[127.01429189979021,37.6413740006629],[127.012903997733,37.622129801946905],[127.0009870008546,37.6188914004169],[126.99885089926329,37.6122900011125],[127.0056704989465,37.5981079003708],[126.9943576993181,37.6003466028909],[126.9873289997283,37.5933112002033],[126.96985740387889,37.5909129021537],[126.9615269002213,37.5940038023681],[126.9611550002016,37.5840366026036],[126.9412271023435,37.6060236024785],[126.9465809026278,37.627139300388],[126.9375318065229,37.628642801004],[126.94147420258051,37.632233497413296],[126.9375232018367,37.6286755039432],[126.92072640070711,37.6540468994872],[126.9075273008483,37.6532374017694],[126.91344409846931,37.6503204983442],[126.9059230023195,37.6487635016595],[126.9115921956832,37.643608599679],[126.90743889976851,37.6336248070641],[126.9112692980042,37.6296592994554],[126.90082780022111,37.6201543017617],[126.8974778025058,37.6114787023023],[126.90121089663289,37.611796496682395],[126.9014158975142,37.5982735012405],[126.8959227030074,37.595952703561295],[126.8786611000841,37.5988580007525],[126.8819628013185,37.6044708980107],[126.8768263008079,37.6090011998116],[126.87659290058991,37.618530699607],[126.86229349961441,37.6128716045845],[126.85360450301461,37.6145250021534],[126.8556104001381,37.6200366995509],[126.8501556026704,37.6247682006614],[126.83063280007781,37.6201476003241],[126.8086084985057,37.6244799013558],[126.8047653006992,37.6175663005623],[126.81411919761989,37.6156080966415],[126.8147053988556,37.6016130003947],[126.8301623966494,37.599270399051605],[126.8319012009386,37.6070415976627],[126.8427022990495,37.5999594981906],[126.8481512020243,37.6067744965375],[126.8582307977821,37.602908899519],[126.8599854956063,37.5920125018416],[126.8743537978139,37.5880059994124],[126.8698455998869,37.5809661002696],[126.8798984994415,37.580497499881],[126.88325999624001,37.5740700001561],[126.8786251992033,37.5696338020748],[126.85954410044239,37.5796352005527],[126.8555688010706,37.5785607026721],[126.8642368975802,37.5737494004933],[126.8558023060148,37.567675706567],[126.8218896997441,37.583948800437504],[126.8243651991955,37.5820150005486],[126.8168942009732,37.580768501483796],[126.8144506027807,37.583393799390905],[126.81806789916341,37.584668898115794],[126.8002106010498,37.5940990997538],[126.7953778004012,37.5944761014972],[126.8010628993152,37.5931860991166],[126.7936859992516,37.5876394013729],[126.7841418000492,37.5950764997222],[126.7690536010583,37.595149299474706],[126.7869881008384,37.6035563988074],[126.7737839048073,37.6136449987845],[126.7527248022834,37.608407699086804],[126.7617838991095,37.5888282984574],[126.7868633967861,37.590268899713095],[126.7887793993929,37.579745603523506],[126.78454190103949,37.584805800297296],[126.78062250034581,37.5817913007191],[126.7810351955363,37.5723208032223],[126.7904878988427,37.566374692500794],[126.7993937003088,37.5758302957253],[126.8043332988424,37.5680287006308],[126.7984198005241,37.563155202025094],[126.8139417975667,37.5471032001008],[126.8041864994816,37.5334372008493],[126.7991162011542,37.5375927009027],[126.7994939974746,37.532399502766694],[126.7893814006324,37.528870200072],[126.7979377982714,37.5255966999051],[126.7874188006638,37.5239530005464],[126.791404998954,37.510211003952996],[126.78352029979581,37.516842400465904],[126.7594416991998,37.5095619011083],[126.75380359988179,37.5148734004227],[126.7494975998245,37.5103432003576],[126.73638030025009,37.5134995011905],[126.7313504016475,37.5227529011669],[126.7360592003892,37.5305641991481],[126.7322032014379,37.5364486999179],[126.7440511997219,37.542532699531],[126.75179019988481,37.558545697645705],[126.74673870296239,37.5727140981436],[126.7343295999989,37.5794591008054],[126.72072349599861,37.5678139005231],[126.7249591952398,37.5631748022126],[126.7386299977669,37.5655134937293],[126.7427901995904,37.5542465995101],[126.7183600986835,37.5465464012527],[126.7100314992978,37.5290263998947],[126.7153161991262,37.5250619995122],[126.6930294014701,37.510061503481396],[126.7025571913346,37.498671001093804],[126.7074937002305,37.5022867988283],[126.7143292974283,37.4999549977775],[126.7149676994879,37.4907882022088],[126.7070444000429,37.4950057005955],[126.7032702996477,37.4795878018117],[126.6922047013234,37.478691400707305],[126.68817390016389,37.4870518000571],[126.6815424004399,37.4870777006083],[126.6817230980657,37.4781121014353],[126.6746754000859,37.4770422012622],[126.667922998856,37.468108601317],[126.6548213018081,37.4731288996473],[126.6483099990291,37.4695887032625],[126.6441804031587,37.4720151008361],[126.64670510030611,37.4743985989736],[126.6291423987267,37.4786893001297]]]}}]}