{"type":"FeatureCollection","features":[{"type":"Feature","properties":{"interval":15,"stationId":"6046633859","profile":"peak"},"geometry":{"type":"Polygon","coordinates":[[[127.06082629893591,37.534086999581],[127.06867029933919,37.5284025000299],[127.0838934004442,37.5437684993099],[127.077065701424,37.5464062011093],[127.0778155001711,37.551865399707],[127.0895612994801,37.5500667995799],[127.0856500006908,37.5590834998112],[127.0875740001258,37.5771858006741],[127.06224230084669,37.54877480372139],[127.0651648995596,37.5364703997919],[127.06082629893591,37.534086999581]]]}},{"type":"Feature","properties":{"interval":30,"stationId":"6046633859","profile":"peak"},"geometry":{"type":"Polygon","coordinates":[[[126.9951006994796,37.566772299753],[127.0076906995853,37.5617820991991],[127.0115780991559,37.5525270992298],[127.01572079938279,37.5560309999009],[127.0129698004229,37.5409469010401],[127.0228724984799,37.533976696129095],[127.0172795005342,37.5390734007608],[127.02062209969979,37.542003195618705],[127.01710510086009,37.547302098564],[127.037136099609,37.5549445994906],[127.035055600215,37.5522693002614],[127.0419446967194,37.5512665988129],[127.0367224000213,37.5477328010671],[127.0428564992157,37.5313979997789],[127.0257920001759,37.5313031005078],[127.0269854996531,37.5240900000154],[127.008995500263,37.5167110012531],[126.9977434998582,37.4997021002426],[127.00325909922509,37.4976905002686],[127.01701249933261,37.5035677994035],[127.0282938992727,37.4926260003355],[127.04885559838219,37.5026937983016],[127.0468094994816,37.4942203006824],[127.05458149868849,37.493533899983],[127.0503160993406,37.4886885002065],[127.0570420994929,37.4834926001981],[127.0659767987089,37.4890795978183],[127.05930270149851,37.486299001714],[127.05642640034051,37.5065332989233],[127.07751779971599,37.5104446995187],[127.0866271984731,37.5052505999371],[127.09082960086151,37.5100103996557],[127.1057327997806,37.502705899498004],[127.11103270042399,37.505048699034006],[127.10783510039771,37.511888999502595],[127.1168464007091,37.5183622997965],[127.1080166019817,37.52774629966439],[127.10376870067991,37.5242208011971],[127.1022414033739,37.5355960968785],[127.1066957048305,37.5429255933665],[127.1123994013646,37.545001394850594],[127.11494039882359,37.541358198493796],[127.1169667991896,37.5269193003527],[127.1250644019174,37.5299494991176],[127.1343002996069,37.5266766989683],[127.1464714001212,37.5365166991354],[127.14467860184371,37.5548479998718],[127.13844919962929,37.5422462009159],[127.132781099824,37.5400745005306],[127.1286278010089,37.5450602998552],[127.1346343996662,37.5471237995252],[127.1296580013515,37.5556114999589],[127.1184507999683,37.543911200908],[127.1112135994238,37.5454726025825],[127.1108252999576,37.5541401004334],[127.09504510104719,37.5555421010952],[127.09390090278539,37.5667976973588],[127.1038248010868,37.578736799819005],[127.099482200973,37.581694401762604],[127.102281100438,37.5906264995277],[127.0974955006577,37.60257759980669],[127.0817245013871,37.6072791008584],[127.0825949001142,37.620712599452595],[127.085532300539,37.6197193992345],[127.0707598004582,37.6310082004414],[127.0720806000923,37.6379224985192],[127.06646719975231,37.640433200690794],[127.0647334994243,37.634888501210305],[127.070623199346,37.633259601553405],[127.0659226000781,37.6234205003531],[127.07175189945349,37.621628900417896],[127.0681940990503,37.616574200729104],[127.0739560996389,37.6021043009433],[127.0704006003926,37.6031581017041],[127.0710596998603,37.5939634999942],[127.0777052988174,37.5827090006144],[127.0729525001737,37.5817683002604],[127.0758130991535,37.5777309992497],[127.0716733993521,37.572981500100695],[127.06231120094779,37.5700576001746],[127.0549108004908,37.5762309003733],[127.0430903998207,37.5726926014339],[127.038382200348,37.576796900785595],[127.0342225002619,37.5709194008988],[127.0234808008184,37.5685997004772],[127.0156858005151,37.574308900461],[127.0128392009066,37.5677338002003],[127.00938500026339,37.5717798003692],[127.0061365994984,37.566955401311],[126.9951006994796,37.566772299753]]]}},{"type":"Feature","properties":{"interval":60,"stationId":"6046633859","profile":"peak"},"geometry":{"type":"Polygon","coordinates":[[[126.8339453996586,37.5690379998428],[126.8385951988476,37.5620414001057],[126.848408999041,37.5634893998846],[126.8500687990589,37.554367899340804],[126.8593915992736,37.5535607976543],[126.8575831999431,37.5505857002633],[126.86759409965191,37.5383553993839],[126.8910430972258,37.5353755985521],[126.88751599940251,37.5279039026978],[126.87868410069021,37.533092400114],[126.8686821003109,37.5299219009365],[126.8629575999027,37.5333003011375],[126.85087060103609,37.5283202001319],[126.85121030066401,37.533633100282806],[126.84283809921389,37.5355041004947],[126.8424985994717,37.5294314999162],[126.849020899192,37.5273146993449],[126.8524065982422,37.5190904996595],[126.8810541983594,37.515623498462],[126.8721287998537,37.4992930999985],[126.8788977987341,37.5009756979715],[126.88261219944519,37.4969056000622],[126.8752328970244,37.4803870011713],[126.8726215996357,37.477687503870804],[126.8541660997648,37.483097900149],[126.8486876999818,37.4810609007395],[126.8512728999613,37.4752416000103],[126.8613837997503,37.4774224974255],[126.8676393995367,37.4699494996813],[126.8739681007856,37.4763731988726],[126.8824229987021,37.4722606996475],[126.89701739941789,37.483838798013004],[126.9152723992032,37.477737299442104],[126.922967697886,37.480083198233906],[126.9315651951812,37.4643686004752],[126.9514385999867,37.465934499775905],[126.9537161999259,37.4703373968341],[126.9583427997889,37.464635300080495],[126.97436260043851,37.4622457964732],[126.9806033997507,37.4710080979516],[126.9884666994664,37.4660825001595],[126.9922611956211,37.4535594021874],[126.9861209954412,37.4448022044625],[126.9910699944234,37.4427248977064],[126.9814583987687,37.4286541063735],[126.98432599671439,37.4267266005386],[126.9783457996721,37.4234011012143],[126.9825392995857,37.423704296526395],[126.9849637980892,37.416961700387205],[126.9998430006742,37.4255865994439],[127.0174022997956,37.4267390998608],[127.01918900369729,37.441673095885506],[127.0121255031049,37.449066798499395],[127.0214408992636,37.4603334997068],[127.0273870978566,37.452108299199196],[127.0433234949404,37.4508386944969],[127.04457879368509,37.4402141051215],[127.0407989974649,37.4382830070526],[127.04725259771779,37.4322285973755],[127.0699220000119,37.4341684996747],[127.0723027017981,37.442386196871205],[127.0666571054002,37.4464463004604],[127.07081430044879,37.4554602988906],[127.06086000315811,37.4610822016931],[127.061624102394,37.4689519938233],[127.077111598348,37.4750565942953],[127.1080953990912,37.4687016998339],[127.10727419894201,37.4622140005235],[127.1173853960301,37.462511298083],[127.11793829528621,37.4561134033359],[127.1241496977556,37.4591378962324],[127.1182706986871,37.4305248016772],[127.1225781008238,37.4317993987022],[127.1289507991358,37.423944298796904],[127.1200583992702,37.408848900121505],[127.1064626984723,37.403966901428504],[127.10031470112,37.4077244011513],[127.10032819901011,37.397639500960096],[127.0963222994789,37.3982312011757],[127.0992729993766,37.3927172000067],[127.10332459905929,37.3978419986658],[127.105889999472,37.3948992997314],[127.0963899999242,37.38819530057],[127.1063706960768,37.3834350998162],[127.1049339989307,37.3655994997395],[127.0950302023355,37.3637967020736],[127.10464219879461,37.3605171012166],[127.0981198968027,37.3498226048327],[127.0930122019104,37.3493268053285],[127.0972269958971,37.345613800723704],[127.09047729875161,37.3379430021478],[127.1002391991606,37.3271648013955],[127.08968040081821,37.3271879014069],[127.08404160123371,37.3183932003299],[127.07366289955971,37.3161226005618],[127.074582698915,37.308912899932906],[127.08487839882599,37.3126843979772],[127.084720999563,37.3095631000932],[127.0882180004924,37.3187966992578],[127.0983046997049,37.316953198822404],[127.11015759996859,37.3233591989613],[127.10286070074349,37.3301442002347],[127.11365290080471,37.3363669986826],[127.1098019012494,37.342512400591694],[127.1153342996046,37.3422477997668],[127.1218284010124,37.3546149981355],[127.1116373004083,37.3555750004567],[127.1177639007732,37.3654071005719],[127.1242761994983,37.3668477996342],[127.1221203012213,37.3753276998019],[127.1263484994775,37.3858753984788],[127.1378656997514,37.3917356995348],[127.1322664026935,37.403553200121095],[127.1380803004314,37.4127310995528],[127.1311565997195,37.422604398134396],[127.15603159674451,37.439537696796705],[127.15882089841979,37.434335698526496],[127.1653564994343,37.4351432990418],[127.17347459922641,37.452316198397796],[127.1706532006669,37.4617115001108],[127.15591030275681,37.4653474035249],[127.1553402008326,37.4721914001955],[127.14724030064741,37.4775084996987],[127.1507867004911,37.4842556975496],[127.1677512012006,37.4847620960337],[127.16111810464399,37.4964304988573],[127.1652032008433,37.503649096503],[127.1579646036256,37.5066505023894],[127.1632300008483,37.515951798871605],[127.1555939007962,37.5300975987929],[127.1602526961374,37.529942098948396],[127.1605774020413,37.5357329964104],[127.1692154963374,37.5409618957987],[127.1736351013682,37.5377863976629],[127.18864289838041,37.545215495857],[127.1987101994357,37.5283121999485],[127.20536419991821,37.5305188971291],[127.20207240204091,37.5307877006698],[127.2049359000395,37.5346388972444],[127.21026979884971,37.5298459012544],[127.23443649472401,37.5335847983277],[127.2376445000228,37.5405981991044],[127.20610450200489,37.5605848003857],[127.2071433012127,37.5723128973979],[127.2025870020118,37.5708842027052],[127.2137366994094,37.582845299999704],[127.21094000012529,37.5906714004597],[127.2043802011506,37.5894646015141],[127.2091108939307,37.583166995359],[127.20032840101861,37.5728036022091],[127.19992020142679,37.5760320989806],[127.199151899018,37.5691733011216],[127.18610319943511,37.579784701310295],[127.1719402007054,37.5723472008831],[127.1694480010275,37.563786201366206],[127.156712500204,37.5695194003237],[127.1511847002546,37.5621201029535],[127.13305430176389,37.5679201058674],[127.1266365019902,37.5748673019047],[127.12178230212221,37.6008481976732],[127.1370048998715,37.591526800297196],[127.156536000234,37.593421399856],[127.1500507022525,37.6010036991627],[127.1676079996331,37.6044535999764],[127.1720444001395,37.613985198700504],[127.1628549008251,37.6157006999297],[127.16364250022339,37.6190940988986],[127.1661909990695,37.6161582990236],[127.16364250176629,37.6190941002886],[127.14339369951871,37.6117591024555],[127.1379278019404,37.6164122989757],[127.1217836021147,37.604786902837404],[127.12013140194381,37.6135791995295],[127.1194583995296,37.6048047013457],[127.11558939922901,37.6038592038603],[127.1107777001308,37.621242097751605],[127.1156858977204,37.6186395009834],[127.13514630106211,37.6333170995582],[127.1496604999691,37.6326076999298],[127.15587700027011,37.6429942983466],[127.1526772006831,37.6541561980596],[127.1559708986633,37.647437000709],[127.16128169960331,37.654113698692704],[127.16642439962429,37.649962099557904],[127.1636722007999,37.644366402933706],[127.17782439710301,37.647388796496],[127.17815529980071,37.636059599393306],[127.17782440332411,37.6473887960582],[127.18090910023939,37.6495242939227],[127.1905689978373,37.6406634984407],[127.1943686022494,37.6512098010197],[127.18463920094571,37.664459300218596],[127.1715945040263,37.665328200238996],[127.15390719983121,37.6529111014997],[127.1558257997555,37.6572774993654],[127.1479511046841,37.6647604001582],[127.1339071009613,37.6578001055325],[127.1235784000915,37.6626667001116],[127.1212950988261,37.6554223999824],[127.11375300073131,37.6576026009425],[127.10488769865111,37.6439784026655],[127.090776903726,37.6448551007604],[127.08863940215761,37.6536278013009],[127.09561000034759,37.671561298650204],[127.0884260062677,37.6713272019328],[127.0905210038803,37.680848500273505],[127.0783332042364,37.681581804288996],[127.0706118052286,37.6903870001877],[127.05710160653159,37.6946662002253],[127.06591319772,37.700870894020596],[127.06030250054131,37.711862701177296],[127.0518277037665,37.7145186006834],[127.0595296009199,37.7288402995842],[127.0549369008435,37.7422485002225],[127.05850380028839,37.746700599951794],[127.05510900010191,37.744849400861696],[127.04013690063269,37.7625523001697],[127.03986179923899,37.746785401067],[127.02959600032929,37.7403653009936],[127.04221529823239,37.710451300808906],[127.0363596031438,37.7117041997302],[127.0385632942592,37.695570807451396],[127.0294327999963,37.6959804025682],[127.0272261967084,37.688757003049304],[127.0327438975101,37.6788189037358],[127.0291685989506,37.6594290006676],[127.0216752992698,37.6543025024294],[127.0175699015782,37.6614723994428],[127.0080348979523,37.6645939008119],[127.0081908972402,37.6272587001143],[126.99489300010741,37.620419406149104],[126.99963219940899,37.6111483999932],[126.9943825003056,37.6110095001388],[126.9963571973186,37.6014656017719],[126.98621039967401,37.5975800004329],[126.9834042988751,37.5903590030729],[126.96985740387889,37.5909129021537],[126.9647932979204,37.5838181015647],[126.95787200118599,37.5848118013857],[126.9491947002045,37.5991437005705],[126.9413837020202,37.598611300922805],[126.93622960263541,37.621665100129],[126.921853200463,37.627277499934195],[126.9258818007111,37.6386001977644],[126.9165098005193,37.64338040077],[126.9120500999793,37.6356010005624],[126.9218531984292,37.6272775010376],[126.9129370003495,37.6238580030575],[126.9106081004158,37.6140903005185],[126.9204336997789,37.6010536000606],[126.9116235003611,37.5988853002937],[126.91309859932329,37.5883993998669],[126.8913603997938,37.577756201027604],[126.9003879994118,37.5694973017701],[126.89311619979719,37.5619412003459],[126.90310899882721,37.551207499212595],[126.8992705019365,37.544340105949196],[126.8872783006537,37.5467203004895],[126.8820485013364,37.5499050010797],[126.883853900275,37.5532879981182],[126.86909509991439,37.5533231001914],[126.8595211022663,37.5673482968238],[126.84630410101819,37.5664982021561],[126.8452120017902,37.573387899150504],[126.8339453996586,37.5690379998428]]]}}]}