{"type":"FeatureCollection","features":[{"type":"Feature","properties":{"interval":15,"stationId":"6046634710","profile":"peak"},"geometry":{"type":"Polygon","coordinates":[[[127.0637730983602,37.6331810011224],[127.0699323993606,37.6319971006097],[127.0659225997557,37.6234205003471],[127.0720076981803,37.6185684003589],[127.0657485993826,37.614481000525195],[127.07204689889511,37.6148951994153],[127.0728631999751,37.5991304002425],[127.083449498932,37.592724299093],[127.086279499252,37.5787678998961],[127.09256770008841,37.5806122998211],[127.0917822009298,37.5973584998788],[127.0862005999693,37.598192200756],[127.0871324004965,37.6199312999876],[127.0723393012306,37.6290938019483],[127.0720806000923,37.6379224985192],[127.0662195009846,37.6411240002211],[127.0637730983602,37.6331810011224]]]}},{"type":"Feature","properties":{"interval":30,"stationId":"6046634710","profile":"peak"},"geometry":{"type":"Polygon","coordinates":[[[127.0083677993776,37.5710888998431],[127.0141530991873,37.5692633000014],[127.0144799998738,37.563910900095706],[127.0211736001595,37.565617199449996],[127.0160898017086,37.569563899672396],[127.02091389990089,37.5734620994318],[127.04503139994159,37.5742733987757],[127.0709654985833,37.5920681985873],[127.076353700169,37.5843179990054],[127.071876999683,37.5786170002135],[127.0786143987426,37.576321499981],[127.07394140018809,37.572310600137705],[127.07515089794289,37.5628598011905],[127.05826650028351,37.562980600620804],[127.0614855989658,37.557153999039194],[127.0681107005597,37.5601841980323],[127.0706418980285,37.557066401150095],[127.061832300103,37.5317385007247],[127.0682279984352,37.5289855999961],[127.07977289972179,37.5441273990654],[127.0778155001711,37.551865399707],[127.0950758984682,37.547991598776605],[127.0909367015805,37.5657048994654],[127.0959913025321,37.5768064956804],[127.1038248010868,37.578736799819005],[127.1032352012079,37.596814599775705],[127.1137885001019,37.6041634975823],[127.11367260114581,37.608510599208905],[127.0959453009103,37.6156769008515],[127.0943282021374,37.6242320978957],[127.10001320058761,37.6265455993283],[127.0866586034292,37.6269147019076],[127.0805779026134,37.636308600319296],[127.0828841003072,37.639644896983],[127.07645000561959,37.6444480010963],[127.0779645020195,37.659647196719604],[127.0824197975642,37.661467794898996],[127.078743502198,37.6658275997548],[127.08428620043759,37.6730225003271],[127.0671621006533,37.669040202258195],[127.06282830179191,37.679537597787004],[127.0659757994333,37.680621797442996],[127.0450945007481,37.6945804998379],[127.0380253976654,37.686646500377],[127.0495441990945,37.6733467990749],[127.04337600106119,37.6671050009729],[127.050984398718,37.6668376989517],[127.0515309989855,37.658619800446594],[127.0393358997016,37.656881600535996],[127.02783719916589,37.647935500440106],[127.0302075998425,37.6437578004505],[127.04129130063049,37.6473473994346],[127.05224679993381,37.64324649915989],[127.0564126980222,37.621381601504396],[127.0462593012966,37.620136900695],[127.0395885998732,37.6087997014278],[127.0330160002722,37.6090851003627],[127.03053630002289,37.5912010026141],[127.01394259956199,37.5940586008867],[127.0148296988051,37.5757140001206],[127.0083677993776,37.5710888998431]]]}},{"type":"Feature","properties":{"interval":60,"stationId":"6046634710","profile":"peak"},"geometry":{"type":"Polygon","coordinates":[[[126.8841101988274,37.5265217998943],[126.8946446986521,37.517273699566694],[126.89808929976999,37.5169371994479],[126.8967646005048,37.5225623986],[126.9054261999341,37.517961999443195],[126.90769999874401,37.5152200003169],[126.90182729866359,37.5090805001832],[126.9187435995136,37.5070697000454],[126.91655109957931,37.5015103016635],[126.9077016988216,37.500157701934405],[126.9102536982372,37.4981757996978],[126.94626269897391,37.4966860989499],[126.9437287002845,37.493000300457595],[126.96681199533151,37.4828641998867],[126.9600930001156,37.4802719004653],[126.9558549007896,37.4852395995608],[126.9406983001623,37.4845369003188],[126.93924949957851,37.4798490001247],[126.9848792982386,37.4695703001073],[126.9874359988906,37.4609115005692],[126.9935691990338,37.4636874969525],[126.989033302246,37.4697265015873],[126.9939836999711,37.4737439998604],[126.99240980128,37.479656997020804],[126.9974445973687,37.47366920218921],[127.0073621002548,37.4775874989858],[127.01641189792589,37.4751301978561],[127.0287000986133,37.482525000852],[127.03132019904889,37.462620201507505],[127.0459835990461,37.4596232998129],[127.0521222003798,37.4743618991934],[127.06963869923929,37.475017699179304],[127.07018910077379,37.4825540973749],[127.0869641997982,37.476014399974794],[127.08527640185619,37.4834877970525],[127.1059203992554,37.478558297819404],[127.1077086006096,37.4886707975346],[127.117866498021,37.4814285992216],[127.11981609979759,37.4679448999889],[127.1373856988637,37.464895598126496],[127.1364532000712,37.4611130010179],[127.1493471976286,37.4540059971162],[127.1541581003969,37.4583681994564],[127.1257756003489,37.4743382989176],[127.1348514991427,37.4735350988992],[127.1346950005045,37.488311799205995],[127.1393999993455,37.4828787003875],[127.1602121016786,37.4921089978838],[127.15995790064119,37.5011357005953],[127.1411786017233,37.5058698994553],[127.1531888003764,37.5171135996602],[127.1510777046666,37.526560098562896],[127.1627273003172,37.5414331980076],[127.15744890385581,37.5459042969648],[127.16957340044621,37.544145198442706],[127.1776498008601,37.5509236994889],[127.1834565000269,37.548632999674105],[127.1865433008484,37.554373399042305],[127.1959271997482,37.5500284002824],[127.2017788995413,37.5349346997524],[127.2165555001953,37.5408739995884],[127.2162087995916,37.537114700342094],[127.22278449907941,37.5355040989219],[127.2281335000492,37.5384876987172],[127.2213264002619,37.5451605004451],[127.21637429992,37.5421586005806],[127.2150444990871,37.5503303976961],[127.19561870020179,37.5727583000121],[127.1863744000765,37.5736568003621],[127.1814604997982,37.5660846012588],[127.1694480010275,37.563786201366206],[127.15686890069681,37.569307700501206],[127.1547888989848,37.5627120023426],[127.1331908994219,37.5640439007512],[127.1260946002273,37.5809140967372],[127.13134459948431,37.5869091980162],[127.1345663993843,37.581527200149594],[127.1464892991857,37.579219798801795],[127.16239089810881,37.5875600984498],[127.1620418993394,37.584195699802],[127.1783358977999,37.5981143997722],[127.1828022977551,37.592280700146205],[127.2015432972119,37.5893674924759],[127.2286914888781,37.567814291837],[127.22725970227991,37.5718308987063],[127.234646597284,37.5715144992357],[127.2392202010204,37.5808452002585],[127.22869420209551,37.5954424982184],[127.2137627034092,37.6003116020367],[127.21502080252661,37.6103057008293],[127.2074486020257,37.614605900706],[127.21142969595489,37.6103184042616],[127.2000288032955,37.611289402245596],[127.20478229992551,37.616103098087095],[127.19903320383641,37.6226913014354],[127.1911057988451,37.6210994008461],[127.1943750985948,37.613391101335104],[127.187175200627,37.6119491014979],[127.1799221017646,37.6163008993933],[127.1888844035477,37.6253345994226],[127.1804798011549,37.6185764012231],[127.1709207025642,37.626257299765996],[127.1511312001298,37.630974600124304],[127.1435689015862,37.6279017009932],[127.1401620992705,37.6194175058117],[127.1328776013098,37.620484004495395],[127.1304823027769,37.6280988977229],[127.13514630106211,37.6333170995582],[127.150348799968,37.6342070990367],[127.15587700027011,37.6429942983466],[127.1526772006831,37.6541561980596],[127.1559708986633,37.647437000709],[127.16128169960331,37.654113698692704],[127.1693185949343,37.6455353977066],[127.17782439710301,37.647388796496],[127.1783025998527,37.6376780983815],[127.17782440332411,37.6473887960582],[127.18090910023939,37.6495242939227],[127.1870750967447,37.6406561980005],[127.1945305007097,37.6461736988572],[127.1950556015624,37.653354098875404],[127.1878974046787,37.651835002281295],[127.1879683046078,37.657425296691],[127.1784114021364,37.6657248006287],[127.15390719983121,37.6529111014997],[127.1558257997555,37.6572774993654],[127.148879802848,37.660640798619504],[127.1514379996969,37.663201898359695],[127.1348925027721,37.663608002310205],[127.1335074016496,37.6706309007643],[127.1197746101308,37.6750586023064],[127.1077816004715,37.6884667022749],[127.0990968008642,37.6842847080768],[127.07784340382901,37.6963980002141],[127.0811941004783,37.697527699084404],[127.0751763032651,37.704829701472896],[127.0644511047267,37.7063442064583],[127.06904300296469,37.725524194926],[127.0734748014904,37.7270167987767],[127.0674259011903,37.734604100875096],[127.0701231029156,37.740425300260696],[127.0768490975317,37.7436112980542],[127.0828503996136,37.7284160994643],[127.09445259909229,37.730008299721504],[127.0914108995943,37.730945301278304],[127.0957616006575,37.743924299261906],[127.0914971029976,37.7516730969025],[127.0883987016789,37.7499762039462],[127.0886625023277,37.759316499366896],[127.0820734017723,37.758994105424804],[127.0802106036351,37.7632448011741],[127.0537215021145,37.7530291014855],[127.0495540027686,37.7654856960559],[127.056377704238,37.7690962994946],[127.05810800066921,37.77856139638],[127.05113680084919,37.7848615998619],[127.0413611016481,37.7844851008842],[127.0287311997547,37.7711351012325],[127.0348895947937,37.764213499165095],[127.0238411010122,37.7606171030261],[127.0320664992316,37.7491532004811],[127.0198031001649,37.7421278008149],[127.0253164952197,37.737301301962496],[127.02301059920741,37.7181949052866],[127.0273482948069,37.7074293972828],[127.0190364032438,37.7013272030114],[127.0226168967319,37.6998271993163],[127.01606299655461,37.6889215034018],[127.0210846915334,37.6860467971105],[127.02192239069569,37.676616906540396],[127.0052181053858,37.674056805548304],[127.0054225934406,37.6623568032868],[126.9995024993607,37.658026307617305],[127.00793319207929,37.654995298365606],[127.00110819576871,37.6426454075331],[127.00299369328981,37.6252988039026],[126.9950004012831,37.6265685026329],[126.98835739825749,37.618432300505106],[126.986656398752,37.589019803133205],[126.9732932003652,37.5836735001154],[126.9688780003682,37.5897548006647],[126.9595816003259,37.5803758015988],[126.9567812022768,37.5875377986597],[126.9495428020279,37.5889020006692],[126.95025540041131,37.5944516991701],[126.93874200216841,37.5989808984526],[126.93499050107249,37.622566900441804],[126.9192223000412,37.624608900401],[126.9142774001555,37.6211504002495],[126.91583869940149,37.6091903002088],[126.9253456982443,37.612062700627305],[126.9259094996024,37.5988557003431],[126.9343240998503,37.5945315995973],[126.93660079971329,37.5838172998219],[126.9467717983882,37.5794685999588],[126.9518654983127,37.5668923014009],[126.9330104999481,37.562647300436204],[126.92069480050401,37.5649316002552],[126.9165067000829,37.5705525006808],[126.9190215998417,37.5653232994039],[126.9127396005908,37.5592467006376],[126.9007722018202,37.5669698003706],[126.9076025960987,37.546023896944],[126.9321079936749,37.5416509965246],[126.92934049644239,37.531586306589304],[126.9157436985322,37.5211175015187],[126.8981773005718,37.5289575001655],[126.8841101988274,37.5265217998943]]]}}]}