{"type":"FeatureCollection","features":[{"type":"Feature","properties":{"interval":15,"stationId":"6048953571","profile":"peak"},"geometry":{"type":"Polygon","coordinates":[[[126.8757389993515,37.4781338983273],[126.8905714990344,37.476623499343],[126.90340570072709,37.497043099740296],[126.88323400032161,37.4947448005082],[126.8757389993515,37.4781338983273]]]}},{"type":"Feature","properties":{"interval":30,"stationId":"6048953571","profile":"peak"},"geometry":{"type":"Polygon","coordinates":[[[126.8047696995081,37.483130300373496],[126.8315562993159,37.4877008972938],[126.8453449972111,37.4778115997538],[126.84979799914741,37.4678950992384],[126.85548110037121,37.47069109951261],[126.8703936998319,37.4644037988686],[126.87921739966511,37.468105699306506],[126.87983449931801,37.4611733995764],[126.88507460125,37.46531619982439],[126.8879241993875,37.459970501901196],[126.8860090008155,37.4625323998337],[126.8846790992102,37.453726601400504],[126.8954926997002,37.4484029989155],[126.9052281998807,37.455342698834606],[126.90576210039461,37.466535999866394],[126.90051040186461,37.4717290996211],[126.91137279854,37.4800746974795],[126.922967697886,37.480083198233906],[126.9341507999004,37.4668863995403],[126.9397647995063,37.4696400997208],[126.9417091006207,37.4787480994382],[126.9641082000253,37.4742050994123],[126.9665410988862,37.4819733975558],[126.9826304999533,37.4813667991933],[126.98599340045149,37.487912299803995],[126.97990770002029,37.4891119004078],[126.9749299014816,37.48424700211471],[126.9672190012855,37.4880243001094],[126.9647680989421,37.4803466002969],[126.9586877011886,37.4790078003051],[126.9562013006923,37.4856285008253],[126.9380541004819,37.487316900547206],[126.9349389004237,37.4926107001831],[126.94275279917339,37.4954962995191],[126.95605519942309,37.489239100134895],[126.9623021005968,37.493693498538896],[126.95361950282211,37.4995806008793],[126.9561909010835,37.512640898697],[126.9376676000766,37.5130788002582],[126.9376803999944,37.5229725002958],[126.9219520007646,37.524510501345496],[126.9209797990552,37.5194849018825],[126.90294730093359,37.5124200013209],[126.9013230012542,37.5210930998066],[126.9072228005715,37.521946299843904],[126.9002438010891,37.5283786995874],[126.9056110999916,37.531203599029695],[126.90483570572141,37.5378461060873],[126.8992704005409,37.5387771000175],[126.8965082001549,37.530234801964],[126.8838340002762,37.5259865005353],[126.8897485998599,37.521600400443994],[126.8874681988942,37.5163020004737],[126.882253101303,37.5191106007514],[126.8746890991967,37.505161101373304],[126.8797102979216,37.498049700897504],[126.8711900994044,37.4964065007385],[126.8675834010884,37.4862855004621],[126.8565653006705,37.4958219001376],[126.85489219981629,37.489914901690604],[126.84501900071439,37.4869557016915],[126.8469345012583,37.495354299280905],[126.8387561001813,37.4967120011051],[126.8345098002692,37.491403500983296],[126.83032150077639,37.4953453007235],[126.8087068993976,37.489321600436696],[126.8047696995081,37.483130300373496]]]}},{"type":"Feature","properties":{"interval":60,"stationId":"6048953571","profile":"peak"},"geometry":{"type":"Polygon","coordinates":[[[126.62555879907889,37.4761267012291],[126.6402658993717,37.4641127997009],[126.65555819874591,37.466984699239],[126.676346299268,37.4538860000158],[126.6897187964909,37.4529489001227],[126.6934800991793,37.4474562006036],[126.6912286995438,37.4336847028305],[126.6951187994467,37.4336726982074],[126.69367969920201,37.4267084001368],[126.6977830990456,37.422663999501296],[126.7030962995559,37.424059699516],[126.70137740400399,37.435947899958705],[126.7120625994404,37.4540090982707],[126.73450480031849,37.453015799417905],[126.7355265999288,37.455864899480105],[126.7219168008711,37.4568455003938],[126.7186754014778,37.466692100836006],[126.733251201073,37.4845864988864],[126.7420593983606,37.474143601123394],[126.7597857947089,37.476620596120895],[126.76563399691611,37.4663644018931],[126.7684457021685,37.4724160993923],[126.7785005954918,37.4717542971964],[126.78384779500111,37.4610713024316],[126.7804161987659,37.4509789024338],[126.7680769010679,37.4433312041684],[126.7747081977094,37.44024379916],[126.7711047006744,37.4289669029002],[126.7851322992967,37.4258770996572],[126.8073246995548,37.436909799343105],[126.8129266001111,37.451895895276394],[126.8065729061458,37.453327201905694],[126.81453240017271,37.4604965967093],[126.81333530060661,37.466296698414304],[126.82591599910151,37.4657651986964],[126.835621397822,37.455567699446306],[126.8329337005097,37.454206600807396],[126.84541679608479,37.448488395942604],[126.85229340087729,37.4535829987186],[126.84083380527579,37.458558699802595],[126.8527967973737,37.4609447975059],[126.8604748965477,37.4524352963763],[126.8584411976722,37.445251402516796],[126.8664391986713,37.4418819984565],[126.8722093000409,37.447763893857996],[126.8763566958935,37.442636698985204],[126.8747664977342,37.4350341988866],[126.8852743958526,37.428747098667806],[126.8777989994023,37.415386002439995],[126.8737693009655,37.4156341018466],[126.89336399894971,37.409315198060604],[126.8952616982274,37.4057029010107],[126.89045499743341,37.403646002022604],[126.9035834961224,37.4005470947207],[126.9052795963141,37.392578200806],[126.9021839994097,37.3923755010087],[126.9067438968292,37.386066999735895],[126.911540097158,37.3869249984633],[126.9144106957567,37.375269701421196],[126.9216872980504,37.376396197756904],[126.925154295141,37.3722645998044],[126.91677589957561,37.3558937000962],[126.9245948949789,37.353040199217105],[126.9149748985981,37.3442350053299],[126.91167929645181,37.326581307524904],[126.9052855985255,37.324181102889796],[126.9103684964968,37.323243499200494],[126.90838809847719,37.3179609044831],[126.8999968003964,37.3185753004374],[126.90260189680349,37.3158369001153],[126.8979725984647,37.3071342015815],[126.9033650995395,37.302871698305],[126.9111655963223,37.306462795575996],[126.9113286007219,37.3168310975325],[126.92162589860739,37.3221955995189],[126.91811850091541,37.3228611019131],[126.9209058014564,37.328684697700794],[126.9271079983955,37.3273549989893],[126.92729720231699,37.340095397753004],[126.945959299159,37.3441500980274],[126.9554782985252,37.338597499792],[126.9679031985029,37.350501296618],[126.9668046007134,37.3607515021754],[126.9618694014375,37.364488600608304],[126.964848798166,37.3681054973704],[126.95956010137401,37.3707977997878],[126.96664989874729,37.372350597798196],[126.9590280019495,37.375382199399596],[126.9877334988459,37.3923274989931],[126.9878437012354,37.3970108992347],[126.9809268028508,37.3991004012141],[126.98438679939079,37.4040807962337],[126.9805595020073,37.413122301350796],[126.94063110310181,37.402175301431804],[126.9351861070557,37.419134797354104],[126.9270552053999,37.429846599253295],[126.9184980018824,37.4315937013277],[126.9239510982047,37.4367526978363],[126.92749030028101,37.454530496485994],[126.9307164983998,37.448650799250906],[126.9501836988494,37.4469078992584],[126.95853350574531,37.459023493561304],[126.9687393977731,37.4557168983893],[126.9693190014392,37.4594939949893],[126.97480109595709,37.4587189957643],[126.9806033997507,37.4710080979516],[126.9884666994664,37.4660825001595],[126.9922611956211,37.4535594021874],[126.9861209954412,37.4448022044625],[126.9910699944234,37.4427248977064],[126.983280997883,37.435180700960395],[126.98432599671439,37.4267266005386],[126.9783457996721,37.4234011012143],[126.98821249859691,37.4158797000042],[127.0023616020531,37.4267750961354],[127.00762259989331,37.4241727991866],[127.0187334000579,37.4294109993685],[127.01918900369729,37.441673095885506],[127.0121255031049,37.449066798499395],[127.0210071985674,37.458438897050094],[127.0058475064104,37.4623663998264],[127.0081222041357,37.469623992568806],[127.02350519848011,37.4761747969628],[127.0271905001229,37.4837784995985],[127.03132019904889,37.462620201507505],[127.0482365000566,37.4600570989348],[127.0499270010706,37.4768831997118],[127.0548087990867,37.481847998312396],[127.0844687995869,37.4902150984762],[127.0870621000835,37.4964449995583],[127.0791189010719,37.4947655009348],[127.0754001019361,37.503515997085096],[127.0961943986278,37.4996808000593],[127.1114087003801,37.5020915996512],[127.1073783996298,37.5121293989724],[127.1145167992872,37.5161568988505],[127.0946393012654,37.5326937007111],[127.0976526002861,37.5377726997893],[127.0817818001402,37.541608000263395],[127.0838934004442,37.5437684993099],[127.07544870079799,37.5491013001681],[127.0812208996804,37.552640799641],[127.0928799000987,37.5487974993659],[127.0873993002142,37.5604789991353],[127.0938143003852,37.579824199655796],[127.0901432006049,37.590143000706696],[127.0851269990659,37.5893665995873],[127.08238999923,37.5730703002524],[127.0710442001666,37.5607266001113],[127.05826650028351,37.562980600620804],[127.05142670055399,37.5717668997426],[127.0280173011686,37.571322600924205],[127.0302941002126,37.5775079996192],[127.04503339964309,37.5770614996233],[127.0483831999289,37.5825022992017],[127.051145999344,37.581242700366296],[127.04646409901929,37.5772046008352],[127.04958299953,37.577565199748804],[127.0533537001549,37.582072099883696],[127.0493760002549,37.5866541000243],[127.03189419977599,37.5781480011565],[127.0178762009694,37.579589801451],[127.0225326007627,37.5945227988528],[127.0141081002335,37.598978500305904],[127.009431900407,37.5939679011418],[126.99955560042909,37.594455200279896],[126.9942293992939,37.5830154006539],[126.9703765003705,37.5838436005366],[126.9645835011583,37.5773334020742],[126.95618659985199,37.5771379014127],[126.9517965025584,37.5865170002911],[126.9419910014527,37.5909051996989],[126.9492116985897,37.5822828981615],[126.950979299686,37.5709678031325],[126.9265700004499,37.578784399882906],[126.92642450024199,37.598320199064105],[126.9393227998147,37.5960451990206],[126.94112890034269,37.611554899427304],[126.9353337007908,37.6172728006569],[126.9395671006671,37.6230299995404],[126.9294804001718,37.6263365015569],[126.9135332021842,37.6232052010424],[126.91100589946181,37.6112154003764],[126.90078699973529,37.6008671004079],[126.89847659905969,37.5846647014998],[126.88380720190831,37.587245200879195],[126.8804441999458,37.5810902000308],[126.8887713991476,37.5646674017637],[126.8824903014793,37.5646536024765],[126.8780566020088,37.5537564103467],[126.8595211088125,37.567348303588],[126.8642369026165,37.573749398970094],[126.8558023060148,37.567675706567],[126.8384187063841,37.5774975065542],[126.82179070089549,37.5763544011436],[126.8117658018776,37.5868703997591],[126.80785240181851,37.5822694041016],[126.7943831005098,37.5860876008325],[126.7887794011309,37.5797456036113],[126.7963111998215,37.5843892975929],[126.79951389937669,37.5789520999992],[126.7868125023315,37.5761432007323],[126.7954243956531,37.5683864026563],[126.7993937003088,37.5758302957253],[126.8043332988424,37.5680287006308],[126.7984198005241,37.563155202025094],[126.81098919956469,37.5510346971854],[126.8271570988528,37.5458785992804],[126.8211193976825,37.5348600005171],[126.8117315023201,37.544513197384696],[126.80312890001551,37.5376786020303],[126.7949712013378,37.5406706006695],[126.7994939974746,37.532399502766694],[126.7905810017418,37.5370751009098],[126.7764049997391,37.5232209015534],[126.7699775004207,37.5268458004229],[126.75400450212739,37.5179828060325],[126.7480160007926,37.5232066014752],[126.73372640162839,37.523932101090104],[126.73519950131389,37.5357049999122],[126.7435016004629,37.540329999406595],[126.7498365011131,37.5555386996037],[126.7401907003262,37.5690620001232],[126.7447957000132,37.573018499695],[126.7238404982124,37.5712225024661],[126.7423027997789,37.5640787951414],[126.7410945010522,37.551437801863806],[126.7170435998377,37.5477991006719],[126.7073186994135,37.531373300179396],[126.71281789779401,37.5225877009293],[126.6979959022861,37.521003801497805],[126.6988281992376,37.5143816028428],[126.69135680159529,37.5162034009417],[126.6930293995279,37.510061503312],[126.6824565026534,37.512276901343505],[126.6833620018912,37.5157301004029],[126.6795864006516,37.5125278024665],[126.6767626010123,37.517873699951004],[126.68440099950979,37.523772399445],[126.679759802709,37.5285550992853],[126.6669591003428,37.5257205002208],[126.6678937996088,37.5153416000172],[126.6618234931083,37.506879402860704],[126.6738024977895,37.482141296449704],[126.67524230044579,37.493337999975104],[126.6841865000405,37.5030851970288],[126.70244459075211,37.497185798020496],[126.70183869828199,37.4895511015001],[126.6784364000627,37.4886743009267],[126.6695735006144,37.472860601074295],[126.6419124009669,37.4739682001976],[126.63781220044879,37.4814211004175],[126.6313264003073,37.482699300148],[126.62555879907889,37.4761267012291]]]}}]}