{"type":"FeatureCollection","features":[{"type":"Feature","properties":{"interval":15,"stationId":"6050655851","profile":"peak"},"geometry":{"type":"Polygon","coordinates":[[[126.77102619972189,37.503725600776505],[126.7956068995896,37.4947239003833],[126.8028582002663,37.497887497695395],[126.7999330020907,37.5039000965402],[126.8089565985095,37.4991903991338],[126.8173500990983,37.505574698171095],[126.814258801182,37.5145162993108],[126.79314050068261,37.5125769042413],[126.7902222001583,37.5056725039895],[126.78464599983039,37.5084593004591],[126.780738699984,37.5033183007006],[126.77102619972189,37.503725600776505]]]}},{"type":"Feature","properties":{"interval":30,"stationId":"6050655851","profile":"peak"},"geometry":{"type":"Polygon","coordinates":[[[126.69519609774801,37.509235699590796],[126.7018422002716,37.5025896996919],[126.7129386988217,37.509451398364],[126.7225706989235,37.4901747990548],[126.72886389898709,37.4897146990105],[126.7280050002677,37.4958149992492],[126.73716809876281,37.500046498961304],[126.741768598128,37.4954247001182],[126.7434380030965,37.500305497976605],[126.75931789951309,37.4924039998059],[126.771896199827,37.4925305992236],[126.7749959996103,37.4810648000175],[126.78806459640239,37.4690346997603],[126.7858163991414,37.4471454999235],[126.7753233007721,37.4434716008983],[126.77531349988979,37.437025400025604],[126.7850592988957,37.4306505994532],[126.7911581999373,37.4307064994239],[126.8067016988207,37.4481161956743],[126.80364820190229,37.447346601694406],[126.8042301045711,37.4604435980174],[126.808946300877,37.475968299809196],[126.81777959805639,37.4818025978945],[126.8166625991734,37.4782043014928],[126.82321759878941,37.477470700029095],[126.8305117007993,37.4849576949153],[126.84979799914741,37.4678950992384],[126.8583737020197,37.471936697340304],[126.8685676989442,37.4651328998907],[126.8808231990672,37.4756201974071],[126.88643480067941,37.473551198465906],[126.8945160008041,37.4866562996117],[126.90079719963519,37.4878268993693],[126.90340570072709,37.497043099740296],[126.89689570051,37.4986853002646],[126.8677311999159,37.4809568033968],[126.8606040031887,37.488525000327805],[126.8652000003877,37.492626299543595],[126.85652250095569,37.4972942004351],[126.8534907001672,37.4942530021426],[126.8411790004563,37.4996271011113],[126.8324128999267,37.4957346031692],[126.829667001868,37.502134199905],[126.8347710997634,37.505764897772906],[126.8229881030014,37.513530000651],[126.8171552025201,37.5226142002278],[126.82127390078129,37.5258153990639],[126.8096516034385,37.5321390010049],[126.8071816052651,37.5386832021212],[126.80638169880861,37.5342177019767],[126.7924971000356,37.5294755028578],[126.7979377982714,37.5255966999051],[126.7950780998856,37.523039400563704],[126.7874188006638,37.5239530005464],[126.789841598873,37.5220229004477],[126.7802834000019,37.5169293007157],[126.72653200059841,37.5117907013855],[126.7273513012083,37.5165542974362],[126.7217592006496,37.5194483993686],[126.7204340955964,37.512229501462194],[126.7129387001563,37.5094514017455],[126.7046316002114,37.5146440006195],[126.69519609774801,37.509235699590796]]]}},{"type":"Feature","properties":{"interval":60,"stationId":"6050655851","profile":"peak"},"geometry":{"type":"Polygon","coordinates":[[[126.6125614965643,37.4771767014071],[126.6239100985826,37.4688200998589],[126.62497460125721,37.4756747990898],[126.6277125990688,37.4741883002536],[126.63751279975719,37.459592199430304],[126.65632929915489,37.465790199022],[126.6623629992843,37.4546031007555],[126.6784673995333,37.4418931003083],[126.6848992984889,37.4455104973039],[126.68070659940389,37.437740000735396],[126.6851514992928,37.426588201639994],[126.67448429949981,37.4186935999885],[126.6757237990254,37.4088872004676],[126.6711568989593,37.4045675003278],[126.6740875999233,37.3963836999239],[126.68688289829561,37.3981175976691],[126.69818780105889,37.4053307979049],[126.6969931030774,37.409037198786],[126.7068471993979,37.4099691991881],[126.7056508036523,37.4180919996299],[126.71083920052939,37.422230895778405],[126.705547604283,37.424025701649704],[126.70622670242871,37.4284333984942],[126.7138405991012,37.4298863980024],[126.71456990042991,37.4329637999702],[126.7079988013956,37.433200400428696],[126.7179815037832,37.4429034975982],[126.7360034992491,37.437952198115795],[126.7469607970171,37.4462665982596],[126.7507781999415,37.4381774972521],[126.7588418957928,37.435721197965904],[126.7577331949461,37.421772603421296],[126.7745806948954,37.4145702996507],[126.77203109728221,37.4082718041276],[126.7631200007061,37.4124099006417],[126.762910297627,37.409373803910796],[126.7695847967399,37.4028089947995],[126.7858655957775,37.4029071909995],[126.7871274945156,37.3943314995752],[126.78117740046571,37.3926534012533],[126.77681459977609,37.382596503706296],[126.7970021901014,37.365863499946904],[126.7878946002662,37.3609349009162],[126.79356679481279,37.3591329973082],[126.79614309946639,37.348621198206196],[126.7883905013205,37.3349608008365],[126.791913699618,37.328033400499706],[126.7894461006866,37.3321195995905],[126.7784721022456,37.3265610036295],[126.7857801965016,37.325935896984895],[126.7833369989448,37.319308903611905],[126.7868855951701,37.3143068001065],[126.7734906972984,37.305567502151305],[126.78342499726409,37.2951053982481],[126.8031061986894,37.3026088964613],[126.8102179996938,37.3108479976001],[126.8238971988964,37.3101115971797],[126.8351618001971,37.316609997651696],[126.84060240011459,37.3096354989316],[126.8454681003671,37.3139969990108],[126.8222409027709,37.3243676998552],[126.83173499612859,37.3293830960999],[126.82424140430591,37.3379143985768],[126.8329123997822,37.3421741992487],[126.83281460260831,37.3521545952455],[126.82829170310299,37.3611801981876],[126.823178904597,37.358950802837704],[126.8165265087803,37.3635618019344],[126.8166488057982,37.3691464000227],[126.8232960020672,37.3819504907081],[126.8320450994419,37.385308996363996],[126.81625220371079,37.3903706018682],[126.81335370482199,37.396810699015404],[126.8165840012023,37.405139798164804],[126.8087265008169,37.4181209000472],[126.8225026988053,37.4337942970216],[126.8128052002664,37.4346151009652],[126.8117055018656,37.4401207001374],[126.8243595977703,37.4451698947904],[126.8245481004713,37.4533541980173],[126.84541679608479,37.448488395942604],[126.85229340087729,37.4535829987186],[126.84083380527579,37.458558699802595],[126.8491301969794,37.461616496744796],[126.8609811960414,37.4475194012922],[126.8748473015094,37.4480997945369],[126.8793406978747,37.4412639006664],[126.8823293026545,37.444952997101495],[126.89477169783561,37.4424996990805],[126.8884521990543,37.437326102273],[126.8988130974718,37.4283050013932],[126.89558899897371,37.4084305008461],[126.90801759795069,37.3897829015171],[126.9209589987105,37.3881596961171],[126.9286025973179,37.3743713985803],[126.92214370017271,37.3595294006792],[126.92456249796959,37.3537400015459],[126.91798870112329,37.3482404018649],[126.9223204960233,37.3431386005403],[126.9185073998364,37.341884401794495],[126.9297287013065,37.3438828976146],[126.9376701016137,37.3557554974287],[126.9447687995768,37.348752500893305],[126.94131759942721,37.3438431001246],[126.9475795997591,37.342769999802805],[126.9578269011302,37.3550140984933],[126.95239390264601,37.3601872991879],[126.96129930036699,37.3650099996495],[126.95956010137401,37.3707977997878],[126.9632244021728,37.3722711978776],[126.9405650049958,37.379772899981],[126.9581848003533,37.3803499996646],[126.9623806997933,37.388659398954104],[126.968590999434,37.385211499767294],[126.9840451005667,37.3976404995431],[126.9809268028508,37.3991004012141],[126.98438679939079,37.4040807962337],[126.9759287029253,37.408067702237695],[126.95910829932579,37.399819102400805],[126.9441727995601,37.399547904059204],[126.9345043035741,37.406391697566804],[126.9333595017289,37.4137138995724],[126.9233591032266,37.4137741999963],[126.917342002439,37.4215873013838],[126.91642020148501,37.4347735979771],[126.9112123032444,37.437081500236],[126.9170423978194,37.4402146973634],[126.9084406023389,37.444598401117],[126.9167118001865,37.4477865994779],[126.91584060153859,37.4695274978575],[126.9260571994181,37.460798999717],[126.92601400195299,37.4645074965997],[126.93167779628921,37.4633338977733],[126.9322987972411,37.4578674003973],[126.9544532995599,37.4592745986639],[126.9600976006984,37.4682039985829],[126.95371620421301,37.4703374008129],[126.9562774016518,37.4741764969738],[126.96207339824869,37.472514798523996],[126.96423119820611,37.4659469989328],[126.9848792982386,37.4695703001073],[126.9874359988906,37.4609115005692],[126.990938200455,37.461865798193095],[126.99240980128,37.479656997020804],[126.9974445973687,37.47366920218921],[127.011225299702,37.4840377993547],[127.02037130057079,37.482691997731],[127.021808901199,37.4939839989546],[127.0306304994868,37.4919166008087],[127.0414000000377,37.501753199934704],[127.0383739003214,37.5086766988915],[127.04488190059439,37.5071096992137],[127.0467807005402,37.516888698179],[127.0571806006323,37.5195441994119],[127.0182450000727,37.5213658006183],[126.9855941019248,37.5047644011581],[126.9875893002552,37.5071938997363],[126.9693090038014,37.507606207965196],[126.9713472017632,37.5161886993827],[126.9800943002044,37.520760698745896],[126.9967466999806,37.5209131993076],[126.97302450124519,37.5216151004475],[126.9679798012762,37.5271948998531],[126.9818925994374,37.5322782986074],[126.9742997002009,37.536743901048595],[126.9738175002496,37.5457287994564],[126.9804300003766,37.5462699979821],[126.982531600595,37.5577033996065],[126.9952380993994,37.560311999907604],[126.995307300553,37.566433799129996],[127.0013161000422,37.5669073999519],[126.9955413003704,37.568753700673604],[127.00389920063921,37.5697831996926],[127.00202080175549,37.5729161005577],[126.98664710051659,37.573573600713104],[126.9844631006929,37.5773171005477],[126.947745101497,37.5622374026705],[126.92855060005539,37.5719070008493],[126.9223690007723,37.579627499342],[126.92288240157481,37.5909462999376],[126.92642450024199,37.598320199064105],[126.9357589995342,37.6008777990827],[126.936341699619,37.5977217005998],[126.9344719015781,37.609704698346604],[126.9384007994577,37.6102741985388],[126.9367586034845,37.620131896542],[126.93089840075801,37.6242692998514],[126.9162146998638,37.622399900315095],[126.9137634992486,37.60797440029901],[126.9031392998837,37.5981527032116],[126.9012210975491,37.586897800947],[126.8917539021235,37.5857262005332],[126.8844380010173,37.5914593996028],[126.8853079006664,37.5973690978063],[126.8786611000841,37.5988580007525],[126.8819628013185,37.6044708980107],[126.878074101216,37.6188542992832],[126.86612310346139,37.6152553036742],[126.8606058020722,37.6192630011357],[126.8638923980155,37.61419570326041],[126.8573492011217,37.6149767016471],[126.84354780416889,37.637373697920594],[126.8579275000523,37.6451163938804],[126.8650758980307,37.645296096103],[126.8698052996962,37.6373098000563],[126.8866700001267,37.644780699315696],[126.9030062960871,37.642108399687295],[126.9070948001806,37.6461310971565],[126.9142169964497,37.6432518976289],[126.91135409686899,37.6341704997805],[126.9192716983476,37.628696599989595],[126.92838429962171,37.6341094993258],[126.9213858023662,37.640814600195796],[126.925561500366,37.6487044986533],[126.9214335005407,37.6535340993748],[126.9083756015555,37.655006803855905],[126.8954723001628,37.663628600399],[126.8844069020926,37.6562032027191],[126.8842437022558,37.6599997989225],[126.871772799534,37.6593820006499],[126.8695560987939,37.6542407034293],[126.85304000157869,37.647980006594594],[126.84776940684931,37.6534912010834],[126.8512563001171,37.6671907003191],[126.84804170150039,37.6671172010368],[126.82496639952319,37.6618881012152],[126.8270013979362,37.650428301101805],[126.81976970266349,37.650167299353],[126.8227511999449,37.651572698906804],[126.8122188018159,37.6612799981923],[126.8167091022931,37.667237398133096],[126.803633804458,37.6815798974782],[126.79575209954591,37.682264700635095],[126.7937781008328,37.6877115969305],[126.7764911017175,37.6972549006354],[126.7599099017509,37.7013587002021],[126.75998700025059,37.717320800097205],[126.7549202995248,37.710384501876405],[126.7624614975957,37.697616700565696],[126.75341079972979,37.6936852006683],[126.7503451003206,37.683891801512196],[126.73824999860729,37.679806501342796],[126.73995209772549,37.6696655004559],[126.7456375985278,37.6706662971443],[126.7585412987203,37.661779199738596],[126.7636090005621,37.6467809018442],[126.7712079980502,37.6470922011444],[126.7751082975853,37.6335036003373],[126.7864253981564,37.6302281989397],[126.7785912045639,37.6124295134087],[126.76124349948891,37.619695101408304],[126.7548461016774,37.614386104213395],[126.75374070278279,37.6186448999546],[126.7402739995525,37.6236004005625],[126.7359627010081,37.618701604289704],[126.731346901904,37.623857599347],[126.73458530238551,37.625908797082495],[126.7317838004739,37.635786200243096],[126.7317492001275,37.6301051031947],[126.7259583045587,37.6341441002325],[126.7307601997568,37.636361598015],[126.71452960354101,37.635259601096095],[126.720837997543,37.6383739979847],[126.71939970612729,37.6421421133599],[126.7104103006216,37.641336901388996],[126.7089067003888,37.6457074014602],[126.70515160225139,37.642516802194],[126.7003402003352,37.6540288996342],[126.6881973010503,37.6537803013885],[126.6851725077367,37.661162809722],[126.67528930005561,37.6654471000711],[126.6697888994281,37.661292700879095],[126.6724503976997,37.653851700484296],[126.65419950103,37.6512758015541],[126.6549380975665,37.6432285031606],[126.6427247016848,37.6499631016108],[126.6400046986856,37.644059902194904],[126.6278172008807,37.653833999114205],[126.6153905015411,37.6442566003542],[126.63512989791859,37.6369414986114],[126.6369372989497,37.6320637009249],[126.64846879855921,37.633334296495704],[126.652022303979,37.6405473974535],[126.6780401996344,37.6352619987059],[126.6928221988119,37.6496504977978],[126.6973807974466,37.642054101095006],[126.6881518006493,37.6398006027779],[126.683958100016,37.6321652020029],[126.69499160069209,37.6193598969835],[126.7119308965036,37.617341698923894],[126.7088765973581,37.607501202401004],[126.711942098919,37.6021982993176],[126.7288316965801,37.5930293989412],[126.7465606984454,37.5994473984111],[126.7542965984956,37.5912840999375],[126.7547190973456,37.581349799293996],[126.75672810336701,37.589142597404],[126.7661997955459,37.5870850006154],[126.7708286995435,37.5720390003644],[126.7765714976929,37.5755430975846],[126.7904878988427,37.566374692500794],[126.7993937003088,37.5758302957253],[126.8043332988424,37.5680287006308],[126.7984198005241,37.563155202025094],[126.8139417975667,37.5471032001008],[126.80312890001551,37.5376786020303],[126.7994732003299,37.546560800415904],[126.7843597008627,37.5492870012703],[126.7782024013526,37.544987601477],[126.7794566985226,37.5331853005954],[126.7651757007612,37.5325483016567],[126.762097002002,37.5366477012614],[126.75967709880301,37.5325140020482],[126.7465223012843,37.532871201976405],[126.7443604999201,37.5355611991742],[126.7624841989301,37.539999998675],[126.7456342014431,37.5427395010121],[126.75179019988481,37.558545697645705],[126.7612608987706,37.5587983992307],[126.7624988005072,37.562889597798296],[126.75625560173481,37.567019898673095],[126.7597433999386,37.5728166988677],[126.7533707002529,37.567738401363805],[126.74673870296239,37.5727140981436],[126.7496760017519,37.5787639963494],[126.73189290155301,37.583515402657405],[126.7214520014839,37.5775602007569],[126.7203728969074,37.5710666027768],[126.708468000504,37.571063900217496],[126.71557109860781,37.5691755972065],[126.71691349950511,37.561387600951704],[126.70871259954019,37.556222100784],[126.71021169700471,37.5517672020861],[126.698733399709,37.550887604078405],[126.7033722963872,37.544332704761395],[126.6910849000435,37.531386003253296],[126.68918240194601,37.5374543971849],[126.69594830117279,37.5511332984701],[126.6898219020077,37.5551613984925],[126.68847030299041,37.5692911029791],[126.6812700019557,37.5691271010265],[126.6806367054047,37.5729466007904],[126.6908061019031,37.587474398598296],[126.6759402056182,37.5987658029152],[126.6682823024216,37.5994150046257],[126.6612989004539,37.6104697003693],[126.6400452008212,37.6013020036082],[126.63709769923359,37.5957094003927],[126.6238355015765,37.5979085024652],[126.62397039852621,37.5936083971617],[126.6369767987555,37.591010498457905],[126.64360429970161,37.5953435996105],[126.6491740965166,37.5936193985586],[126.647579199172,37.5899178007814],[126.65396110006921,37.5997629974576],[126.65856529690761,37.5980254990478],[126.65672789895001,37.594964900785804],[126.6634729972452,37.5908582985428],[126.6616784996434,37.5838673019645],[126.6682660956059,37.5838882954746],[126.66841379545819,37.57739750196539],[126.6764255983628,37.5727625998493],[126.6747933986067,37.5684268013683],[126.66548470101199,37.571114002140504],[126.67096459356921,37.565340600218796],[126.6574061991571,37.555453800979805],[126.66778879688479,37.5436737002073],[126.656481299013,37.540743007497],[126.6633110976333,37.534503800758806],[126.6571658006128,37.531804501145],[126.6583460985281,37.5260180014804],[126.6515907014217,37.5266401007828],[126.6556131956216,37.522251601314096],[126.65095670011499,37.5181876023796],[126.6614716973889,37.5162789996076],[126.6618234931083,37.506879402860704],[126.6512208972096,37.4991453016372],[126.66280969830319,37.4768294008886],[126.6487035005362,37.4743287004399],[126.6496922000283,37.477353799531805],[126.63485449970081,37.483188900399405],[126.6125614965643,37.4771767014071]]]}}]}