{"type":"FeatureCollection","features":[{"type":"Feature","properties":{"interval":15,"stationId":"6050655840","profile":"peak"},"geometry":{"type":"Polygon","coordinates":[[[126.6976551987166,37.5083225007943],[126.7104440998375,37.506386599614196],[126.72050989933379,37.491999500709596],[126.7268900997698,37.4903073984734],[126.72715800068221,37.4999600003821],[126.73766329986769,37.5068831992282],[126.74299569878819,37.5036126967874],[126.7432546010132,37.50948789962651],[126.7368471003996,37.5073406007456],[126.72188080055989,37.5226684994705],[126.71293869771479,37.5094514016383],[126.7039783006533,37.513710400933604],[126.6976551987166,37.5083225007943]]]}},{"type":"Feature","properties":{"interval":30,"stationId":"6050655840","profile":"peak"},"geometry":{"type":"Polygon","coordinates":[[[126.6619669932404,37.5099056006933],[126.67362420017831,37.483564098577205],[126.676296200837,37.4956642987254],[126.6841865000405,37.5030851970288],[126.70781129845291,37.491925300549],[126.7017107982789,37.4766779013873],[126.6932970002311,37.4774660019327],[126.691520798959,37.4592588011871],[126.67619180043759,37.4587176010835],[126.6954472995277,37.4523124010721],[126.693542199793,37.433589501971895],[126.6975013991105,37.4233692003518],[126.70819280053391,37.4537887986399],[126.7348794999438,37.4533471990865],[126.7359782000353,37.4562187994376],[126.7210290010107,37.4575316999156],[126.71761740162829,37.4633028005643],[126.72292290170991,37.4806839974819],[126.7328836006453,37.4836649983188],[126.7486453002307,37.480611699335896],[126.74410420205409,37.4907021996406],[126.7624944972913,37.475740200880395],[126.7712238005096,37.481225698906805],[126.785100600069,37.4758370978553],[126.787617701448,37.4810267973016],[126.7965350989935,37.4751983989748],[126.8065059001118,37.483692499588294],[126.81612269944429,37.4813932983541],[126.8204615996041,37.490930898221805],[126.8269906996878,37.4887739981805],[126.8253421010283,37.4956344003987],[126.8089662007891,37.4915672013514],[126.80291460004959,37.484227100717796],[126.792987500295,37.4899999004554],[126.7822688999384,37.4836352008732],[126.7739128998371,37.4936843992154],[126.8011820987885,37.497934997064],[126.7999330020907,37.5039000965402],[126.8089565985095,37.4991903991338],[126.8173500990983,37.505574698171095],[126.8130127012461,37.5136770008393],[126.7903804999785,37.509662004502],[126.7855020013879,37.5144854006591],[126.7760734010922,37.5114831035615],[126.7357995004212,37.5229584002973],[126.75179019988481,37.558545697645705],[126.7393577018304,37.572943100118806],[126.7311413034777,37.571288700290594],[126.74181239681761,37.5672731982403],[126.7410945010522,37.551437801863806],[126.7375854011656,37.5541414013998],[126.7168813035274,37.5484710042653],[126.70318219818711,37.5287743022064],[126.71070469717549,37.524611299971],[126.7024496000295,37.5234498003992],[126.6988281992376,37.5143816028428],[126.69135680159529,37.5162034009417],[126.6930293995279,37.510061503312],[126.6888405003344,37.5089263017406],[126.6832596018503,37.5146560989643],[126.6795864006516,37.5125278024665],[126.6767626010123,37.517873699951004],[126.68440099950979,37.523772399445],[126.67679360076599,37.529283301151004],[126.6669591003428,37.5257205002208],[126.6678937996088,37.5153416000172],[126.6619669932404,37.5099056006933]]]}},{"type":"Feature","properties":{"interval":60,"stationId":"6050655840","profile":"peak"},"geometry":{"type":"Polygon","coordinates":[[[126.60034329969781,37.473881000789],[126.6125614982934,37.477176696920104],[126.62985839759091,37.4643637978252],[126.62897459727591,37.4517637001037],[126.6417564993784,37.4514157977872],[126.6418559966618,37.4420522017774],[126.6657264990843,37.4423381978582],[126.66950529877519,37.43655149923],[126.6708318990051,37.4325767016649],[126.65613950008999,37.435812000784],[126.6544517992745,37.429469800986396],[126.646297201924,37.4310713019628],[126.6517454989623,37.4204129994257],[126.6646534975235,37.4214467950312],[126.65982410023089,37.4146338009733],[126.666092795766,37.4028468024275],[126.6578188020716,37.3950671045942],[126.6543393002876,37.4013934005304],[126.6361090989366,37.398803701328305],[126.6288735022932,37.416501802178],[126.61926849914221,37.414421001085095],[126.6259501986443,37.4138121977917],[126.62824889419021,37.397004602146204],[126.622408296911,37.3868934065801],[126.6321582983929,37.3794943993356],[126.6282362021201,37.3756576032353],[126.64341979547021,37.3679926987652],[126.64121759767241,37.3659391008188],[126.6528262982936,37.365038998267],[126.6595779998934,37.3721469970861],[126.67381849666839,37.3763128962358],[126.6820612017852,37.391528396102196],[126.6930174982771,37.3921063976667],[126.69602179760079,37.3851390016178],[126.70147940048389,37.3888580957569],[126.7346105988095,37.389306696348996],[126.7383723994651,37.377587700269096],[126.74747990004211,37.383724397429695],[126.74932899798381,37.3794836011084],[126.76036359878101,37.3790250914985],[126.7480336012235,37.3892295998328],[126.7494038986256,37.3948095955517],[126.7560772993915,37.3881394000038],[126.7441372051691,37.4010779964909],[126.7492904014162,37.4081481999217],[126.72597210325131,37.4133554007581],[126.7289085002506,37.415549798997304],[126.72173770255881,37.4255182024875],[126.7230809006963,37.4313597982456],[126.73736339898791,37.4277657984],[126.7328500001073,37.4360786970794],[126.7419691980672,37.441543097703196],[126.7442620974605,37.4295714024042],[126.7600452981291,37.4239720975538],[126.7664146983085,37.426165995623904],[126.7654067030176,37.4296119991539],[126.78144689858121,37.430923898365805],[126.79293769994139,37.4241640992816],[126.8075289995987,37.435186299802695],[126.8129266001111,37.451895895276394],[126.8065729061458,37.453327201905694],[126.8114944012243,37.4600299952029],[126.8147050980136,37.457205898027],[126.81285130042261,37.4633158997368],[126.8388424981791,37.4652464983384],[126.8453664007432,37.4608780974832],[126.8768575007565,37.4591838976018],[126.8831006994925,37.4467290999967],[126.8986383983611,37.444671898738],[126.904579700422,37.4253036009966],[126.90983800136259,37.4357997989777],[126.8985093005313,37.4459853996772],[126.9099133997085,37.450568499536004],[126.9105070996254,37.4655699990903],[126.9039271021268,37.4727820004961],[126.90504199995489,37.4779551996007],[126.9099781999346,37.4802876972665],[126.9169345998838,37.4745918992477],[126.922967697886,37.480083198233906],[126.9314336977145,37.4654033008463],[126.9482827981887,37.4657950004637],[126.9432154012776,37.474421398863996],[126.9513558996192,37.4777402991826],[126.9645911981063,37.4706913989268],[126.9795958002133,37.472812999648504],[126.9872836995149,37.485969897581],[126.9672190012855,37.4880243001094],[126.9669443975733,37.4833217026362],[126.9594963008665,37.4835872004555],[126.95671220260719,37.4923704005493],[126.9623021005968,37.493693498538896],[126.95361950282211,37.4995806008793],[126.9538170001253,37.5068434981698],[126.9842282989433,37.499204199538],[126.9994486995538,37.5052414983047],[127.0059435006276,37.5028937990432],[127.0078469998117,37.507114199565095],[127.0024831000254,37.5099327010492],[126.99103890138191,37.5023297018544],[126.96916940013959,37.5068163007899],[126.97087809843089,37.516393191213005],[126.9983800001472,37.5217403994995],[126.9925149005556,37.5251109003716],[126.9852753009248,37.5199647005145],[126.9679798012762,37.5271948998531],[126.97891520048731,37.5340094989128],[126.9729330012391,37.539570898540504],[126.9738175002496,37.5457287994564],[126.98223690026481,37.5598643994171],[126.9886445001816,37.560423899813806],[126.9834148998764,37.560689700145595],[126.9878159999934,37.5693583997505],[126.9935737997658,37.5657918992535],[126.9946807003332,37.5718665996308],[126.9829181007085,37.5746101001989],[126.97253459918531,37.5666240009499],[126.9493240009438,37.560182100697496],[126.9156588018252,37.5718283028685],[126.9110163999666,37.5676055004151],[126.90759560064319,37.5786606989895],[126.9152997998244,37.5833230997429],[126.91738340023531,37.5994284997684],[126.9054960001948,37.587186000406],[126.9053759000531,37.580806601080305],[126.89691139953479,37.578444301667204],[126.88708680064211,37.583634501975304],[126.88836469916819,37.576000101923505],[126.8968985984102,37.5709917003929],[126.8962297999786,37.5627916015603],[126.8931276001488,37.563355100789906],[126.90193619927079,37.5504200998692],[126.8992705019365,37.544340105949196],[126.8898309993406,37.5443678009506],[126.89123649940751,37.535430700725],[126.8878854008568,37.5377432002592],[126.8707011004514,37.5305139006244],[126.86233849994291,37.533731800681196],[126.8571174997358,37.5287654003063],[126.8478140008914,37.5373263003113],[126.84724800015749,37.5551301994594],[126.8593915991228,37.5535608001325],[126.86953319975211,37.5427679003128],[126.8800220985279,37.5407733000354],[126.8841409993375,37.5411755982374],[126.88225270217339,37.548936399255304],[126.8671592006219,37.5501149995322],[126.8650316000776,37.5622479000883],[126.8384187063841,37.5774975065542],[126.82047930131141,37.5733103030441],[126.81951850241,37.5822267007251],[126.8117658018776,37.5868703997591],[126.8024421999278,37.5821730010252],[126.79857720175589,37.5876523015123],[126.7899103008441,37.5833569003202],[126.7887793993929,37.579745603523506],[126.7963111998215,37.5843892975929],[126.79951389937669,37.5789520999992],[126.7868125023315,37.5761432007323],[126.7954243956531,37.5683864026563],[126.7993937003088,37.5758302957253],[126.8035801992859,37.5713500991522],[126.7984198005241,37.563155202025094],[126.8178335997527,37.547374299671],[126.8274317997253,37.547831898046695],[126.8293472999105,37.5394477002435],[126.8455390994467,37.525740999893195],[126.8439496993165,37.5196569994593],[126.8532932978956,37.5133858996704],[126.84880250054671,37.5088117015837],[126.8422714003745,37.5183733991878],[126.825509504962,37.519993399119095],[126.8302218002497,37.5210989980135],[126.8265876028275,37.521650100664004],[126.82921620034311,37.527577898796],[126.8117315023201,37.544513197384696],[126.80312890001551,37.5376786020303],[126.7949712013378,37.5406706006695],[126.7994939974746,37.532399502766694],[126.7905810017418,37.5370751009098],[126.7718441993255,37.5296175023531],[126.7728948049095,37.542301200317596],[126.7647737064852,37.5441122045354],[126.77920249848759,37.555368696174504],[126.7669789009385,37.5670121008821],[126.7685287993055,37.569986798120205],[126.757757003425,37.5759145013279],[126.75527170088989,37.5838390998286],[126.743125402574,37.5865085023269],[126.742101403598,37.5905686982667],[126.7192362012451,37.5842080034672],[126.7194680984853,37.578059005195],[126.70186220090619,37.5694785036656],[126.7061873968979,37.5661745000109],[126.69943740210739,37.5588358058754],[126.6899443072785,37.5660625046894],[126.6957173015055,37.578864191887696],[126.6922286040364,37.580417103795895],[126.6929636033014,37.5860622981507],[126.6964818997831,37.5855902986227],[126.6939795030524,37.5890622978661],[126.69807349932651,37.590032898415195],[126.6960667009462,37.595998099927],[126.6864987016261,37.588339606392495],[126.6658365048674,37.6021164019243],[126.6735859000622,37.610631998961004],[126.65360710186181,37.610782403889495],[126.6521002010388,37.6147901999698],[126.643791901101,37.6124970009803],[126.6409443006994,37.6050974023849],[126.6384292024056,37.6082756989512],[126.6257068006209,37.6043345031922],[126.6194997006074,37.596543002036796],[126.6139390030613,37.601492600652],[126.6117020998726,37.591759002273506],[126.6384310945715,37.5855891951456],[126.64018659955181,37.591594398932095],[126.64727290016491,37.589156891966496],[126.65118659625121,37.5830869980364],[126.658436194898,37.5829323988133],[126.6555248978093,37.5795232022225],[126.6584362003054,37.582932396039496],[126.6628596987343,37.5789201994299],[126.663982599179,37.5685656002312],[126.6696335985972,37.568390900900795],[126.65285830595161,37.561948906865396],[126.6498149006666,37.566665801351405],[126.6505320950215,37.559135508081695],[126.6349538002939,37.563951000681904],[126.6355144967928,37.5581084024838],[126.61334310079519,37.5476997025986],[126.6212503963051,37.5477195999852],[126.6324118001489,37.5577763935725],[126.6503025991866,37.5506426015206],[126.6448742984952,37.5423902999811],[126.6495021997717,37.5332530000802],[126.6393740007463,37.5259392005606],[126.6489644977274,37.523738799158],[126.641759699211,37.5143184014817],[126.64482139311569,37.486013408866],[126.633470104467,37.484565410314],[126.6218101033497,37.4916081052703],[126.60034329969781,37.473881000789]]]}}]}