{"type":"FeatureCollection","features":[{"type":"Feature","properties":{"interval":15,"stationId":"6050655875","profile":"peak"},"geometry":{"type":"Polygon","coordinates":[[[126.8180715998123,37.4885048999871],[126.83430079830809,37.4878391967107],[126.837049399983,37.4819125018301],[126.8333789016454,37.4826398013344],[126.8526596994525,37.473464699854304],[126.8593698003909,37.477533197420705],[126.8674258990457,37.472791098851204],[126.8731628997644,37.4767685998161],[126.85364510100129,37.484354100718896],[126.8492640995578,37.4816300013629],[126.841565400815,37.4958490003394],[126.8180715998123,37.4885048999871]]]}},{"type":"Feature","properties":{"interval":30,"stationId":"6050655875","profile":"peak"},"geometry":{"type":"Polygon","coordinates":[[[126.7154921974465,37.5092642001872],[126.721857199925,37.495958499871904],[126.7175549993875,37.4907487006469],[126.7304271004979,37.4893893989275],[126.72349010070221,37.4951076000714],[126.724357500456,37.5037447000171],[126.7565920997017,37.499177698880594],[126.7615910992796,37.493861399479],[126.7758611982018,37.4965588978694],[126.77475359930939,37.4935786008497],[126.7840450992434,37.4900607000391],[126.7814084997632,37.483902100502],[126.75540680041631,37.4948507996071],[126.7479348000052,37.4897961018139],[126.7581237986173,37.4887552983582],[126.7642385996826,37.4795065995187],[126.77013599996599,37.484078599317094],[126.78050729943129,37.475544596975],[126.7892320968061,37.476913598414605],[126.7917912966925,37.4657979007914],[126.79273150001511,37.4699101965034],[126.80088590039159,37.4625359982381],[126.80250000036449,37.478782499072004],[126.81777959805639,37.4818025978945],[126.8190964995143,37.4759495995803],[126.8373029966378,37.4792471948705],[126.8380994951321,37.467906801415204],[126.86421489993009,37.4671958987313],[126.8727147995549,37.4623983995038],[126.88242300060381,37.4722606971593],[126.89353579965339,37.4643738990409],[126.8959099999925,37.4664910987433],[126.8879336004468,37.4720075985474],[126.9045011004811,37.4880556989641],[126.91395729950891,37.484811198841406],[126.9208021000061,37.4916704991912],[126.92898819895241,37.4818833000631],[126.9320344000447,37.483935599114304],[126.9284817006459,37.492578699356],[126.9383280002652,37.5036533975349],[126.95110680015881,37.502367399714196],[126.9407798010175,37.5079936005312],[126.93103410100001,37.5025128008609],[126.9208143009255,37.5149653008593],[126.915804298961,37.5045628008071],[126.909341599464,37.5155769005414],[126.9056167993582,37.511248802126296],[126.91096329924561,37.5084994000471],[126.89963610022559,37.500899701398396],[126.89040080025609,37.5014946003401],[126.8868780999752,37.496270700659196],[126.88251360016659,37.5023989009004],[126.8882344001281,37.507460798686395],[126.8747785000275,37.507715600781694],[126.8751694977728,37.499973402181304],[126.8662819998832,37.4988663000108],[126.8700972981563,37.4966290006906],[126.86512279971639,37.4928343019222],[126.8469526003067,37.5039715999694],[126.8364371011263,37.498840000588004],[126.8296670023198,37.5021342003559],[126.8294394012493,37.508841401416404],[126.8212983029093,37.5072747009248],[126.8259962006156,37.5135795992675],[126.8053065026143,37.5306552008191],[126.79484370012,37.5232735003296],[126.7990716983183,37.521482599635796],[126.7988710992688,37.5144715030768],[126.7953017028382,37.5175999999483],[126.79857569524741,37.5142985025197],[126.79314050068261,37.5125769042413],[126.78352029979581,37.516842400465904],[126.7760734010922,37.5114831035615],[126.7752780018876,37.5146395004051],[126.7594416991998,37.5095619011083],[126.75380359988179,37.5148734004227],[126.7494975998245,37.5103432003576],[126.7453117022507,37.5135802012013],[126.7333093008818,37.5097559013584],[126.7333838002495,37.5128992996305],[126.72107270094769,37.5134248999087],[126.7259022008724,37.5176980996541],[126.72230660023159,37.516710000540506],[126.72188360051659,37.5208857996195],[126.7189466001467,37.5181882014427],[126.7227157990887,37.509911799389094],[126.7154921974465,37.5092642001872]]]}},{"type":"Feature","properties":{"interval":60,"stationId":"6050655875","profile":"peak"},"geometry":{"type":"Polygon","coordinates":[[[126.6096680988827,37.477505799660605],[126.6280466989695,37.4684799983581],[126.6361499987814,37.4579969993758],[126.6563328984565,37.4613934000721],[126.6778944996421,37.4455903997774],[126.6848992984889,37.4455104973039],[126.6806386990839,37.4355253012304],[126.68638129958559,37.4256137001803],[126.6747807006052,37.4224823006845],[126.6797022990302,37.4102356998993],[126.67134770103429,37.408771099763904],[126.6725602990154,37.3978800000363],[126.7075717992754,37.410946299022896],[126.7056508036523,37.4180919996299],[126.7108391985513,37.4222308982453],[126.7055476044163,37.4240257003797],[126.7113038997397,37.431511997867595],[126.71007089932351,37.4388289948001],[126.7231266998151,37.4464840979284],[126.7360034992491,37.437952198115795],[126.7469607970171,37.4462665982596],[126.74941079456711,37.440915503610704],[126.7469608042295,37.4462665957652],[126.75184529934499,37.4445810974507],[126.7538789016442,37.456469897177804],[126.7432869011099,37.4551820048948],[126.739042500754,37.4645497012679],[126.7293635022006,37.464333902254],[126.72960700352701,37.480636493915405],[126.7512621988585,37.4647539987819],[126.7674041974711,37.4606825990722],[126.7710310952912,37.4547017035709],[126.7584102989209,37.445452803483995],[126.7597934963759,37.4394741055588],[126.7522669006712,37.4381933028217],[126.7577069969277,37.432799800887295],[126.7647959946887,37.4337765982472],[126.7616220990902,37.4249511012763],[126.7720850972953,37.421466198298496],[126.7748293944839,37.4115626008368],[126.768732300581,37.4097470026524],[126.7695847945925,37.4028090053983],[126.7858655957775,37.4029071909995],[126.78888089832249,37.379178701143395],[126.7959557969302,37.3801709983844],[126.79606409876659,37.3733706026973],[126.7912494021929,37.372683800205195],[126.79700219337829,37.365863506186706],[126.7937532933503,37.3623241034863],[126.8052783969477,37.3512724001124],[126.79606839975129,37.347307599709204],[126.80444279612091,37.3490790000503],[126.7961605007903,37.3440292003063],[126.8000600996278,37.3283168995616],[126.7950554997761,37.3252036003988],[126.7977730967981,37.3137074036092],[126.7884465989674,37.3146801027347],[126.7872597972273,37.3080602008036],[126.781073500381,37.305848701133],[126.7845319967303,37.2976740009676],[126.7957797991156,37.3091087978654],[126.7977737986879,37.3060405971555],[126.7987325040238,37.3122998964954],[126.82158989994291,37.312224499322596],[126.8259075015848,37.3165803987312],[126.8176030016112,37.3217255010221],[126.8245887013893,37.333150799265596],[126.825040901894,37.3483551998533],[126.8091271029278,37.353670696682705],[126.8243014004628,37.3542524948881],[126.81439570404571,37.3547278012007],[126.8249186011118,37.3846220997733],[126.81214470522191,37.3838753026715],[126.8149586041163,37.3922647017611],[126.8000545029516,37.4221163984821],[126.8131512007257,37.4295044975213],[126.8117055018656,37.4401207001374],[126.8202900003351,37.444018195190004],[126.8245481004713,37.4533541980173],[126.8463656998653,37.441750400114294],[126.85229340087729,37.4535829987186],[126.84083380527579,37.458558699802595],[126.8491301969794,37.461616496744796],[126.8604748965477,37.4524352963763],[126.8584411976722,37.445251402516796],[126.8638923003965,37.4490657955252],[126.879261698986,37.4411132971275],[126.8823293026545,37.444952997101495],[126.8917591956967,37.4415018004921],[126.88541050046881,37.4357918008311],[126.8972410990438,37.431111598586604],[126.898848998589,37.4238380998643],[126.8920254011499,37.4175909007283],[126.8930872004692,37.4205719998656],[126.8776220035111,37.4237912028568],[126.8805033959976,37.4215000993117],[126.8747348017662,37.4174807033311],[126.87975349030461,37.4126149956445],[126.8948794987254,37.4114301993491],[126.9079091988347,37.388905197161804],[126.9209589987105,37.3881596961171],[126.9208287979718,37.376825000241595],[126.92319809867779,37.3800919963336],[126.92592049595541,37.3729517034739],[126.92196249979361,37.3637300003374],[126.9244902953693,37.3510087999572],[126.91798870112329,37.3482404018649],[126.9173397976351,37.3415714026636],[126.9224761972043,37.342732997333606],[126.92494119956791,37.3371729999256],[126.9278575035524,37.346306899844805],[126.9392837996193,37.3531841978971],[126.94191909980621,37.341713499547],[126.9475795997591,37.342769999802805],[126.9597729009059,37.3561044977055],[126.9531289027149,37.3619385984165],[126.96174219815491,37.3620306973569],[126.95956010137401,37.3707977997878],[126.9632244021728,37.3722711978776],[126.95731670068581,37.3760863008108],[126.96318529972561,37.384200199534305],[126.9687824001675,37.383679098754705],[126.9846968012288,37.3955363986765],[126.9810458027318,37.4020217982927],[126.98415650098829,37.4077648999535],[126.9728724017356,37.4097784994648],[126.954562200631,37.3990753027036],[126.9441727995601,37.399547904059204],[126.9345043037719,37.406391700565],[126.9350884031758,37.413286299386805],[126.9273885033722,37.414567804929],[126.9197810027379,37.4229711006888],[126.91744920162799,37.443682900917295],[126.91322600256389,37.4417825008493],[126.9193673999072,37.4491131996627],[126.9185540008266,37.461569798945],[126.9298776996622,37.458694799569905],[126.9332299976285,37.452547399735],[126.93837779783709,37.4569597960189],[126.9494736998229,37.4516384998629],[126.96421030053901,37.4636722942827],[126.97436260043851,37.4622457964732],[126.9806033997507,37.4710080979516],[126.9884666994664,37.4660825001595],[126.9951239971146,37.444813701371],[127.00218269653341,37.441126500316905],[127.0003112006052,37.434642101062096],[126.9950141001091,37.4379711000519],[126.98634270029379,37.4315303015387],[126.9856117965132,37.4203730998576],[126.99400589970621,37.4215299991483],[127.0009738015757,37.433175597352],[127.0094270984561,37.4301873980126],[127.0144235986998,37.435739494299],[127.00957410596709,37.4389227993866],[127.0156752998176,37.4418391981391],[127.0082606009928,37.4499855010898],[127.0120865005928,37.4580334001597],[126.9913562997318,37.4550593028586],[126.990938200455,37.461865798193095],[126.9981443020484,37.4704011983277],[127.005213202909,37.4696947999292],[127.0106082996309,37.479511598650205],[127.0271905001229,37.4837784995985],[127.0380652990918,37.479864999334794],[127.0517211997237,37.487783299247],[127.0593026981878,37.486298999289104],[127.0597547010135,37.492566399045],[127.06503839901771,37.4908936995904],[127.0666472988788,37.4953858985071],[127.05600410131869,37.4953037004228],[127.05494280048491,37.5018872994023],[127.0777452997725,37.5114371990075],[127.0632523009916,37.5138815997968],[127.0591598028011,37.5231685984635],[127.0725760008344,37.5288690992789],[127.07544870079799,37.5491013001681],[127.0623259000093,37.5354841006858],[127.0607655999105,37.5319992006146],[127.0664122993724,37.528904800454],[127.0630166019607,37.522088607466195],[127.0467507007507,37.5255192002599],[127.0428110000455,37.531299800098196],[127.023166703849,37.5335236004976],[127.0234068006872,37.5439053995368],[127.0176618008774,37.5446678003865],[127.01958230080899,37.5502131005388],[127.0148279007892,37.5528715991135],[127.01644970094429,37.561530499244505],[127.0220614009181,37.564471198989],[127.0201750006073,37.5705081997071],[127.02765930052189,37.5758403991182],[127.02361550079871,37.578661400315504],[127.0173657003291,37.5749336007814],[127.00458549994191,37.5770347009981],[127.0023377007626,37.585106700826294],[126.9940670005531,37.572039100012596],[126.991999601233,37.578860699596],[126.98381630008821,37.5825138004566],[126.97943669923069,37.5781564006088],[126.9714669002812,37.5796756003745],[126.967598099802,37.5719748014064],[126.9550761004653,37.577205700183],[126.9596116992028,37.573024100302696],[126.9523081008248,37.5668487015796],[126.9183590008052,37.5753551005885],[126.9242438005302,37.597100898977104],[126.9355750000474,37.6069254998297],[126.9346468003437,37.622502900064],[126.9286780000689,37.6200262004355],[126.92944709880341,37.6161818005991],[126.9234378000941,37.6216688001863],[126.9171353000261,37.6197559009668],[126.9253393985263,37.612295300631],[126.91545880021539,37.6125011004709],[126.89847659905969,37.5846647014998],[126.8823587989217,37.5871368010117],[126.8801823985343,37.581237900184],[126.8908786974366,37.569251799445105],[126.88385390503281,37.5532880055891],[126.8790706994826,37.5520276008312],[126.8595211088125,37.567348303588],[126.8642369026165,37.573749398970094],[126.8558023060148,37.567675706567],[126.8218896997441,37.583948800437504],[126.8243651991955,37.5820150005486],[126.8168942009732,37.580768501483796],[126.8144506027807,37.583393799390905],[126.81806789916341,37.584668898115794],[126.8002106010498,37.5940990997538],[126.79020080012299,37.5880433010252],[126.7854714002635,37.5926342999551],[126.7845775031717,37.6101980993491],[126.77031050375459,37.6178859990016],[126.765887398632,37.6087440035864],[126.7590120017877,37.615216101441],[126.7448914017582,37.6155640022717],[126.7420067011174,37.6204274022329],[126.7327409042299,37.6206222023691],[126.73026710160961,37.6324969008029],[126.7313957982212,37.6297070012084],[126.723673201507,37.6292866036887],[126.7215731036071,37.633156499818796],[126.713507605978,37.6324782025736],[126.7136863037181,37.6414866983538],[126.700563001152,37.643479499592196],[126.7005795969008,37.6383580023551],[126.6893024996136,37.6347919002948],[126.691872298429,37.6269440004586],[126.7119308965036,37.617341698923894],[126.713884798924,37.6059562002745],[126.72884209943349,37.6009981990954],[126.727029200003,37.59702390052],[126.7514308984024,37.6036595972049],[126.75505619828189,37.5915192026432],[126.7661997955459,37.5870850006154],[126.78589819775131,37.591138798843204],[126.789910298262,37.5833568999122],[126.7887793993929,37.579745603523506],[126.78454190103949,37.584805800297296],[126.77792489984171,37.5788975014684],[126.7810351955363,37.5723208032223],[126.7904878988427,37.566374692500794],[126.7993937003088,37.5758302957253],[126.8043332988424,37.5680287006308],[126.7984198005241,37.563155202025094],[126.8139417975667,37.5471032001008],[126.80312890001551,37.5376786020303],[126.7994732003299,37.546560800415904],[126.7894309997523,37.545555202150304],[126.78470419995519,37.5429970032533],[126.7941960988055,37.541196197719],[126.7945499983914,37.535873100789004],[126.7859471011206,37.5384869000914],[126.7870517972544,37.5339478011687],[126.77945670232799,37.5331853018226],[126.78071660106811,37.5366947983131],[126.7718441993255,37.5296175023531],[126.7637644021725,37.534588899616104],[126.7490581000345,37.522486101061],[126.74645540171531,37.53060519845079],[126.7519032997339,37.5298618998243],[126.7443604999201,37.5355611991742],[126.759743598659,37.5397087982847],[126.75025460157521,37.5403706023556],[126.7454433008109,37.5459952987308],[126.75179019988481,37.558545697645705],[126.7612608987706,37.5587983992307],[126.7606603018385,37.562653000236594],[126.75080780157181,37.5640815015212],[126.75549650033841,37.5689266979912],[126.7431451006329,37.578343401639],[126.7278971009094,37.5803343012904],[126.72767230135,37.571356305012195],[126.72037290168,37.571066602622004],[126.7190489988657,37.5647764002039],[126.7249591970234,37.5631747984285],[126.7011787974313,37.540559999599],[126.70557309569149,37.5394560949951],[126.705756797746,37.5314865017658],[126.6994080007054,37.5333477006615],[126.690881004554,37.526995901583405],[126.6836038054734,37.5351898959851],[126.6850992040832,37.5412878961665],[126.69055969862269,37.5407759966784],[126.6925671015009,37.5516820952041],[126.6959482981197,37.5511332957529],[126.684965504305,37.5576536998187],[126.68847030299041,37.5692911029791],[126.6785028015105,37.572074899979896],[126.6864987016146,37.588339597357],[126.66150090164409,37.6073859011495],[126.65392709932621,37.605513701023],[126.6479937002072,37.5973679021206],[126.6412895018944,37.5988555016203],[126.637385599377,37.593514101241],[126.65856529690761,37.5980254990478],[126.6671095963634,37.5921096987486],[126.664652800272,37.5842636055288],[126.6726859957278,37.5809667964307],[126.6764255983628,37.5727625998493],[126.6747933986067,37.5684268013683],[126.66548470101199,37.571114002140504],[126.67096459356921,37.565340600218796],[126.6645243002595,37.5611600028652],[126.66740019688591,37.557285803058605],[126.6584442018228,37.552563403045696],[126.6638568991489,37.5451951995855],[126.6682639990934,37.5479434982268],[126.6674257971228,37.5407957024824],[126.6604456999895,37.5384902007007],[126.66958719819469,37.5362149000156],[126.66050949999341,37.5311768006423],[126.6567108001634,37.525927001571404],[126.6600599979516,37.522755802282596],[126.65402619704551,37.5181469024203],[126.66185469961701,37.5179467983322],[126.6618234931083,37.506879402860704],[126.65252439957081,37.5022736035625],[126.66422500015601,37.4741429020499],[126.6495245005484,37.4752396997884],[126.642339601785,37.4836220988164],[126.63040740068999,37.4852173002832],[126.618761800109,37.479409501603705],[126.6130287015467,37.4823003031032],[126.6096680988827,37.477505799660605]]]}}]}