{"type":"FeatureCollection","features":[{"type":"Feature","properties":{"interval":15,"stationId":"6050654945","profile":"peak"},"geometry":{"type":"Polygon","coordinates":[[[126.7147024994187,37.5070899002937],[126.7501036989562,37.497211800243505],[126.7565920997017,37.499177698880594],[126.7610256993198,37.4944033990092],[126.79723529950189,37.5030655990152],[126.7850605004377,37.509531201001195],[126.769489202028,37.5074746021952],[126.7645997013123,37.5133066001143],[126.75637280088729,37.5101152007678],[126.75380359988179,37.5148734004227],[126.7459982009953,37.5080143024217],[126.73025510026159,37.512830300476296],[126.7147024994187,37.5070899002937]]]}},{"type":"Feature","properties":{"interval":30,"stationId":"6050654945","profile":"peak"},"geometry":{"type":"Polygon","coordinates":[[[126.6617717960682,37.505566095865106],[126.6734747980709,37.4945636000676],[126.6677660001832,37.4908858027038],[126.6726679983258,37.4847681006508],[126.6748560014402,37.495720599943695],[126.6885274001737,37.508375798441705],[126.6908691983537,37.5035956010708],[126.699556794335,37.502831396933395],[126.7021321971189,37.4936812981381],[126.7143292974283,37.4999549977775],[126.7149676994879,37.4907882022088],[126.698570200022,37.4743376016641],[126.70180659939369,37.463924301607605],[126.70756449894661,37.461360299493904],[126.7134102000678,37.463402799383594],[126.7192323007898,37.4835914972681],[126.72454380024611,37.4806531987556],[126.7361601994603,37.4868926994274],[126.7418511999654,37.484067699186795],[126.74505220148811,37.4892302994797],[126.759237599762,37.4882624987077],[126.7626901986352,37.4824276998553],[126.7698160004785,37.4886546990495],[126.78139399910161,37.4776314998038],[126.7876176980398,37.481026796659805],[126.80088590039159,37.4625359982381],[126.7975458007862,37.476321598885896],[126.8103181000298,37.4854758990814],[126.8240437999228,37.482821799433104],[126.8332433993655,37.488281896268],[126.8383041987282,37.4845251992174],[126.8333789016454,37.4826398013344],[126.85209969972,37.4723081982736],[126.8593698003909,37.477533197420705],[126.8703217999754,37.4711357992706],[126.8739542005198,37.478629200044104],[126.8617100001663,37.4799566002171],[126.8576225012591,37.4861926014278],[126.84882190164541,37.4829929013669],[126.84369000204339,37.489110699536496],[126.8484854005056,37.4980505996951],[126.8353312003764,37.4923714008895],[126.8252879000542,37.495595400039],[126.80210910085509,37.4843753005696],[126.7952103028094,37.493145299150804],[126.8106819995057,37.493517499126504],[126.819732098491,37.5071971968245],[126.8282092997059,37.5063498984135],[126.8212983029093,37.5072747009248],[126.8165880003883,37.5185670003968],[126.8089953014484,37.5156024012679],[126.8121109999999,37.5234817993894],[126.8051703015292,37.5302767994528],[126.796979799895,37.5234428007063],[126.8019817989496,37.5189565009056],[126.7951582008742,37.519248100469795],[126.79857569524741,37.5142985025197],[126.79314050068261,37.5125769042413],[126.78606980136131,37.520669300008],[126.76773689994221,37.5236902001106],[126.75400450212739,37.5179828060325],[126.7480157005495,37.523033900003405],[126.7342950016814,37.5226956014302],[126.7322032014379,37.5364486999179],[126.7433041001867,37.5422380995471],[126.74787550058991,37.5524108968485],[126.7437420005581,37.556668900897],[126.7355236998541,37.5483302007662],[126.7151607001387,37.5433905005252],[126.7162186989312,37.5361478006498],[126.7100314992978,37.5290263998947],[126.7153161991262,37.5250619995122],[126.71033420012121,37.5202168013931],[126.70489600199551,37.5234664990686],[126.70052649970499,37.5142868034507],[126.6853342013242,37.5085470013892],[126.67629340081831,37.5149639010808],[126.6823054001441,37.5243236979034],[126.6757579010357,37.528112201171105],[126.6700534994594,37.5250954010497],[126.6732561973196,37.5224391988404],[126.6617717960682,37.505566095865106]]]}},{"type":"Feature","properties":{"interval":60,"stationId":"6050654945","profile":"peak"},"geometry":{"type":"Polygon","coordinates":[[[126.60200589906749,37.4750224997383],[126.6147109961439,37.4748105992862],[126.62985839759091,37.4643637978252],[126.6286773991367,37.4556015003099],[126.6440216971132,37.450056799146196],[126.6448795969764,37.440639901412304],[126.65633779863771,37.440806797593694],[126.6649649989128,37.4466059994038],[126.6737518995951,37.4415954001707],[126.67808149711901,37.4315432988012],[126.6747596023585,37.4257040027404],[126.6594023023152,37.43554490109619],[126.6480103992167,37.428266802472],[126.6516117986414,37.4225473998194],[126.665748499163,37.421791100258],[126.6696860978469,37.4164068992081],[126.6636812013537,37.413060200671296],[126.6634595023341,37.3963242020086],[126.6424767008298,37.3930011007147],[126.6275251005343,37.4118423984272],[126.6253306987917,37.408526202140294],[126.6275703948379,37.3874870994063],[126.63786069945911,37.3762903000187],[126.6377346972358,37.3699699013924],[126.6522827019885,37.3686824987868],[126.6595686001934,37.378816095362005],[126.6607759995169,37.3736310002658],[126.6701267001479,37.378388798307505],[126.6741826015514,37.383623299376694],[126.6700350057943,37.395378693154704],[126.6867471991239,37.3934552988171],[126.6966581019905,37.399759897458196],[126.7045047980193,37.3928790994642],[126.71295260094189,37.398941797877804],[126.737457501258,37.3977283993167],[126.7388009014329,37.4040296975947],[126.7147240004877,37.4101922000022],[126.71312310214381,37.4170386008201],[126.71937959957249,37.4212281985872],[126.71790130221959,37.4380230984327],[126.7284343976079,37.4415466969007],[126.727438298604,37.4359709024765],[126.735295398999,37.4324362957982],[126.7328500001073,37.4360786970794],[126.7419691980672,37.441543097703196],[126.7572830964871,37.4284561022993],[126.7722115998735,37.4259037955624],[126.7769676971291,37.4157782025949],[126.7695847997727,37.402809006542896],[126.7808939990912,37.4051190889554],[126.7885189986085,37.4008380934934],[126.7920534981982,37.3927356983759],[126.7893236992359,37.3836056000724],[126.79331139815719,37.3806668024942],[126.7900242006602,37.379105702141395],[126.79374159914441,37.3803802981751],[126.79606409876659,37.3733706026973],[126.7996266994173,37.3775726949645],[126.7998062970429,37.365419504261205],[126.7959780977752,37.3637618985622],[126.80356759777719,37.363644794528504],[126.80544949655169,37.3514364017189],[126.79754700109379,37.3500217006498],[126.80444279612091,37.3490790000503],[126.79909279958609,37.330038600369605],[126.8030067986237,37.3281012007201],[126.79811320188941,37.324653002335594],[126.8056103978562,37.3155172013402],[126.7900264968591,37.309915504391306],[126.7980875976922,37.3083077008011],[126.8017153015594,37.314681795945],[126.8225371993848,37.317709799239005],[126.8144646017887,37.3181612015865],[126.81314960032721,37.3279677988466],[126.822567200097,37.333030299402594],[126.81832060091911,37.3407890992923],[126.825040901894,37.3483551998533],[126.8091271029278,37.353670696682705],[126.81439569765921,37.3547277956256],[126.8141960978588,37.3509707993826],[126.8211267021693,37.3817866001639],[126.81214470522191,37.3838753026715],[126.8149586041163,37.3922647017611],[126.80766680486671,37.3925751013273],[126.802935105782,37.3989347012648],[126.8065625022651,37.4102011982908],[126.79652540379199,37.4260340985888],[126.8126804994775,37.4301543993845],[126.8116598019113,37.4416538986042],[126.817576696646,37.4419140981249],[126.8226920996787,37.466456896887195],[126.832609999381,37.4579916996025],[126.84507479737731,37.4559080989356],[126.8448067955885,37.4520939018132],[126.8426979034117,37.4613051970561],[126.8527967973737,37.4609447975059],[126.87133489606519,37.4544254975524],[126.8793406978747,37.4412639006664],[126.8823293026545,37.444952997101495],[126.89477169783561,37.4424996990805],[126.8884521990543,37.437326102273],[126.8988130974718,37.4283050013932],[126.8948794999116,37.4114302052163],[126.911095499863,37.4015048985005],[126.91419499977911,37.3927972002654],[126.9218405992325,37.3930237985917],[126.92319809907619,37.38009200163],[126.9359679976534,37.3783305981884],[126.9363894983409,37.3659448996288],[126.9484677985,37.36405769969689],[126.9492709987904,37.3531037002728],[126.94272489917161,37.344141699287604],[126.9554066006213,37.3517679989065],[126.9550474015044,37.3575783994146],[126.9477452023504,37.3620558997061],[126.9535983004397,37.3722760005397],[126.9405650049958,37.379772899981],[126.94846419770231,37.382120298852996],[126.9474658006182,37.3885241981261],[126.9499843987643,37.3857951006935],[126.9575909000883,37.390311699834],[126.9524794000916,37.393697301123396],[126.9418725009114,37.3899779011717],[126.9335365031017,37.4002793015591],[126.9345043025281,37.4063916968879],[126.9225713988191,37.4082946026982],[126.9230762009874,37.418551897676195],[126.917342002439,37.4215873013838],[126.91642020148501,37.4347735979771],[126.9112123032444,37.437081500236],[126.9170423978194,37.4402146973634],[126.9084406023389,37.444598401117],[126.9166384993361,37.4479951998365],[126.9143359018992,37.471621498249],[126.92390499993711,37.4737065982192],[126.9261473992984,37.4649406997859],[126.93167779628921,37.4633338977733],[126.94600539996661,37.468423198438096],[126.9493070996972,37.4617322990198],[126.9537161999259,37.4703373968341],[126.9578834957586,37.4685551986163],[126.95371620421301,37.4703374008129],[126.9562774016518,37.4741764969738],[126.96677059746061,37.4680881978588],[126.98327479970321,37.471046498947],[126.9881933011257,37.478731999879],[127.0034753001233,37.478791798999005],[126.9972030019428,37.493692100551094],[126.9662893012069,37.4920076009398],[126.960887101093,37.5037302001997],[126.9909292990792,37.5014500980209],[126.967023602021,37.504962901660406],[126.9585245009621,37.516837000647],[126.9499715996385,37.5151897014171],[126.9414513092056,37.5226327070541],[126.9448079039357,37.5337597983793],[126.952174700802,37.5374816991999],[126.961373500553,37.5209356990698],[126.9710171999673,37.5165863999598],[126.97964680065189,37.520756498750096],[126.9679798012762,37.5271948998531],[126.9803209003361,37.5342520997768],[126.9729330012391,37.539570898540504],[126.9738175002496,37.5457287994564],[126.98376109918459,37.5593836995318],[126.9896270000596,37.560122999723895],[126.98578280079039,37.567976098858104],[126.9972888003182,37.570507299724504],[126.9829181007085,37.5746101001989],[126.9875377998821,37.5773333994266],[126.9844631006929,37.5773171005477],[126.9732793992696,37.5674813019065],[126.9634721995693,37.5677601001243],[126.95372690046631,37.5609425022049],[126.9339284002884,37.5619651004324],[126.9229260000401,37.572760699483105],[126.9116841998903,37.5716029017673],[126.9190898005318,37.5990157990436],[126.91393889972241,37.6010421004837],[126.9034394987412,37.5851564011867],[126.8826043993655,37.5834155008817],[126.8920335996363,37.5729936976144],[126.891501999445,37.5654449992421],[126.8935336000793,37.567718699489],[126.90125299938559,37.558807399688796],[126.8992705019365,37.544340105949196],[126.8894750996778,37.5416285011389],[126.89123649940751,37.535430700725],[126.8866108991377,37.5315570015556],[126.86766000133301,37.5303863004721],[126.85143000122899,37.5401200999719],[126.85294679963239,37.5489687995453],[126.8747943983569,37.539262200497106],[126.88464499883351,37.5389423004707],[126.88240930155631,37.5454213014578],[126.8861292977481,37.546200497523195],[126.8595211088125,37.567348303588],[126.8348612077972,37.5787932067942],[126.8168942009732,37.580768501483796],[126.8144506027807,37.583393799390905],[126.81806789916341,37.584668898115794],[126.800210601008,37.5940990996382],[126.7943188993671,37.5863947012447],[126.78819420155011,37.589722397974796],[126.7887793993929,37.579745603523506],[126.78454190103949,37.584805800297296],[126.78103519719751,37.572320804131],[126.7904878988427,37.566374692500794],[126.7993937003088,37.5758302957253],[126.8043332988424,37.5680287006308],[126.7984198005241,37.563155202025094],[126.8139417975667,37.5471032001008],[126.80312890001551,37.5376786020303],[126.7994732003299,37.546560800415904],[126.7974655001456,37.5420716012281],[126.78812860213439,37.5425009024611],[126.7941960988055,37.541196197719],[126.7945499983914,37.535873100789004],[126.7859471011206,37.5384869000914],[126.7740216994769,37.5318144039809],[126.77152560197301,37.5384450973502],[126.7685158006168,37.5300546016164],[126.762097002002,37.5366477012614],[126.7705280044772,37.5597923967766],[126.7647736978362,37.5441122031982],[126.7456342014431,37.5427395010121],[126.75179019988481,37.558545697645705],[126.7612608987706,37.5587983992307],[126.7624988005072,37.562889597798296],[126.75625560173481,37.567019898673095],[126.760922399187,37.5723925961111],[126.76433889577049,37.5693663991373],[126.7609224036898,37.5723925979889],[126.7533707002529,37.567738401363805],[126.7412595020981,37.5862159993719],[126.7290042999938,37.5849265004316],[126.71847660099151,37.577045601013396],[126.7203728969074,37.5710666027768],[126.7087587009086,37.5715312017186],[126.71791469626419,37.5649803014018],[126.71124020024091,37.5648697020867],[126.7030933006167,37.556430404302105],[126.6876953021319,37.5726123001105],[126.6936519968611,37.5792816940002],[126.6929636033014,37.5860622981507],[126.6964818997831,37.5855902986227],[126.69553660115379,37.5951054997263],[126.6864987016261,37.588339606392495],[126.6658365048674,37.6021164019243],[126.6735859000622,37.610631998961004],[126.6592660009827,37.6149504008783],[126.6532533005943,37.6065367038696],[126.6501796018466,37.612408202360896],[126.6318683976115,37.6033558015705],[126.6251433998811,37.6046653017885],[126.62541199727299,37.6003737029382],[126.6140635985074,37.5963102022156],[126.6280093976185,37.5874344998867],[126.6306756003584,37.5921343961105],[126.6389026995724,37.5874540982587],[126.6404770982145,37.5943758979367],[126.6491740965166,37.5936193985586],[126.6443007002758,37.5904616016151],[126.6628596987343,37.5789201994299],[126.6637321994943,37.567486200624096],[126.6696335985972,37.568390900900795],[126.6609443022643,37.5675524999602],[126.65053210232621,37.5591355028134],[126.64981490304339,37.5666657952831],[126.6467594995288,37.5423810043576],[126.6505689994957,37.5340860000518],[126.64045009984,37.5251673007901],[126.6489644977274,37.523738799158],[126.64876399928269,37.5165935018287],[126.641759699211,37.5143184014817],[126.6469633989541,37.5092596000015],[126.64338050035681,37.5066937025721],[126.6479311941453,37.4961889990325],[126.64562199645451,37.486981808239705],[126.633470104467,37.484565410314],[126.6226459043081,37.489022901393604],[126.60200589906749,37.4750224997383]]]}}]}