{"type":"FeatureCollection","features":[{"type":"Feature","properties":{"interval":15,"stationId":"6050655850","profile":"peak"},"geometry":{"type":"Polygon","coordinates":[[[126.74690839936629,37.5062537004152],[126.7634229999399,37.498545399723696],[126.7673044003607,37.5036188985262],[126.7712827968103,37.4980995004096],[126.7740544986803,37.5005831973279],[126.7871386998733,37.493788099420705],[126.7999902009814,37.499992199045],[126.7973576006964,37.5047580001821],[126.80294300064119,37.5102556966337],[126.8073142975333,37.5021709017223],[126.8173500990983,37.505574698171095],[126.8145825050719,37.510450597969395],[126.8060455002156,37.506979802811806],[126.7846935008085,37.5144641000213],[126.7795318999935,37.5093684011667],[126.7596366997074,37.506097000507395],[126.7516226999787,37.5098321006898],[126.74690839936629,37.5062537004152]]]}},{"type":"Feature","properties":{"interval":30,"stationId":"6050655850","profile":"peak"},"geometry":{"type":"Polygon","coordinates":[[[126.6922221966183,37.5105070984192],[126.7025571913346,37.498671001093804],[126.7085829010066,37.5025788991287],[126.7187255988627,37.4944670001351],[126.7121223993866,37.4877846005277],[126.7145898973521,37.4830405013832],[126.7060280990281,37.476418601124806],[126.7092435995648,37.4745401993638],[126.72522100131151,37.4880186994346],[126.74610489971151,37.4858964991595],[126.74549919850429,37.493015399287295],[126.76390170011301,37.481993098691696],[126.7712999998213,37.4875599993372],[126.7814634993598,37.4765050995399],[126.787617701448,37.4810267973016],[126.7940478994363,37.4725190005419],[126.79118000127589,37.4680064019404],[126.80088590039159,37.4625359982381],[126.7988862002242,37.4763982988146],[126.8045186004115,37.480835199528904],[126.8305117007993,37.4849576949153],[126.84878759853899,37.4701387998933],[126.861034099952,37.4734859995043],[126.86860979932901,37.4674873003267],[126.87696050050539,37.4778932983264],[126.8844807976551,37.47384679905149],[126.8797409004759,37.4854725004163],[126.8757198000131,37.480097802296406],[126.86035080388801,37.4846538999737],[126.8652000003877,37.492626299543595],[126.85652250095569,37.4972942004351],[126.8562827991141,37.4887241012272],[126.8488178006839,37.485094101245096],[126.84799970099131,37.4978039999417],[126.816582901704,37.494336899755],[126.819732098491,37.5071971968245],[126.8317462002406,37.506484396005696],[126.8212983029093,37.5072747009248],[126.8259962006156,37.5135795992675],[126.80722159996,37.5382313004519],[126.80638169880861,37.5342177019767],[126.7924971000356,37.5294755028578],[126.7979377982714,37.5255966999051],[126.7950780998856,37.523039400563704],[126.7803001002366,37.5238237006561],[126.75896110004359,37.5153301029075],[126.7221046011225,37.5234403006968],[126.7334959997185,37.5426848997695],[126.72880620108049,37.5476337007297],[126.7182163000665,37.5400903009247],[126.71540379929121,37.52790150064],[126.7203104988922,37.5245754994099],[126.7125550000973,37.518577701485704],[126.71341079896001,37.5126833039032],[126.7066230014225,37.5122924008809],[126.7056568004567,37.519103899544696],[126.6922221966183,37.5105070984192]]]}},{"type":"Feature","properties":{"interval":60,"stationId":"6050655850","profile":"peak"},"geometry":{"type":"Polygon","coordinates":[[[126.6013746990065,37.4749933003261],[126.6147109961439,37.4748105992862],[126.62985839759091,37.4643637978252],[126.6321120972465,37.452429099952404],[126.6435875011556,37.4550537977864],[126.6498150986299,37.445298099674105],[126.6544118987933,37.446850897691505],[126.6486557007323,37.4510137996708],[126.6608807996513,37.4542395990118],[126.6726299982152,37.4475126989886],[126.6826493972535,37.4309333967825],[126.6745272004651,37.420845100800804],[126.6715241006446,37.4224222004464],[126.67263750047519,37.4122193008267],[126.6664951000467,37.408344400248595],[126.66831499934791,37.3945453026618],[126.65400509950511,37.394174102085],[126.6534771981984,37.3840748014018],[126.64277060236891,37.3828929010617],[126.6441399019857,37.3895923980577],[126.62794060118941,37.4042296002975],[126.63317049846401,37.3805580009976],[126.6401042976707,37.379456099909596],[126.64159449782629,37.373860600969],[126.6384320011433,37.3738042001706],[126.6434540999657,37.3720547959379],[126.6500668995498,37.3706089995311],[126.65311750086349,37.3786819970138],[126.66246149730051,37.377027097151],[126.6711598000838,37.3816798988115],[126.6700350057943,37.395378693154704],[126.693878201056,37.399517097903896],[126.70252409801901,37.3923433009307],[126.7151371999847,37.397749098696195],[126.737457501258,37.3977283993167],[126.7388009014329,37.4040296975947],[126.70882000248591,37.4126481990255],[126.7125660035732,37.422303998413796],[126.7162472998919,37.4219410987767],[126.7103995023724,37.426730299817905],[126.7163953000806,37.428553399532795],[126.71790130221959,37.4380230984327],[126.7284343976079,37.4415466969007],[126.7299456974926,37.434412101558806],[126.7419691980672,37.441543097703196],[126.7593327979503,37.4285857998703],[126.764795996464,37.4337765953551],[126.76151659974339,37.427985201146505],[126.7722115998735,37.4259037955624],[126.7769676971291,37.4157782025949],[126.7736765004203,37.4176089007642],[126.7695847997727,37.402809006542896],[126.7808939990912,37.4051190889554],[126.7885189986085,37.4008380934934],[126.7888808997426,37.3791787021478],[126.7959557969302,37.3801709983844],[126.8010623975361,37.3700718009626],[126.7937532933503,37.3623241034863],[126.8000251973395,37.3623550976058],[126.7991873981773,37.3589803009806],[126.80356759777719,37.363644794528504],[126.80544949655169,37.3514364017189],[126.79754700109379,37.3500217006498],[126.80444279612091,37.3490790000503],[126.80390849912851,37.3410099006089],[126.7968246985385,37.3345986018736],[126.8003109985939,37.3348616976787],[126.8030067991515,37.3281011989793],[126.79811320188941,37.324653002335594],[126.8056103978562,37.3155172013402],[126.7913958031754,37.3159504013662],[126.7825850974031,37.30156440214979],[126.7858441967156,37.3005762009361],[126.8017153015594,37.314681795945],[126.8225371993848,37.317709799239005],[126.81442010117381,37.325077398587],[126.822567200097,37.333030299402594],[126.81832060101311,37.3407891002716],[126.825040901894,37.3483551998533],[126.8091271029278,37.353670696682705],[126.81439569765921,37.3547277956256],[126.8141960978588,37.3509707993826],[126.82286790002411,37.3845756993777],[126.81214470522191,37.3838753026715],[126.8149586041163,37.3922647017611],[126.807666804207,37.3925751021589],[126.802935105782,37.3989347012648],[126.8070889014592,37.4071169967699],[126.8000545026217,37.4221163982002],[126.81315119876099,37.4295044997123],[126.8116598019113,37.4416538986042],[126.817576696646,37.4419140981249],[126.8191109027613,37.4512999995435],[126.8235155983566,37.452800598042906],[126.8187039028212,37.4567078984881],[126.8223708011968,37.4633440973621],[126.84541679325069,37.4484884014988],[126.8517829979603,37.4536315986975],[126.84083380527579,37.458558699802595],[126.8491301969794,37.461616496744796],[126.8555878971668,37.4537523009974],[126.8555584010847,37.4572898960408],[126.86341939852029,37.4504088999717],[126.8708504973914,37.451551298507],[126.8793406978747,37.4412639006664],[126.8823293026545,37.444952997101495],[126.89477169783561,37.4424996990805],[126.8884521990543,37.437326102273],[126.8988130974718,37.4283050013932],[126.8948794999116,37.4114302052163],[126.9131282996465,37.394911200057805],[126.9238042989903,37.39211249745421],[126.9222742997682,37.381722002207205],[126.9359679976534,37.3783305981884],[126.9342122995988,37.3659448001166],[126.9399960995767,37.363688399851],[126.9295736996567,37.36218110057],[126.9233961980039,37.3471406021492],[126.94139969933181,37.3558840977719],[126.9447538990999,37.3630119992433],[126.9492709987904,37.3531037002728],[126.9415268997907,37.3440655997775],[126.9475795997591,37.342769999802805],[126.9578268997531,37.3550140981412],[126.9506892008212,37.3576025006179],[126.9522947016027,37.3746632982539],[126.9405650049958,37.379772899981],[126.966442900038,37.3907581999046],[126.9664387010307,37.3970146003196],[126.9405448005323,37.3917432009237],[126.9345043025281,37.4063916968879],[126.9213905017351,37.4109928020107],[126.922900302068,37.4205469989834],[126.917342002439,37.4215873013838],[126.91642020148501,37.4347735979771],[126.9112123032444,37.437081500236],[126.9170423978194,37.4402146973634],[126.9084406023389,37.444598401117],[126.9166385000733,37.4479951997914],[126.9143359018992,37.471621498249],[126.92390499993711,37.4737065982192],[126.9242147997599,37.4659152001367],[126.93347799882079,37.4603340975333],[126.9505559997214,37.4595998994793],[126.95780309991511,37.4678506992564],[126.95371620421301,37.4703374008129],[126.9562774016518,37.4741764969738],[126.96207339824869,37.472514798523996],[126.9618084985136,37.4684270026118],[126.9848792982386,37.4695703001073],[126.9874359988906,37.4609115005692],[126.990938200455,37.461865798193095],[126.9920385023682,37.4685549003749],[126.983274801921,37.4710464992427],[126.9893190017345,37.478610997733604],[127.0012478998937,37.475785498921],[127.0050829004204,37.4814844991526],[126.99671860203189,37.4904262002755],[126.9975838006974,37.4969768999658],[127.00361649982001,37.496023699900405],[127.0044237963115,37.4881455000922],[127.01081159993589,37.487222798746195],[127.018039400706,37.493221999984705],[127.007656001325,37.4971921998769],[127.0189684003213,37.5030913997788],[127.0153058991034,37.5076139989352],[127.0262843999514,37.5013309998933],[127.0300269996244,37.510935399235],[127.0451588013033,37.517828300241],[127.0271888001381,37.5161268006446],[127.0192233005465,37.5201875005038],[126.9903664000701,37.5032182030007],[126.9693090038014,37.507606207965196],[126.9708781004691,37.5163931997955],[126.9807011995975,37.5203219991846],[126.9679798012762,37.5271948998531],[126.9818925994374,37.5322782986074],[126.9742997002009,37.536743901048595],[126.9738175002496,37.5457287994564],[126.9804300003766,37.5462699979821],[126.9825316001071,37.5577033990225],[127.0003651997148,37.566862899807695],[126.9844631006929,37.5773171005477],[126.9477451028076,37.5622374013986],[126.9340964005318,37.5680882003577],[126.9352861006534,37.5714752994268],[126.9244853017092,37.572528299359],[126.92746200005071,37.5738224993915],[126.92292000032141,37.578234799937896],[126.9236918010822,37.596491299586695],[126.93183759934679,37.6011915995862],[126.936341699619,37.5977217005998],[126.93345550048309,37.6233918001549],[126.9159491002656,37.6218727005272],[126.91645539967651,37.6126408011657],[126.90313930070391,37.5981527027844],[126.90016729860291,37.5865427013021],[126.8917539021235,37.5857262005332],[126.8844380010173,37.5914593996028],[126.8853079006664,37.5973690978063],[126.8786611000841,37.5988580007525],[126.8819628013185,37.6044708980107],[126.8768263009693,37.609001200419705],[126.8804506003403,37.6123519003902],[126.87777710029701,37.618746300108],[126.86612310346139,37.6152553036742],[126.8606058020722,37.6192630011357],[126.8638923980155,37.61419570326041],[126.8573492011217,37.6149767016471],[126.84354780416889,37.637373697920594],[126.8579275000523,37.6451163938804],[126.8650758980307,37.645296096103],[126.8703043995009,37.6373713999384],[126.8865163000862,37.645071299837696],[126.90247140053489,37.6428721992362],[126.9070948001806,37.6461310971565],[126.9142169964497,37.6432518976289],[126.91140439942619,37.6342342015648],[126.9192716983476,37.628696599989595],[126.9283856999986,37.634157899951596],[126.9213858023662,37.640814600195796],[126.9216708008362,37.6540142005481],[126.9083756015555,37.655006803855905],[126.8954723001628,37.663628600399],[126.8844069020926,37.6562032027191],[126.8842437022558,37.6599997989225],[126.871772799534,37.6593820006499],[126.8728524990523,37.6551587031755],[126.85304000157869,37.647980006594594],[126.84776940684931,37.6534912010834],[126.84804170150039,37.6671172010368],[126.82496639952319,37.6618881012152],[126.8238560000933,37.6571329009104],[126.82870899745781,37.654616299917],[126.82161430034509,37.646223900856],[126.8227511999449,37.651572698906804],[126.8128603016657,37.6552184023109],[126.8167091022931,37.667237398133096],[126.803633804458,37.6815798974782],[126.79575209954591,37.682264700635095],[126.7937781008328,37.6877115969305],[126.79173470000491,37.6853679025481],[126.7764911017175,37.6972549006354],[126.7599099017509,37.7013587002021],[126.75998700025059,37.717320800097205],[126.7549202995248,37.710384501876405],[126.76143899861819,37.695750402432004],[126.7549239991454,37.6935813007501],[126.75034510056861,37.683891801341595],[126.73824999860729,37.679806501342796],[126.73995209772549,37.6696655004559],[126.7456375985278,37.6706662971443],[126.7585412987203,37.661779199738596],[126.7636090005621,37.6467809018442],[126.7712079980502,37.6470922011444],[126.7751082975853,37.6335036003373],[126.7864253981564,37.6302281989397],[126.7785912045639,37.6124295134087],[126.76124349948891,37.619695101408304],[126.7548461016774,37.614386104213395],[126.75374070278279,37.6186448999546],[126.7402739995525,37.6236004005625],[126.7359627010081,37.618701604289704],[126.731346901904,37.623857599347],[126.73458530238551,37.625908797082495],[126.7317838004739,37.635786200243096],[126.7317492001275,37.6301051031947],[126.7259583045587,37.6341441002325],[126.7307601997568,37.636361598015],[126.71452960354101,37.635259601096095],[126.720837997543,37.6383739979847],[126.71939970612729,37.6421421133599],[126.7104103006216,37.641336901388996],[126.7089067003888,37.6457074014602],[126.70515160225139,37.642516802194],[126.7003402003352,37.6540288996342],[126.6881973010503,37.6537803013885],[126.6782225070735,37.664347911797],[126.67097700019919,37.662893601170296],[126.6724503976997,37.653851700484296],[126.65419950103,37.6512758015541],[126.6549380975665,37.6432285031606],[126.64225240145801,37.6478468008128],[126.6400046986856,37.644059902194904],[126.6271629006543,37.653392800441196],[126.61553829985219,37.642063102193504],[126.64846879855921,37.633334296495704],[126.652022303979,37.6405473974535],[126.6780401996344,37.6352619987059],[126.6928221988119,37.6496504977978],[126.6973807974466,37.642054101095006],[126.6881518006493,37.6398006027779],[126.68432680014229,37.6321505019187],[126.69499160069209,37.6193598969835],[126.7119308965036,37.617341698923894],[126.7088765973581,37.607501202401004],[126.71204329989881,37.6022621999361],[126.7288316965801,37.5930293989412],[126.7465606984454,37.5994473984111],[126.7542965984956,37.5912840999375],[126.7547190973456,37.581349799293996],[126.75672810336701,37.589142597404],[126.7661997955459,37.5870850006154],[126.7710274998012,37.5718634001756],[126.7765714976929,37.5755430975846],[126.7904878988427,37.566374692500794],[126.7993937003088,37.5758302957253],[126.8043332988424,37.5680287006308],[126.7984198005241,37.563155202025094],[126.8139417975667,37.5471032001008],[126.80312890001551,37.5376786020303],[126.7994732003299,37.546560800415904],[126.787359900791,37.5489716011392],[126.7800300015649,37.546340803619906],[126.7794566985226,37.5331853005954],[126.7651757007612,37.5325483016567],[126.76190650286719,37.5431947009175],[126.7456342014431,37.5427395010121],[126.75179019988481,37.558545697645705],[126.7612608987706,37.5587983992307],[126.7624988005072,37.562889597798296],[126.75625560173481,37.567019898673095],[126.7597433999386,37.5728166988677],[126.7533707002529,37.567738401363805],[126.74673870296239,37.5727140981436],[126.7496760017519,37.5787639963494],[126.7428263014111,37.5825859994111],[126.73189290155301,37.583515402657405],[126.7214520014839,37.5775602007569],[126.7203728969074,37.5710666027768],[126.7082184002496,37.5703152007487],[126.71791469626419,37.5649803014018],[126.70526329783,37.555061101369304],[126.693627804434,37.5549839007218],[126.6967310027064,37.5645393942964],[126.6812700019557,37.5691271010265],[126.6806367054047,37.5729466007904],[126.68579580141079,37.5837482945535],[126.69019659700999,37.579902498399306],[126.6927091995194,37.5860726943444],[126.6759402056182,37.5987658029152],[126.6682823024216,37.5994150046257],[126.6665723002319,37.6097472001145],[126.63283270041309,37.5967712026969],[126.6271097999719,37.6006680006348],[126.6186305994716,37.593102700935106],[126.6357322991115,37.5894684002755],[126.64360429970161,37.5953435996105],[126.65195029923629,37.588175094911904],[126.6576623990655,37.5924517975521],[126.6585673002723,37.584144103387004],[126.6762372985511,37.5706925019194],[126.6637765000301,37.5697800017033],[126.67096459356921,37.565340600218796],[126.65639040713111,37.5586325060184],[126.66094430257719,37.5675524970984],[126.65398919972709,37.556345200881005],[126.653017399495,37.5429966035829],[126.6498515002516,37.5439414002669],[126.6564544985375,37.5327019002659],[126.6504486004094,37.5305948002728],[126.6487569983281,37.5129509000496],[126.6525343012754,37.5181666985647],[126.6614716973889,37.5162789996076],[126.6618234931083,37.506879402860704],[126.6565111984206,37.5037937059464],[126.6487088999785,37.5070390017275],[126.64340490154859,37.4991378043234],[126.6498530978932,37.4924450005206],[126.6491129006927,37.4845631021769],[126.64812280119149,37.4878803992363],[126.6400764978606,37.483013811865604],[126.6226459043081,37.489022901393604],[126.6013746990065,37.4749933003261]]]}}]}