{"type":"FeatureCollection","features":[{"type":"Feature","properties":{"interval":15,"stationId":"6102706369","profile":"peak"},"geometry":{"type":"Polygon","coordinates":[[[127.1027078996178,37.503576899683],[127.1087901992197,37.5028286989231],[127.1223072996608,37.5133478986119],[127.12616849938601,37.499307699919605],[127.1378990998231,37.5152791991897],[127.14148489815119,37.511331500050794],[127.15117050008281,37.5154457999375],[127.1461625010471,37.5228927991973],[127.1525938025392,37.5284840988224],[127.1363377004746,37.528988600990296],[127.12746249829439,37.5244691006614],[127.1254106993518,37.5174104004002],[127.114184700537,37.5217271013487],[127.1027078996178,37.503576899683]]]}},{"type":"Feature","properties":{"interval":30,"stationId":"6102706369","profile":"peak"},"geometry":{"type":"Polygon","coordinates":[[[127.0188638990271,37.5031931993852],[127.0272274992645,37.495969500304604],[127.03069720040031,37.503903099794805],[127.0376016005125,37.4993956989456],[127.0370856000265,37.505452998471505],[127.0529822998961,37.5032546992733],[127.04811890013441,37.5106119995665],[127.0609951992589,37.5046448000038],[127.0777597995764,37.503985796615304],[127.0758514993569,37.4980913006997],[127.0676454009467,37.5003978009628],[127.05902039981899,37.4937797005785],[127.0528907000848,37.4963228999744],[127.05292879836071,37.4904811013679],[127.0668920990267,37.4858902992813],[127.0779483993488,37.489415899201795],[127.07608789654411,37.4817005023599],[127.08063599748439,37.477255997612495],[127.09019460199531,37.4855064958298],[127.1059203992554,37.478558297819404],[127.1077086006096,37.4886707975346],[127.1270542990702,37.4740976991582],[127.13150910032691,37.479078899655796],[127.1303742003062,37.4865845991956],[127.1418224999796,37.4828157997053],[127.1619950004615,37.493006599364],[127.158698299249,37.502238300278805],[127.14332400148491,37.5032124013234],[127.1632300008483,37.515951798871605],[127.1510777040553,37.526560100746394],[127.1602526961374,37.529942098948396],[127.1605774020413,37.5357329964104],[127.1460867001787,37.5401198005777],[127.1488070993961,37.5467113978751],[127.1446400017046,37.554585599957505],[127.1392653996353,37.547497500388],[127.1311811013351,37.5574369011669],[127.1246611001625,37.556529300578504],[127.1115262015934,37.5362921027349],[127.109756000748,37.5503427993183],[127.09592410134131,37.5481995020752],[127.0942560004764,37.5544530001306],[127.0781637001963,37.5602605003595],[127.0770722995365,37.5530128000567],[127.08402099967941,37.5545682995041],[127.0858627989245,37.548457501028196],[127.0950758984682,37.547991598776605],[127.0966634999089,37.5431756003847],[127.1115261994896,37.536292098816496],[127.109880598136,37.526399301347],[127.10376870067991,37.5242208011971],[127.0946393012654,37.5326937007111],[127.09765260080681,37.5377727002631],[127.085474400688,37.5407356001846],[127.0806359991093,37.5352648003119],[127.0942459998913,37.5330554993212],[127.1014410926962,37.52441790795881],[127.0978007993843,37.519613501411],[127.06729280106241,37.5157587015265],[127.0546963002398,37.522176600082304],[127.04996199920589,37.5163447023799],[127.0387632997883,37.5194969005289],[127.03656929932319,37.5108159010359],[127.0301883003023,37.515220600682],[127.0288101003821,37.5075657004567],[127.0200923004673,37.511680900511905],[127.0188638990271,37.5031931993852]]]}},{"type":"Feature","properties":{"interval":60,"stationId":"6102706369","profile":"peak"},"geometry":{"type":"Polygon","coordinates":[[[126.8345469996138,37.568986200046496],[126.8386028988154,37.5686843989628],[126.8389914986251,37.5633222001313],[126.845756698353,37.5648203996839],[126.8506213994873,37.5541765989749],[126.86046429820091,37.5531536980614],[126.8680896996939,37.538474899411696],[126.8910430972258,37.5353755985521],[126.88461300050041,37.5270623004416],[126.8775485002408,37.532968900092],[126.8533312998228,37.527811100798004],[126.846124600232,37.5355800004367],[126.8419893995519,37.5306791999748],[126.8533584990481,37.5191972998932],[126.8676185995804,37.524442798143504],[126.869812599412,37.5185841003278],[126.8810541983594,37.515623498462],[126.8751694977728,37.499973402181304],[126.88344079976561,37.4969972996075],[126.8870791002063,37.501396300109306],[126.8917463988585,37.490419300060296],[126.885333200098,37.4888175006675],[126.8852018993322,37.4832479000282],[126.9006294998906,37.488854599749104],[126.90335189989631,37.497000899432],[126.91484849870001,37.4936636001734],[126.9064557005284,37.490312500640805],[126.9065163988518,37.4834685999269],[126.9227500981036,37.4802987980183],[126.930819298792,37.474335700923696],[126.9299645997828,37.4681963000169],[126.94131660014419,37.4705964993263],[126.9477000987714,37.467032699225996],[126.9415762005481,37.4740525995029],[126.9511186998564,37.4777814991414],[126.9578834957586,37.4685551986163],[126.95371620421301,37.4703374008129],[126.9562774016518,37.4741764969738],[126.96207339824869,37.472514798523996],[126.96423119820611,37.4659469989328],[126.9760630982995,37.4642565979892],[126.9806033997507,37.4710080979516],[126.9884666994664,37.4660825001595],[126.9913226001676,37.4467341023807],[127.00218269653341,37.441126500316905],[127.0003112006052,37.434642101062096],[126.99512320022309,37.438023000545904],[126.9889301997768,37.434096100984895],[126.98484569948029,37.426186400540196],[126.9887939987377,37.4209298005632],[126.9872003020117,37.4269868984318],[126.9961642989816,37.423590299002],[127.0025324985869,37.4288018989045],[127.0009738015757,37.433175597352],[127.0094270984561,37.4301873980126],[127.0144235986998,37.435739494299],[127.00957410596709,37.4389227993866],[127.01918900141419,37.441673096641104],[127.0129600027971,37.4441875005584],[127.0112094029344,37.4588851003247],[127.0005726042313,37.4616383018114],[127.0089986005116,37.473225398308195],[127.0212210986114,37.4693816991922],[127.0320502980286,37.455804599568204],[127.046766099131,37.4577625998488],[127.04457879368509,37.4402141051215],[127.0488167984358,37.4336321985964],[127.0698415000805,37.4345577996107],[127.06332880810889,37.4427551006878],[127.0676926035705,37.4543955999553],[127.0608600022537,37.4610821989453],[127.0573689022269,37.4585222041018],[127.0563676032282,37.4683910942329],[127.077111598348,37.4750565942953],[127.105065098481,37.4561345993518],[127.1086604994529,37.4556317994964],[127.1078905003625,37.462021898029306],[127.11579469763069,37.462988797790196],[127.11975629818231,37.4362048013147],[127.11232149925479,37.4276913020086],[127.1169598964789,37.423805098583905],[127.1149804984113,37.419760602309296],[127.1122443011475,37.4220743999955],[127.11332519852701,37.4100126997932],[127.10031470112,37.4077244011513],[127.0994621998761,37.3974361011635],[127.096562300783,37.4027104001152],[127.0948008002826,37.399870100406304],[127.1054435979155,37.3713862979607],[127.1049339989307,37.3655994997395],[127.0950301987026,37.363796701797405],[127.10464219879461,37.3605171012166],[127.0981198968027,37.3498226048327],[127.0930122019104,37.3493268053285],[127.0972269958971,37.345613800723704],[127.09124389923339,37.3378177001253],[127.0969720999074,37.3355752992791],[127.0999889994108,37.3269348016255],[127.08838510074119,37.327194301617205],[127.0858569998897,37.3180349005066],[127.0739454002313,37.3165178006336],[127.07484079938041,37.3101831003986],[127.08169399956,37.3086678998675],[127.0882180004924,37.3187966992578],[127.0983046997049,37.316953198822404],[127.1048059993141,37.3217831978197],[127.1040189001012,37.3187458008571],[127.1065272006274,37.325317999371904],[127.11124869882731,37.320916499609005],[127.12143140011801,37.3548218998657],[127.112668101106,37.3556005008426],[127.1206443003052,37.3667703991946],[127.1210124995239,37.363465700639296],[127.12729399999431,37.3670884998196],[127.1271994006185,37.3741468996017],[127.1322731987141,37.373476999588],[127.1420608012227,37.3832124984227],[127.139571300923,37.3869193991113],[127.14624910019941,37.3948056991846],[127.1367145006202,37.3964503022606],[127.13570610179539,37.4010904984761],[127.14818080114111,37.4054571984353],[127.1456492011573,37.4121632986741],[127.15049629991731,37.416055099751304],[127.145097701567,37.4154360022193],[127.1447912022269,37.4255324930609],[127.176497900084,37.4378764981144],[127.1732075041714,37.4439955976511],[127.1786843003982,37.4449645994246],[127.1787374008013,37.4522057979016],[127.1743843033045,37.4671800000294],[127.16571980259191,37.4671595018659],[127.1495365017413,37.483066698738604],[127.1689517906149,37.4807958002444],[127.17811309796281,37.4747833987655],[127.1806019003253,37.4794262975231],[127.17627530117,37.4845364995329],[127.1852606989914,37.4812240990886],[127.1763611084009,37.488947400418404],[127.1752662102696,37.499799498491804],[127.1824470028002,37.5201803969791],[127.1880990999704,37.521954298915695],[127.1819655038108,37.5220307024723],[127.1838916018107,37.527343797996],[127.1740009022822,37.533502998692],[127.18864289838041,37.545215495857],[127.2020637971965,37.5293553987643],[127.2049359000395,37.5346388972444],[127.2151065989658,37.530889200133],[127.23443649472401,37.5335847983277],[127.23703959960551,37.541353099534604],[127.21379760184601,37.552462801107],[127.20610450200489,37.5605848003857],[127.2071433012127,37.5723128973979],[127.2025870020118,37.5708842027052],[127.19992020142679,37.5760320989806],[127.199151899018,37.5691733011216],[127.19621740082009,37.5701840010455],[127.188386700936,37.5797856003496],[127.1719402007054,37.5723472008831],[127.1694480010275,37.563786201366206],[127.1598017025298,37.5696473982226],[127.1547888989848,37.5627120023426],[127.1430426026123,37.5628965036991],[127.13305430176389,37.5679201058674],[127.1312051022955,37.5741014991684],[127.12928049737499,37.5626744070862],[127.1241699024856,37.568773300987296],[127.1043380030065,37.5696256034903],[127.1020837052608,37.5772690958468],[127.1077941995503,37.576745296370596],[127.1034059014064,37.5962172990274],[127.11132440069031,37.6009669992404],[127.11367260114581,37.608510599208905],[127.1011183997,37.6107911009142],[127.10121960042429,37.603379400362805],[127.0875827017757,37.608687800410095],[127.09747110037651,37.615374198762],[127.0913513006879,37.616491401158],[127.0917691028555,37.6226165998003],[127.08177860048481,37.6309523004863],[127.0738423008944,37.6318591023439],[127.0766049006737,37.6372630990983],[127.0634388031845,37.654073198564],[127.0661217011386,37.6576363000483],[127.0578958009209,37.6627618993999],[127.0634371000975,37.664797299446896],[127.055276600438,37.6686195007279],[127.0605897990438,37.657195699179205],[127.05457730031131,37.6539608008343],[127.0569733991806,37.647802400795904],[127.0495333018951,37.6469486051768],[127.0458806024981,37.6569753992447],[127.0424308999879,37.651874801567004],[127.04761759899729,37.6419465993788],[127.0562320001187,37.6418462989584],[127.0606054987688,37.6369208008994],[127.0537418986507,37.6332795023849],[127.0573875985381,37.6252577998953],[127.0523441979711,37.6118483008381],[127.0375927005344,37.603916000435596],[127.0414348989561,37.5957577004331],[127.02437189965751,37.589443001141504],[127.0198193007177,37.5973832010514],[127.016212200171,37.5964912006537],[127.0151905004891,37.60660700032609],[127.0091162999986,37.6056918006128],[127.0082090990868,37.6012056004891],[127.0141080992254,37.5989784996992],[127.01234820032451,37.592931701930404],[127.0026761002243,37.593540101334796],[126.9937017001214,37.5871793001372],[126.99341840035619,37.581886700968795],[126.9703292999179,37.5828884002603],[126.96483699974651,37.5753791019543],[126.95618659985199,37.5771379014127],[126.9420956005553,37.5900965000437],[126.95615339843211,37.5712172999116],[126.9595419988045,37.574180999538804],[126.9552773997189,37.5588994020653],[126.9349873000528,37.5589266010391],[126.9223610000803,37.564830100042805],[126.914004100534,37.5593029003384],[126.9007722018202,37.5669698003706],[126.9075008992766,37.5468732000047],[126.9037013034173,37.5429679034095],[126.8790312009415,37.5490401014357],[126.881089499455,37.5524252993592],[126.8746962053692,37.5549892091139],[126.8676559013536,37.553595499919],[126.8595211022663,37.5673482968238],[126.84690290092891,37.5660389003785],[126.8410659002528,37.5738128005458],[126.8345469996138,37.568986200046496]]]}}]}