{"type":"FeatureCollection","features":[{"type":"Feature","properties":{"interval":15,"stationId":"6117347092","profile":"peak"},"geometry":{"type":"Polygon","coordinates":[[[127.0703796987573,37.5115810989354],[127.0770082991753,37.5071970999384],[127.07845779887839,37.498934101667],[127.09664649960641,37.4980998992405],[127.1104023000519,37.5059670990428],[127.0998345003357,37.5049793004274],[127.0955432014448,37.5117104010682],[127.0767507997375,37.5177960007357],[127.0703796987573,37.5115810989354]]]}},{"type":"Feature","properties":{"interval":30,"stationId":"6117347092","profile":"peak"},"geometry":{"type":"Polygon","coordinates":[[[126.9906970997949,37.5021714999138],[127.02011429934241,37.5001549988043],[127.00577479897889,37.4917014015778],[127.0226801991287,37.4945998993841],[127.03043809878079,37.4898085001559],[127.027190499491,37.483778501286096],[127.0366971990621,37.4791405998792],[127.0415232996274,37.485092699199605],[127.0476679998625,37.4832497998946],[127.0471271005519,37.488391398358395],[127.0564782985467,37.485019200772],[127.0548087996534,37.4818480003556],[127.0933868988991,37.497888697297796],[127.09729439966439,37.492211000142895],[127.0954001974687,37.4847840006196],[127.1056648989086,37.482456397730196],[127.1077086006096,37.4886707975346],[127.1110626980229,37.4877262981911],[127.117866498021,37.4814285992216],[127.12038619948319,37.467981900507695],[127.1270947999367,37.4649389986292],[127.1321366990324,37.4686212988901],[127.12493020018549,37.4701223004118],[127.1256739004506,37.4735260997298],[127.1342485002663,37.480969698883804],[127.13345820038421,37.5067419998306],[127.13671990100231,37.513921800547095],[127.1445085001187,37.5168883986865],[127.1404062024662,37.522817699422895],[127.14556569730671,37.5214030008376],[127.1536101015229,37.5301216971848],[127.14748380052751,37.5332467014112],[127.1287669004127,37.530474399888206],[127.1414484009353,37.539510199270104],[127.1296095014504,37.5376344997888],[127.1273993001183,37.5464460987736],[127.13380799999061,37.547444399832806],[127.1329442006679,37.551432099768],[127.1261554010932,37.5533665013206],[127.1115459007566,37.5247703011089],[127.1080166019817,37.52774629966439],[127.10376870067991,37.5242208011971],[127.09590470633671,37.5334048021913],[127.1012975009439,37.5365157990803],[127.0970298004237,37.542253400128],[127.0834171002289,37.542692400509],[127.07767989989911,37.5332192000283],[127.090436198966,37.5303035994048],[127.0963764946768,37.521841708249504],[127.07896550192069,37.5184378080401],[127.0716905034824,37.5196217074575],[127.0695863008911,37.5281630998195],[127.0693563006485,37.536650199818496],[127.0750677998936,37.5384632997256],[127.0727474010781,37.5441293998501],[127.0521000013499,37.5456917008533],[127.0625820986724,37.541109900396],[127.0679003001092,37.519166609265795],[127.04472850362801,37.529582606544494],[127.0418251026428,37.537772599716995],[127.0487015006077,37.5419980997623],[127.04220650085031,37.5498733004067],[127.0374561997394,37.545444600467306],[127.0428564992157,37.5313979997789],[127.0321262004961,37.5301659012105],[127.0333295999712,37.521294000119],[127.0177956006134,37.522045800154004],[127.0074177996065,37.5145281002996],[127.0096392997315,37.5120376001095],[126.9906970997949,37.5021714999138]]]}},{"type":"Feature","properties":{"interval":60,"stationId":"6117347092","profile":"peak"},"geometry":{"type":"Polygon","coordinates":[[[126.79658169934801,37.561461700198905],[126.8048853001534,37.557865299446505],[126.8351579001429,37.5636896996835],[126.8364942985724,37.555849000816],[126.84314139982,37.5611254994241],[126.8487153994394,37.550480499619596],[126.8551507996525,37.5521389990192],[126.8635302993915,37.5379894005423],[126.85736299996961,37.530784800792496],[126.8464900008496,37.537854100308294],[126.8467555003302,37.544188399781405],[126.840128800155,37.5449297007641],[126.8375331006021,37.553717999560504],[126.8319557995427,37.550989000277404],[126.8326207000434,37.5397073004775],[126.8416963991515,37.5367610989732],[126.8378422998189,37.531779200304],[126.84961469963021,37.518644000013005],[126.864622698794,37.5175641995829],[126.85842529949859,37.510260300857],[126.8792434976033,37.5138901003506],[126.8707065983674,37.4940099002074],[126.8788977987341,37.5009756979715],[126.88329759961991,37.4933537997104],[126.8762677981905,37.4793104995696],[126.8624328999561,37.4775378006663],[126.86322319947719,37.4738646999497],[126.86954579995779,37.4720237997506],[126.872621598798,37.477687498743904],[126.8796215981958,37.478667297174496],[126.8844807976551,37.47384679905149],[126.8833902019,37.4806065976128],[126.890291499933,37.4788868991426],[126.8972916001906,37.485317198904795],[126.9164855994422,37.475631399454095],[126.922967697886,37.480083198233906],[126.9241025998721,37.4652891007628],[126.9313230987817,37.4602119005532],[126.94600539996661,37.468423198438096],[126.9493070996972,37.4617322990198],[126.9522620013801,37.4680286991428],[126.9578834957586,37.4685551986163],[126.9554267987655,37.461425902131204],[126.97436260043851,37.4622457964732],[126.9806033997507,37.4710080979516],[126.9884666994664,37.4660825001595],[126.9922611956211,37.4535594021874],[126.98900209888019,37.449022406724396],[126.99453269653729,37.4435197992051],[126.98466099862,37.4311341040466],[126.9831299994093,37.4233687003356],[126.9883972995566,37.418213299573495],[127.0157831002132,37.4293209994772],[127.01043600127319,37.4342396961498],[127.0175202000464,37.4358115988662],[127.0121255031049,37.449066798499395],[127.0210071985674,37.458438897050094],[127.0243539955384,37.45136870409161],[127.03701379591159,37.450556294364304],[127.03542989749549,37.4411110038096],[127.0449703978874,37.429604098281],[127.0660149005543,37.4347978984222],[127.0699338970519,37.4338431991758],[127.06947489975741,37.4271854003292],[127.0766987980716,37.4303354956991],[127.0666571054002,37.4464463004604],[127.0751493997535,37.4595884995093],[127.0640789021742,37.461644903397],[127.06162410364,37.4689519961506],[127.077111598348,37.4750565942953],[127.08454369452289,37.4727825945993],[127.1060926002972,37.453842496925404],[127.11579469763069,37.462988797790196],[127.11975629818231,37.4362048013147],[127.11232149925479,37.4276913020086],[127.1169598964789,37.423805098583905],[127.1149804984113,37.419760602309296],[127.1122443011475,37.4220743999955],[127.1132490982865,37.4068956006421],[127.10143470215459,37.408875699426204],[127.09772869913161,37.4039334010445],[127.10032819901011,37.397639500960096],[127.09422309933099,37.4005862008236],[127.0981237987981,37.395817298883195],[127.0955010996638,37.3871400016749],[127.1024474981629,37.3832513021392],[127.0988390010348,37.3817576017188],[127.1048664984794,37.3747625021248],[127.0950301987026,37.363796701797405],[127.0993892985175,37.353480902475404],[127.0949226029842,37.354655301300994],[127.0899611996486,37.3440588003475],[127.092790896438,37.3408280992627],[127.0869910997129,37.3374064008674],[127.0958804990434,37.3327639003028],[127.0868356003305,37.329306300307096],[127.0827890990138,37.3174912013558],[127.0711430001843,37.317116500592796],[127.074001298135,37.303035103793505],[127.0639661006817,37.3010770010973],[127.06813249910381,37.2923956010295],[127.0778119987165,37.295533899172604],[127.0767475009655,37.3068114000304],[127.0867050998122,37.3073202995284],[127.0862603012427,37.312413000193],[127.0924198005795,37.316637598962],[127.1083264993283,37.3150300992612],[127.1101605992655,37.30892090034369],[127.1065272006274,37.325317999371904],[127.11124869882731,37.320916499609005],[127.1126388011115,37.332797899462],[127.1236126007063,37.349875898073],[127.118542001281,37.3605450998419],[127.1271807001076,37.3670094998986],[127.1271994006185,37.3741468996017],[127.1322731987141,37.373476999588],[127.1420608012227,37.3832124984227],[127.139571300923,37.3869193991113],[127.14624910019941,37.3948056991846],[127.1367145006202,37.3964503022606],[127.13570610179539,37.4010904984761],[127.14818080114111,37.4054571984353],[127.1456492011573,37.4121632986741],[127.15049629991731,37.416055099751304],[127.145097701567,37.4154360022193],[127.1447912022269,37.4255324930609],[127.1535431997444,37.4231270990297],[127.15419060059051,37.4292006933157],[127.1742351011805,37.4312056991016],[127.17862310018249,37.437914898160706],[127.1833830990025,37.452887098141],[127.1759668048789,37.4635220992379],[127.1768587012689,37.471201300896695],[127.1729392975639,37.465209904503595],[127.1673296031736,37.4725702971432],[127.1565713029954,37.4735745074657],[127.1495365017413,37.483066698738604],[127.1677512012006,37.4847620960337],[127.1705782053779,37.4897826953433],[127.16111810464399,37.4964304988573],[127.1677113007587,37.506918099446],[127.1646094013555,37.5069085021157],[127.1605774020413,37.5357329964104],[127.1692154951136,37.540961897196],[127.1727896981663,37.531083498705],[127.1700196013126,37.5425878992911],[127.17536440005411,37.543015599772694],[127.1771230002129,37.549978599596],[127.1833748986302,37.5458971990228],[127.1902712010272,37.5518612996532],[127.1962521973284,37.5485269004469],[127.19330060028,37.5471197018541],[127.2011935997151,37.532150100462104],[127.23346600197131,37.538261299995604],[127.21865460046749,37.5464510003859],[127.2049793025952,37.5616262009406],[127.20268580191299,37.573264600324805],[127.199151899018,37.5691733011216],[127.1927041006011,37.5755491002051],[127.1720483009672,37.5703052016061],[127.1694480010275,37.563786201366206],[127.15686890069681,37.569307700501206],[127.1547888989848,37.5627120023426],[127.1430426026123,37.5628965036991],[127.1305230029776,37.570850902419004],[127.12928049737499,37.5626744070862],[127.1117794019256,37.5670710026187],[127.1128463976001,37.5624309037363],[127.10520480353479,37.561066599831996],[127.10036520258019,37.568298899097],[127.1020837052608,37.5772690958468],[127.1077941995503,37.576745296370596],[127.1052959005688,37.597776199158396],[127.1155894000972,37.6038591978507],[127.10166250043271,37.612991201133006],[127.0936949005323,37.6080014011547],[127.0863811015234,37.6103176017571],[127.0923716995721,37.616045398133195],[127.09138870098029,37.6245295001955],[127.0738423008944,37.6318591023439],[127.0766049006737,37.6372630990983],[127.0634388031845,37.654073198564],[127.0675629008723,37.657562399739106],[127.05909050032639,37.6594896003202],[127.0634371000975,37.664797299446896],[127.055276600438,37.6686195007279],[127.0605897990438,37.657195699179205],[127.048011600257,37.6514568007411],[127.04571280124401,37.6574378010277],[127.0396340000793,37.656851700363795],[127.03941639900869,37.6525589005386],[127.0303286003451,37.6509866005736],[127.03143519987121,37.643157300819],[127.01928019981409,37.6449182005996],[127.0121239003041,37.6581275005056],[127.00873659855361,37.6238079003498],[126.9964492988119,37.6183019015663],[126.9999596983327,37.6060681986513],[127.0047952975977,37.6064662979415],[127.0036126987803,37.600301804105996],[126.9939302004275,37.598523601823],[126.97827950069559,37.583410000396704],[126.9693505019615,37.587890500570204],[126.9595816003259,37.5803758015988],[126.9411053014022,37.5958796004493],[126.9346507009828,37.6128834001203],[126.9253268989895,37.6134480013833],[126.9329368991956,37.604340300278594],[126.9276125994192,37.6004313002152],[126.9377400991775,37.5939561003329],[126.935755199715,37.5868634002476],[126.9492116985897,37.5822828981615],[126.9536647984298,37.5715784987291],[126.9413896996886,37.564143100973006],[126.9156090997305,37.568875000327196],[126.91420719987741,37.5609074010195],[126.9058241004349,37.5708765999397],[126.90702810103741,37.5772614998375],[126.8985502003393,37.5803587003945],[126.8938863996934,37.576233600186605],[126.9012655985342,37.5716972995701],[126.8944756994578,37.5618632003893],[126.90061759974161,37.5597291991603],[126.8992705019365,37.544340105949196],[126.8769347009557,37.551835101169],[126.8595211088125,37.567348303588],[126.8401461982725,37.5753630021345],[126.8351344984617,37.5715078027647],[126.8146383998075,37.572291300433804],[126.8059574005233,37.560189701362404],[126.8040410015744,37.565736798948606],[126.79658169934801,37.561461700198905]]]}}]}