{"type":"FeatureCollection","features":[{"type":"Feature","properties":{"interval":15,"stationId":"7287966296","profile":"peak"},"geometry":{"type":"Polygon","coordinates":[[[127.04971919817869,37.245530499736],[127.054059899169,37.2401875011662],[127.0698863002193,37.2457703996908],[127.0754811994379,37.2427023999859],[127.0809889004059,37.2467067990647],[127.0831397995381,37.264677899512805],[127.07127459726759,37.2575917014549],[127.0645025013074,37.2599972001904],[127.0596534013693,37.248406601628304],[127.0601774005048,37.251412599569505],[127.04971919817869,37.245530499736]]]}},{"type":"Feature","properties":{"interval":30,"stationId":"7287966296","profile":"peak"},"geometry":{"type":"Polygon","coordinates":[[[126.99120779903579,37.268565903557295],[127.0002778991804,37.2672039999547],[126.9975927987181,37.2600818010149],[127.02120229929349,37.2559583986562],[127.0322415987399,37.2405920004009],[127.0442638997104,37.2356869002625],[127.0519141993555,37.2391732990424],[127.049437599106,37.2343084011851],[127.0535836979231,37.2325952985391],[127.084134500214,37.235437497709505],[127.0887430003678,37.2411854994042],[127.0831007039357,37.243969399364],[127.0856473013891,37.2470470962863],[127.0915618986725,37.2434641982681],[127.0930610989199,37.2492751952627],[127.0892818010105,37.270872697973196],[127.0834762013463,37.275237499832805],[127.0553492996371,37.263935601976804],[127.0384813012437,37.265946302754706],[127.0365850001687,37.27376190006979],[127.02566830045701,37.2707485011338],[127.0194162006146,37.2770157006622],[126.99120779903579,37.268565903557295]]]}},{"type":"Feature","properties":{"interval":60,"stationId":"7287966296","profile":"peak"},"geometry":{"type":"Polygon","coordinates":[[[126.9244902953693,37.3510087999572],[126.9252092007562,37.344726899034896],[126.9356950957401,37.3447067995131],[126.9314256005694,37.3413449002498],[126.933811598843,37.324833404078504],[126.9290453036093,37.326198502713396],[126.927125997953,37.3191673028226],[126.9350854974094,37.315690994488],[126.9370279994854,37.3076486983784],[126.9509878964735,37.304652396013104],[126.9489604999874,37.2939821001385],[126.9539750001529,37.298682897808206],[126.95418649862131,37.2876042993792],[126.9629558962331,37.2888864958575],[126.96630119540211,37.2816490999743],[126.9654197010259,37.2667658020614],[126.954597500828,37.261681002396905],[126.9532006986076,37.253668904484904],[126.9499572000228,37.2547728009607],[126.95314329671179,37.252918499209],[126.9422967998887,37.2446423008707],[126.94144959663289,37.2364089996681],[126.9716759986921,37.2274203978088],[126.9820016973337,37.232689895589594],[126.9816165977188,37.2265111017684],[126.9881168006378,37.2254629989082],[126.9939258015465,37.2300867968987],[126.9880591022895,37.2389717006112],[126.99947340121,37.2572956964025],[127.0125492980609,37.247733899138],[127.0091461998355,37.245024800250604],[127.0148648994395,37.2431267001431],[127.02672509593759,37.221000003337],[127.0202385024242,37.2228973014397],[127.0229699971381,37.2201368006092],[127.01168679894151,37.203912200571196],[127.031450097065,37.1940725985922],[127.0276196976216,37.1796811041385],[127.0335840997994,37.176394699728206],[127.0395302977116,37.1820307968452],[127.048062198801,37.1737397001912],[127.0446768996283,37.1721293008967],[127.0507650991138,37.163114199091304],[127.05880889745251,37.1635267006274],[127.06026609916181,37.156986100378795],[127.0534466006674,37.1550406006673],[127.0536800990061,37.1510206015218],[127.0642346970376,37.1357753998931],[127.0780476993404,37.146253698345205],[127.0697267998722,37.1631414980988],[127.0703668019874,37.1689464983697],[127.0790314995508,37.1713997980584],[127.0688736057979,37.1752945985821],[127.0604788008398,37.1948031987241],[127.0573088004038,37.1914533000704],[127.050462901836,37.1945603996229],[127.0544522030973,37.2119645979023],[127.0608610990893,37.213174899235895],[127.0633158002503,37.2240188992596],[127.0725403973634,37.2187573981042],[127.0748364007163,37.2213811976277],[127.0796448998565,37.2113527996627],[127.0809750006238,37.22386039971],[127.08993449967039,37.2195130975372],[127.0910293016607,37.2266763962212],[127.0945249982514,37.225030697864995],[127.092993604795,37.2339278941601],[127.1019074971686,37.2340499956489],[127.1016555990756,37.2309056997244],[127.1061971993112,37.23963729867],[127.1077623989772,37.233325899767394],[127.1161740022318,37.2461140965102],[127.1258561929024,37.244507991999306],[127.1393288996546,37.252879195808305],[127.158070898153,37.2477941959434],[127.1574439987799,37.2435511001865],[127.1672672964074,37.2368310014863],[127.1677532959214,37.232013206304096],[127.1562955024618,37.2409544009798],[127.15629249625951,37.235576302361096],[127.1475810021431,37.2320667013775],[127.1560215973619,37.2280332974366],[127.1572626028289,37.2336167936289],[127.1692102958292,37.224569598482404],[127.17858120122709,37.230610895290305],[127.1905787979662,37.2256631985561],[127.1959978007777,37.2305902970635],[127.210756298971,37.2231205985571],[127.22783460072999,37.2331344967331],[127.22359010465159,37.2342660035619],[127.2265871008761,37.252177699570794],[127.2181712042391,37.256769601072],[127.2262346011522,37.2656177995938],[127.2259420008879,37.2723041996649],[127.2104165013798,37.275611400769],[127.20613970025539,37.2677062013781],[127.19975890112681,37.2687766042743],[127.204716698832,37.2617791990943],[127.2111654001564,37.262116499212],[127.21242439970601,37.2560473998004],[127.1982789006082,37.2494914014993],[127.2000399963709,37.2456342009778],[127.1961453002656,37.2444677021443],[127.1918421002501,37.2511973004146],[127.1746710048459,37.2456829061672],[127.17485770774,37.2771240993102],[127.1623038023297,37.2903347987104],[127.1539638013858,37.2902853018927],[127.152186001025,37.297248799433596],[127.1335784011428,37.2994259006591],[127.1345149015211,37.3082298008453],[127.1234518011621,37.307476707965805],[127.11939440521951,37.317975997466505],[127.1315332978864,37.3189086975334],[127.1360707025369,37.3306478994713],[127.1279358016663,37.332356001257494],[127.12983290667,37.3443602979566],[127.1264527065543,37.346072903497706],[127.1320295009775,37.3511917983788],[127.12718220742379,37.358809798518806],[127.1310351010101,37.374172100105206],[127.1418889998955,37.3802123976374],[127.143120003409,37.395179998087],[127.13570610179539,37.4010904984761],[127.1443320990856,37.4075638996688],[127.1437879013098,37.4148268006092],[127.1388471014509,37.4174596010186],[127.13816320234899,37.4250912936042],[127.1502148005646,37.4399671981384],[127.16258909970321,37.4404298991359],[127.1637967001113,37.456913299940794],[127.14830229979229,37.458371102601504],[127.1555550992625,37.4488689022956],[127.1528931004882,37.4511702004766],[127.1518834974511,37.445908001188904],[127.1458391001327,37.4444804003527],[127.1362735003754,37.4471082997079],[127.128772299983,37.4569061002657],[127.1210428994371,37.451835200522],[127.1239716967933,37.441797402598596],[127.11981930094571,37.442326102069906],[127.1182706986871,37.4305248016772],[127.1253111994581,37.421661600139004],[127.12113709871299,37.416502102627206],[127.11832720072519,37.4217278999718],[127.1190199994526,37.406001099947595],[127.1014628004219,37.404503900471305],[127.10032819901011,37.397639500960096],[127.105889999472,37.3948992997314],[127.0859709982461,37.3521936035811],[127.0814194027977,37.353325502449195],[127.0828877013294,37.356433199341495],[127.081419399622,37.3533255020799],[127.0868310986301,37.3497695993258],[127.088088699593,37.3301316027348],[127.0810555002644,37.3311539014966],[127.0838941965154,37.3254699006849],[127.06631820013409,37.3195837005802],[127.0701380974662,37.310610402752005],[127.0634400004772,37.3041080070212],[127.0658958974944,37.2973407992284],[127.0614526990924,37.288289900469906],[127.0540939011387,37.2895168005491],[127.054527098938,37.2865229005639],[127.0524049002527,37.2947616002931],[127.04035370310099,37.3024955999262],[127.03957459871009,37.2985343012257],[127.0490990990077,37.2953631009796],[127.0358146003311,37.288668403195295],[127.0275538002399,37.2960297002782],[126.9960584005224,37.2988487007477],[126.99662070088719,37.3082161990122],[126.9849285026322,37.3149921991807],[126.9870191006828,37.3183359990947],[126.979692700296,37.3186443013036],[126.9756727998525,37.3098077032042],[126.970791304734,37.3136646993472],[126.9678219987903,37.310289906101],[126.9647009019114,37.3155980007929],[126.9682096006236,37.3201621991255],[126.9636443019121,37.327124600386696],[126.9568252010666,37.3277322994324],[126.9618728010113,37.3337138967418],[126.9512138999628,37.3301651065558],[126.9384381019649,37.3335861998955],[126.9446526004657,37.3438753983021],[126.9535576961111,37.341049198121],[126.9648973001393,37.3517037951922],[126.9658837006594,37.358384399402595],[126.9558438020896,37.3603551002225],[126.9600479988825,37.363368799781405],[126.956998800008,37.3699766999287],[126.9405650049958,37.379772899981],[126.9480461000379,37.3885700980802],[126.9558438000924,37.3878177999038],[126.9558045013949,37.392743599876205],[126.94786930163839,37.392963001721405],[126.9434803006115,37.3853164011741],[126.93585709929101,37.3855855019114],[126.934933701619,37.3920602001118],[126.9282480998127,37.3906053012877],[126.9262927977046,37.3839589006771],[126.93596799651121,37.3783306006179],[126.9322051000493,37.370744800130794],[126.9392289992516,37.361905000323],[126.93009149992871,37.3627659003891],[126.9244902953693,37.3510087999572]]]}}]}