{"type":"FeatureCollection","features":[{"type":"Feature","properties":{"interval":15,"stationId":"7287965175","profile":"peak"},"geometry":{"type":"Polygon","coordinates":[[[127.1018233969258,37.2579123994455],[127.10692870038879,37.2562386994491],[127.11624709865069,37.266337294551406],[127.1060410002039,37.271508000057096],[127.1018233969258,37.2579123994455]]]}},{"type":"Feature","properties":{"interval":30,"stationId":"7287965175","profile":"peak"},"geometry":{"type":"Polygon","coordinates":[[[127.00895369931071,37.2680824001668],[127.0121799995312,37.2607333990819],[127.0229816995158,37.2620651988147],[127.03196819973759,37.2549961992071],[127.0372564994988,37.2425881017815],[127.0466339999733,37.245190899695196],[127.0520575991971,37.2360003014612],[127.07790509944189,37.2414826984702],[127.0837792999323,37.2553641988188],[127.1062142986845,37.2461779988271],[127.1166167989211,37.251365898171706],[127.11624710319249,37.266337292408004],[127.12594759744991,37.2701592973315],[127.1385245983616,37.2591375996557],[127.14438509892719,37.2614656981374],[127.1383252037588,37.2638393006027],[127.1402805018035,37.2666313978106],[127.16387999862951,37.2566000980649],[127.1589525000657,37.273024001577596],[127.15227950084771,37.2715491006062],[127.15175270074211,37.281734199585806],[127.1421103014175,37.283927400085005],[127.13277250206261,37.2784249008185],[127.1261347054341,37.2888915961808],[127.11598350287589,37.2924387002574],[127.11921389982591,37.294021699577705],[127.11440000262921,37.3019526009099],[127.1160308995282,37.3250370996966],[127.11033860058201,37.3317873999232],[127.11365290080471,37.3363669986826],[127.1098019012494,37.342512400591694],[127.115258299338,37.3510476988717],[127.1089388008679,37.353398900838705],[127.1041892005549,37.350083001603096],[127.1095821996151,37.3454186992531],[127.10392539940459,37.3374444995451],[127.1088548990909,37.3303706008446],[127.09797419927379,37.3232726001263],[127.10523649724101,37.315902700659],[127.096075599469,37.3008785020058],[127.0954709982081,37.2823518002293],[127.1006534982427,37.2719557996592],[127.0947849989042,37.2710811027977],[127.09465629861809,37.2573397025967],[127.08191030032441,37.2744305001344],[127.0690069990927,37.268255100899296],[127.06587229966449,37.2604738016849],[127.0630515006521,37.2632004004218],[127.0546753995598,37.247591802436105],[127.04969060174041,37.2481431011358],[127.0499535014636,37.2545179994285],[127.0472837011461,37.251315304118805],[127.0455141029157,37.2554558999782],[127.0486862994516,37.2578972978799],[127.03921430054599,37.2593136007655],[127.03567540182131,37.2664675995841],[127.00895369931071,37.2680824001668]]]}},{"type":"Feature","properties":{"interval":60,"stationId":"7287965175","profile":"peak"},"geometry":{"type":"Polygon","coordinates":[[[126.9334440994931,37.3231762001386],[126.9411979989808,37.321872997800895],[126.938737301216,37.316305103352],[126.953568298558,37.311723296923695],[126.962642798983,37.3020300994783],[126.9569986988307,37.2950034009354],[126.96888489871691,37.291470095044296],[126.97338759953969,37.2758424002818],[126.9685658989043,37.260943602160694],[126.9499800018283,37.2557335024203],[126.9422967998887,37.2446423008707],[126.94542819747639,37.2334500016733],[126.9481387999347,37.2360379976705],[126.9716759986921,37.2274203978088],[126.9902808977865,37.232602899506404],[126.9880591022895,37.2389717006112],[126.99947340121,37.2572956964025],[127.0125492980609,37.247733899138],[127.0091461998355,37.245024800250604],[127.01864879813729,37.2390084988123],[127.0244664982544,37.2254767992271],[127.0423444985596,37.2259716971231],[127.0494254972782,37.220371799854],[127.0434535006022,37.2206994011309],[127.0454809987605,37.2184748003974],[127.0554560995004,37.216128699805395],[127.0633158002503,37.2240188992596],[127.0768861986665,37.2186204003885],[127.0822200993787,37.223424800145594],[127.0829771013714,37.2355388976081],[127.1011193989244,37.2245508995007],[127.11485450022,37.2311831996839],[127.10795400177561,37.23654710049],[127.1150033980596,37.2402463980988],[127.1181511992731,37.235104901003204],[127.1258561933986,37.2445079913722],[127.1351752002263,37.2402501987683],[127.14062030219159,37.2523024949621],[127.163437399344,37.2427621993478],[127.1677532959214,37.232013206304096],[127.1562955024618,37.2409544009798],[127.1534034991485,37.2330578048796],[127.1447378964653,37.2326007073874],[127.152214593985,37.2318587975427],[127.1533834928161,37.225469903931604],[127.1632806968074,37.2278638982701],[127.1707979992352,37.2165530009572],[127.1746573997748,37.224365497554295],[127.1883981993841,37.2216471992511],[127.19396470179899,37.2264425977634],[127.2109685980207,37.2190405990726],[127.2182283015974,37.2263812973565],[127.2238302979096,37.2236811004267],[127.227146899348,37.2278143978883],[127.2230868054778,37.2333188965487],[127.2330730037156,37.232864000593096],[127.22822820163711,37.2457194990182],[127.231369399388,37.245084299602205],[127.23089800138979,37.2514891006428],[127.22746320285721,37.251748500625695],[127.2330337967083,37.266417994701904],[127.2287553049984,37.272031797481],[127.2321223002505,37.2811156999476],[127.2231158018135,37.2971405993967],[127.2115851015664,37.2901665050278],[127.20872259909,37.278685000251706],[127.1992183008982,37.2742150024394],[127.19975890002951,37.2687766042024],[127.1965194004927,37.2718243003854],[127.2024896964278,37.2532928040243],[127.18016330241231,37.2526413028084],[127.1752980062527,37.2577334000635],[127.18123660031411,37.2612555965413],[127.182494700522,37.273275398922806],[127.17485770774,37.2771240993102],[127.17066870439149,37.2916987971501],[127.1654015004397,37.2851163010333],[127.1579168065594,37.2994907980641],[127.1426618030515,37.3028270008942],[127.1335784011428,37.2994259006591],[127.13243590228531,37.3038340962509],[127.1386824999134,37.305878898837605],[127.13695110233921,37.3142990983662],[127.1294197047744,37.3164420989697],[127.1345716026923,37.3276738921183],[127.1411965036403,37.3293755959202],[127.1356258024791,37.334483003063696],[127.1344108997895,37.3517680967572],[127.1276647069413,37.3532833040453],[127.12718220742379,37.358809798518806],[127.1491609002,37.3836085996372],[127.1413861055956,37.3908833013815],[127.14624910019941,37.3948056991846],[127.1431233061848,37.3991954044722],[127.147018900003,37.414986698526],[127.1381632023943,37.4250912998737],[127.14870960022711,37.4292575993051],[127.1502148011441,37.4399671985001],[127.1612310000697,37.438591699559005],[127.1673100002447,37.446699999383696],[127.1636534006308,37.4572715007402],[127.1565759000683,37.453173401757795],[127.1446804017791,37.4679900006831],[127.1270177005312,37.471526100655396],[127.1322233006947,37.4781761995988],[127.12059720075551,37.4945960004098],[127.11497340081729,37.4915885019787],[127.12035899965939,37.489929599701604],[127.1216170975101,37.4782715010807],[127.1168602996593,37.4661116020432],[127.127031498002,37.4635682000864],[127.1210428994371,37.451835200522],[127.1132490982865,37.4068956006421],[127.10031470112,37.4077244011513],[127.0994621998761,37.3974361011635],[127.096562300783,37.4027104001152],[127.09422309933099,37.4005862008236],[127.09829529987141,37.3927188998373],[127.0957274973861,37.3822275040559],[127.0892435012435,37.3843844025824],[127.0925983915127,37.3719990032928],[127.0842210964065,37.3570774030325],[127.07743150252941,37.3547075046215],[127.0823865971443,37.340060304679795],[127.0708560987452,37.3224508021393],[127.0609249997416,37.320432500722],[127.0638338975221,37.2940875996841],[127.06077860057741,37.2924813012904],[127.0533452021228,37.307726600121704],[127.04621020016151,37.310008199796],[127.0471664991471,37.3026015995001],[127.03528370016349,37.3014400005318],[127.0396563000742,37.2864805029573],[127.01789360029629,37.292450800741996],[127.0065025000532,37.289274000629],[126.9846959019906,37.2968155008545],[126.9851406001535,37.3078224001812],[126.9559055020218,37.306586504650504],[126.9535683016524,37.311723300590096],[126.9605023010655,37.318163498138894],[126.9544778008733,37.328939399321605],[126.9334440994931,37.3231762001386]]]}}]}