{"type":"FeatureCollection","features":[{"type":"Feature","properties":{"interval":15,"stationId":"7366159452","profile":"peak"},"geometry":{"type":"Polygon","coordinates":[[[126.9724512991614,37.5525152996286],[126.9726459001298,37.5532329999294],[126.97264589893031,37.5532330007009],[126.9724512991614,37.5525152996286]]]}},{"type":"Feature","properties":{"interval":30,"stationId":"7366159452","profile":"peak"},"geometry":{"type":"Polygon","coordinates":[[[126.9724512991614,37.5525152996286],[126.9726459001298,37.5532329999294],[126.97264589893031,37.5532330007009],[126.9724512991614,37.5525152996286]]]}},{"type":"Feature","properties":{"interval":60,"stationId":"7366159452","profile":"peak"},"geometry":{"type":"Polygon","coordinates":[[[126.9724512991614,37.5525152996286],[126.9726459001298,37.5532329999294],[126.97264589893031,37.5532330007009],[126.9724512991614,37.5525152996286]]]}}]}