{"type":"FeatureCollection","features":[{"type":"Feature","properties":{"interval":15,"stationId":"7864301049","profile":"peak"},"geometry":{"type":"Polygon","coordinates":[[[126.95146439596971,37.240879500426395],[126.96014269947891,37.2342707981649],[126.9667939010793,37.235709998752796],[126.9746035004629,37.249075698065],[126.9807158997654,37.2459609986222],[126.98647100020709,37.2501513992626],[126.96984669951671,37.2509432019686],[126.95146439596971,37.240879500426395]]]}},{"type":"Feature","properties":{"interval":30,"stationId":"7864301049","profile":"peak"},"geometry":{"type":"Polygon","coordinates":[[[126.9403200963147,37.2415516011285],[126.94542819747639,37.2334500016733],[126.9481387999347,37.2360379976705],[126.9574150996013,37.228169899170496],[126.95881759901721,37.231406896745106],[126.9716759986921,37.2274203978088],[126.989044799907,37.2381641983171],[126.9975995018739,37.258658098637596],[127.009509599832,37.2545858989157],[127.0215887000483,37.2590650988828],[127.033267598348,37.2533573996172],[127.0365854995283,37.2459713001184],[127.0478231996851,37.247243598763994],[127.0557979992886,37.240032900017404],[127.0640754001816,37.245338499864204],[127.0589904015979,37.249996100344],[127.04969060174041,37.2481431011358],[127.0384358006446,37.2655584998394],[127.024753901282,37.2696281001169],[127.0194162006146,37.2770157006622],[127.009128001839,37.2743717015851],[126.9938968005952,37.2785364006319],[126.9967739993002,37.27261999956281],[126.98869049827711,37.2684967012334],[126.99361139978731,37.2611937004228],[126.9625535017785,37.2611700004881],[126.9532007021769,37.2536689051975],[126.9499800018283,37.2557335024203],[126.9403200963147,37.2415516011285]]]}},{"type":"Feature","properties":{"interval":60,"stationId":"7864301049","profile":"peak"},"geometry":{"type":"Polygon","coordinates":[[[126.7529887995879,37.3436663005885],[126.75789359726791,37.3384675992885],[126.7645992986953,37.342156596725005],[126.7683370997963,37.3373771997953],[126.761982500973,37.3364769010093],[126.7728632986226,37.332411298811195],[126.7722547976485,37.324837501187204],[126.7874139994716,37.317414796892],[126.789008798251,37.3076820003782],[126.7805319005364,37.304917800899595],[126.7851756967178,37.2990962009401],[126.7987325040238,37.3122998964954],[126.8153845993747,37.3007395000252],[126.82916499880321,37.3024473995528],[126.8403281969392,37.2934419987324],[126.8371877981659,37.286896404510905],[126.8404648954226,37.2830467000342],[126.83516510072239,37.2823646007163],[126.8425494979212,37.2753131000849],[126.85805980086211,37.2741491957256],[126.8606592986901,37.269700799999505],[126.856550902371,37.2673052025696],[126.866468299623,37.2463467998503],[126.8805778960717,37.2432364972774],[126.87825669839289,37.2392968012171],[126.8870205979733,37.24587819817],[126.8856969956904,37.236961802570406],[126.899681292499,37.2307081002324],[126.9002081037567,37.2341462984732],[126.9205004905815,37.2328465978005],[126.92449349761989,37.223120199696794],[126.9253851031628,37.2296531967442],[126.9304974980504,37.2273824990149],[126.93177039758811,37.220036200928604],[126.94357789491599,37.2119540026049],[126.94313169835199,37.2062523998777],[126.9495553022035,37.2114197973732],[126.9574273977284,37.205707800856196],[126.9632646000627,37.2072547976068],[126.96402910110021,37.2150383948699],[126.9794492982462,37.2059068953646],[126.98686289837231,37.2086783988121],[126.9815803055021,37.2114380999756],[126.9879194998302,37.2174597954224],[126.9981668958782,37.2164755000313],[127.00143710166651,37.2244137984093],[126.9985080026425,37.2372387980594],[126.98948640203591,37.2351984021832],[126.9880591022895,37.2389717006112],[126.99947340121,37.2572956964025],[127.0125492980609,37.247733899138],[127.0091461998355,37.245024800250604],[127.01864879813729,37.2390084988123],[127.0244664982544,37.2254767992271],[127.0164545992705,37.2234458006455],[127.02010809508751,37.2207459999025],[127.00758040010129,37.209037701819604],[127.00693119979209,37.199810601949],[127.0278263970427,37.192087697932],[127.0304987947425,37.1816157022039],[127.02564149913441,37.177254300206904],[127.0335840997994,37.176394699728206],[127.0395302977116,37.1820307968452],[127.0448062995152,37.1744051992629],[127.0418520000121,37.1690061007562],[127.0537342982743,37.1606922002383],[127.0458584996067,37.1562629029742],[127.0475912969921,37.1435550014408],[127.0620095961349,37.1312650998716],[127.06425140094271,37.135463395703496],[127.0758620977305,37.1358025975359],[127.0820835005466,37.1478733983178],[127.0875797997258,37.148339398358296],[127.0703668019874,37.1689464983697],[127.0790315018594,37.171399797683705],[127.0646833065687,37.1822422017529],[127.0595239022188,37.1986079996796],[127.0596731010955,37.221096699175995],[127.0763854985547,37.225796099475],[127.0756444050806,37.2322606978693],[127.08967610151551,37.2352881959468],[127.08572840418269,37.2368574989698],[127.0930024074386,37.2424161989104],[127.0935183013062,37.2491746991221],[127.1022225000321,37.2446030997431],[127.118210398356,37.2513183971132],[127.1142103020248,37.2524959000973],[127.11865909995261,37.2549291993464],[127.1148978030186,37.2608886973871],[127.12107880146961,37.2684533914277],[127.1302682956693,37.266616597277896],[127.13500789678541,37.2575399989859],[127.15112209595,37.261810697674],[127.1568619950266,37.2541210024963],[127.1581824002904,37.2586442948876],[127.1658591984947,37.253649600564806],[127.1675192058141,37.2634549999403],[127.1574037003358,37.2776854006809],[127.14425150065449,37.2854139011498],[127.12947850248871,37.2801295030166],[127.1261347054341,37.2888915961808],[127.1309543006145,37.287722797349595],[127.12675850163329,37.2898361002902],[127.12955260012049,37.291175699631694],[127.1188120019204,37.2903440011701],[127.1217838013042,37.296410600007704],[127.1142924063538,37.3112017964541],[127.1190962009298,37.3266691997499],[127.11361380097969,37.333884599950196],[127.11766250017139,37.3376902998793],[127.11165990043321,37.3443415003225],[127.1161947003381,37.348498299268606],[127.1095777001055,37.3611125989454],[127.11477260031239,37.3648472998162],[127.1084673012064,37.3716599003767],[127.1026757011889,37.363756601418004],[127.1059946999975,37.356607800499],[127.0981846009599,37.3495275999636],[127.10436439784209,37.3438392000131],[127.0991465998488,37.3406078005429],[127.1054281989346,37.3334017998103],[127.0941100998504,37.322620000808],[127.1026929985241,37.311919801363395],[127.0901680993893,37.2959581023185],[127.0924989990726,37.2984283965788],[127.0947309968406,37.2945755004317],[127.0926404986775,37.2810997010806],[127.10093709913009,37.2700938003385],[127.0918567020761,37.2764438004541],[127.08134800069601,37.275499699155],[127.078210900265,37.2810678037347],[127.0626860000647,37.27058800171319],[127.0442970007258,37.2889356993374],[127.0384691990499,37.28726720069],[127.0275538002399,37.2960297002782],[126.99912980218771,37.2993998015708],[126.9975079004211,37.3072284003714],[126.984987302784,37.3161619982265],[126.9873226003793,37.3184062990244],[126.97998870216911,37.319947900361],[126.9777702987439,37.3133660061056],[126.9716145007297,37.3154136019031],[126.9678219987903,37.310289906101],[126.9643083018805,37.3306732984185],[126.9568252010666,37.3277322994324],[126.9618728010113,37.3337138967418],[126.95637070370239,37.339576101453005],[126.9679031985029,37.350501296618],[126.9664928005541,37.3576296000437],[126.95768080016201,37.3699771997949],[126.9405650049958,37.379772899981],[126.9480461000379,37.3885700980802],[126.95392559926941,37.3853566992448],[126.9688401001345,37.3958282988652],[126.9465085006342,37.3940134028783],[126.9420641017552,37.3864680014208],[126.9317080023808,37.391809101433104],[126.9307688015707,37.4047208016417],[126.9261869992708,37.4028232063769],[126.9223575002139,37.4082297000649],[126.91612240013461,37.4094297014491],[126.9133375990054,37.403477799981395],[126.9217872998787,37.398345800084],[126.9185003997034,37.3953321003427],[126.928865499904,37.3940907994212],[126.925994199133,37.3806808994087],[126.93586499973071,37.375234901147905],[126.9181750000685,37.3561431004144],[126.9245948949789,37.353040199217105],[126.9149748985981,37.3442350053299],[126.9149715957875,37.3339423039374],[126.90813110236431,37.3341062021054],[126.9052855985255,37.324181102889796],[126.8976451030249,37.3239440040377],[126.8991049957779,37.313127898553596],[126.891352198132,37.3088092031472],[126.8897927976529,37.3020366022021],[126.8803167036869,37.304180202167196],[126.8786621040537,37.3150786978627],[126.85770740117539,37.320039100829206],[126.8393431009785,37.3318207010921],[126.827226000279,37.3320678003264],[126.8242986997152,37.3273621043918],[126.8124572003302,37.341192599521],[126.8023386000692,37.3384224005149],[126.8019637978645,37.331259200709496],[126.7952330005265,37.3308184009942],[126.7908874006883,37.3356481998283],[126.7812871002013,37.331971201542],[126.7782438023275,37.3424916988378],[126.768035603879,37.3427332022679],[126.7669876026953,37.3474098990319],[126.7529887995879,37.3436663005885]]]}}]}