{"type":"FeatureCollection","features":[{"type":"Feature","properties":{"interval":15,"stationId":"7908597444","profile":"peak"},"geometry":{"type":"Polygon","coordinates":[[[126.9928516981964,37.502750299557604],[127.0065710988833,37.5019369990829],[127.00652670034229,37.5067089991711],[127.0159194993864,37.509380298233694],[127.01701249816541,37.5035678013802],[127.01365060075871,37.5052279013213],[127.02268889866491,37.4948215001055],[127.0317744998948,37.4935762982816],[127.04885559838219,37.5026937983016],[127.0468094999915,37.4942203013861],[127.05458149868849,37.493533899983],[127.056915798554,37.4852645008582],[127.0659767987089,37.4890795978183],[127.05930270149851,37.486299001714],[127.05430850069341,37.4996206000616],[127.0567958005704,37.5112880987308],[127.0661244996345,37.508305198845505],[127.0648841001911,37.5171041000799],[127.05626979993879,37.5149971012434],[127.0416366007112,37.522179600599],[127.0463742003765,37.5260710994481],[127.0428565015159,37.5313979983003],[127.0350623992776,37.5272410005771],[127.0373337003566,37.518585900464295],[127.02698819955671,37.514860200745304],[127.0192233005465,37.5201875005038],[127.0147766005735,37.5091799007269],[127.0025085022385,37.5109819011351],[126.9928516981964,37.502750299557604]]]}},{"type":"Feature","properties":{"interval":30,"stationId":"7908597444","profile":"peak"},"geometry":{"type":"Polygon","coordinates":[[[126.905607999367,37.5128933004818],[126.9120810002252,37.512070799635495],[126.9104899008425,37.5176017985375],[126.9188020001814,37.5169744989714],[126.9241325991565,37.5096621010283],[126.9306174002143,37.5131784981899],[126.9383279985416,37.503653398743],[126.9487079997605,37.50775019910029],[126.9446887996504,37.5031620005263],[126.9565015998133,37.4924057991703],[126.9588007000361,37.4945208996021],[126.95092470031071,37.5009708996261],[126.9546224006981,37.509132098517505],[126.9680606962165,37.5014515997859],[126.96977269921709,37.4953200000416],[126.9792883988071,37.494487301258005],[126.9670234011153,37.4894227010518],[126.9612988990232,37.473172297866505],[126.9677530015127,37.479969397572],[126.98327479970321,37.471046498947],[126.9924097986437,37.4796569966876],[127.0032521991141,37.4740317977119],[127.00794829913049,37.480072399079795],[127.02534229978191,37.4832729993108],[127.0287000986133,37.482525000852],[127.03132019904889,37.462620201507505],[127.0459835990461,37.4596232998129],[127.0539288998697,37.4769063992007],[127.0640735998707,37.4769753983638],[127.07018909660309,37.4825540952299],[127.0676148991773,37.4775614002226],[127.07018910077379,37.4825540973749],[127.0856558006175,37.4800323989964],[127.0852001010007,37.4874510004059],[127.07873240194951,37.4876836996854],[127.0858100003876,37.4935548992272],[127.08125160035401,37.499691499838896],[127.0962528986321,37.4973403973398],[127.0945979982709,37.4843824010212],[127.1053019981368,37.4796786002256],[127.1077086006096,37.4886707975346],[127.1090855992326,37.485917400287995],[127.1135979991515,37.4910371975037],[127.1262000000413,37.4851099992798],[127.12217860150889,37.4903625007136],[127.1285923995128,37.493179499259796],[127.13178280031849,37.5029171995717],[127.1249586013883,37.5041107005979],[127.1226759986924,37.4978214006288],[127.1176049005024,37.4974773001404],[127.1153879016806,37.5133796993401],[127.1186566996935,37.5152704995138],[127.1146285014798,37.5206939001708],[127.0946393012654,37.5326937007111],[127.0984594002897,37.538035799804405],[127.08139170162569,37.5412210997281],[127.0759580016464,37.547580100755],[127.0779714003304,37.5527042990755],[127.09229369918489,37.5502899999348],[127.0853834005478,37.560092299372904],[127.0875740001258,37.5771858006741],[127.0927493000159,37.5806214998246],[127.0872673996439,37.5833700003354],[127.083723699536,37.5693978010116],[127.07285059921199,37.5600953021058],[127.0680397004941,37.565176799807205],[127.0613342996072,37.5633966009936],[127.0543501005931,37.5729643000053],[127.0071299001492,37.573620300433305],[127.004470400068,37.567472402003396],[126.9877314996093,37.573570100738195],[126.99186899944979,37.5685019003159],[126.9866639005195,37.5617876012466],[126.981333099881,37.5678901003992],[126.9845432993076,37.5585420002865],[126.9984601000636,37.560503699296],[127.0046509991474,37.5520757009143],[127.0025771990923,37.5457785993758],[127.0113864991532,37.549067899017494],[127.01070369759519,37.5395094001696],[127.0201214942982,37.537420798766],[127.0208889932903,37.5297237061238],[127.0124065003083,37.5278878034352],[127.0102327995609,37.5184777020705],[127.0030453953418,37.5141234067652],[126.99453820115579,37.518484901197596],[126.9948010975796,37.5123900047936],[126.98225230228459,37.5043262024756],[126.9621734067801,37.5108909062009],[126.95609759993751,37.5186631003007],[126.95660999996,37.513893103695594],[126.9295099011698,37.5140636991421],[126.93723840002829,37.523487699383],[126.9350130072186,37.5286435067469],[126.92657470023221,37.527619300838],[126.9220128000447,37.5319624000143],[126.9133163001313,37.530053801102795],[126.91861089837471,37.5205025002983],[126.905607999367,37.5128933004818]]]}},{"type":"Feature","properties":{"interval":60,"stationId":"7908597444","profile":"peak"},"geometry":{"type":"Polygon","coordinates":[[[126.74721859952109,37.488952899967],[126.7596372993623,37.4875493994208],[126.7642385996826,37.4795065995187],[126.77226209979351,37.4863914990239],[126.7797897995223,37.4766854992314],[126.7920836995455,37.4752106990564],[126.79118000127589,37.4680064019404],[126.80088590039159,37.4625359982381],[126.80250000036449,37.478782499072004],[126.81777959805639,37.4818025978945],[126.8166625991734,37.4782043014928],[126.8272498009272,37.4889970978824],[126.83430079830809,37.4878391967107],[126.837049399983,37.4819125018301],[126.8333789016454,37.4826398013344],[126.8453449972111,37.4778115997538],[126.8494825989247,37.4709928005819],[126.8558302002187,37.4738189979871],[126.8703936998319,37.4644037988686],[126.87464970050941,37.468521199928595],[126.87424879882461,37.4595988998091],[126.8813310997424,37.4595561985596],[126.8826066988804,37.4486627009602],[126.8986383983611,37.444671898738],[126.8964246015898,37.4486501994998],[126.90822989967319,37.4509902995036],[126.9083210998364,37.4726775980718],[126.9173280985125,37.4697345997929],[126.93059029894961,37.4557102025545],[126.95360449985759,37.453605099878196],[126.95853350574531,37.459023493561304],[126.9702725963907,37.4536241958752],[126.9806033997507,37.4710080979516],[126.9884666994664,37.4660825001595],[126.9922611956211,37.4535594021874],[126.97899939520731,37.4471788005145],[126.9814512961624,37.4405363025133],[126.9725524994337,37.435361102002204],[126.976586695385,37.430315099053004],[126.9698715001188,37.4207978016766],[126.9796630981629,37.4232867963],[126.9813691964568,37.4167955027913],[126.9664639985219,37.4117835026574],[126.95385680002569,37.4003987009368],[126.9441727995601,37.399547904059204],[126.9359701009113,37.3815448014579],[126.9341038010443,37.387548099948795],[126.9307259997084,37.3865554003533],[126.9373723993673,37.380042199521895],[126.9354401994571,37.3668784995059],[126.9484677985,37.36405769969689],[126.9522946988927,37.3746632988011],[126.9405650049958,37.379772899981],[126.9450377005231,37.3827037970501],[126.957370399105,37.378799299947],[126.9807046971035,37.3909878976395],[126.98666229973671,37.3896930997316],[126.9902380001224,37.392493399892196],[126.9839678002205,37.411488198659804],[126.98453209965619,37.408347901800106],[126.9971658989269,37.4177019946782],[127.0026190944363,37.4154924965929],[127.01656469939691,37.4232389974703],[127.02157499844199,37.4214947983539],[127.0165118017939,37.4285273000164],[127.0233913023436,37.4335323937841],[127.03341119351721,37.434615093458305],[127.04035298950619,37.423664601294],[127.0548408979841,37.4335890925844],[127.0597292958178,37.429682497292],[127.06672069699121,37.4329787948637],[127.0667227969891,37.4269859008566],[127.0752233981361,37.4244846943103],[127.07197930296779,37.4249974004287],[127.08459640316299,37.4335100987688],[127.0719894029564,37.435428102570604],[127.0754488009816,37.4578265987655],[127.08082299930119,37.455653598395195],[127.08810799874071,37.4627002970561],[127.0762917000974,37.4665142007781],[127.0751493994079,37.4595885030554],[127.0707625011634,37.463639199935706],[127.06854149771159,37.4591990058429],[127.06162410364,37.4689519961506],[127.077111598348,37.4750565942953],[127.1086604994529,37.4556317994964],[127.1089652022979,37.4622800989042],[127.11579469763069,37.462988797790196],[127.11975629818231,37.4362048013147],[127.106622099427,37.4104897001136],[127.1129206990047,37.4117386000248],[127.1049349986543,37.40539540290651],[127.0980248999004,37.4165755006891],[127.0914071983567,37.4101352005997],[127.09730949906209,37.4078203992008],[127.10032819901011,37.397639500960096],[127.09342360023639,37.4033797013049],[127.08542680316779,37.3986209049287],[127.0903041977693,37.4024106950179],[127.08360499904211,37.3888435004393],[127.09048699875649,37.38696679741761],[127.0925983969973,37.3719990107432],[127.0859709982461,37.3521936035811],[127.0814194027977,37.353325502449195],[127.0828877013294,37.356433199341495],[127.081419399622,37.3533255020799],[127.0843868962391,37.349515501262005],[127.0777483994058,37.328266501368],[127.0608383998524,37.3199630003334],[127.0658958974944,37.2973407992284],[127.06097760057911,37.2916807011288],[127.05716220148689,37.2975730988296],[127.06029789998179,37.298526799772596],[127.0525746025954,37.2961936014664],[127.0381093017937,37.3034180037041],[127.0356989985927,37.294279000257006],[127.0415544976225,37.295320197993696],[127.0396563000742,37.2864805029573],[127.0533376988381,37.2797657984583],[127.0632451003492,37.2864470994142],[127.070618200084,37.285366599241804],[127.0960943996996,37.3044095996415],[127.096043699851,37.2893663023743],[127.106828297544,37.293813998003294],[127.1041218999068,37.283415101711796],[127.1005162008879,37.2890664000235],[127.0990990998722,37.285871400944096],[127.1057132992498,37.2759927002428],[127.1035681982552,37.2574443004681],[127.114494099677,37.271325998963505],[127.1363440999669,37.2644738997012],[127.13809040225219,37.2680886988718],[127.1291443008099,37.269328099793604],[127.1297279004258,37.2749197000916],[127.12428290287019,37.2728346029633],[127.1222534015971,37.290432200816],[127.11598350287589,37.2924387002574],[127.1186678010926,37.2973913988569],[127.1142924063538,37.3112017964541],[127.1260785003016,37.3309040994427],[127.1211275011456,37.338162397532],[127.1282483997245,37.338539397434104],[127.1264527065543,37.346072903497706],[127.1320295009775,37.3511917983788],[127.12718220742379,37.358809798518806],[127.1437344024162,37.3835115998262],[127.1413861032924,37.3908832978482],[127.14624910019941,37.3948056991846],[127.1367145006202,37.3964503022606],[127.13570610179539,37.4010904984761],[127.14818080114111,37.4054571984353],[127.1456492011573,37.4121632986741],[127.15004780014739,37.4175733999681],[127.1432155034492,37.4160598015955],[127.1447912022269,37.4255324930609],[127.17402420011581,37.434652497757895],[127.1732075041714,37.4439955976511],[127.1786843003982,37.4449645994246],[127.1743843033045,37.4671800000294],[127.16571980259191,37.4671595018659],[127.1495365017413,37.483066698738604],[127.1668448009064,37.4856798990822],[127.1677231023804,37.4893645002905],[127.16111810464399,37.4964304988573],[127.1659798002054,37.5139630989408],[127.1605774020413,37.5357329964104],[127.1692154951136,37.540961897196],[127.17121299811089,37.534790200443304],[127.17180570042919,37.547427499197696],[127.1834565000269,37.548632999674105],[127.1865433008484,37.554373399042305],[127.1959271997482,37.5500284002824],[127.20132019951009,37.5346870999835],[127.2166745000763,37.5409924994699],[127.2162087995916,37.537114700342094],[127.22701769980111,37.536468198605505],[127.229380100479,37.5409889001587],[127.2213264002619,37.5451605004451],[127.2162943003036,37.5427392005367],[127.2016806005392,37.5699030998713],[127.18932029992031,37.574269200298104],[127.1814604991065,37.5660846011571],[127.1694480010275,37.563786201366206],[127.15686890069681,37.569307700501206],[127.1511847002546,37.5621201029535],[127.1384776001599,37.5666534003989],[127.1259341948053,37.5589419073938],[127.11510870397959,37.5613228044222],[127.1155311035572,37.5647197010253],[127.10520480353479,37.561066599831996],[127.1043380058825,37.5696255968896],[127.115646601604,37.576181598969],[127.1167507003829,37.582069098592896],[127.1111834018009,37.593283399797095],[127.11367260114581,37.608510599208905],[127.10166250043271,37.612991201133006],[127.1006434998625,37.62565149927649],[127.08285840033291,37.632462904165],[127.0828841003072,37.639644896983],[127.07645000655809,37.644447996786695],[127.0825346004513,37.6729191001073],[127.0757940014702,37.672894201435],[127.0757040981644,37.6657673026991],[127.0692746007646,37.6673281001473],[127.06321040289271,37.6731875987819],[127.0659757994333,37.680621797442996],[127.0420622009393,37.694537501333],[127.0398562989805,37.6877574020684],[127.05017639945,37.6698413007446],[127.04090370005291,37.6682565005792],[127.0448958999849,37.664225198900596],[127.050984398718,37.6668376989517],[127.050294198898,37.655545400299005],[127.04869120015579,37.6526784007474],[127.0446758005799,37.6610324985514],[127.0217331002481,37.6496492013492],[127.0175699006231,37.661472396757304],[127.0080348979523,37.6645939008119],[127.0072901981409,37.624157703215296],[126.99489300010741,37.620419406149104],[126.99963219940899,37.6111483999932],[126.9943825003056,37.6110095001388],[126.9963571973186,37.6014656017719],[126.98588440024851,37.5980129079119],[126.985408396871,37.5921530012789],[126.96352880025911,37.594423400072394],[126.9611550002016,37.5840366026036],[126.9497082008753,37.601911099900505],[126.9415321014701,37.6029920018579],[126.936214899987,37.6186903994737],[126.9388650026805,37.621794096904104],[126.92607720193459,37.631487197268804],[126.92793790194071,37.6399920988812],[126.9203179001304,37.651866399935],[126.9126827972483,37.653458705404],[126.90893850096491,37.647879003175206],[126.9149082957584,37.6391517017291],[126.9082230992158,37.6339509996738],[126.918051297166,37.6324799983879],[126.9176192991598,37.628686201169096],[126.91003689724229,37.6225357993818],[126.910379099227,37.6067591998735],[126.90016729860291,37.5865427013021],[126.8902377002207,37.582181201699804],[126.88380720190831,37.587245200879195],[126.88337369753161,37.579869100014406],[126.8908786974366,37.569251799445105],[126.8838538945578,37.553288000356105],[126.86734190801,37.5597705056585],[126.8702719005918,37.5699986995335],[126.8621569001077,37.5772281999929],[126.85905150182121,37.5778715001292],[126.8642368975802,37.5737494004933],[126.859521102296,37.5673483068944],[126.8348612077972,37.5787932067942],[126.8144506027807,37.583393799390905],[126.80001780209031,37.58135420101],[126.7975013001215,37.586112801031604],[126.7954923997577,37.575665202439204],[126.7901986994585,37.5765489007222],[126.7971767953704,37.5697638028177],[126.7993937003088,37.5758302957253],[126.8035801992859,37.5713500991522],[126.7984198005241,37.563155202025094],[126.81098919567499,37.5510347031301],[126.8228206987983,37.5520596990711],[126.821608799743,37.5456505002038],[126.8274755985343,37.5445907005683],[126.82018639881319,37.5388994012756],[126.83510899933711,37.5171399997682],[126.8454061998046,37.5155441979366],[126.8476880989965,37.5083674994322],[126.83950059869309,37.499526002564906],[126.8218409009155,37.505967799477],[126.8209677972553,37.4993503046714],[126.81531750076391,37.4984061027171],[126.8115212021241,37.5025506991469],[126.8173500990983,37.505574698171095],[126.8130127012461,37.5136770008393],[126.8071382001364,37.51229830163],[126.8048475987366,37.5038932029962],[126.7994245035185,37.5105144997412],[126.7952264003722,37.505290202081],[126.78464599983039,37.5084593004591],[126.780738699984,37.5033183007006],[126.77102620022589,37.503725600332906],[126.7764166996118,37.499350799939705],[126.7778032009843,37.502684499467904],[126.7969832983376,37.499428599935],[126.79759600115119,37.5063489992377],[126.8010447990907,37.506187799676],[126.8131932958579,37.4982442000318],[126.80507100064649,37.495595802628195],[126.8017288986796,37.488673902791504],[126.7952103028094,37.493145299150804],[126.7803151008288,37.4832231010495],[126.76706470034681,37.4936047997681],[126.74721859952109,37.488952899967]]]}}]}