{"type":"FeatureCollection","features":[{"type":"Feature","properties":{"interval":15,"stationId":"8334213103","profile":"peak"},"geometry":{"type":"Polygon","coordinates":[[[126.8339616994953,37.6127449000854],[126.843576299932,37.6126205995519],[126.8459633995654,37.6070068993454],[126.8506856986569,37.61354559785],[126.8419839004663,37.6180466006356],[126.8339616994953,37.6127449000854]]]}},{"type":"Feature","properties":{"interval":30,"stationId":"8334213103","profile":"peak"},"geometry":{"type":"Polygon","coordinates":[[[126.74274289815119,37.6781080001152],[126.74678129966219,37.6726200001267],[126.75328519987359,37.673306699761696],[126.7572572988506,37.664970600454396],[126.7637286999359,37.665908799092094],[126.7665371007425,37.6507864019703],[126.779007597275,37.6425680972671],[126.7805624980969,37.6356842003832],[126.78602379881609,37.6372661960781],[126.7899114003952,37.630172701012704],[126.8045402983018,37.6233570003812],[126.7980656999758,37.6203370027064],[126.804198697551,37.6198503008074],[126.80289999899139,37.6160783008145],[126.81253929896519,37.608156699312005],[126.81159959977619,37.6002449047759],[126.8269051970824,37.595419100812],[126.8313467001861,37.5980685986238],[126.82833480179109,37.600493699527],[126.83906559968119,37.6048205993203],[126.845192798734,37.5988311974893],[126.8481512020243,37.6067744965375],[126.85492019984879,37.608965395645605],[126.86039319959231,37.5925650994474],[126.88228649984681,37.5912265994141],[126.8786611000841,37.5988580007525],[126.8819628013185,37.6044708980107],[126.8728707014675,37.6058365000015],[126.8749360009927,37.616022899319496],[126.86612310346139,37.6152553036742],[126.8667837971086,37.6094020047937],[126.86350260038981,37.6097613044344],[126.841604004065,37.6349848984705],[126.8491910011532,37.64930789590429],[126.85453289991709,37.647528998973996],[126.8491910054277,37.649307905266696],[126.8458898046778,37.6582751997724],[126.8500450005226,37.6607621972854],[126.8307261994274,37.6595988003386],[126.8321403997752,37.645858600028895],[126.8164515977644,37.6383084025683],[126.81535599818669,37.6278101027797],[126.8077935022003,37.628043701166696],[126.81374490106771,37.649356998322304],[126.8042543021636,37.6527281013883],[126.80094320089741,37.659231499135096],[126.8054514005997,37.6603385978878],[126.80393850148221,37.6684700997397],[126.79400320143881,37.669523500021896],[126.7965140995772,37.6779396011326],[126.7831106003583,37.6807771003705],[126.7749003004986,37.690044200299305],[126.7656896005984,37.6885221004538],[126.7668812000623,37.6983421000093],[126.75882969993451,37.6924352007565],[126.76070369898129,37.6861737000672],[126.7770210987314,37.6781720994155],[126.774437399655,37.666442699680196],[126.7831639996122,37.666014698564396],[126.7861096997513,37.6601211004558],[126.77603480260541,37.658725803021],[126.77622909991429,37.6650559996918],[126.7695211011253,37.6657820007048],[126.763846700176,37.676091900258406],[126.74274289815119,37.6781080001152]]]}},{"type":"Feature","properties":{"interval":60,"stationId":"8334213103","profile":"peak"},"geometry":{"type":"Polygon","coordinates":[[[126.6090655982047,37.6413314999747],[126.61403199946609,37.637745899399796],[126.6225589995309,37.6424039992541],[126.6218575008703,37.6392524009611],[126.63512989791859,37.6369414986114],[126.63987589771561,37.631104800342605],[126.64846879855921,37.633334296495704],[126.652022303979,37.6405473974535],[126.6761860997796,37.6333905997312],[126.6833713004321,37.6381301987119],[126.69499160069209,37.6193598969835],[126.7119308965036,37.617341698923894],[126.7088765973581,37.607501202401004],[126.72047209891869,37.595245699508396],[126.7395268980754,37.5936646989277],[126.7450060993199,37.5978584981754],[126.7540274968308,37.590276098729596],[126.7547190973456,37.581349799293996],[126.75672810336701,37.589142597404],[126.7661997955459,37.5870850006154],[126.770308498186,37.5724382014149],[126.7765714976929,37.5755430975846],[126.7904878988427,37.566374692500794],[126.7993937003088,37.5758302957253],[126.8035801992859,37.5713500991522],[126.7984198005241,37.563155202025094],[126.8139417975667,37.5471032001008],[126.80718159838241,37.538683202811605],[126.8003281007449,37.540236699222504],[126.7994732003299,37.546560800415904],[126.7974655001456,37.5420716012281],[126.78812860213439,37.5425009024611],[126.79724069599351,37.53790510039801],[126.7859471011206,37.5384869000914],[126.7870517972544,37.5339478011687],[126.77945670232799,37.5331853018226],[126.76984559919289,37.5220101015271],[126.75400450212739,37.5179828060325],[126.7329979005187,37.5239197997572],[126.75525250081,37.542138296606396],[126.7493095999603,37.5406386005989],[126.7454433008109,37.5459952987308],[126.75179019988481,37.558545697645705],[126.7612608987706,37.5587983992307],[126.75625560173481,37.567019898673095],[126.760922399187,37.5723925961111],[126.7533707002529,37.567738401363805],[126.7412595020981,37.5862159993719],[126.7275023000251,37.5844282013765],[126.71847660099151,37.577045601013396],[126.7203728969074,37.5710666027768],[126.7087587009086,37.5715312017186],[126.71557109860781,37.5691755972065],[126.71791469626419,37.5649803014018],[126.71426739991149,37.5635469028352],[126.71791469850389,37.564980297359],[126.7226278996674,37.55594029924411],[126.70723809949409,37.5305173010354],[126.7162389971528,37.522618199974595],[126.70380009870999,37.5204388006234],[126.69665039970539,37.5104581032441],[126.6944995018563,37.513542900159294],[126.6888405003344,37.5089263017406],[126.7030036991285,37.495392198289096],[126.7111318991575,37.5007528967786],[126.7165329979226,37.4934796995173],[126.7070847991443,37.4858990000273],[126.7070173981466,37.478896302103],[126.6949060013879,37.4767205015327],[126.6961272984517,37.4646593001785],[126.6898375000316,37.463710400478796],[126.6964388984538,37.4622210986964],[126.7019066992936,37.4670543984775],[126.7107783000446,37.4614965995456],[126.7192323007898,37.4835914972681],[126.7448403978709,37.481684298074796],[126.7449437012146,37.4896429006999],[126.7624944972913,37.475740200880395],[126.7667091014014,37.478523798923895],[126.7785005954918,37.4717542971964],[126.78418719878691,37.463971200734505],[126.7804161987659,37.4509789024338],[126.7680769010679,37.4433312041684],[126.7723789985314,37.4408856989183],[126.7711047006744,37.4289669029002],[126.79293769994139,37.4241640992816],[126.8075289995987,37.435186299802695],[126.8090217017854,37.445767498314304],[126.8128104997614,37.446178897713],[126.8129266001111,37.451895895276394],[126.8065729061458,37.453327201905694],[126.80880120391751,37.4584609967719],[126.8147050980136,37.457205898027],[126.8148920013295,37.4713671994345],[126.822669098958,37.471275697901],[126.8305117007993,37.4849576949153],[126.83712479462069,37.4805566989843],[126.8380994951321,37.467906801415204],[126.8436920989477,37.4686266988748],[126.8459313993458,37.4625483998347],[126.84728670254239,37.4663423976925],[126.8516299975002,37.4625565990599],[126.86421489993009,37.4671958987313],[126.8705347965238,37.4619579974243],[126.8807393998729,37.4662687989421],[126.88183220072591,37.4711432981331],[126.89353579965339,37.4643738990409],[126.892125101246,37.476794899819204],[126.9099781999346,37.4802876972665],[126.9169345998838,37.4745918992477],[126.9200046008491,37.4809477973693],[126.9314336977145,37.4654033008463],[126.9482827981887,37.4657950004637],[126.9432154012776,37.474421398863996],[126.9513558996192,37.4777402991826],[126.9585636993655,37.4719559991943],[126.9806033997507,37.4710080979516],[126.9884666994664,37.4660825001595],[126.9886868988555,37.459392799438305],[126.9935691990338,37.4636874969525],[126.99240980128,37.479656997020804],[127.0011617990126,37.4759358996163],[127.0042291008538,37.4819785995059],[126.99277820114611,37.4966125989503],[127.0192896999827,37.502870198220094],[127.0280193994878,37.494300199851395],[127.02906850099559,37.5010741999564],[127.0403713997323,37.5077097992343],[127.050255099782,37.503120099184294],[127.04068910052109,37.5225745993682],[127.0469174001402,37.5249611992683],[127.0428565055,37.531398004729105],[127.0452592030973,37.536984499142605],[127.05106189997299,37.5391596994755],[127.0493092014286,37.5417603993611],[127.0722840995335,37.5391300996752],[127.05831310203901,37.548802500056],[127.0517231011419,37.547984800784704],[127.0457357008529,37.5588015002385],[127.0572487991209,37.5615854984542],[127.06263659952141,37.5566277994267],[127.0704178005707,37.5601573000245],[127.0690135005478,37.563573999794],[127.05826650028351,37.562980600620804],[127.0541750008256,37.5722359998777],[127.03800030017739,37.5708524007297],[127.0305435000371,37.5763612991585],[127.0454987998357,37.5768291992592],[127.0478847004274,37.5823758993281],[127.050897099643,37.5820633996653],[127.0470128984705,37.577515800524],[127.05388649972221,37.57937639965],[127.0504978002521,37.5865218002747],[127.03567770083009,37.581829099942],[127.0435923004716,37.5905190995688],[127.04027150021841,37.595666700178],[127.0451288002525,37.6037574990546],[127.06016690036469,37.612383899735896],[127.03668019976081,37.604750100741995],[127.0381261996951,37.597704800145],[127.03053630002289,37.5912010026141],[127.02151670177861,37.592486700888905],[127.0135408002959,37.6058319008175],[127.0096066992335,37.6014591013942],[127.0125274990995,37.5974366017281],[127.00734439878849,37.5932470021776],[127.0014929000471,37.595454800367996],[126.9937745988225,37.582855500544504],[126.9848619001984,37.5876290010866],[126.9579265019656,37.5844816004213],[126.950302401134,37.6032416997302],[126.9441960019691,37.6010937018839],[126.9412271023435,37.6060236024785],[126.9437588066903,37.618373298963],[126.9500527003964,37.6206099967263],[126.949208701883,37.6275272975063],[126.9375318065229,37.628642801004],[126.9434797996296,37.6406223971889],[126.9378402035003,37.6492432010227],[126.9401547019083,37.655894801102],[126.92794780253,37.6567711998383],[126.9293256052837,37.6657285001338],[126.8849357008293,37.6791235021905],[126.8790052010266,37.677510500561],[126.8785135937638,37.6652817039075],[126.8713067982117,37.6600319029685],[126.8604532028386,37.668089699704105],[126.8698428988447,37.6690049955012],[126.85977260207,37.6771393004804],[126.8555586024085,37.6756769023919],[126.85096230151221,37.6855211999737],[126.8457640989715,37.677043009601],[126.8395831051525,37.6797736068704],[126.8393639976189,37.675149403826005],[126.8327022005069,37.6746044031378],[126.8215123009296,37.6838814986857],[126.8100286027635,37.6864805998406],[126.8098505014741,37.693347001226606],[126.80325020246059,37.6908213064004],[126.7916826008212,37.7031095999877],[126.7881569000169,37.698238402259804],[126.7833601044176,37.704347397728405],[126.7945952011049,37.7184904987706],[126.7903689020776,37.7191471012721],[126.7929930983779,37.7243440973022],[126.79442059862309,37.721360700055996],[126.78758810274539,37.755780200615696],[126.7962882023389,37.7664644979139],[126.7927086013076,37.778705399312],[126.7807770040473,37.775990206763204],[126.774571505529,37.7825124025747],[126.7507628952697,37.7726428086457],[126.7619068968605,37.760554399817195],[126.7531594993107,37.756763802050905],[126.7670646986713,37.7495569009194],[126.75830620159691,37.741596103465],[126.7520394006065,37.7446377992621],[126.7498687997291,37.7421874015574],[126.75527079765911,37.7388111978355],[126.7491415990425,37.7276937015608],[126.7364650003366,37.7243517003029],[126.7315375000303,37.7168474010174],[126.73783449832871,37.700072401062805],[126.7339191988552,37.6920000011461],[126.7229520012346,37.6927779010985],[126.7181692993793,37.684199999760295],[126.7228784971196,37.6785365016765],[126.7221449990498,37.6613058014331],[126.729258996268,37.6577251977768],[126.7298492007514,37.6619460966931],[126.7413376981416,37.6614970998739],[126.74455879894259,37.653721699455495],[126.7482614998479,37.660959393287904],[126.7472004974624,37.645994002996105],[126.77136948936291,37.6330911880122],[126.766995393737,37.6190843020191],[126.745057399763,37.6187912039185],[126.7435194021068,37.6271621992548],[126.74313889840221,37.6236750024702],[126.734585302778,37.6259087974171],[126.7317838004739,37.635786200243096],[126.7317492001275,37.6301051031947],[126.7259583045587,37.6341441002325],[126.7307601997568,37.636361598015],[126.71452960354101,37.635259601096095],[126.720837997543,37.6383739979847],[126.71939970612729,37.6421421133599],[126.70384710258601,37.6447135020935],[126.7006754008945,37.6536631011721],[126.6747056082085,37.665990112339905],[126.6656457003135,37.653405102229904],[126.6541994996019,37.651275801444],[126.6549380975665,37.6432285031606],[126.6256710007161,37.654014700759],[126.61596899882561,37.6411165002851],[126.6090655982047,37.6413314999747]]]}}]}