{"type":"FeatureCollection","features":[{"type":"Feature","properties":{"interval":15,"stationId":"11433141478"},"geometry":{"type":"MultiPolygon","coordinates":[[[[127.0522679938083,37.948845897972],[127.05415429947959,37.9451810999197],[127.0528935988564,37.9435778002092],[127.0544789985262,37.9410814966443],[127.0571692985163,37.940833598059896],[127.0576580007985,37.9414921986821],[127.06121040080909,37.9396959987608],[127.06838480322321,37.9458116950274],[127.0722442021715,37.9471609998669],[127.06944070497501,37.9488483981795],[127.0670182034342,37.9521597054284],[127.06494660221679,37.9526787036962],[127.0652929018705,37.9566950996798],[127.066026501115,37.9573175001837],[127.0624023009294,37.957099902845805],[127.0632487009275,37.9599820013666],[127.06124679898001,37.957668601918996],[127.05941949283981,37.9579310941669],[127.0607396983171,37.9566434993612],[127.06032689872991,37.9559744000303],[127.0619113971454,37.953217102787605],[127.0554042000428,37.9484090021786],[127.0544385994385,37.9499319015408],[127.0529815008956,37.9499366015361],[127.0522679938083,37.948845897972]]],[[[127.0556272990623,37.9272887997242],[127.0568217009015,37.9276668005029],[127.0562750002222,37.927271000454894],[127.0558709997988,37.9277579001334],[127.0556272990623,37.9272887997242]]],[[[127.07096559751439,37.997111699835195],[127.0711807992963,37.995385396739906],[127.0735441000221,37.9945124998185],[127.0741829004277,37.9959851994731],[127.0748133997972,37.9957723996859],[127.0759731993638,37.992831397663],[127.0751290021264,37.993954598986505],[127.07562950175691,37.9963503037078],[127.0722311014638,37.9974403046909],[127.07096559751439,37.997111699835195]]],[[[127.0725421996351,38.0239269004438],[127.0729381996367,38.022992199227694],[127.07360700485279,38.024506798681095],[127.0725421996351,38.0239269004438]]]]}},{"type":"Feature","properties":{"interval":30,"stationId":"11433141478"},"geometry":{"type":"MultiPolygon","coordinates":[[[[127.0433218960159,37.9527624001747],[127.0460762960731,37.9468179052217],[127.04457449272749,37.9398392019744],[127.0462679980691,37.9352690979332],[127.0476715988693,37.9362184988573],[127.0491399974009,37.9345200005558],[127.04623429923369,37.9325807981526],[127.0475883008708,37.9329066973651],[127.0494199990391,37.931729998541805],[127.05181429830671,37.9206747014011],[127.054819498839,37.9175344996097],[127.0537305997506,37.9168704998431],[127.0550224004361,37.917069599288396],[127.0579687001496,37.9158322990439],[127.058376700086,37.916596599287],[127.05925450180649,37.9164557005414],[127.0578474007466,37.9166303007279],[127.0573918012022,37.9176723996858],[127.0601162019037,37.9189464002794],[127.0569433009968,37.9179845022837],[127.05632840078219,37.9219174998511],[127.0568217009015,37.9276668005029],[127.0556273000425,37.9272888006025],[127.05478999962409,37.9278800005844],[127.054138100276,37.9270602014042],[127.0539036005105,37.929658698805696],[127.05655680035919,37.9309857976245],[127.0591915033473,37.9290166980793],[127.061240700882,37.9318510990697],[127.0637083053993,37.931804497539396],[127.063488401443,37.9346557982613],[127.0661492000948,37.9344569995701],[127.0662923003772,37.9373426971904],[127.0750004004988,37.937428491267006],[127.07779120371049,37.9387465990239],[127.07932100370309,37.941477000203896],[127.0747272059209,37.946982395548105],[127.0704524115276,37.9575880992422],[127.07161371036631,37.9616140952162],[127.0668332005451,37.9697683021069],[127.0670864979069,37.9689615994346],[127.0640673009261,37.9669205014757],[127.063461201703,37.968025502639705],[127.0581926990764,37.967705200261896],[127.0565359980655,37.9641392031578],[127.05659818773479,37.9621079964314],[127.058836497893,37.9626751987961],[127.06022679650269,37.9595876018837],[127.0590567975587,37.9560047054798],[127.0522593043562,37.952098009386496],[127.0478289087866,37.9531639083206],[127.0458877107278,37.9551138063707],[127.0433218960159,37.9527624001747]]],[[[127.0614174823235,38.0042587954623],[127.0654999009711,38.0034347967734],[127.0678936985773,38.001548198660004],[127.06847640021279,38.0018090988937],[127.07096559766049,37.9971117035256],[127.07047709800291,37.9921253048216],[127.0713917978565,37.9891770021519],[127.06892979752321,37.9855187979856],[127.0702118975343,37.984536597044595],[127.07101440190779,37.985168300973896],[127.0705755024797,37.9878417986966],[127.0753369998641,37.990494397278205],[127.0799195952815,37.9878679999046],[127.08011809698671,37.9859526946409],[127.0856421004398,37.988141399704006],[127.0816282043802,37.9905497056921],[127.0835706997642,37.998231502307505],[127.0829646003703,37.9977335028055],[127.0773864035879,38.0000581028529],[127.0775275034468,38.001812001099],[127.07893150204279,38.0040381988728],[127.0807135998834,38.005222101029695],[127.07858300084949,38.0043701016046],[127.0760366989969,38.0079282044087],[127.0719883977004,38.0050899087395],[127.064721900035,38.007338301320104],[127.0655240991789,38.004181002538004],[127.0614174823235,38.0042587954623]]],[[[127.0626623990251,38.030507400530595],[127.0653360962571,38.023855900402204],[127.0631864949643,38.0218563964052],[127.06622399744411,38.0211544987328],[127.06557479908699,38.0197719983326],[127.0682974963643,38.019908598196004],[127.071505998276,38.0158119993288],[127.070423799265,38.014541199288196],[127.0720405029931,38.0146526976842],[127.0724639025867,38.016962295869206],[127.0754965072188,38.0182371952574],[127.07544530254499,38.0209370017535],[127.0730544054054,38.026825296362595],[127.0777163007435,38.0311375920503],[127.0762865086227,38.033862805708104],[127.0742824990777,38.0347051018965],[127.0701881976622,38.033619901613],[127.068131399719,38.0340620011709],[127.06432629638411,38.032555599238],[127.0626623990251,38.030507400530595]]],[[[127.0731587997145,38.0968227000499],[127.07394669757329,38.0955746972903],[127.0757236044364,38.095409297886],[127.080481499879,38.0983769988597],[127.0812819020355,38.1007600027123],[127.0781231004137,38.1016057024716],[127.0776041001482,38.1041890012539],[127.0757696022282,38.105672101001296],[127.0752726988534,38.103101100992006],[127.0744193989944,38.1025312001491],[127.0749142992877,38.101317699897905],[127.0739152989442,38.0995638997812],[127.0743512985436,38.0979736999995],[127.0731587997145,38.0968227000499]]],[[[127.0739099999581,38.1014099996859],[127.073910000292,38.101409999805604],[127.0739100000223,38.1014100000408],[127.0739099999581,38.1014099996859]]]]}},{"type":"Feature","properties":{"interval":60,"stationId":"11433141478"},"geometry":{"type":"MultiPolygon","coordinates":[[[[127.02458219959969,37.9256804998927],[127.0291361008054,37.9276289965822],[127.0397457953691,37.9262729940828],[127.03901669708361,37.9214627943963],[127.0432966928036,37.9130634027957],[127.03534349809979,37.9080726035264],[127.0341826971884,37.908285500407],[127.03534349709919,37.9080725969261],[127.03994239250031,37.9025987024],[127.03572729296441,37.899143903214],[127.0409265964047,37.8908020992291],[127.0366826973563,37.8874495974412],[127.0390138983603,37.8837554991543],[127.0384046989508,37.8831232989773],[127.0425692967103,37.8869100951414],[127.0506269898952,37.879855396952294],[127.05446359895281,37.8797322956797],[127.0565760992804,37.878300496811605],[127.05847970042241,37.8744023990605],[127.0591194002252,37.877509696409795],[127.0612508024997,37.8782394990805],[127.0591194015952,37.8775097017624],[127.0574480032666,37.8793575999145],[127.05981630211099,37.8813378981351],[127.0616680002593,37.8853514941215],[127.0702957984517,37.8814315969715],[127.0708993005606,37.882193100695204],[127.0695555019044,37.882357200531104],[127.0692551022048,37.884802198086106],[127.0723843990755,37.88684829604],[127.0756737047783,37.8852692988622],[127.0785731043604,37.890214196265504],[127.0790458023928,37.8940953049058],[127.0764212028453,37.8940541064269],[127.06961940964709,37.897292903188095],[127.0689462095733,37.9011560015843],[127.0732881052314,37.9094366933036],[127.0752794032401,37.910893291846996],[127.0792040048882,37.9177000950374],[127.0801770009311,37.9208768970007],[127.0837927014046,37.920934598821006],[127.0781384077082,37.9236339995429],[127.0754992121941,37.928695496097504],[127.0815017061916,37.9377704870225],[127.0875169001764,37.937888086904906],[127.09065350942541,37.9392892919644],[127.095894607489,37.943616101087],[127.0960718064872,37.9482868002652],[127.09927980420571,37.9533976082061],[127.0964192020613,37.956212703566],[127.097772403224,37.959620005456],[127.09232749526319,37.959281707545095],[127.0819800056107,37.9568303099965],[127.0772555103352,37.9651335016933],[127.0774664101243,37.976866789960006],[127.08816689942381,37.9785273882994],[127.0894737119668,37.9796205935035],[127.0982132057921,37.9821864916406],[127.099752811672,37.9850716080768],[127.0900964086749,37.989711007659096],[127.0860084109731,37.9962418036898],[127.09618070107851,38.0022716977738],[127.09870000214079,38.0102124007934],[127.0976800008085,38.0112768005489],[127.0977548004974,38.0130189998725],[127.09955860177679,38.014276105105694],[127.0957062966158,38.0126768077939],[127.0929937989823,38.0099899004728],[127.09067320110769,38.0089172010354],[127.0882821013766,38.0094593004244],[127.089326102996,38.0115891088816],[127.0827153096068,38.0134946069761],[127.07845981431831,38.023187904101206],[127.0886975040806,38.031876495412604],[127.0960508019385,38.032062894675796],[127.10164499945171,38.0291661971766],[127.1027404008278,38.0324659977462],[127.1053569002091,38.0321675999543],[127.1012595023516,38.032570903053106],[127.0988765047346,38.0343181013059],[127.0980845072767,38.0402183974367],[127.096280307092,38.0410742081324],[127.0905566128157,38.0408559083507],[127.0842138022804,38.042278020291604],[127.0766386017141,38.042373007285995],[127.0735659047868,38.046560903098104],[127.0776630088312,38.0525531100165],[127.06976809973881,38.0479677066945],[127.0679213942071,38.0525530066348],[127.0668828912046,38.050861002016596],[127.0558639947704,38.047518502129904],[127.0576862980435,38.0444788997166],[127.0589585951322,38.037330705162],[127.0527923956403,38.030326002684504],[127.04587380150619,38.0292230030664],[127.04375789982531,38.0338727016156],[127.0399337998508,38.029991602938004],[127.0386028978967,38.029578902028],[127.0356574981704,38.030589700628],[127.0367113996319,38.0271004994976],[127.0395234974722,38.0245625002255],[127.03913559368699,38.023738097621504],[127.041030591792,38.023235998123596],[127.0437409831962,37.9997210881943],[127.05197888876049,37.9698005998937],[127.0443329964064,37.9585394111549],[127.0415357966941,37.9597030088393],[127.0284586917729,37.9498872166555],[127.0266967842398,37.942069486445604],[127.0284280966904,37.9291435003554],[127.02697979813871,37.9268718026271],[127.02458219959969,37.9256804998927]]],[[[127.03594429758,37.771803399952006],[127.04031789993391,37.7696127985528],[127.04219509782921,37.7669287001655],[127.0398552988914,37.7668342003457],[127.0430482994221,37.7665708989017],[127.0441549016303,37.7647111983915],[127.044272701537,37.7659133990676],[127.0462979005623,37.7658804995769],[127.04589920172599,37.767856700170206],[127.0523975992336,37.7714431948283],[127.0534026006527,37.773602199965],[127.05139490199511,37.773076001412605],[127.0493524015436,37.776528301617404],[127.04940210003909,37.778830500241796],[127.04328339982061,37.7799758032749],[127.0414448989759,37.7787571010281],[127.0417124985035,37.7772537001955],[127.0406020995601,37.7768161003168],[127.0389858998203,37.778633600235],[127.0400634971773,37.7770816004954],[127.03836759799731,37.7731322023023],[127.0359640976189,37.7740097012419],[127.03594429758,37.771803399952006]]],[[[127.03825169991201,37.738181700134795],[127.0382517001255,37.7381816998082],[127.03825170003431,37.7381817002606],[127.03825169991201,37.738181700134795]]],[[[127.03919759917959,37.7389900989998],[127.0392521994236,37.7374828999811],[127.0408361995671,37.737535398798],[127.0409140994892,37.7363495999838],[127.0414065996203,37.7367612995091],[127.0414542995059,37.7359152995417],[127.0433044000809,37.7346438995718],[127.043817101773,37.7355692000539],[127.0455219000682,37.736060799562296],[127.0453495003876,37.7373008992988],[127.0466323999917,37.738081099484305],[127.0468704991351,37.734293200196504],[127.0478427999919,37.7329309991525],[127.0486551001098,37.7340552999375],[127.050609000618,37.7344630000106],[127.0508630010264,37.735585999297996],[127.0530272001104,37.735903899011895],[127.05275680027779,37.7374149992416],[127.0548034003527,37.737437899342005],[127.05312810084159,37.7380960006072],[127.0539823007981,37.7387439005482],[127.052176400514,37.7420927004386],[127.0466855006565,37.7437316008294],[127.0474408000578,37.7462787989763],[127.04901240028579,37.7470824004251],[127.0477644000033,37.7478739006262],[127.0467370000719,37.747002100631704],[127.0465692007179,37.749277400157894],[127.0439866998294,37.7498776005241],[127.04509749920099,37.7485095003268],[127.0440451000985,37.7478947009019],[127.0436183996292,37.7490600009238],[127.042715499857,37.7490230009533],[127.04133179969669,37.7464615997139],[127.04551739971659,37.7442799993954],[127.0456899992396,37.7425842008352],[127.0444511003961,37.7411484022688],[127.0422028007214,37.7416677011631],[127.0420466996714,37.740781400837406],[127.0411532994317,37.741134000384704],[127.03919759917959,37.7389900989998]]],[[[127.0401231998902,37.7773878999728],[127.04012320003899,37.777387899745],[127.0401232000928,37.7773879000613],[127.0401231998902,37.7773878999728]]],[[[127.04166709985739,37.758421999986204],[127.0430017000337,37.7581504999046],[127.04299350112859,37.7595964001293],[127.04166709985739,37.758421999986204]]],[[[127.0421372995932,37.7241465993946],[127.0438334994091,37.723340899781995],[127.0440668999956,37.7223140999088],[127.04404770071059,37.7232124999191],[127.04514899996609,37.7237898992517],[127.047476499862,37.723120899963995],[127.04743220011311,37.7207817999034],[127.05008670022099,37.7236631991157],[127.0511956009758,37.723141399698505],[127.0503751010257,37.7239621998807],[127.0509342012613,37.7255268998316],[127.0505136002555,37.725106400419804],[127.0503530009184,37.726548199791104],[127.0490095007752,37.726511800726094],[127.04908310070161,37.7273896998482],[127.0482750006545,37.7277353007332],[127.04763729999,37.7264160012745],[127.0465555996916,37.727176300348304],[127.0464028997518,37.7263137004946],[127.0453856996381,37.7275721001483],[127.0450260996404,37.7267179004691],[127.0431307998073,37.7261750002507],[127.04295569924719,37.7245225999704],[127.0421372995932,37.7241465993946]]],[[[127.04234739983849,37.7584333000269],[127.0423694999919,37.7584277996964],[127.0423695002171,37.7584277998454],[127.04234739983849,37.7584333000269]]],[[[127.04254679977029,37.728593899888],[127.0441026003125,37.7283198000002],[127.04356539999641,37.7294261002056],[127.04254679977029,37.728593899888]]],[[[127.0428756993143,37.761135699680594],[127.0429321000249,37.7611631000363],[127.0429010000242,37.761148000234996],[127.0428756993143,37.761135699680594]]],[[[127.0453119993573,37.6888729005409],[127.04750030019629,37.6895310002196],[127.0465589995413,37.689641200912],[127.0453119993573,37.6888729005409]]],[[[127.0455383998722,37.6905276000068],[127.0455459999096,37.6904237997894],[127.0455384003919,37.690527600012906],[127.0455383998722,37.6905276000068]]],[[[127.04644209915699,37.6882563993099],[127.04644210050179,37.6882563996969],[127.0464421002541,37.688256400514],[127.04644209915699,37.6882563993099]]],[[[127.0478903999719,37.7387261000094],[127.0478904000581,37.7387260998865],[127.04791769996,37.7388025000786],[127.0478903999719,37.7387261000094]]],[[[127.0500138981102,37.8476218012652],[127.0520806975712,37.845562398683],[127.0542079996983,37.845401497322705],[127.0571332000239,37.8438046970714],[127.0592249994431,37.8442506965587],[127.0605272981408,37.8432690975403],[127.0622244993696,37.8435989987276],[127.0626722990296,37.838909597485],[127.0660135000264,37.8409909996573],[127.0654156002275,37.8409698002226],[127.0656365006244,37.842198099658496],[127.0673256003618,37.8426000991673],[127.0680811002654,37.8417355997319],[127.06863820061149,37.842852799918504],[127.0672425025585,37.8450980983109],[127.0680542043585,37.847116402845394],[127.06567970110561,37.8490095034594],[127.0637033018087,37.8493072031433],[127.06330799931071,37.8541523010955],[127.0609227998916,37.8522179035344],[127.06136099946731,37.8471418998614],[127.06028649978231,37.8461225006659],[127.0597546992696,37.8467610003098],[127.05953079875671,37.8455384012571],[127.0576769006106,37.846398700396804],[127.0566885988972,37.851486902617],[127.05683299799419,37.8491589019682],[127.0543967997973,37.8471993037893],[127.05243760175651,37.8480937028949],[127.0500138981102,37.8476218012652]]],[[[127.0519584987959,37.818703099522104],[127.05374419786969,37.8178944991161],[127.05506230018081,37.814028199420605],[127.05543900050611,37.815026698809696],[127.05656810113071,37.8146175984925],[127.0591534995575,37.8168553970113],[127.06021530553059,37.8163280965645],[127.06011190109089,37.8170545017568],[127.0572653024144,37.817374501039],[127.0575379021418,37.8195440988694],[127.0596612012491,37.8192784999788],[127.0579779023162,37.821235101975006],[127.0572297998806,37.8191450005045],[127.0558158990333,37.8211474013289],[127.0519584987959,37.818703099522104]]],[[[127.05960639246771,38.1128950998064],[127.0620610994573,38.1111827990904],[127.0626270988913,38.1074358028374],[127.0620299922163,38.103724797807104],[127.0663649878813,38.101802199729704],[127.0707470834992,38.093379208152705],[127.0706214828849,38.0858562150551],[127.0676920799782,38.0777974039762],[127.0698343998507,38.080047699006904],[127.07404619835519,38.0796768984736],[127.0759677963858,38.074726499508294],[127.07662170055191,38.075709099028096],[127.0779009009802,38.075569598872605],[127.07833890066341,38.0766090984079],[127.0797389992633,38.076294898722104],[127.0799595003003,38.0742558983255],[127.0801661004345,38.075133799011304],[127.0822960045026,38.075831100990804],[127.0795828031998,38.080390601804304],[127.0798311029515,38.0861053960895],[127.0802341025485,38.0868080953868],[127.08570829707429,38.084703897491],[127.0856057015132,38.0841121929195],[127.0872259071819,38.0850731030563],[127.08720380720399,38.0881352999941],[127.08331742498049,38.1034722913062],[127.0788268023396,38.1122493018893],[127.0758035023767,38.1121888015433],[127.07529200222321,38.1127759016975],[127.0748764026388,38.117457097016306],[127.0834849008252,38.1177658966067],[127.08394610147131,38.1185282991341],[127.0860530006135,38.118003700457],[127.08429470207341,38.1189568998725],[127.08361489874851,38.1219002081082],[127.08269749832449,38.1215732066213],[127.0761263048957,38.1254734027211],[127.0760315001398,38.1282631004037],[127.07587289965329,38.1264903020005],[127.06970339857,38.119907103806796],[127.067525400292,38.1154419062172],[127.0622738029211,38.116231506066],[127.05960639246771,38.1128950998064]]],[[[127.0662875995198,37.841485400128605],[127.0666582004609,37.841399799796],[127.06652839973249,37.8415463003103],[127.0662875995198,37.841485400128605]]],[[[127.0739099999581,38.1014099996859],[127.073910000292,38.101409999805604],[127.0739100000223,38.1014100000408],[127.0739099999581,38.1014099996859]]],[[[127.0871202985918,38.119198502246604],[127.0871202992478,38.119198499630905],[127.0871203029861,38.119198498801005],[127.0871202985918,38.119198502246604]]],[[[127.1053062991264,38.0286502008446],[127.1053063001073,38.0286501989081],[127.1053063002436,38.0286502011781],[127.1053062991264,38.0286502008446]]]]}}]}