{"type":"FeatureCollection","features":[{"type":"Feature","properties":{"interval":15,"stationId":"355173323"},"geometry":{"type":"MultiPolygon","coordinates":[[[[127.12830469915531,37.540105098874896],[127.1293280986143,37.5395190992596],[127.1290842997094,37.536992399851805],[127.1317276988612,37.5338865997009],[127.1314235997584,37.532625598918905],[127.1361274995749,37.5274734988733],[127.1386312970577,37.5282103974452],[127.14018350069051,37.5296588991022],[127.1439161007113,37.5281485999025],[127.143744601048,37.5291461994676],[127.1448698005531,37.5288332998564],[127.1466011008521,37.5324988986221],[127.14823610046021,37.533050499667304],[127.1485800002575,37.5342622988977],[127.149591599763,37.5338965993489],[127.1497864004988,37.535188599451295],[127.15187430069331,37.5364172000355],[127.1513871005289,37.536217900706596],[127.151315000601,37.537658899265594],[127.151916300368,37.5374772004542],[127.1505459023616,37.540446999838004],[127.1492950003381,37.540537902016396],[127.1481606014725,37.5418634006909],[127.1484863997168,37.542958401628105],[127.1461709020323,37.5441997003868],[127.1460147027924,37.5465295001819],[127.1436294001318,37.5477827008365],[127.1435940001843,37.5486352011244],[127.1434500000251,37.5478000008479],[127.14215299960419,37.547411800541],[127.1411631990854,37.5480085000191],[127.1400593994249,37.5454734014274],[127.1380652999237,37.546377300569006],[127.1378135999501,37.5457179004713],[127.1357222994109,37.5460139002462],[127.13658839910629,37.545301300159295],[127.13634439935029,37.5442135012471],[127.13423069994491,37.5438710015326],[127.1328746997935,37.5447587005818],[127.1320922000157,37.5436295009312],[127.1302782004233,37.5439765007861],[127.1303817999949,37.5424866006245],[127.12948519973871,37.5425853005196],[127.1305400993553,37.5415686995725],[127.1300751998202,37.5404440006972],[127.12830469915531,37.540105098874896]]],[[[127.1223494995544,37.5388936004005],[127.12308119967891,37.5374688991114],[127.12347360048359,37.538544799705996],[127.12439280046229,37.5382721000456],[127.1236947999702,37.5394747002869],[127.1223494995544,37.5388936004005]]]]}},{"type":"Feature","properties":{"interval":30,"stationId":"355173323"},"geometry":{"type":"MultiPolygon","coordinates":[[[[127.0590628989587,37.5607186995375],[127.0605971998542,37.557865698327504],[127.0626366011891,37.556627797435304],[127.0649429011094,37.5593991973393],[127.0680642988714,37.5579626979779],[127.0681107005597,37.5601841980323],[127.0696147998771,37.5594917995013],[127.0710441999443,37.5607265994552],[127.0725165984719,37.5596680005138],[127.07271469886051,37.558950599396205],[127.0717270993037,37.558181599154295],[127.0729623992894,37.5576248992663],[127.0731350991098,37.5567378997489],[127.0721398995992,37.5563019992473],[127.0731848995409,37.5559244997778],[127.0735573997836,37.5546180999303],[127.07248219987629,37.552996499403],[127.0741910002771,37.553290698652],[127.07610899908481,37.5521191996642],[127.0756666995494,37.551437299667306],[127.07700460016049,37.5504945996634],[127.0779714003304,37.5527042990755],[127.0792195008152,37.5516204981024],[127.08047310042821,37.55314179914],[127.0860974986898,37.551473198012495],[127.0858429982524,37.5473158977775],[127.08445019962821,37.5449931000181],[127.0849745996479,37.544575699789405],[127.0891245999916,37.544914399173905],[127.0894902000155,37.545645999185595],[127.0906488000305,37.5446142990536],[127.0910216008552,37.5463254985882],[127.09364039990369,37.5486433981248],[127.09582189991731,37.547792297815995],[127.0975934981457,37.5461775994307],[127.0972080989234,37.543980900582504],[127.0944233004885,37.5427782008725],[127.0928729990038,37.5440688008449],[127.09346549912539,37.5421646011409],[127.0929755992805,37.5418548993784],[127.0937515996773,37.5417915996793],[127.0941499990996,37.539599699891],[127.0945700006575,37.540389998760205],[127.09589319933431,37.540327398822804],[127.0964609982561,37.5385806990882],[127.0976525996043,37.537772698149496],[127.0964610011023,37.5385807005654],[127.09589320167011,37.540327398818704],[127.096499301064,37.5407301984159],[127.1001931001969,37.5377501996498],[127.0984694021378,37.5393667994148],[127.0994498011574,37.541960596821006],[127.1008130997941,37.5421222966593],[127.1022832983239,37.540150398631205],[127.1032753998624,37.5409481992271],[127.10406910694671,37.5406262944823],[127.1066957048305,37.5429255933665],[127.1095441019821,37.5436036926884],[127.1131195984066,37.5390269972651],[127.1136633980474,37.537537198613805],[127.1119299991023,37.5349399998358],[127.1134418994079,37.5346299996648],[127.1136276001993,37.5329358988157],[127.1153002989681,37.5326678993266],[127.1142242996664,37.5300186001422],[127.1158879995547,37.529339800103905],[127.1153529995413,37.5276248993694],[127.1172068984653,37.525548800551206],[127.1167433993851,37.524399099014694],[127.11726660013849,37.5242281992597],[127.11921869969281,37.5271754977491],[127.1238125000186,37.5259998995544],[127.1253816998779,37.5250297977857],[127.12827469746951,37.520450200424],[127.124806898453,37.5158135019624],[127.12670779938861,37.5150328990954],[127.12712739832081,37.512960899801506],[127.1247501003889,37.5108518014449],[127.1242721999287,37.5117447005507],[127.12069919947591,37.5108207002095],[127.122314997945,37.5095358996141],[127.1219306996383,37.5073265994374],[127.123572700319,37.507407298991],[127.1246774992142,37.5064490999492],[127.1238746995339,37.5056854992892],[127.12537109911399,37.5032404005998],[127.12490439959781,37.5014437002378],[127.1262357987823,37.5005336996212],[127.126219600185,37.4992681993129],[127.1288671014309,37.5009673986851],[127.13056999972801,37.5008943987581],[127.1314293002461,37.4998989995429],[127.130271200748,37.501045600348995],[127.1313597003534,37.502023700003804],[127.1309237002837,37.504165000166],[127.1288656006876,37.5055970001143],[127.1311183003798,37.506152599694],[127.13032410109909,37.507231699268395],[127.1299069007508,37.5114168990435],[127.1324965001916,37.5114701999308],[127.1318030007247,37.5121960998007],[127.1324800000477,37.5125964994003],[127.13364059963801,37.5122180994549],[127.1338901999996,37.5112987994345],[127.13671990133591,37.5139217991919],[127.1368184010807,37.5146296006496],[127.1362062996961,37.5142114009904],[127.1353186005838,37.5151442000576],[127.1362204011178,37.516743999994105],[127.134149602528,37.517654600321],[127.1335493031817,37.5201137991674],[127.1367078001268,37.5226674967318],[127.1381497986848,37.519649099750204],[127.1372196994579,37.518808299167304],[127.1386499996519,37.5194099994757],[127.1412259002077,37.518295197321294],[127.1401641010793,37.5187633007758],[127.14039590084751,37.5205042990348],[127.142872398371,37.522240597298506],[127.1450039962394,37.520027099512],[127.1436838000003,37.5173879998205],[127.14490740132929,37.517637799325804],[127.14480370143299,37.5186980982655],[127.1459639002728,37.5198087971548],[127.1485126998779,37.5186394992872],[127.14871170057451,37.5194421997357],[127.14779380105381,37.5200988997205],[127.1483176025082,37.5222838979154],[127.149993802123,37.5236482980856],[127.1517181034149,37.5277717995347],[127.1536101015229,37.5301216971848],[127.1555938995391,37.5300975972089],[127.15756660268609,37.5312798986622],[127.15712410193031,37.5345103992203],[127.1582235023539,37.536788898944096],[127.16067440201401,37.5389221981389],[127.1616398014047,37.541479797960996],[127.1627273003172,37.5414331980076],[127.1628879018731,37.5427229993205],[127.1593045981443,37.540968904935404],[127.15678130065581,37.546598500129505],[127.1558601007013,37.5464626001494],[127.15649760031589,37.549149597875],[127.158890200738,37.5495706989558],[127.1585256009315,37.550985399486805],[127.1595108003831,37.5507210000435],[127.1607359013645,37.5527844983423],[127.16238940073039,37.5517637993359],[127.1621011029381,37.5528376993083],[127.16512349991571,37.5532768988691],[127.1652330987898,37.5501171995287],[127.1666174999149,37.5503540997072],[127.1654683011996,37.5505375004812],[127.1653615013064,37.5522869987317],[127.1667963998715,37.553134697884],[127.1700345020241,37.5535103000836],[127.1731196997312,37.556185098187804],[127.1742935001792,37.553959799575004],[127.1746262021243,37.5551108993809],[127.1732511021145,37.556199399994],[127.17443930092631,37.557203198990194],[127.1789370990117,37.5578074976167],[127.1794963001173,37.5560476998538],[127.1808750007885,37.5567602988234],[127.18016080144669,37.558351699325],[127.1820802009568,37.5587820999688],[127.1801608007482,37.5583517006931],[127.1805260005466,37.5592648007877],[127.1790376997202,37.5597717013095],[127.17892099979011,37.558188900464195],[127.1754231981631,37.5574983033115],[127.17293390065241,37.5592762015336],[127.1703062003178,37.5596772008412],[127.1689202004823,37.561852100462204],[127.16631149941661,37.5626990025165],[127.1633010992858,37.5622500005628],[127.1628597000381,37.5613779009029],[127.1625558000224,37.562313200359895],[127.1612413000224,37.561635100770694],[127.16122539888961,37.558067202539405],[127.160118999996,37.5575247030819],[127.158637701229,37.560554902308496],[127.15658090089609,37.5613814011003],[127.15656920036571,37.5624745004843],[127.1565808995826,37.5613814009776],[127.1542385997791,37.5606905011108],[127.1523377012607,37.560830200550996],[127.1520117016081,37.5619322002157],[127.1509213988391,37.5620872011705],[127.1489863003175,37.558843603535905],[127.14679129805161,37.5607111011982],[127.1447338001091,37.559634602274706],[127.1434767995658,37.5603089025876],[127.14364369801329,37.5588727024192],[127.1399924016646,37.5560290052629],[127.1379639998632,37.5572156021858],[127.13787189883219,37.5555065013026],[127.1337331000223,37.5555366009331],[127.13054509988021,37.558605201254004],[127.12841319933409,37.5581116016244],[127.1289183994614,37.5574272998424],[127.12789820011271,37.555774901668805],[127.1258792005335,37.5572894018059],[127.1259437988798,37.556446800661],[127.1245604993409,37.5565559002824],[127.11916409474131,37.5473863077548],[127.1111680027374,37.5510545040866],[127.1112615026439,37.553053302087804],[127.1098952000648,37.5519179012252],[127.1081348997178,37.5527891005696],[127.10784360000909,37.5518408015179],[127.10598000187271,37.5509059024528],[127.10343640060921,37.5526818021793],[127.1008886003286,37.5519508023183],[127.1005293004813,37.553454301007],[127.09970369888171,37.5529238025047],[127.0959840001083,37.5544052022321],[127.09504510104719,37.5555421010952],[127.0956192999949,37.557586302001596],[127.0943244005082,37.5572632009153],[127.09005000008,37.5589700005656],[127.0891338998913,37.5585463007108],[127.0883732998241,37.5596589009076],[127.08674499999039,37.5598938005127],[127.0863407995101,37.558894700430805],[127.0849962004994,37.5594058999522],[127.0837598005226,37.563476199818496],[127.08557760089349,37.5659063003688],[127.0855651992626,37.568218300926596],[127.0844939000413,37.5662664016967],[127.0834468989927,37.567143200914295],[127.08162209909581,37.5665574997998],[127.0817458990748,37.565291199806694],[127.0829264994511,37.565078399803895],[127.082064999726,37.5646595000964],[127.0830287992297,37.563593600800296],[127.0775714998059,37.562394100674],[127.0771523001704,37.5615948008869],[127.0751878999428,37.561871500249005],[127.0726959989844,37.5600303006782],[127.0710442001666,37.5607266001113],[127.07066329996631,37.560251600448304],[127.07024680029471,37.5608801998506],[127.0708987002269,37.561237399985906],[127.06897860082739,37.562384300324],[127.0690135005946,37.5635740009955],[127.0667955005059,37.5644723009983],[127.0649482006344,37.5633940009124],[127.0647746995672,37.564157600880804],[127.0635541998699,37.5641929007133],[127.0582570000095,37.5626344003462],[127.0592873984632,37.5620644999805],[127.0590628989587,37.5607186995375]]],[[[127.0495168978233,37.5658457995498],[127.0503626989723,37.564309198581995],[127.05131419975959,37.564913499247005],[127.0510703998028,37.5636808998429],[127.0541484992563,37.5643760989964],[127.0550760997926,37.5636701994843],[127.0556524000466,37.5645309994021],[127.05652400042649,37.5637872999944],[127.0556524007598,37.5645309996599],[127.05645940078769,37.5666725000148],[127.0556157999908,37.5662303006035],[127.05470700044759,37.566844200315195],[127.0534647001657,37.5693790007548],[127.0491200000011,37.5694203002682],[127.0495168978233,37.5658457995498]]],[[[127.1894226991214,37.5622442999057],[127.19182960002,37.5604533989138],[127.19411570043489,37.5607599987585],[127.1946989999127,37.5595862998104],[127.1944156011507,37.5614458999515],[127.1960803010208,37.5626108000127],[127.1941400016008,37.5648085001773],[127.1946336000278,37.5655252002853],[127.1924544005799,37.565087101073196],[127.1914918996362,37.566718700756105],[127.1901411999082,37.5648623000596],[127.1908207993804,37.5644507002636],[127.1896681997779,37.5641369000596],[127.1894226991214,37.5622442999057]]],[[[127.1044380993345,37.5146108999802],[127.10572339902801,37.5147441985463],[127.1073145001137,37.5134891998158],[127.1078697003981,37.515400899077505],[127.1088066999217,37.515729398904995],[127.1092088995195,37.5147887998456],[127.1124585996961,37.5137685985853],[127.11334859957489,37.515190098393596],[127.1158867997227,37.5141838995541],[127.1166330996748,37.5153895986317],[127.11835019963239,37.514784298570206],[127.1194621006709,37.5167570997749],[127.1187350001474,37.5162654007],[127.11722350035659,37.5175099002745],[127.1170250029233,37.5195343006288],[127.1164879003324,37.5191734006689],[127.1164719996363,37.520187700677],[127.11537510073319,37.519749601115095],[127.1146285014798,37.5206939001708],[127.114940699781,37.5218585012173],[127.1119223986229,37.5205540997952],[127.11242589830711,37.5176826019596],[127.1063371991626,37.5160730014682],[127.1057233986934,37.51474420006],[127.1044380993345,37.5146108999802]]],[[[127.0703834991551,37.5480993000867],[127.0733962996648,37.5456782992773],[127.0731314005887,37.5449358994043],[127.07346860053809,37.545651299290306],[127.0759514997149,37.5455656996299],[127.0766022004635,37.5463718000344],[127.0746375998898,37.5506325008432],[127.07363629938061,37.550427400396394],[127.0734282998086,37.5493242003148],[127.0720826992068,37.549435000261305],[127.0716005991235,37.5479423009006],[127.0703834991551,37.5480993000867]]],[[[127.0685363997305,37.5412976994994],[127.06955379913869,37.539602399848796],[127.072503001692,37.539508399472005],[127.0712534010849,37.5399207005441],[127.0714516004344,37.5417762995409],[127.0721382005268,37.5418253996162],[127.0715792003851,37.542279300156295],[127.07005309983539,37.541244000544395],[127.0685363997305,37.5412976994994]]],[[[127.10548879896281,37.5063934995825],[127.1063348993862,37.5064231996698],[127.10522919975449,37.505038600301596],[127.1060607992299,37.5040530992836],[127.1061567004899,37.505042199512395],[127.10838940041809,37.504098999510994],[127.10881120074731,37.5065213001139],[127.10728919974079,37.5056247004444],[127.10633490079579,37.506918501135196],[127.10548879896281,37.5063934995825]]],[[[127.03597959965741,37.562145699405704],[127.03662589994761,37.562386499720404],[127.0364791998384,37.5613242000966],[127.0381410005012,37.5606725997797],[127.0383400005572,37.5618999998271],[127.0375145008619,37.5629810006943],[127.03597959965741,37.562145699405704]]],[[[127.0410235991533,37.5652328003264],[127.0421910004222,37.5644601997452],[127.04284719990899,37.5654749989129],[127.0435971006853,37.5646876992925],[127.0455630006719,37.566768698824],[127.0457455001457,37.5679959000788],[127.0428550981972,37.5674641017305],[127.0410235991533,37.5652328003264]]],[[[127.1104477994082,37.5104735991716],[127.11184340007149,37.508651099453104],[127.1108782005976,37.5091386008592],[127.1111472003286,37.5101895998082],[127.11388090150619,37.5093663991496],[127.1132188001622,37.511932001474804],[127.11220210041631,37.510280101892505],[127.1109798002567,37.5113943013223],[127.1104477994082,37.5104735991716]]],[[[127.1330551989829,37.4966997991951],[127.13727900048201,37.496755999748096],[127.1360868015127,37.498121400240905],[127.1363698001228,37.4990360010719],[127.1357705993958,37.4982975011365],[127.13403989992041,37.4986837006418],[127.1330551989829,37.4966997991951]]],[[[127.20283569950689,37.5512067998254],[127.2036953004125,37.5507630988624],[127.2051994010213,37.5514005991613],[127.20493470007719,37.5532287000992],[127.2039934986266,37.5531681005549],[127.20283569950689,37.5512067998254]]],[[[127.14327199938559,37.4934722003134],[127.14398390004939,37.4921550998389],[127.1452407007495,37.4929833995416],[127.1445961001394,37.4938464003514],[127.14327199938559,37.4934722003134]]],[[[127.1000576998445,37.5130907999541],[127.1007509000429,37.5127213997487],[127.1011560001216,37.513659801098996],[127.1000576998445,37.5130907999541]]],[[[127.08618939908439,37.5728730000694],[127.0867938000752,37.5737599994757],[127.08763240045751,37.573451599260096],[127.08733690046219,37.5742091998577],[127.0863975997502,37.5746124000899],[127.08618939908439,37.5728730000694]]],[[[127.0666867994767,37.5318017995425],[127.067261801206,37.5317191996108],[127.0669529000623,37.5320901001637],[127.0666867994767,37.5318017995425]]],[[[127.112251399203,37.4992980996537],[127.11268270029359,37.4988290997719],[127.1123960000221,37.499343600300904],[127.112251399203,37.4992980996537]]],[[[127.0864571996517,37.5656139999349],[127.0869214001697,37.5655625002403],[127.0865917003115,37.5655693001063],[127.0865630000955,37.5657376005607],[127.0864571996517,37.5656139999349]]],[[[127.08840389956761,37.5808608999737],[127.0884623998071,37.5806573995421],[127.0885580003018,37.5808411000888],[127.08840389956761,37.5808608999737]]],[[[127.02964999949711,37.557429999762995],[127.0298319004429,37.557376499240895],[127.02997650044651,37.5575804004638],[127.02964999949711,37.557429999762995]]],[[[127.1048577989998,37.5043571001347],[127.10485779945441,37.5043570991015],[127.1050065001066,37.5043658003243],[127.1048577989998,37.5043571001347]]],[[[127.07282339967891,37.5551632001249],[127.0728234002582,37.5551631993005],[127.0728942001458,37.5551772000289],[127.07282339967891,37.5551632001249]]],[[[127.1223955986794,37.5054548005113],[127.1223955991268,37.505454799444905],[127.12239560101301,37.5054547995199],[127.1223955986794,37.5054548005113]]],[[[127.0877527998937,37.574850299992704],[127.08775280006671,37.5748502995702],[127.08775280020221,37.5748503003549],[127.0877527998937,37.574850299992704]]],[[[127.1020894992215,37.5138007999112],[127.10208950074001,37.5138007995183],[127.10208950006941,37.513800800225],[127.1020894992215,37.5138007999112]]],[[[127.1372004994771,37.5182021997734],[127.1372004998486,37.5182021991214],[127.13720050031361,37.5182022000828],[127.1372004994771,37.5182021997734]]]]}},{"type":"Feature","properties":{"interval":60,"stationId":"355173323"},"geometry":{"type":"MultiPolygon","coordinates":[[[[126.9185573996637,37.5554164999449],[126.9189439996716,37.5531705997566],[126.9197983004524,37.553680199020405],[126.9215022000166,37.552380199588505],[126.9220615002984,37.5535619992832],[126.9248116999269,37.5525443998252],[126.9250280999022,37.5531444994302],[126.9285002003718,37.5532907993818],[126.9285469004175,37.5543171995772],[126.929817899705,37.554458399371],[126.9319221997935,37.5529674998889],[126.9317442995524,37.5512810009465],[126.9302362001113,37.5503169989707],[126.931168599577,37.550646899413394],[126.9314334995111,37.549350899351204],[126.9327882999406,37.548879299610306],[126.933251000118,37.5500053992098],[126.9351888997891,37.5494191990253],[126.935273299946,37.5487122993893],[126.9386391997916,37.5483762995708],[126.94015370036419,37.5485541998042],[126.940967000486,37.550111299787],[126.942875999775,37.5495248995396],[126.9421812997635,37.5481472006578],[126.94056999996509,37.548432299951],[126.9414852993614,37.5479751996394],[126.9410218998942,37.5467505000436],[126.9416798004345,37.547234799452],[126.9437570997234,37.5456264996216],[126.9439549996756,37.544569000093205],[126.94260819977589,37.544626100270705],[126.9417740000531,37.543484900303],[126.9414937000734,37.544221700285505],[126.9409153000166,37.5426158004367],[126.9399563001201,37.543370900454896],[126.9394861994311,37.542821600418605],[126.9395666984419,37.539096401342896],[126.9319007061079,37.5303241101152],[126.9300999020081,37.5312557103953],[126.9287955996188,37.529578800608505],[126.9280954993968,37.529791599671],[126.9283838997298,37.5289224987454],[126.9297037984099,37.5286335990343],[126.9286050991585,37.526982498508204],[126.9297038001113,37.528633598213],[126.9304478995039,37.528519398412],[126.9341870989428,37.5257388988432],[126.93414389944789,37.524149399963],[126.9333879000434,37.5236646995862],[126.93630419983789,37.5242806995295],[126.9364237996912,37.5235497991672],[126.9376748001372,37.523268299599195],[126.9380569007166,37.5254498993953],[126.9439477001871,37.5354833991099],[126.9472815996065,37.534373899733495],[126.94711540049,37.5353256990168],[126.9479703000244,37.5356142988902],[126.94876560033511,37.5347328995775],[126.9496583996829,37.5349199992197],[126.9492775007134,37.536335700034],[126.95042550045119,37.536416499577705],[126.9508445006033,37.5386717995052],[126.9523659005377,37.538362299755306],[126.95173920078251,37.5396868996284],[126.9534586997561,37.5404816997834],[126.9555100999939,37.5391367997263],[126.95494690053829,37.5393390002117],[126.95581749966769,37.5400881994625],[126.9566875989305,37.5369061005349],[126.955547899746,37.536913400333404],[126.9551624996981,37.5358740992371],[126.95812049948461,37.53675049943109],[126.9596300988633,37.5355893992949],[126.959031599677,37.5347912993628],[126.96031239912321,37.5347998988666],[126.961577599666,37.533731699108195],[126.9607883982702,37.5324222999751],[126.9640429989554,37.5313218987394],[126.963614699942,37.5272467011616],[126.9630731993618,37.5275254009586],[126.96104199924231,37.52527710011319],[126.9586287994447,37.5242932003551],[126.959095499683,37.5238869999419],[126.95842219954051,37.523113500262],[126.95984589853181,37.5226005002593],[126.9586399987718,37.5220124002058],[126.9618906005961,37.5202487994882],[126.965770096754,37.5205427991811],[126.9689243000292,37.5191301979616],[126.96980719919631,37.5168811001913],[126.9651209038826,37.5094379076345],[126.95901549938581,37.5122988008449],[126.961004898606,37.5115603000732],[126.96031169929921,37.5104017012318],[126.95850369836309,37.51062750026],[126.9584673986609,37.5068889995609],[126.9625856018595,37.5057945974343],[126.9654996989454,37.5059787972501],[126.96702360133041,37.5049628970459],[126.97003099978281,37.5057517966196],[126.9705651992453,37.5019766000118],[126.9729014998813,37.5007981992856],[126.9732577000737,37.4995298996179],[126.975107099482,37.500436398980895],[126.9761937994037,37.4994809990903],[126.9771553999433,37.5007064994532],[126.978182600328,37.500497899635796],[126.9783832001274,37.5013827987509],[126.9800486997751,37.5007714977664],[126.9806856005948,37.501593900124],[126.9788765006863,37.5023020004076],[126.97889940066341,37.5033596993499],[126.9800009995618,37.5033887993208],[126.9825357990859,37.5021374997972],[126.98188689983641,37.5016767998848],[126.98253580015779,37.5021374993441],[126.98450959881549,37.5008868002009],[126.9844741007669,37.4983321991657],[126.9856701010376,37.498928499384796],[126.98535650015319,37.5001855999597],[126.987693801416,37.501443697785604],[126.9879803014004,37.5024319993936],[126.9896013997793,37.5018307999948],[126.9902468992851,37.498183100016895],[126.99234159899821,37.4972445995837],[126.9926269987128,37.4966060002223],[126.9898738006056,37.4951544022711],[126.9884806010514,37.4974625007375],[126.98704239966531,37.49802240029091],[126.9873763997338,37.497078800385296],[126.98655989934531,37.497261600369804],[126.9848139996815,37.493909900450696],[126.9827003997793,37.4951359002474],[126.982639399478,37.493766901112],[126.9765028993968,37.4927396002193],[126.9775773989024,37.4902752012144],[126.9763276001522,37.4902382012514],[126.9761279002627,37.491230500414],[126.9743648987952,37.4919074015557],[126.97391249950189,37.4908205997453],[126.9746908987235,37.4896118009541],[126.97106439929,37.4897476997435],[126.9731123981704,37.4879376002157],[126.97223279905,37.4863936017597],[126.9681024008907,37.4894638000534],[126.9680020001111,37.490874001055595],[126.96702339864551,37.4894227006253],[126.9645988010963,37.4894043002317],[126.9646891016002,37.4904098015978],[126.9639611993575,37.4907623007562],[126.96287619913879,37.4891071986941],[126.9668119954529,37.482864199558804],[126.9634885000536,37.4785137008901],[126.9610594995366,37.477943700648],[126.96250999971629,37.4751176996836],[126.9641385010897,37.4752125996228],[126.9647109009086,37.4765226990315],[126.96597110061161,37.476166800113404],[126.9638323008656,37.479628600296095],[126.9665410988862,37.4819733975558],[126.967752998424,37.479969397979104],[126.969369500399,37.4797837980285],[126.970517499251,37.478383299429],[126.9737746995611,37.479827498916],[126.9742268985194,37.4768799002487],[126.97308389980351,37.4758974990688],[126.9750211993091,37.4755934992785],[126.97570379943251,37.4732986995468],[126.9760275002823,37.4739192992025],[126.9795957993371,37.4728129993097],[126.98029619951289,37.4735610989004],[126.9824164005616,37.4717413982521],[126.9832922009165,37.4717109998443],[126.9847799007224,37.4759263979371],[126.9872568012564,37.4754984996722],[126.987575301216,37.476163999661],[126.9865145012481,37.4770169996527],[126.9880500003872,37.4779700001956],[126.9863573002468,37.4785296004046],[126.986041700394,37.479427299712896],[126.9872080992012,37.4806675990855],[126.9909299984568,37.479299999855904],[126.98959880145469,37.478760597584],[126.99240980128,37.479656997020804],[126.995468798221,37.4793514973263],[126.9982423992022,37.477117896551306],[127.00072569944871,37.4767493988028],[127.0016968999358,37.475283399823404],[127.0009304017094,37.4768324994943],[127.0028942000648,37.478019498273305],[127.0034910005265,37.4804570991245],[127.0050829007943,37.4814845002455],[127.00394070046521,37.483989200982],[127.00462879977711,37.4860622989089],[127.009509499414,37.4844423991499],[127.01045830001429,37.4832500997534],[127.011225299702,37.4840377993547],[127.011057599415,37.483182899820605],[127.0131061989576,37.482929299575204],[127.0130607999118,37.4819711992283],[127.0143913007282,37.4811306989225],[127.0187457008777,37.4807072990776],[127.02037130057079,37.482691997731],[127.02019720112379,37.4834514002784],[127.0223601013078,37.4854663993243],[127.0214572011807,37.4857688003667],[127.0223590000101,37.4867001001532],[127.02117130066891,37.4863367007774],[127.0208119010283,37.4874792996348],[127.021703800966,37.4876223001548],[127.02250690033469,37.4903178995196],[127.0270423998835,37.4910037982711],[127.0284541986554,37.4879097999031],[127.0268431994365,37.486930900169696],[127.0268322996126,37.4853674007165],[127.0260998989586,37.4853560997503],[127.0270330991953,37.4834739996097],[127.0281774991359,37.4834191999578],[127.0287000986133,37.482525000852],[127.0281515988858,37.4809456998902],[127.03048049994429,37.4801588977686],[127.0312137999244,37.4806417974741],[127.03802319999289,37.4770067988984],[127.03985590006201,37.4785946993558],[127.04021470076101,37.4781219991876],[127.0418306001173,37.4807029993019],[127.0433348004519,37.4800935996971],[127.0446460000141,37.481432699342896],[127.0467179000216,37.4807259998955],[127.0469745008817,37.4828222983878],[127.0487998990563,37.4818279993821],[127.0487516991045,37.4808627003474],[127.0479497993472,37.4809912997316],[127.04898920028029,37.4803417996963],[127.0498301012091,37.4830164998597],[127.0509984000408,37.483719799156404],[127.0532984993064,37.4828334995108],[127.05208689858421,37.481525000458596],[127.0523550990665,37.480258399209],[127.0548087990867,37.481847998312396],[127.0581446988977,37.4795387983224],[127.0611158015894,37.480680297274105],[127.063309199396,37.4804495975048],[127.06509069848,37.4789552984531],[127.0726319983309,37.484060395868596],[127.0758150951478,37.480898099030895],[127.0725027971359,37.4783282966894],[127.0752377995757,37.4774453986381],[127.07711159926869,37.4750565940289],[127.0848130014293,37.47474909732129],[127.08896950172671,37.476168798319],[127.09104240130361,37.4758942984564],[127.092127700806,37.477346898629904],[127.0945594983742,37.477512398464405],[127.0950185995128,37.4760385994252],[127.0995805001282,37.4777619978276],[127.1005257996305,37.4754328997751],[127.1014876997967,37.4774094983644],[127.1041634985861,37.4754686991143],[127.1025725988132,37.473651199413],[127.10632580007899,37.4753092979732],[127.10720220010191,37.4729752995815],[127.1092673000668,37.4741949999973],[127.10765770108351,37.474165800971605],[127.1069889017523,37.475616799520594],[127.11058259845021,37.4767685981881],[127.11095809893871,37.4737096002296],[127.1103149988228,37.473522499399],[127.11218959792109,37.4727262989624],[127.11269249713719,37.469414198292],[127.1119291979009,37.46682440059],[127.1098053000248,37.4668243005901],[127.1076458995407,37.465232803302804],[127.107697099793,37.4643571001104],[127.1116126996504,37.46375719742711],[127.1133936978694,37.4621373990469],[127.11579469763069,37.462988797790196],[127.12121689946,37.4615006979455],[127.12143249924439,37.4593898000564],[127.1200366996439,37.4589059005899],[127.1194880992765,37.4572667966526],[127.1208687010366,37.4588186965516],[127.1241496977556,37.4591378962324],[127.12430429831561,37.4524706009787],[127.12359169902821,37.451786301663],[127.1223629995423,37.4533254020449],[127.1210428994371,37.451835200522],[127.1222746985226,37.4506542005836],[127.1203435986624,37.4491017007648],[127.12076499921501,37.4443960044258],[127.1187858999626,37.443956902635406],[127.1182555902343,37.4429703045039],[127.1198030976263,37.4360436012675],[127.11826499905719,37.4329440992188],[127.1188338996353,37.4307229998495],[127.1201222999864,37.4292995996892],[127.1229968001545,37.4295440999469],[127.1221095012924,37.4299375005641],[127.1225781008238,37.4317993987022],[127.1241473992545,37.4313582991433],[127.12387869938121,37.4294939003455],[127.12563399827671,37.4253608005712],[127.1292962987903,37.4237934989477],[127.1291131998317,37.4217157998872],[127.1292963002946,37.4237934985964],[127.1311565997195,37.422604398134396],[127.1326399011571,37.4242828978319],[127.1312850023645,37.4273366979009],[127.1360298982687,37.4274428980056],[127.13610630011989,37.4283184989817],[127.13986820050019,37.428169798702],[127.1408070003253,37.428924299630395],[127.1402006013261,37.4297506994279],[127.14087960136331,37.4320549974977],[127.1420145007913,37.4327707969743],[127.14298119982459,37.432923196821896],[127.1444874983183,37.4307555989895],[127.1437780990277,37.429902099843],[127.1445420006802,37.4299448991293],[127.1455543006214,37.4340580979516],[127.14933670063641,37.4355147982762],[127.1489460009433,37.4370978986585],[127.15077940057951,37.4381056003617],[127.1502148011441,37.4399671985001],[127.15317829818059,37.441106397360905],[127.1560316004209,37.4395376968569],[127.1582252982272,37.437928598466],[127.15829319861841,37.434931798185],[127.15814920054369,37.4363723987255],[127.1593073993855,37.435716799381105],[127.1616803003415,37.435962899233],[127.1617205003228,37.436631599325096],[127.16549800023999,37.4372793999946],[127.1668241003685,37.4386428001324],[127.16635190043169,37.440167699330004],[127.1674156004469,37.442135199787],[127.16720500111789,37.4432573992311],[127.1702812026416,37.4477654995747],[127.1696340002636,37.4472122014119],[127.1687758998123,37.4485546006811],[127.1673627005935,37.4477592013122],[127.16729270066351,37.448999800071604],[127.1664170008882,37.4493320006075],[127.16815170015049,37.4509150986908],[127.16942250231139,37.450281199470496],[127.1728678001112,37.4534898000293],[127.1713061008213,37.45342870071941],[127.17037260175479,37.4555443986037],[127.1711003005758,37.456868900753804],[127.1687088007407,37.4583308003746],[127.1690704004913,37.4596231998472],[127.1680885005182,37.4616240005144],[127.1655496994835,37.4620862003378],[127.1650545999786,37.460555001869],[127.1632644008056,37.4625901004308],[127.1635578000656,37.4633552014351],[127.1632643995396,37.4625901007609],[127.1610566996119,37.4633327026794],[127.1590272012554,37.4623816033181],[127.1571618031208,37.4637244019753],[127.15539560051471,37.4632007021467],[127.1532369026734,37.465759399588],[127.1533068003543,37.467568999674],[127.154359501297,37.4683615006817],[127.1535371993081,37.4697266021559],[127.15180430092299,37.469793702100695],[127.1522952999761,37.472146200453196],[127.1509501004669,37.472788000308],[127.15068470020739,37.4739651005237],[127.1487145000406,37.4739996003347],[127.14864720042979,37.4748953996809],[127.1494309004726,37.4750607999328],[127.14838910014561,37.4757150002013],[127.147154299497,37.474165700732],[127.14543250082279,37.4747965999934],[127.1469860997726,37.476582899628696],[127.1491763003244,37.4765067991241],[127.1504773998367,37.4773457995041],[127.1512785994834,37.476622499299],[127.1525354999181,37.4769474994786],[127.1517593000813,37.4807617003621],[127.1502062010716,37.4814976003077],[127.1495365017413,37.483066698738604],[127.1507867004911,37.4842556975496],[127.1557761979719,37.4844768969437],[127.1591741003926,37.4830530979871],[127.1677512012006,37.4847620960337],[127.1701544051539,37.4825208969041],[127.16835660759949,37.4860355990904],[127.170578204737,37.4897826996812],[127.1737121016031,37.4906016988622],[127.1709570990284,37.493165902372404],[127.1701034992707,37.4896550031022],[127.1630248027373,37.493546801741],[127.16111810464399,37.4964304988573],[127.1641657019353,37.500151199787695],[127.16345820258829,37.5018966982554],[127.1652032008433,37.503649096503],[127.16798489965929,37.503979295872895],[127.1697205055457,37.5027932970062],[127.1679232025984,37.504089002072604],[127.1684700011086,37.5063641006579],[127.1678977998135,37.5040823028358],[127.1648679028434,37.5068225000956],[127.1677705007521,37.507317400561696],[127.1646094013555,37.5069085021157],[127.1636113014866,37.5088793006613],[127.1645819016033,37.5109600019439],[127.16403560214961,37.512948899955],[127.1671854012639,37.514772401169296],[127.1616733030289,37.5203337022716],[127.1631596009074,37.5260797998713],[127.1626646002716,37.5255086012705],[127.160943201993,37.525992700786404],[127.1622442009295,37.5278864005579],[127.1605312012449,37.5270211012282],[127.1609113008648,37.5296221986271],[127.1593668017382,37.5328886983121],[127.1637048001743,37.5318569997957],[127.16261870190439,37.5321434006174],[127.1635629009602,37.5350179977428],[127.1655529014903,37.5367605961733],[127.1681627988804,37.534064398869496],[127.1670085999952,37.5322600006325],[127.16417889970019,37.5317465999061],[127.1652499988319,37.5314027001587],[127.16547839828469,37.530014900899296],[127.16438649866451,37.528816198891604],[127.1659082981587,37.527271998679105],[127.1651072989043,37.524639000185],[127.1664628988158,37.5240566999924],[127.1660600001841,37.5231085992922],[127.1678863995639,37.523096496587904],[127.1692346033354,37.5253681994984],[127.1738669999946,37.5263586979053],[127.1783459031383,37.5289637962281],[127.177001500342,37.530314500523204],[127.1752614010217,37.530478701716305],[127.1743115019716,37.5339768982181],[127.1765622014679,37.5336666987535],[127.1784014020131,37.5374419986779],[127.1810903993241,37.53693959918029],[127.1809385995132,37.535798498497996],[127.18161839883341,37.535483498813],[127.1830413990183,37.536056298618796],[127.18383420024121,37.5350545982296],[127.18472040179961,37.5354398985788],[127.18573170013981,37.536255499855606],[127.1860512998202,37.539667096444],[127.18748410063601,37.541018994073596],[127.1925200956,37.536598298494305],[127.1885385998059,37.5341175000506],[127.18928219937919,37.5343846996106],[127.189725599692,37.5332098940151],[127.1939348986236,37.5318944979254],[127.1940949991102,37.5273115988771],[127.1955492980112,37.5254874002254],[127.19449109791529,37.5242999994887],[127.19536669853129,37.5244446981555],[127.1977576961403,37.5224308001694],[127.1975363976255,37.521593199056895],[127.19796990089961,37.5237722986046],[127.1992728995966,37.5225462998306],[127.199193000455,37.5215625991313],[127.1998899009205,37.52249439987],[127.19892540188499,37.525189397175005],[127.1996259037742,37.526809498066],[127.2032839001162,37.526334898540604],[127.203365001221,37.5273032983592],[127.2051854994005,37.5274695981929],[127.2081852992911,37.525685196889896],[127.2118210013158,37.5261193964458],[127.2151066032126,37.5308891983886],[127.2145481017077,37.5331419983297],[127.21633079992499,37.5329838984878],[127.21732300099619,37.5317900974877],[127.219922399016,37.5309787996415],[127.2212487980618,37.529217699176094],[127.22066450003919,37.5277493992618],[127.2212488001757,37.529217698587495],[127.2217606998328,37.527452299636],[127.2274334994688,37.5247816989541],[127.2286407020898,37.5255509993652],[127.2289665022538,37.5280045985225],[127.23113360008671,37.5288055977215],[127.23576929545101,37.5291084974186],[127.23663689409359,37.5282588966573],[127.2378802009339,37.5284979973648],[127.2427561021663,37.5325420979543],[127.23993800410689,37.5358014966965],[127.2444414016778,37.5402402996849],[127.2389038998864,37.5425720042855],[127.2366958008094,37.542707000278],[127.23576780302251,37.5444320024255],[127.2285072079272,37.5473879051806],[127.2204854122869,37.5554117052233],[127.218398110485,37.5584451090672],[127.2159391008947,37.5580612014333],[127.214879799654,37.5596391008746],[127.21520409904029,37.558797500419296],[127.21381889991001,37.558509500094196],[127.2148959990605,37.5579679999554],[127.2139686999878,37.5560789018445],[127.2108015018769,37.5584606002436],[127.2099114014668,37.559610900560806],[127.21078680059139,37.5613348988368],[127.2117085009142,37.560779199874396],[127.21225010122261,37.5636539994593],[127.2083560009401,37.5697108005643],[127.2096900056326,37.571144807120696],[127.2053602049595,37.5766483053933],[127.1993475045338,37.5814320065178],[127.1993538988481,37.5794507016276],[127.1977137997375,37.579591400996996],[127.19563310181819,37.5809257996626],[127.1963719000375,37.581626300364],[127.1924012003808,37.5821966004424],[127.1911228969411,37.5831882090675],[127.1878875998474,37.580018301446096],[127.1834704999106,37.578688400949595],[127.1794254002776,37.5783674000971],[127.1787877964955,37.5805075060844],[127.17922689959781,37.5775018006676],[127.17850369989209,37.578135000666904],[127.1729292011698,37.5764434011123],[127.16943639683869,37.5781922054845],[127.1670649989606,37.576335297301],[127.1682642001837,37.5771679981277],[127.1710308001361,37.5733391988461],[127.1720355995222,37.5683812006779],[127.17054249773929,37.5677769994806],[127.17190139936599,37.567064898549],[127.1723972989867,37.5655441994511],[127.1694480010275,37.563786201366206],[127.1615194008121,37.5675019003681],[127.1598017025298,37.5696473982226],[127.1610240013075,37.5711337967362],[127.1625003009143,37.5711477015713],[127.1610239995694,37.5711338002444],[127.1598017007917,37.5696474017308],[127.1569199011667,37.571781608007],[127.1549973979668,37.568858899638805],[127.1531729991934,37.5683413987432],[127.153424600314,37.5667832984468],[127.1531730009919,37.5683413994509],[127.1542491999553,37.567934899814],[127.1565685993065,37.5697160989805],[127.15697109895191,37.5674213011868],[127.15482039949211,37.5675464998859],[127.1569710985636,37.5674212991112],[127.1569408995552,37.5632284009056],[127.15644050005561,37.562913301220696],[127.15571299806071,37.5639192011354],[127.1547888989848,37.5627120023426],[127.1519815994577,37.5620344030392],[127.1485801006775,37.5640752011092],[127.1484019000982,37.565606200279795],[127.147317001228,37.5663045003535],[127.1430426026123,37.5628965036991],[127.1416350031153,37.5667664076951],[127.1330543004463,37.5679201053498],[127.1305230029776,37.570850902419004],[127.131205101738,37.5741015002495],[127.1330527999856,37.574973500837096],[127.1275832010435,37.5743789023931],[127.12567060052541,37.575477099916704],[127.1251650009296,37.5769448039693],[127.12336809789299,37.5765769002524],[127.1236417983818,37.575673097936004],[127.1260384994178,37.5748936000261],[127.12656839913559,37.5732163994869],[127.12594849975551,37.572085300618],[127.12503959900269,37.5710372019244],[127.12100170037009,37.5717626019892],[127.1193700002516,37.569423802390105],[127.11668730088509,37.5691131032461],[127.115040402532,37.5709733013859],[127.11516489721869,37.572034803654695],[127.1137049986786,37.5696897059998],[127.1073445050391,37.5731159025736],[127.1093112030724,37.576406999282504],[127.1133067008379,37.5761769993515],[127.1132866012937,37.5786868974972],[127.1144081025984,37.5789841973611],[127.1132865997494,37.5786869021089],[127.1121080004367,37.580710802106296],[127.1078027021031,37.5830372022293],[127.10790920199659,37.5846502006163],[127.1097703001355,37.5854895997769],[127.11012010290061,37.5871170001798],[127.1069367021586,37.5882577036415],[127.1052505038448,37.5906566012426],[127.108238300857,37.5931303987688],[127.1094379023784,37.592624998314896],[127.10823830138959,37.5931303997183],[127.10757850327221,37.5971895979769],[127.11193379891691,37.598872796293705],[127.1122775019017,37.6002551986143],[127.1156866022967,37.601709900736104],[127.115589402709,37.603859200737205],[127.1136726006584,37.608510601275604],[127.10993060107,37.609846602363696],[127.10851960039159,37.609575302162405],[127.1074070995881,37.610829902145],[127.1033386003437,37.6125068001845],[127.1036053000133,37.613447901423896],[127.10255989953531,37.612684601439604],[127.10166250043271,37.612991201133006],[127.1017923005845,37.6150558008293],[127.09998830053911,37.6142038020526],[127.0959453009103,37.6156769008515],[127.09503680181881,37.616855399673],[127.0980258004099,37.618467099688495],[127.098064401194,37.619567700769],[127.0946246013418,37.6224168994021],[127.0943282021374,37.6242320978957],[127.0969165001907,37.6251872973374],[127.09774469936251,37.6244411980835],[127.0989028000676,37.624833798381395],[127.09889990048221,37.626012300239],[127.0971052014114,37.6259833011744],[127.0960153014725,37.6279506022479],[127.0931043985058,37.6273967014448],[127.09158329941249,37.6286224002434],[127.09147849835989,37.6258008006869],[127.08917990065851,37.62545770103],[127.08873800134981,37.62681340200891],[127.0866586034292,37.6269147019076],[127.0851392049741,37.6280321011501],[127.0828584072549,37.632462896719304],[127.0802391013381,37.6352393991228],[127.081686301233,37.6378777028082],[127.0787162042031,37.6375140031719],[127.0771401057792,37.6381066025793],[127.07645000561959,37.6444480010963],[127.0742197018257,37.6462836012862],[127.0742541018747,37.648468600346504],[127.0725616017234,37.648926599920905],[127.0745668008832,37.6507081999818],[127.0729398020181,37.651458400730704],[127.07389380151449,37.6534368001143],[127.0724265005328,37.6518892017938],[127.07104580108809,37.6530893010083],[127.0717057004282,37.6541949999026],[127.0709777009223,37.6561153990805],[127.0747302007308,37.6565453980759],[127.0751302006108,37.6581627989071],[127.07689979884121,37.658346898722996],[127.0768234013221,37.6572014991265],[127.0768998012457,37.6583468979811],[127.0799137000703,37.661201795165],[127.0801610007805,37.6625331030493],[127.0780127007308,37.6632770025506],[127.0776374011061,37.665773200054396],[127.0767089004513,37.664509601237405],[127.07563670107831,37.6648896010319],[127.0757040981644,37.6657673026991],[127.0722065997598,37.6649919007008],[127.0711982004617,37.665528900390996],[127.0701837993383,37.6641720005362],[127.0703640995508,37.662570200350096],[127.06930159961941,37.6626528002585],[127.0696029990238,37.662070299960305],[127.06776980059189,37.6605391006601],[127.0680296001066,37.6614769000988],[127.0673215002587,37.6608781007942],[127.0666507005872,37.661434000387096],[127.06647030033851,37.662904599536695],[127.06792500075541,37.6636972994052],[127.0677620003965,37.6648374004885],[127.0662773011054,37.6650075999121],[127.06713440017,37.665875100756104],[127.0663401002527,37.6667714002716],[127.0638506002684,37.6670863000668],[127.0625659011957,37.6684805011311],[127.06273470119349,37.6706181000701],[127.05901249948589,37.6703794008474],[127.0578641006343,37.6714908997359],[127.05817910122211,37.673674999497806],[127.0614094003614,37.6744272993541],[127.0602831016902,37.674987299736195],[127.06071300126031,37.6789550957684],[127.0628283021245,37.6795375987975],[127.06071299870531,37.678955101415305],[127.0588576005607,37.6799825003879],[127.05846890151639,37.6827707996192],[127.05648499914709,37.6823255019836],[127.0549575006746,37.684008400300705],[127.0554024005409,37.685282201634],[127.0547965994551,37.683410301330696],[127.05216399883331,37.6819282013381],[127.0530974980072,37.680374101302604],[127.05159359951111,37.6794419022348],[127.0505556005058,37.6804711012165],[127.0508869999085,37.6817291001359],[127.0505556002081,37.680471101276396],[127.0476961998085,37.6807066010129],[127.0473067990275,37.680142700474995],[127.04929529805909,37.678363599404896],[127.0487497000632,37.6770063990323],[127.049487899325,37.6774735985651],[127.0508113980015,37.6765197995189],[127.05066599814691,37.6750585009802],[127.0518317992982,37.6733636992976],[127.05394719912769,37.673587398924205],[127.0540309989442,37.670701801321805],[127.0522858995678,37.67089310005],[127.0540309983745,37.6707017998989],[127.0541305982749,37.6700125005882],[127.052313099269,37.6701227005009],[127.05123139968451,37.6679879003827],[127.0506002995987,37.6684087005769],[127.0499303986924,37.667265400663],[127.0514050982973,37.6664222993671],[127.0522848984624,37.6642273000307],[127.0521541985931,37.662824401433596],[127.0505458984131,37.661942799513795],[127.0522286987085,37.6616365993311],[127.05280379887151,37.6599755985317],[127.0540032998616,37.6614164974777],[127.05513189873301,37.660946197948],[127.0574935980547,37.6574650986444],[127.0595166994343,37.6579314989639],[127.06069259894099,37.6567556996192],[127.0600529990542,37.655578800042],[127.0551602000553,37.6546730003068],[127.05457730031131,37.6539608008343],[127.0534961001015,37.6546753000355],[127.05192400118369,37.654113901676],[127.05144590166181,37.655671900118],[127.0533451008644,37.6562566005609],[127.0514458982856,37.6556719013723],[127.0505713997228,37.6539770015684],[127.04869119907559,37.6526784006632],[127.0489987984012,37.6517581977196],[127.0514283981049,37.6521253948232],[127.0518665976667,37.6461100008386],[127.0526211984792,37.645147200275694],[127.0516003995904,37.6445264989801],[127.0546669992211,37.6445499995607],[127.0540206998445,37.6426054982425],[127.0562319980491,37.641846298698695],[127.0574995988511,37.6422597985449],[127.0579394996013,37.6399080997662],[127.05996889929101,37.639902298540704],[127.05996569929421,37.6383001001429],[127.0590635974176,37.638063100714],[127.0573737995169,37.6353425005093],[127.0583956984544,37.634755499525],[127.0573906995616,37.6330061000277],[127.0584816998207,37.632547699800405],[127.0587062999342,37.630129500082305],[127.0576903998646,37.6293581020772],[127.0559873992218,37.6300403016486],[127.0557589996255,37.6281489988025],[127.0588267004888,37.6283188991971],[127.0590703003345,37.6297151990737],[127.060191799213,37.6300279987609],[127.0609702991511,37.6270695990024],[127.0633954992232,37.6235564988081],[127.0648199977987,37.6230522993123],[127.06217099908811,37.6204973009583],[127.0628405996853,37.6206744994518],[127.0638311986947,37.6182648018615],[127.06166849980869,37.6183553013641],[127.0609986994393,37.617498400871405],[127.06005569957831,37.618009300191],[127.0586870995726,37.6168987003387],[127.05927269930619,37.616753599953],[127.0574768993602,37.6136213998724],[127.0579809988561,37.6125592009346],[127.0563199997736,37.6115100015897],[127.0553424007512,37.612440700659],[127.054567400372,37.612067101079695],[127.05340000066779,37.6142700000621],[127.0549557997838,37.615180899322596],[127.0558658009709,37.614407799175005],[127.05531000051481,37.6157900006979],[127.050810200101,37.6158606002034],[127.0512104994332,37.614141600334804],[127.0503510996822,37.613383900002205],[127.0510559992593,37.6135788991075],[127.0523441979711,37.6118483008381],[127.04755229993671,37.6117676002796],[127.04747189940281,37.6104137001156],[127.0455006008746,37.6094751010943],[127.04550179953739,37.6113283002424],[127.0449092986643,37.608211000274],[127.0431007988755,37.6075356011547],[127.0418878000885,37.6077979008924],[127.0417753002811,37.608822001344905],[127.0389388000353,37.6049594009384],[127.0377247993333,37.6066633004545],[127.0383659997283,37.605038200948904],[127.03661680044131,37.6069480001698],[127.0363550998209,37.606127400352],[127.03338290038441,37.6069267008737],[127.0331685005988,37.6081515996488],[127.03499880030779,37.6089608993605],[127.0348529008785,37.610225599553196],[127.0360322010078,37.6121054005446],[127.03497920029899,37.6167777006715],[127.0329703999925,37.617141501515405],[127.0315959000123,37.6191795006405],[127.0307018001717,37.6187603004816],[127.0278773005785,37.6195523006684],[127.02515059936471,37.6181687999314],[127.02511829960591,37.6168501002615],[127.0237783988818,37.616249499473405],[127.0241215994144,37.6124594004987],[127.0212935003957,37.611184901189],[127.021366499499,37.6096576014484],[127.0187163990264,37.6085803998972],[127.0172012005416,37.606729201748394],[127.015810600598,37.6074471017737],[127.0150702004041,37.6095155007687],[127.0141236003526,37.6091550005679],[127.0130707008171,37.6101682002044],[127.0143034005122,37.610954399207095],[127.0135822007846,37.611507500056504],[127.0140493004666,37.612244000312394],[127.0133798001818,37.6120634008065],[127.01299130084459,37.6132705002466],[127.0119977005939,37.6136012008851],[127.0111616001899,37.6163401007123],[127.00959610128379,37.6166604997841],[127.0087395003063,37.617734300831],[127.0077118989671,37.617252800474105],[127.0088497989148,37.6162320991743],[127.00871199905261,37.6140185013879],[127.0062352015294,37.6139570014494],[127.0052881015451,37.6166560008899],[127.0042951996309,37.617187200092694],[127.0031696997683,37.6161478994269],[127.0046676985289,37.6159391992278],[127.0032538997456,37.6143243004779],[127.00231119922479,37.6146984000652],[127.00109069993971,37.611383999985],[127.0039562994653,37.610097199316],[127.004581800391,37.6084998991499],[127.00508820057911,37.6091430990665],[127.0059113997559,37.608627599582],[127.0062326994407,37.6077503999349],[127.0055458992494,37.607461299004996],[127.00700539921199,37.6043102006632],[127.0058836986015,37.6028497988377],[127.00755579896871,37.5988738003678],[127.00656269843681,37.5964715009283],[127.00861529751761,37.594597800826804],[127.00804529808761,37.5937792016454],[127.00734439878849,37.5932470021776],[127.00568430044859,37.594042001382604],[127.00478440053861,37.5936357015382],[127.002900400889,37.5948749021129],[127.00272749997481,37.596951300754],[127.0006415002619,37.5957500006073],[127.0001551007483,37.596246300111],[127.0007418998286,37.5967202003474],[126.99765630008321,37.5960496009417],[126.9964499995584,37.596760000623206],[126.99563399996029,37.596245800165796],[126.9958350997696,37.5949507005757],[126.99414449942701,37.59466050003191],[126.9958421989577,37.5938946996693],[126.99423669928021,37.5926121002873],[126.9949565989695,37.5915978003978],[126.9933326002435,37.591064600731805],[126.9926879994123,37.591984600369905],[126.9922616995853,37.590234300618],[126.99157609960041,37.5904177000113],[126.9915992991162,37.5895841004652],[126.990612199399,37.589560000590495],[126.99007739954351,37.5884345002232],[126.9909522988995,37.5875129003045],[126.9903163995354,37.5869105009069],[126.9878049011337,37.5855781020267],[126.9876395007247,37.5861909013287],[126.9866688007279,37.5848875012795],[126.9851189997429,37.5864905011385],[126.9851643993838,37.5842361014384],[126.9842066003416,37.5845286011459],[126.9838484004308,37.5857928010417],[126.9827859999295,37.5852685000767],[126.9826856998356,37.5842401002754],[126.9821256001252,37.584836100428696],[126.98064549972659,37.5838666006362],[126.9794497991298,37.5842805998155],[126.9802379993022,37.581921800703704],[126.97759839985771,37.5825002003362],[126.9777016994583,37.581781400546895],[126.9764267007333,37.5817559005724],[126.9764507006458,37.5828341996181],[126.9771913999262,37.5829149003212],[126.9754166995802,37.5837618006565],[126.9749579990518,37.5830084008759],[126.9727466000801,37.584556601559],[126.9703764999261,37.583843600440304],[126.9694531992149,37.581805000818704],[126.9684649002032,37.5815273010964],[126.9677153007482,37.5825101007663],[126.9661023999101,37.5808722004472],[126.96642899931281,37.5780193013883],[126.96458349873241,37.577333401367],[126.9627247005912,37.5770263016741],[126.9619682013477,37.5782515004489],[126.96005150111671,37.578303700694],[126.9583586000396,37.5797280007094],[126.9574592985793,37.577618400932195],[126.95618659985199,37.5771379014127],[126.9549436999455,37.577677101264605],[126.9541088007804,37.578319800621905],[126.9545960034138,37.5808823992109],[126.9534842014712,37.5816037024847],[126.95258970172411,37.5834172011021],[126.9528197015352,37.5852067016014],[126.9517965015888,37.5865170017857],[126.95025419928861,37.586173002729005],[126.94895250059031,37.5873783015237],[126.9476930996523,37.5868707010498],[126.9465157997162,37.587851900341995],[126.9440869005362,37.5880925004182],[126.9419910014527,37.5909051996989],[126.9430281000173,37.5920395004241],[126.94114210040509,37.5918310001967],[126.941015000287,37.5927026007515],[126.94132019937571,37.592069100625004],[126.9401253992358,37.5912745999446],[126.9409271990125,37.589164999841],[126.9406139998807,37.5861882998957],[126.94240969946149,37.5861246994302],[126.9444021998449,37.5848032996313],[126.94403010086421,37.5859922994599],[126.9456399993099,37.5861977992732],[126.94609729961631,37.583756900489696],[126.9448804997438,37.584267100285395],[126.9450735997998,37.5836781997291],[126.9467551999927,37.5836078977545],[126.94940889839249,37.5820240984203],[126.9498025973321,37.5773065996156],[126.9516506983692,37.5771154988088],[126.9519254990538,37.5736519973158],[126.9524921005711,37.574946498129606],[126.9548984996727,37.574789798263595],[126.95615339843211,37.5712172999116],[126.9546039991645,37.5710920994703],[126.9561279987617,37.5711444992332],[126.9571904976992,37.5699478004299],[126.95533639955329,37.5683643020134],[126.9547735001162,37.5688051015726],[126.9554348979179,37.56741799979],[126.9543928989599,37.56639800081],[126.951571099579,37.5649305000354],[126.9518893994638,37.5610592000961],[126.9493240009438,37.560182100697496],[126.9491297015283,37.561458901672],[126.945180800361,37.5632140014101],[126.94517209838949,37.5611305016407],[126.9410402995201,37.5613792004503],[126.93950700000441,37.560130700277],[126.93735139971619,37.5621541000619],[126.9358170001254,37.5603498004203],[126.93334879960341,37.5607004001818],[126.9328020997193,37.5595926006026],[126.9299637999293,37.5589048003021],[126.9281737001987,37.560795600278496],[126.9276560003384,37.560500000496],[126.92713759977309,37.5619243001685],[126.9234154001241,37.5610769007201],[126.9232206999156,37.5617924006528],[126.922150099791,37.561458600789],[126.92232609971131,37.5607202006741],[126.9203491002294,37.561014700661],[126.9195032996229,37.5598705003688],[126.9198968988849,37.5574227001057],[126.9185573996637,37.5554164999449]]],[[[126.93488019864759,37.5131473017455],[126.93575630051389,37.511778999104095],[126.9376523990587,37.5124467995684],[126.9371762990939,37.5114694994136],[126.9401359989234,37.5091908999178],[126.9393995998559,37.5051786008074],[126.93802050123499,37.5048081011779],[126.93723570162871,37.5067311014349],[126.9366592997882,37.506475900106395],[126.9372356994164,37.506731099302606],[126.9375201991319,37.5054428005909],[126.93605299930181,37.5058819999178],[126.93587889898181,37.5029379998077],[126.93673820013139,37.502592499803896],[126.9368041000655,37.5034969988994],[126.939149199444,37.5036245975637],[126.9406298004246,37.5019651995036],[126.9404114007343,37.50276859974],[126.9430197997508,37.504429199064894],[126.9442709991652,37.501858199604],[126.9451936993694,37.5018334994529],[126.9447979997651,37.5004497008367],[126.94338359896341,37.5012058001002],[126.9447979982492,37.500449699354895],[126.9443147994422,37.4994194998878],[126.94515610006711,37.5005295990323],[126.94747500013679,37.5005882997599],[126.94730490042251,37.5019249987743],[126.948331399396,37.5008529998463],[126.9476671994292,37.4996970993922],[126.95055859946059,37.4997384991149],[126.9490034980987,37.4963654002728],[126.9490690994359,37.494838899864995],[126.9492612007619,37.4954947993006],[126.9510288989942,37.4955070992883],[126.9506701993529,37.4940359007595],[126.9488624995303,37.493671500855],[126.9493756994358,37.4929831994042],[126.9508159002997,37.492546199219],[126.9522691995335,37.4942072981385],[126.954169898717,37.4916486998534],[126.9532340998482,37.4910703992254],[126.9549176003554,37.4920863985596],[126.9564069998091,37.4905482995557],[126.9582104006264,37.494451999671],[126.9609436013585,37.4947589989345],[126.958450700659,37.4966671007405],[126.95863599957259,37.4949792009545],[126.9568797001009,37.496175800186805],[126.956498099954,37.494870100607],[126.9555127009394,37.4951665003106],[126.95561010044901,37.4977701990521],[126.9573397000815,37.4974236000353],[126.95361950282211,37.4995806008793],[126.9546992025969,37.501165202205506],[126.9535939000934,37.5016963009201],[126.9530147001156,37.500895200769605],[126.95226110086921,37.501182300482505],[126.95197920108849,37.5023475997377],[126.9535150010241,37.5033661002153],[126.951750900959,37.5038161999178],[126.9524407008746,37.505291401391496],[126.9509760005522,37.506503100375305],[126.9487141005915,37.504573701881704],[126.9473913010772,37.506251500599],[126.9478148995415,37.5067395013871],[126.9459893996261,37.506757201340605],[126.9461244987787,37.5060560002564],[126.9427216004451,37.5052079007044],[126.9426627008848,37.5061483005922],[126.94129030098401,37.5059092010371],[126.9409920007717,37.5074317999462],[126.940054800725,37.5074971004965],[126.94165050048089,37.5093553996592],[126.941249200938,37.5099407995707],[126.94204640074659,37.5113382985806],[126.94460430009319,37.5099850984595],[126.94566870094,37.5103890002107],[126.9453143015329,37.5116636996085],[126.9472442007335,37.5118888994859],[126.9485912998151,37.5135073994891],[126.94994669833059,37.5109684996026],[126.9510504999775,37.5120345979281],[126.9532808994797,37.510618798158404],[126.9544215002009,37.510760098371996],[126.9559361013383,37.5113664999714],[126.9563875002225,37.5138507000424],[126.9535596013978,37.51275300166849],[126.95310400185339,37.5146102998112],[126.9497333976246,37.5153151013022],[126.9514368982328,37.51441859955],[126.950155699514,37.5126453013233],[126.9460374003492,37.5144054016236],[126.943239299921,37.513091100578194],[126.9426760001494,37.513797100180795],[126.9392270009524,37.5137152002702],[126.93913020035829,37.5144439002129],[126.9383625999079,37.513099600264795],[126.9376676000766,37.5130788002582],[126.9373216005244,37.514139100150004],[126.93488019864759,37.5131473017455]]],[[[127.1199118977446,37.4126416009487],[127.12019619955639,37.411142299641405],[127.1215950987468,37.4116078991994],[127.12275939758251,37.4099011009062],[127.1210486997646,37.408700599846505],[127.1227624993295,37.409221599022004],[127.124716298336,37.408104900049196],[127.1243155992822,37.4071121988663],[127.12853490013791,37.4048947977991],[127.1349276002039,37.4085558988508],[127.1338801005636,37.4085525002687],[127.13387110057259,37.4094479993732],[127.13595860080589,37.4096589999885],[127.1354791008835,37.4129822995719],[127.1368880005788,37.4136527996967],[127.135023100367,37.4145921008711],[127.1344454009447,37.415208800254405],[127.1354367001898,37.4158987004223],[127.1339288013081,37.416787901915406],[127.1310893003883,37.4168928018817],[127.1306428008362,37.419083599983],[127.1291543014753,37.4191008003829],[127.12891760059959,37.42006860115],[127.1273346996097,37.4197816008938],[127.1247381002202,37.4169307006507],[127.124458099487,37.4174616003747],[127.12351909945879,37.415639600896796],[127.1225456986634,37.4154870004165],[127.1199118977446,37.4126416009487]]],[[[127.12196279940531,37.394730099887994],[127.1227923999529,37.393722499389405],[127.1243350990534,37.394857898668896],[127.1250470983414,37.3929932005336],[127.1238430998803,37.3928562994915],[127.1245170992661,37.3921590991841],[127.1251469999975,37.392962498867206],[127.1265659001144,37.390746299424904],[127.1279027995998,37.3907169995266],[127.1284149999303,37.389421699496],[127.1304011002174,37.3935031994421],[127.13289259954941,37.3914897993294],[127.1335042005487,37.3917911002727],[127.13212420098341,37.3930145009716],[127.13260290016099,37.3942119003409],[127.1308102021685,37.395725799458404],[127.1319671005821,37.3985505990346],[127.1339662995609,37.3974103997221],[127.1343398006466,37.397960100250096],[127.12950369984411,37.401898200652],[127.12902249959801,37.4013713006812],[127.1284374,37.402481000259],[127.1284153994569,37.3993385007946],[127.1266913999979,37.400963200445396],[127.1251957984734,37.399311400159505],[127.1252663990647,37.395102301391496],[127.124335099996,37.394857901635895],[127.1234203995665,37.395757100371],[127.12284060030241,37.394434200864],[127.1219843002517,37.3952875004662],[127.12196279940531,37.394730099887994]]],[[[127.13428189956771,37.6055503002629],[127.1353465992094,37.6022675997058],[127.1361957993467,37.6026707990128],[127.1348307998537,37.600726699876205],[127.1367412995461,37.5998972993222],[127.1382649992359,37.597596099729294],[127.1397551996719,37.596837399565096],[127.1427721000469,37.5975708992584],[127.1437396010178,37.596898699349694],[127.1445911006842,37.598324299141],[127.146174699918,37.5989992986024],[127.1459958003687,37.599692899410904],[127.14975359898929,37.599711998004],[127.1509099009349,37.598714099309],[127.1498720005172,37.6014187010456],[127.1488978014914,37.6019699004944],[127.1477194010561,37.6060699003842],[127.147795500894,37.6070817997736],[127.1492356002162,37.6079670000493],[127.14824450053071,37.6095383002616],[127.1469431000406,37.6092636009968],[127.14677750015579,37.610256200448],[127.1450573014946,37.609275701631496],[127.1439999024795,37.6105478006605],[127.1431365996513,37.6095251006481],[127.1415809997726,37.6109792001944],[127.1393653993964,37.6105599002937],[127.13710649936961,37.606950200838],[127.13428189956771,37.6055503002629]]],[[[127.1552270988261,37.6091862998873],[127.1562716993083,37.607459000439995],[127.15540489978879,37.6071833999389],[127.1583680000453,37.6060383998745],[127.1571891001839,37.6086461997994],[127.15908209981741,37.609436199615],[127.1601534999897,37.6087630996745],[127.16321790000731,37.6100913990025],[127.1646413001154,37.609000199524],[127.1662046003235,37.6097548997793],[127.1657099002794,37.6102839000097],[127.1666365007783,37.6105500002917],[127.1674891010384,37.612896599452],[127.16340600040739,37.613583300662],[127.16195409970881,37.614612100533805],[127.1616563990406,37.6135509011649],[127.15989340026181,37.613762301148995],[127.155370098504,37.6115798006766],[127.1566441991738,37.610536500227404],[127.1552270988261,37.6091862998873]]],[[[127.0091359997724,37.6188826000302],[127.0103243002319,37.6194361992467],[127.0130752999732,37.6178427994713],[127.0147356001219,37.619069399120804],[127.0154029004969,37.617162099262],[127.0176310005533,37.618904598603],[127.0195238001104,37.6192935996776],[127.0217945001438,37.618538799466506],[127.0211977004669,37.6190011997352],[127.0222742006608,37.618889000232606],[127.02263710069249,37.621288099432604],[127.0240285008756,37.6216218997992],[127.02262090045201,37.6215031000193],[127.0229442002625,37.622372899784004],[127.022042900132,37.6230433002343],[127.0216242002606,37.6225461005731],[127.0212707999798,37.623386400228604],[127.01974170016099,37.6230807008696],[127.0185639999044,37.623990400629],[127.0181658995339,37.6225044003658],[127.01744699973631,37.622520100102705],[127.017801199324,37.6218883005562],[127.0159810003196,37.6214072005505],[127.01546040042349,37.6221464998901],[127.0160721002014,37.6222992005934],[127.0140569002642,37.6219049006762],[127.0140272002779,37.6228718006192],[127.01314339978751,37.623077700586],[127.01179589858219,37.620052601105904],[127.0091359997724,37.6188826000302]]],[[[127.02059799944911,37.6248558005746],[127.02790080031819,37.621565699245295],[127.0287672009365,37.6227955002282],[127.0285228010386,37.6243692990981],[127.0298942004416,37.6243657996028],[127.0298446005754,37.625490999179],[127.0308407010381,37.6262994002189],[127.0299057006027,37.6277358997922],[127.0303079000592,37.6283563005012],[127.0282747001847,37.6272117004949],[127.0244799997264,37.6310030007435],[127.02080049956561,37.626647800826],[127.02059799944911,37.6248558005746]]],[[[127.1194423986438,37.3839766012078],[127.12182150015559,37.381897699652704],[127.1231466000713,37.3841166984571],[127.124153600483,37.3836111996256],[127.1233080002759,37.3840916000985],[127.1247879001839,37.3846432997529],[127.1243287008985,37.3849605997278],[127.12541259981461,37.3863736983147],[127.1271747011767,37.385798899437795],[127.1280471000656,37.3877704000436],[127.1259546999011,37.3867567008882],[127.1241141003085,37.3890310004788],[127.1231103994263,37.388456101329496],[127.1213263994581,37.3888430020436],[127.1197975995868,37.3875513000191],[127.1206030994841,37.3868697999907],[127.1194423986438,37.3839766012078]]],[[[127.0341767997795,37.4681131999699],[127.0356868989424,37.468500499299495],[127.0347461992051,37.4673747999218],[127.03546499993641,37.4669890991373],[127.0371948993662,37.4676061987404],[127.0377013000133,37.4665742991066],[127.0432773002146,37.4652038998113],[127.0441095003605,37.4713678001315],[127.0416061997408,37.4739958005327],[127.03856110005279,37.473897200157104],[127.03792709902241,37.4736411010604],[127.0385387993576,37.4716692006175],[127.0352108999865,37.4714730009007],[127.0361413994387,37.4701871998212],[127.0356662999138,37.4689290010794],[127.0341767997795,37.4681131999699]]],[[[127.0218904996814,37.6389839999725],[127.02281979914949,37.6382725001146],[127.0220351996565,37.6378092999756],[127.0228636993515,37.6378870996474],[127.0231435991899,37.6366238004518],[127.0224159993556,37.6362688999728],[127.02315710006971,37.635176299901],[127.0289453005051,37.6359175000366],[127.0287839004686,37.6393186002691],[127.027013499736,37.6404043012057],[127.0234318999522,37.6406087004073],[127.02359539955741,37.6391098006371],[127.0227300004228,37.6390400007069],[127.02265319994679,37.6397136004664],[127.0218904996814,37.6389839999725]]],[[[127.04111689958691,37.6880742998615],[127.0439266990204,37.6864971993882],[127.0437337991851,37.6854322993548],[127.0475804994244,37.6853948989991],[127.05065280077599,37.686312300243294],[127.04935970168479,37.688310301057],[127.0490979000824,37.6906910002721],[127.04653780066559,37.6905444009],[127.04492410000961,37.692695800936704],[127.04221479953179,37.6909259999086],[127.0433806997919,37.6917409984405],[127.0446404998376,37.6910992990451],[127.0453883997586,37.688959600518196],[127.0423513994877,37.6889867003892],[127.04111689958691,37.6880742998615]]],[[[126.9095104993048,37.5491834997386],[126.9092207999098,37.5485565992687],[126.9104001998427,37.547578699066904],[126.9122173995229,37.547312199435304],[126.91203129940449,37.546312099551905],[126.9141034995843,37.5472761989838],[126.91450000025431,37.5466595993791],[126.9144384005042,37.5471866993464],[126.9175096999665,37.548102399452695],[126.9163410005665,37.5498524000681],[126.9171237009965,37.5520289007382],[126.9122130001708,37.552761101063],[126.9098620998555,37.5504840006544],[126.9104518992335,37.5492433000826],[126.9095104993048,37.5491834997386]]],[[[127.11123999928539,37.376275900853905],[127.11357470107271,37.3773077989367],[127.11507259987171,37.3771427993876],[127.1156136998831,37.3761582988009],[127.1167182001327,37.3769360995037],[127.1175501009384,37.376227199957],[127.1179166003379,37.377568400330304],[127.11695690124941,37.3803723996478],[127.1176988005172,37.3809850007756],[127.1150016010348,37.3795841016107],[127.1143413013026,37.380256301460896],[127.1130298996047,37.3795980009928],[127.1118335998082,37.3805634003552],[127.1122627987953,37.3784848991295],[127.11123999928539,37.376275900853905]]],[[[126.9325649992216,37.601123899605],[126.9334537003709,37.600343299123196],[126.93380500108081,37.6010110987971],[126.9359716993215,37.6008037991567],[126.9377039004607,37.5988706998983],[126.9354502004176,37.6021604998816],[126.93644920079859,37.6026981003208],[126.9351513998965,37.6028687001354],[126.9338340001117,37.6012918015825],[126.9328246004144,37.601837700211696],[126.9325649992216,37.601123899605]]],[[[126.9078757997249,37.555416199957605],[126.909948599797,37.5552297995399],[126.9099248998722,37.5546357995027],[126.91163979931311,37.555003499379296],[126.9117341995801,37.5542669983922],[126.9125028004015,37.5559269000488],[126.9088687999697,37.5574462000354],[126.9078757997249,37.555416199957605]]],[[[127.0763157986336,37.670971200023295],[127.0779719998628,37.6676819989447],[127.08196050070869,37.6686375998181],[127.08308890034691,37.6702717998831],[127.08151050075519,37.672846500404],[127.0794465004343,37.6733267005749],[127.0782950993036,37.6731112002455],[127.0763157986336,37.670971200023295]]],[[[126.9207425989115,37.5194574998213],[126.9242141007347,37.5213284970824],[126.9263736999171,37.519304497969394],[126.9273902010287,37.5199473989417],[126.92683050110759,37.5214189988585],[126.92813600072519,37.5240903998836],[126.9264292991672,37.523230900894],[126.9255666998845,37.5240979001645],[126.9230790004834,37.5235045014606],[126.9213957002719,37.5245393010403],[126.92154279973529,37.5237184007413],[126.920482599776,37.523045799999096],[126.9213231987118,37.522164199203196],[126.9207425989115,37.5194574998213]]],[[[126.91211329954061,37.5181116995479],[126.913792298779,37.5171527991615],[126.9181634008005,37.5175957012151],[126.9160261001887,37.5176202003202],[126.9137123997359,37.5188996009724],[126.91211329954061,37.5181116995479]]],[[[126.9874359989174,37.4609114995024],[126.9889542997832,37.4622149977642],[126.990938202631,37.461865801821695],[126.99103420111601,37.466093799949704],[126.9896343996659,37.466912300856194],[126.9884667001948,37.4660825013198],[126.9880996990764,37.467345900561895],[126.9884371995754,37.464687501236895],[126.9874359989174,37.4609114995024]]],[[[127.04401659965,37.652256399905],[127.0451289995143,37.652672099195996],[127.0453686992746,37.6512796005885],[127.0466236993771,37.6510863984712],[127.0477529002995,37.651700600430196],[127.04702280048339,37.6520246001354],[127.0466797016783,37.654603901261694],[127.04535490013981,37.6545633009473],[127.04605939938611,37.6543296996442],[127.04580969958991,37.65354890027049],[127.04401659965,37.652256399905]]],[[[127.0529832995625,37.4498381996791],[127.0564158989052,37.4463252974423],[127.0558259000353,37.4440328990623],[127.0572084003053,37.443546599581595],[127.05822930094229,37.444189699437004],[127.0587018008977,37.4461464999212],[127.0597210005425,37.4463785996938],[127.0589469002672,37.4480491006125],[127.0581537005162,37.448077000614795],[127.0586330997775,37.4492105005856],[127.0580094004012,37.4489686008275],[127.0575642992817,37.4500387008289],[127.0550060989707,37.448326401916596],[127.0529832995625,37.4498381996791]]],[[[127.0167997997171,37.626384200290495],[127.0180961991114,37.626373799556106],[127.0183354000952,37.625557999318],[127.01981610055,37.627132600341206],[127.01777529963749,37.6282305007707],[127.0167997997171,37.626384200290495]]],[[[127.0333591991303,37.6481239993319],[127.0350892995842,37.647484499303495],[127.0363392002415,37.648158000019905],[127.0356393003052,37.6498679010059],[127.0351847002092,37.6492436007443],[127.0342118992581,37.649555600262296],[127.0333591991303,37.6481239993319]]],[[[126.9009831987124,37.5342586989403],[126.9025569001183,37.5335877997088],[126.9031725003472,37.535723500446004],[126.901719299954,37.535983000336],[126.9023234991751,37.5355618999106],[126.9009831987124,37.5342586989403]]],[[[127.1060572997272,37.3661066004732],[127.1065870000108,37.3656027985137],[127.1080478997382,37.3666317997642],[127.10786609961299,37.3655732985447],[127.1084130007413,37.3661044995845],[127.10784980000909,37.3667270016538],[127.1060572997272,37.3661066004732]]],[[[127.15036789962271,37.604510398996105],[127.1524222010311,37.6036916981444],[127.1533098002394,37.6048556996167],[127.15471600026419,37.6049978999928],[127.1532883000019,37.605369500358805],[127.15036789962271,37.604510398996105]]],[[[127.1905899993349,37.6068999999992],[127.1911328991853,37.6057014997345],[127.19171469964931,37.6058409994169],[127.1914980000101,37.604166997724995],[127.1935720998906,37.60375899829],[127.1935113003545,37.601522898092],[127.1938512017941,37.6031247001782],[127.1954137002316,37.604773898529],[127.1983866019477,37.6041342988986],[127.1961922027503,37.6071072027962],[127.19190880246629,37.607832805558296],[127.1905899993349,37.6068999999992]]],[[[126.9260523991942,37.513740199770304],[126.9279657003156,37.5139788996027],[126.9274251011418,37.5151634015962],[126.9260523991942,37.513740199770304]]],[[[126.9266399986341,37.499253999996704],[126.9288574001021,37.4985760986423],[126.9294391010575,37.4997255993317],[126.9306541009663,37.4998165000882],[126.92943910045659,37.4997256008213],[126.9293966000037,37.5006486014076],[126.9276535995041,37.5011186011999],[126.9266399986341,37.499253999996704]]],[[[126.9045044985729,37.5228705001647],[126.9044222984827,37.5222811000164],[126.9057335014751,37.5221468994582],[126.90517760075271,37.523225700745996],[126.9045044985729,37.5228705001647]]],[[[126.9517914987301,37.4814213000093],[126.9525498004541,37.4804368995335],[126.9534301004826,37.4810902998074],[126.95294610012,37.4820781001701],[126.9517914987301,37.4814213000093]]],[[[127.0599139994284,37.622784000241005],[127.0619913006274,37.6229277994368],[127.060840300303,37.6242633006131],[127.0599139994284,37.622784000241005]]],[[[127.2079431995083,37.5865652002185],[127.2091790999847,37.5862803984516],[127.2091714002546,37.5874238002972],[127.2079431995083,37.5865652002185]]],[[[126.9195775989939,37.4999416996747],[126.920926401552,37.499587099728],[126.9205535010148,37.5004103011738],[126.9195775989939,37.4999416996747]]],[[[127.0009808995801,37.451810599551905],[127.0023797981812,37.4515342998282],[127.0033846002221,37.4501997996968],[127.0031708988345,37.4529000012898],[127.0009808995801,37.451810599551905]]],[[[127.04710749993059,37.7104565010802],[127.0472220997312,37.7098430992578],[127.0480624000986,37.709873499065104],[127.04710749993059,37.7104565010802]]],[[[126.9188019994795,37.516974499274404],[126.9203310014088,37.5164496993749],[126.91962960074119,37.517015200682806],[126.9188019994795,37.516974499274404]]],[[[126.9298477993607,37.6097660994656],[126.9308827003587,37.609276299836296],[126.930215799496,37.6101218003365],[126.9298477993607,37.6097660994656]]],[[[127.171285598423,37.5166374003175],[127.171504900177,37.5152905988882],[127.17199750224,37.517019299610304],[127.171285598423,37.5166374003175]]],[[[126.9913081996621,37.5272595998151],[126.99172930014551,37.527219199914896],[126.9916874002308,37.527538300299504],[126.9913081996621,37.5272595998151]]],[[[127.1199702992197,37.3948926991725],[127.1207908009153,37.3940833995624],[127.1201454006226,37.3945929998827],[127.1204312005547,37.394955500870005],[127.1199702992197,37.3948926991725]]],[[[127.2212377984781,37.5244213985327],[127.221397700215,37.524176099530095],[127.22163330157619,37.5246873999778],[127.2212377984781,37.5244213985327]]],[[[126.928273399316,37.517614700483406],[126.9285507000162,37.5168923998672],[126.9286777003195,37.5171271003053],[126.928273399316,37.517614700483406]]],[[[126.90283839873739,37.5637607996472],[126.90289269868309,37.5636378997701],[126.9029422994776,37.5634389992181],[126.9028927003324,37.563637900142105],[126.90283839873739,37.5637607996472]]],[[[126.9354751996028,37.5612453000752],[126.9356150001154,37.561320100092004],[126.9354393998464,37.5613547000315],[126.9354751996028,37.5612453000752]]],[[[126.95797549944571,37.4975589998999],[126.9579211999471,37.497340099861205],[126.95804750124661,37.497528800441096],[126.95797549944571,37.4975589998999]]],[[[126.9569724999188,37.4966070999253],[126.9571936002199,37.496749499701],[126.95725610021809,37.496838800154],[126.9571935999536,37.4967495000991],[126.9569724999188,37.4966070999253]]],[[[126.9375677998893,37.5994635000853],[126.9377620001334,37.599571400188104],[126.937720399837,37.5996076004158],[126.9375677998893,37.5994635000853]]],[[[127.1097415997979,37.3661173998808],[127.1099161004401,37.3661190998615],[127.1097307996112,37.366117199879795],[127.1097415997979,37.3661173998808]]],[[[126.89462009877809,37.5242874002927],[126.8947711011725,37.5242609990684],[126.8946200996835,37.5242874013386],[126.89462009877809,37.5242874002927]]],[[[126.8966683997879,37.5257157998253],[126.8967815004123,37.5256951999264],[126.8967205001362,37.525932600567096],[126.8966683997879,37.5257157998253]]],[[[126.92940999906861,37.6108800001074],[126.9296100004304,37.6109837002145],[126.9295020998885,37.6109278003026],[126.92940999906861,37.6108800001074]]],[[[126.9809290996536,37.50539360013],[126.98102330281151,37.5058302011405],[126.98102329955941,37.5058301996934],[126.9809290996536,37.50539360013]]],[[[127.00791059835261,37.443893900208096],[127.0079105984647,37.4438938988768],[127.0081893005279,37.4439362996394],[127.00791059835261,37.443893900208096]]],[[[127.0174737992037,37.634187799573496],[127.0175203994764,37.6338423996628],[127.01747380088821,37.6341878000799],[127.0174737992037,37.634187799573496]]],[[[127.02520719921709,37.4831811997545],[127.02534230065241,37.4832729997597],[127.0252768004064,37.483412200577796],[127.02520719921709,37.4831811997545]]],[[[126.90867799951009,37.513483899754995],[126.9087904002007,37.513325699717605],[126.9086780001928,37.513483900172],[126.90867799951009,37.513483899754995]]],[[[126.9411949997657,37.544429299781996],[126.94119500010399,37.5444293000773],[126.9411436999828,37.544464900011604],[126.9411949997657,37.544429299781996]]],[[[126.9892608996154,37.5392437001884],[126.9892609000595,37.5392436999885],[126.9893443001491,37.53930660016481],[126.9892608996154,37.5392437001884]]],[[[127.1249954999526,37.3842788999637],[127.12512730069871,37.3843723999818],[127.1251116001156,37.3843910002974],[127.1249954999526,37.3842788999637]]],[[[127.1331661998125,37.395119700064505],[127.13310799965589,37.3948222997305],[127.1332750998325,37.394573099413],[127.1331661998125,37.395119700064505]]],[[[127.1669402985784,37.5120873986502],[127.16708270035579,37.511986800030705],[127.1669402996028,37.512087401329296],[127.1669402985784,37.5120873986502]]],[[[126.92484409960281,37.5110171993846],[126.9249616009791,37.5111478997609],[126.9249616003132,37.511147900832995],[126.92484409960281,37.5110171993846]]],[[[127.0507188993749,37.479348299773996],[127.05071889993451,37.4793482995141],[127.0509007005209,37.479441300026096],[127.0507188993749,37.479348299773996]]],[[[127.0989359995363,37.4747566003323],[127.0989915001383,37.4743573990596],[127.0989360003959,37.474756600352],[127.0989359995363,37.4747566003323]]],[[[127.1731229990044,37.4536978004503],[127.1731230011395,37.4536977997487],[127.173122999364,37.4536978017842],[127.1731229990044,37.4536978004503]]],[[[127.20408369955109,37.4092578004663],[127.2040836998029,37.4092577997975],[127.2040837003224,37.4092577999899],[127.20408369955109,37.4092578004663]]],[[[126.9302003997514,37.5253909015405],[126.93038019969251,37.525218899813],[126.9303802013317,37.525218900804596],[126.9302003997514,37.5253909015405]]],[[[126.9512921998863,37.563370899918304],[126.951278300083,37.5632924996451],[126.95129220036159,37.563370900037],[126.9512921998863,37.563370899918304]]],[[[127.05366239892909,37.7004163992783],[127.053662400127,37.7004164004567],[127.0536623994275,37.700416400752104],[127.05366239892909,37.7004163992783]]],[[[127.1046383996078,37.4951138996726],[127.10470529998241,37.494969799885],[127.1046383998398,37.4951139003373],[127.1046383996078,37.4951138996726]]],[[[127.2030110992036,37.409364200933396],[127.20301110038899,37.4093641990756],[127.2030111006237,37.409364200359896],[127.2030110992036,37.409364200933396]]],[[[127.00594739929859,37.483021200151],[127.0059474006911,37.4830211996557],[127.0059474004579,37.483021200704904],[127.00594739929859,37.483021200151]]],[[[127.0385658994487,37.475157000190904],[127.038565900048,37.475156998897305],[127.0385659004057,37.475156999833104],[127.0385658994487,37.475157000190904]]],[[[127.05269749980499,37.4799078998049],[127.05269750057029,37.4799078997497],[127.05269749987549,37.479907900271],[127.05269749980499,37.4799078998049]]],[[[127.0541999988899,37.701089000079506],[127.0542000001592,37.701088999751306],[127.05420000016059,37.7010890022713],[127.0541999988899,37.701089000079506]]],[[[127.1075719995823,37.4987044996655],[127.107572000231,37.4987045004113],[127.1075719995073,37.4987045003514],[127.1075719995823,37.4987044996655]]],[[[127.11500279956459,37.6104560002526],[127.1150027998156,37.6104559972635],[127.1150028015839,37.610456000134],[127.11500279956459,37.6104560002526]]],[[[127.1208583997743,37.3949576000188],[127.1208584005097,37.3949575996605],[127.1208584001275,37.3949576008679],[127.1208583997743,37.3949576000188]]],[[[127.15413799888961,37.4711120007834],[127.1541379998699,37.4711119992415],[127.1541379999958,37.4711120006504],[127.15413799888961,37.4711120007834]]],[[[127.1911943992371,37.5270987990781],[127.19119440167191,37.527098798695995],[127.1911944019463,37.527098801197894],[127.1911943992371,37.5270987990781]]],[[[126.9398423998435,37.5146865000027],[126.9398424001627,37.5146865000014],[126.9398424000863,37.5146865001796],[126.9398423998435,37.5146865000027]]],[[[126.9993804990788,37.5979364003768],[126.9993805007009,37.597936399992605],[126.9993804996881,37.5979364011605],[126.9993804990788,37.5979364003768]]],[[[127.0387804997934,37.4752193003164],[127.0387805001911,37.4752192997708],[127.0387805005491,37.4752193004634],[127.0387804997934,37.4752193003164]]],[[[127.0465034994908,37.684388800468],[127.0465034999589,37.6843887994797],[127.0465035005014,37.6843888000052],[127.0465034994908,37.684388800468]]],[[[127.1071990990289,37.4719355003941],[127.1071990994278,37.4719354996154],[127.1071991005282,37.4719355002791],[127.1071990990289,37.4719355003941]]],[[[127.11917029993559,37.3953913999531],[127.1191703006123,37.3953913997573],[127.11917030038359,37.395391400494304],[127.11917029993559,37.3953913999531]]],[[[127.13830259981,37.4270014001316],[127.13830259986061,37.4270013980899],[127.1383026003259,37.4270014001742],[127.13830259981,37.4270014001316]]],[[[127.15029249988001,37.5656860998364],[127.15029250022391,37.5656861000777],[127.1502924996453,37.565686100239404],[127.15029249988001,37.5656860998364]]],[[[127.15887959947531,37.6083610004628],[127.15887960012181,37.6083610000067],[127.1588795998697,37.6083610006358],[127.15887959947531,37.6083610004628]]],[[[127.1685584998684,37.5632462998997],[127.1685585001691,37.563246299861],[127.16855850021031,37.5632463001251],[127.1685584998684,37.5632462998997]]],[[[126.9297392994188,37.5250991013317],[126.92973929940389,37.5250990996283],[126.9297393003334,37.525099099932795],[126.9297392994188,37.5250991013317]]],[[[126.9449945998997,37.5852857001665],[126.9449945999664,37.5852856997144],[126.9449946002981,37.5852856998454],[126.9449945998997,37.5852857001665]]],[[[126.98951539991201,37.5399045998138],[126.98951540053571,37.5399045997525],[126.98951539999081,37.5399046000527],[126.98951539991201,37.5399045998138]]],[[[126.9901053999457,37.5396442000129],[126.990105399957,37.539644199925995],[126.990105400061,37.539644199961295],[126.9901053999457,37.5396442000129]]],[[[127.0358624998689,37.6093786004002],[127.0358624998143,37.6093785998397],[127.0358625004005,37.6093786006748],[127.0358624998689,37.6093786004002]]],[[[127.06231239991159,37.6560754999829],[127.06231240002569,37.6560755000033],[127.0623123999816,37.6560755000565],[127.06231239991159,37.6560754999829]]],[[[127.23899499979531,37.547151499706],[127.2389950006331,37.547151500260696],[127.2389950002747,37.5471515009548],[127.23899499979531,37.547151499706]]],[[[126.9253524001355,37.5123805001718],[126.9253523999432,37.5123805000191],[126.9253524000298,37.5123804998733],[126.9253524001355,37.5123805001718]]],[[[126.93809159965261,37.513465199871796],[126.93809160005921,37.5134651999806],[126.9380915997544,37.5134652008239],[126.93809159965261,37.513465199871796]]],[[[126.9546666999131,37.495713700045904],[126.9546667000148,37.4957136998346],[126.9546667000474,37.4957137000257],[126.9546666999131,37.495713700045904]]],[[[127.01003299976071,37.520504000044205],[127.0100330001574,37.5205039999068],[127.01003300042231,37.5205040002063],[127.01003299976071,37.520504000044205]]]]}}]}