{"type":"FeatureCollection","features":[{"type":"Feature","properties":{"interval":15,"stationId":"355173473"},"geometry":{"type":"MultiPolygon","coordinates":[[[[127.1183871922502,37.546748201306904],[127.11851610004989,37.5461600996914],[127.1191640997432,37.5473862989022],[127.11998229892501,37.5463567999317],[127.1190457995849,37.5456959000229],[127.1192096003395,37.5442429995432],[127.1199853003988,37.5459518985924],[127.1206569004429,37.546244198401695],[127.1216016994981,37.5453344993114],[127.1218746992251,37.5442188004271],[127.1197086990167,37.5422815999784],[127.1210214993437,37.5425670000599],[127.12250489966749,37.5409753001],[127.12002799950251,37.5394275997306],[127.1219038990081,37.5392940994834],[127.1213751996178,37.5372507008973],[127.12049299957229,37.5373302993339],[127.121371899212,37.536530899353906],[127.12120729971889,37.5352798999035],[127.122799599961,37.535279299064996],[127.1230881005663,37.5364084992816],[127.1246704000493,37.536437199396005],[127.1247031011836,37.5374062995074],[127.1258223000644,37.5377935991201],[127.1260180003368,37.537095199671306],[127.1268016012977,37.5381150998453],[127.1254536009626,37.5381065006534],[127.1257683006479,37.53927319948669],[127.1264549014143,37.539213601106894],[127.12594640035971,37.5397902009799],[127.12661299969311,37.541350699419404],[127.127634301058,37.541818598754396],[127.1298953994784,37.5411411989095],[127.1295040010361,37.5419080996606],[127.1301174004227,37.542527799040904],[127.13346500018581,37.542390999346004],[127.1333427004727,37.543679498791],[127.13486329954321,37.5430562995393],[127.13651639974121,37.5440403992671],[127.1372370000327,37.5436452995795],[127.1379748005521,37.5449124994893],[127.13925090002189,37.544866399059394],[127.1385630007025,37.5462318009307],[127.1392654002039,37.5474975001541],[127.1377609010749,37.5487641001013],[127.1389569005873,37.550465599743205],[127.13874540066931,37.5516480992147],[127.1398990007952,37.5516583000019],[127.13731230059261,37.5533875001778],[127.1378284011682,37.5548149999048],[127.1351204011994,37.555555301179204],[127.1349593006454,37.5568151014864],[127.1337576013941,37.556559501775595],[127.1325162008982,37.5586038012508],[127.13312300029139,37.5597348001198],[127.13122800018029,37.559582501403995],[127.1303949002802,37.560279400488696],[127.1287981003126,37.5579725024143],[127.1239013911666,37.5568383041153],[127.1224420914633,37.552919002222104],[127.1183871922502,37.546748201306904]]],[[[127.1192613989727,37.530948199310394],[127.1208635011455,37.5288387990703],[127.1224404008921,37.5307422995932],[127.12180000027689,37.5304500014426],[127.1211668993951,37.532360100950896],[127.1192613989727,37.530948199310394]]],[[[127.1125729990181,37.517456599736704],[127.112807700255,37.5172628001255],[127.1128563002751,37.5176964004365],[127.1125729990181,37.517456599736704]]]]}},{"type":"Feature","properties":{"interval":30,"stationId":"355173473"},"geometry":{"type":"MultiPolygon","coordinates":[[[[127.05800529969801,37.562630099838],[127.0592873984632,37.5620644999805],[127.0589798990417,37.560419799836396],[127.0605971998542,37.557865698327504],[127.0626366011891,37.556627797435304],[127.0649429011094,37.5593991973393],[127.0680642988714,37.5579626979779],[127.0681107005597,37.5601841980323],[127.0696147998771,37.5594917995013],[127.0710441999443,37.5607265994552],[127.07173319925529,37.5604109997708],[127.07271469886051,37.558950599396205],[127.0717270993037,37.558181599154295],[127.0731350991167,37.5567379001533],[127.0720611993858,37.5563324001571],[127.0731848995409,37.5559244997778],[127.0722473001112,37.5528780995214],[127.0741910002771,37.553290698652],[127.0769504993291,37.550342199145],[127.0779714003304,37.5527042990755],[127.0792195008152,37.5516204981024],[127.08047310042821,37.55314179914],[127.0860974986898,37.551473198012495],[127.0858429982524,37.5473158977775],[127.08445019962821,37.5449931000181],[127.0848603998755,37.544313799703296],[127.08598910076131,37.5451026991773],[127.0891245999916,37.544914399173905],[127.0894902000155,37.545645999185595],[127.0906488000305,37.5446142990536],[127.0910216008552,37.5463254985882],[127.09364039990369,37.5486433981248],[127.0969670987721,37.5470849985233],[127.0977723983591,37.5455087990546],[127.0972080989234,37.543980900582504],[127.0944233004885,37.5427782008725],[127.0927272991495,37.543934700979],[127.0941499990996,37.539599699891],[127.0976525996043,37.537772698149496],[127.0964610011023,37.5385807005654],[127.09589320167011,37.540327398818704],[127.096499301064,37.5407301984159],[127.1001931001969,37.5377501996498],[127.0984694021378,37.5393667994148],[127.0994498011574,37.541960596821006],[127.1008130997941,37.5421222966593],[127.1022832983239,37.540150398631205],[127.1035515995862,37.540959199216104],[127.1115261994896,37.536292098816496],[127.11209869893361,37.5345033002725],[127.1109845988227,37.5333754999252],[127.1110661987442,37.5302644003057],[127.1099288998815,37.530232900337204],[127.1083732991813,37.528150400090404],[127.1099982980183,37.5274107003356],[127.10988589843329,37.5262414993906],[127.1072497000105,37.523340601173395],[127.10472259979831,37.523068200423396],[127.1040360994463,37.5218840013881],[127.10068129991471,37.5207413003183],[127.1015004992235,37.5198473002087],[127.1002064997243,37.5186463007142],[127.09962359929091,37.5165605002449],[127.0970824004993,37.5166787006999],[127.0957964992419,37.5187868010047],[127.0969467995337,37.5176405993516],[127.0969848994956,37.516362400629795],[127.0956147008658,37.5160428009494],[127.0948842997942,37.516739100582605],[127.0951575985572,37.515868699280595],[127.09397899973581,37.514706500442806],[127.0953845985984,37.5146830993982],[127.0953638985683,37.5127108002803],[127.0929209010113,37.511815001176096],[127.0913197994269,37.5120930998169],[127.0927134001483,37.5113724990433],[127.0947701996104,37.5119795992118],[127.0945836995468,37.5100429994742],[127.09727719994129,37.5097999988766],[127.09792329992011,37.5078874001964],[127.0948064990885,37.505698600563406],[127.093723798926,37.5059093007176],[127.093306998912,37.5049342007217],[127.0920688001502,37.5053007003552],[127.0911155008955,37.507950200586606],[127.0894471001282,37.5068628013547],[127.0879350016403,37.5081630000545],[127.09069980004689,37.5119258999841],[127.0895834004219,37.5128095997816],[127.09122400019649,37.513277201047096],[127.0905307997996,37.5143632008823],[127.0844140002523,37.5164780007181],[127.0843568999869,37.5172534002419],[127.0836645992759,37.5151185011404],[127.0805857989416,37.5142295021496],[127.0789861996799,37.5118324005369],[127.0777018981584,37.514043900801695],[127.0777452984741,37.5114372003002],[127.0755489998315,37.510479100949],[127.0734626004057,37.5118784020922],[127.0723363999618,37.5111478024815],[127.07046940182879,37.51252620110311],[127.07004879984349,37.5138604009319],[127.06880369861581,37.5129782001269],[127.0691369987302,37.510516500360204],[127.0653649000215,37.5096565007332],[127.061817299995,37.511076702301],[127.0629757987884,37.508949700270605],[127.0603313990233,37.5084556006686],[127.0611994989347,37.5072396991011],[127.0630563995051,37.5065627994638],[127.0649916005288,37.5070463990899],[127.0663860003354,37.509717799395794],[127.07042389955299,37.5106251994643],[127.0707101999636,37.5096811997062],[127.07066420039699,37.510374399567404],[127.0723364000565,37.5111477997428],[127.07311829927461,37.5111009997896],[127.07419619873771,37.5088731991385],[127.0752205006512,37.5091220990671],[127.0755490004605,37.510479099680396],[127.0781362997521,37.5114390990914],[127.0786310994677,37.5100817998182],[127.0823101998016,37.5096753988286],[127.0825578996286,37.508574399606104],[127.0852128992654,37.5075369996948],[127.0844452994553,37.5053707003108],[127.0832288006718,37.5051768005047],[127.0829041983706,37.505798400362806],[127.0847329983457,37.504370900476495],[127.0840989995848,37.5029288000474],[127.084907199034,37.5023130002744],[127.0842120993795,37.501407299247795],[127.08665459973871,37.5018437988463],[127.0865426009502,37.5006390973515],[127.0870638998352,37.5017333987838],[127.08822460088331,37.5010163991526],[127.0886726011174,37.5020603993001],[127.0900809002908,37.5020463995224],[127.091482201324,37.500876099248096],[127.09193160098029,37.5019147985505],[127.0935861993257,37.5010785993867],[127.093038799879,37.499260399668096],[127.0965734983115,37.4971956974845],[127.09879560125181,37.4983551995724],[127.0987803015785,37.499670099948005],[127.1018276990438,37.500420399058],[127.1024462992267,37.4995244990377],[127.1033021004148,37.5002012992891],[127.1057492999649,37.4990163998277],[127.1085493001982,37.501078899593104],[127.11048769968,37.501301998553004],[127.110790299567,37.499896599517896],[127.112251399203,37.4992980996537],[127.11153069976301,37.498830399713306],[127.1126826994646,37.498829099640105],[127.112391099793,37.4970054004184],[127.1119742997853,37.495733501202],[127.1086765002142,37.496223400353195],[127.1086642993594,37.4956711989119],[127.1094432988653,37.494973199040395],[127.1110220986527,37.4954474990016],[127.115090500043,37.489768397733606],[127.1164787003987,37.4909834976624],[127.1180484001988,37.4888278995546],[127.11701240186619,37.491139800196],[127.117475601403,37.4921785991572],[127.1195236993549,37.4916595996762],[127.1207112997695,37.4886911999955],[127.1196285994912,37.4881583006877],[127.1194401994676,37.4860543016796],[127.1181490984137,37.4841369994006],[127.1206598986987,37.4837897981951],[127.12107910034871,37.4829896993758],[127.1202013019208,37.4846592996293],[127.1223905997315,37.4856594986291],[127.12352159982831,37.4844830997761],[127.12382529881619,37.4827678007615],[127.1230273988084,37.4821231997868],[127.1240646993665,37.4822206992203],[127.124987898792,37.4807707998872],[127.12321179840531,37.4782298000417],[127.1262272001895,37.4788791993456],[127.126673299525,37.4759656001083],[127.1273948000794,37.4756972998022],[127.1276903004253,37.47730579991801],[127.1268186007617,37.4777234002688],[127.1275265000538,37.478493099499104],[127.1282643001435,37.4779263998818],[127.1291422003005,37.4798351001168],[127.1281500001911,37.4814870004492],[127.1266040999541,37.481692400361],[127.1267077994712,37.480876100337305],[127.12564330025069,37.4803486008464],[127.1243349006502,37.4817193003755],[127.124904401044,37.483595199175305],[127.1263304006233,37.4836982996335],[127.1264588015888,37.4858917997174],[127.1279847001691,37.4860200012384],[127.12431740013409,37.488945100534],[127.1224085003829,37.48857190107319],[127.1220379007535,37.4892215004236],[127.1219183014359,37.4906613007977],[127.1231813006323,37.4923125003348],[127.1225384011039,37.493084800620295],[127.12538270058211,37.496513699542504],[127.1245825994544,37.4967691016519],[127.1243958991201,37.495221900587794],[127.12325170026429,37.4949292008805],[127.1215861004999,37.496143900260996],[127.1201326995252,37.4958391012174],[127.1193860998652,37.4973635009611],[127.11867029977631,37.4969234008569],[127.1181573002893,37.4988003989799],[127.11914880195411,37.5002656015414],[127.118836199916,37.5008228006722],[127.11750810004439,37.4996051012973],[127.11628640126611,37.5009501999522],[127.11720000096669,37.5021182016559],[127.1153691003114,37.5027124002927],[127.113855701572,37.506631500095],[127.1143917011216,37.507302200474],[127.11388090113,37.5093663987106],[127.1176122997177,37.510188898574604],[127.1183208997691,37.511360598649404],[127.12017509979,37.5110301996723],[127.122314997945,37.5095358996141],[127.1219306996383,37.5073265994374],[127.123572700319,37.507407298991],[127.1246774992142,37.5064490999492],[127.1238746995339,37.5056854992892],[127.1245015996394,37.5055804990135],[127.1249044001137,37.501443698711206],[127.1262357987823,37.5005336996212],[127.12575479898709,37.49961240022029],[127.1315233006026,37.5000100000762],[127.1305700005858,37.500894400226],[127.1313597003534,37.502023700003804],[127.1309237002837,37.504165000166],[127.1288656006876,37.5055970001143],[127.1311183003798,37.506152599694],[127.13032410109909,37.507231699268395],[127.13072060109731,37.5087074991076],[127.1299588010091,37.509494699733494],[127.1299069007508,37.5114168990435],[127.13268810004939,37.5114009997395],[127.1318030007247,37.5121960998007],[127.1324800000477,37.5125964994003],[127.13364059963801,37.5122180994549],[127.1338901999996,37.5112987994345],[127.1356804007811,37.512435099581495],[127.1373347005966,37.5156101999519],[127.1362204011206,37.5167439995636],[127.1371516998974,37.517066300257305],[127.13579080020699,37.5166670004069],[127.134149602528,37.517654600321],[127.1335493031817,37.5201137991674],[127.1371504024882,37.5230439984239],[127.1392775008659,37.528031696672],[127.1405435995998,37.527681697022004],[127.1408238993195,37.524585000118705],[127.1411136998154,37.525346899212],[127.1449980001788,37.5265087999597],[127.1421503019682,37.5273458004222],[127.143593601199,37.528724599889195],[127.142578900691,37.528681600572],[127.1433770001279,37.53327559932001],[127.14391040046759,37.5331376998806],[127.143599000653,37.533743800035204],[127.14577390069749,37.536660499856204],[127.1465996005531,37.5393464993252],[127.14929500152539,37.540537898343594],[127.14963310091281,37.5425542978927],[127.1525299003776,37.5465792937057],[127.1539650016898,37.5464404998175],[127.15257250046851,37.5467058010481],[127.1526645004418,37.5487673000039],[127.14954810305301,37.549206499838895],[127.1526457004606,37.5491416996295],[127.1494411005017,37.552548499752],[127.1496734005899,37.554361800117306],[127.1521156008712,37.5547707017075],[127.1506491014821,37.5547759021952],[127.1487598002161,37.5575415011618],[127.1449019038254,37.5578682009035],[127.145069403641,37.5594087994537],[127.1474384011417,37.5609400031352],[127.1448429021352,37.561909303622],[127.1434767981802,37.560308900983],[127.14364369801329,37.5588727024192],[127.1399924016646,37.5560290052629],[127.1373620022962,37.5605186015933],[127.1365443010311,37.5606128027911],[127.1367800007954,37.5636441997597],[127.1355933012118,37.5648793002659],[127.1371516001889,37.5661131009142],[127.1343299990269,37.5661858010557],[127.1353437992648,37.566412399311794],[127.1340883000934,37.5646083004724],[127.1318110955519,37.5650700050749],[127.12767809306139,37.5615666047691],[127.1239013912073,37.5568383044845],[127.11916409474131,37.5473863077548],[127.1111680027374,37.5510545040866],[127.1112615026439,37.553053302087804],[127.1098952000648,37.5519179012252],[127.1087091007521,37.5530286006668],[127.10598000187271,37.5509059024528],[127.10343640060921,37.5526818021793],[127.1008886003286,37.5519508023183],[127.1005293004813,37.553454301007],[127.09970369888171,37.5529238025047],[127.0959840001083,37.5544052022321],[127.09504510104719,37.5555421010952],[127.0956192999949,37.557586302001596],[127.0943244005082,37.5572632009153],[127.09005000008,37.5589700005656],[127.0891338998913,37.5585463007108],[127.0883732998241,37.5596589009076],[127.0859312004811,37.559465200609395],[127.0837598005226,37.563476199818496],[127.0847799998016,37.5637201994567],[127.0844699002254,37.5643082999055],[127.0862303005754,37.5671006993025],[127.0852463008777,37.5676369001232],[127.0855651992626,37.568218300926596],[127.08453519980691,37.567963100819],[127.0838347000969,37.5664980013346],[127.0834468989927,37.567143200914295],[127.080976899723,37.566820400421896],[127.0830287992297,37.563593600800296],[127.0814933995342,37.563617200384705],[127.08102249975751,37.5627349008161],[127.0788301996356,37.562909700709],[127.0771523001704,37.5615948008869],[127.0753762997746,37.5620336008262],[127.0726959989844,37.5600303006782],[127.0710442001666,37.5607266001113],[127.07066329996631,37.560251600448304],[127.07024680029471,37.5608801998506],[127.0709797002889,37.5613681008759],[127.06897860082739,37.562384300324],[127.0690135005946,37.5635740009955],[127.0673623006774,37.5641995009773],[127.06739299990839,37.565335500135106],[127.0663405999018,37.5638180001017],[127.0649482006344,37.5633940009124],[127.0647746995672,37.564157600880804],[127.06216069961451,37.5643071005144],[127.0593812988852,37.5624557005249],[127.05800529969801,37.562630099838]]],[[[127.0495168978233,37.5658457995498],[127.0508195996678,37.563481099128296],[127.05316809934749,37.5635559989066],[127.0541484992563,37.5643760989964],[127.0550760997926,37.5636701994843],[127.0556524000466,37.5645309994021],[127.05657720037331,37.563859599922104],[127.0556524007598,37.5645309996599],[127.0565191000334,37.567047300039],[127.05530960029701,37.5663836004502],[127.0529211004592,37.5696810004576],[127.04920059992051,37.569482500206],[127.049159699889,37.5685919007793],[127.0487277992084,37.5695250997037],[127.0495168978233,37.5658457995498]]],[[[127.0703834991551,37.5480993000867],[127.07321139909841,37.5457471000368],[127.0730312996086,37.5448912994594],[127.07346860053809,37.545651299290306],[127.0759514997149,37.5455656996299],[127.0766022004635,37.5463718000344],[127.0746375998898,37.5506325008432],[127.07363629938061,37.550427400396394],[127.0734282998542,37.5493242003463],[127.0720826992068,37.549435000261305],[127.0716005991235,37.5479423009006],[127.0703834991551,37.5480993000867]]],[[[127.0685672996398,37.5406951999799],[127.0693385992667,37.5405400993868],[127.0694020998048,37.539276599596],[127.07125340111371,37.539920699359506],[127.072503001692,37.539508399472005],[127.0712534010849,37.5399207005441],[127.0714516004344,37.5417762995409],[127.0721382005268,37.5418253996162],[127.0712951006988,37.542575800577204],[127.07005309983539,37.541244000544395],[127.0696590997449,37.5419139003361],[127.0692998998702,37.5412273002606],[127.06828450027311,37.5413833005084],[127.0685672996398,37.5406951999799]]],[[[127.0410235991533,37.5652328003264],[127.0421910004222,37.5644601997452],[127.04284719990899,37.5654749989129],[127.0435971006853,37.5646876992925],[127.045891200217,37.568074699928694],[127.0428550981972,37.5674641017305],[127.0410235991533,37.5652328003264]]],[[[127.1330551989829,37.4966997991951],[127.1376552009491,37.4967485000611],[127.1355030002723,37.499545000377594],[127.1339075000528,37.4985681007574],[127.1330551989829,37.4966997991951]]],[[[127.03597959965741,37.562145699405704],[127.0381410005012,37.5606725997797],[127.0383400005572,37.5618999998271],[127.0375145008619,37.5629810006943],[127.03597959965741,37.562145699405704]]],[[[127.08618939908439,37.5728730000694],[127.08763240045751,37.573451599260096],[127.0871604004849,37.5743181002032],[127.08775280020221,37.5748503003549],[127.08614780024591,37.574702301093],[127.08618939908439,37.5728730000694]]],[[[127.14327199938559,37.4934722003134],[127.14386119962741,37.492038299918896],[127.1445824003983,37.4929108992917],[127.14516380035,37.492430299809],[127.1445961001394,37.4938464003514],[127.14327199938559,37.4934722003134]]],[[[127.126074699041,37.470696199837896],[127.12695929997099,37.4701708994694],[127.1270177005312,37.471526100655396],[127.126074699041,37.470696199837896]]],[[[127.0487058984825,37.505167898911296],[127.049543700197,37.5033774995823],[127.04981700105701,37.5040288009284],[127.048306899636,37.5059928004342],[127.0487058984825,37.505167898911296]]],[[[127.094027999463,37.5352640996371],[127.0949565003306,37.5344555998626],[127.09425450018081,37.5355760004098],[127.094027999463,37.5352640996371]]],[[[127.06658999957351,37.5322060991382],[127.0666867994767,37.5318017995425],[127.0672379012299,37.5316536996763],[127.06658999957351,37.5322060991382]]],[[[127.1381753996896,37.56650899960341],[127.1390680994821,37.5668923994452],[127.1395032992318,37.5662471992676],[127.1417114039435,37.566509400086204],[127.1390681017225,37.5668924080462],[127.1381753996896,37.56650899960341]]],[[[127.0596014993056,37.514123699875],[127.06125060095539,37.5144321993507],[127.0600254995704,37.514900700799295],[127.0596014993056,37.514123699875]]],[[[127.0864571996517,37.5656139999349],[127.0865258000821,37.565126399280395],[127.0869417005563,37.5654362997978],[127.0864571996517,37.5656139999349]]],[[[127.1011700995669,37.487192000887504],[127.1021434003369,37.4869760996162],[127.10255840120311,37.4875695002415],[127.1011700995669,37.487192000887504]]],[[[127.08840389956761,37.5808608999737],[127.0888190001876,37.5807601999682],[127.08845510012641,37.58112230029489],[127.08840389956761,37.5808608999737]]],[[[127.0291470989148,37.5571930004363],[127.0298319004429,37.557376499240895],[127.02997650044651,37.5575804004638],[127.0291470989148,37.5571930004363]]],[[[127.1398330997301,37.4628865002366],[127.1400405001917,37.4627322999913],[127.1398331007211,37.4628865005031],[127.1398330997301,37.4628865002366]]],[[[127.0670304999793,37.5322682002441],[127.0671050000084,37.532248799973196],[127.0671050002495,37.5322488001759],[127.0670304999793,37.5322682002441]]],[[[127.07114899959531,37.5071970994454],[127.0711490009652,37.507197099740196],[127.0711490006275,37.5071971012149],[127.07114899959531,37.5071970994454]]],[[[127.0891757994993,37.5161481999788],[127.0891758003347,37.5161481995584],[127.08938720043551,37.5163924002917],[127.0891757994993,37.5161481999788]]],[[[127.0566759001794,37.5642369002846],[127.0566758997363,37.564236899954],[127.0566759000463,37.564236899954494],[127.0566759001794,37.5642369002846]]],[[[127.1223955986794,37.5054548005113],[127.1223955991268,37.505454799444905],[127.12239560101301,37.5054547995199],[127.1223955986794,37.5054548005113]]],[[[127.0665474997449,37.531234600073795],[127.0665474999211,37.5312345996116],[127.066547500081,37.531234599977196],[127.0665474997449,37.531234600073795]]],[[[127.09834649990111,37.517685300013895],[127.09834649997431,37.5176852990724],[127.0983465004393,37.517685299292495],[127.09834649990111,37.517685300013895]]]]}},{"type":"Feature","properties":{"interval":60,"stationId":"355173473"},"geometry":{"type":"MultiPolygon","coordinates":[[[[126.9164442982827,37.4943788003573],[126.9178619997452,37.492186599912294],[126.91891970014561,37.4933603989222],[126.920479599693,37.4931262989467],[126.9208298993427,37.491802000271],[126.9200875988696,37.491783599347094],[126.9207891982654,37.4907880998971],[126.9227203998241,37.4905084997545],[126.9228234998029,37.488851199507096],[126.9239086990323,37.4890920993244],[126.92418389875711,37.4881668002497],[126.9223906993668,37.487345499904706],[126.9228008987599,37.4840321002453],[126.921403699642,37.483767400782895],[126.9208714991331,37.4823004986473],[126.92515089956031,37.4803093995457],[126.9270623999516,37.4779808999469],[126.9288305996726,37.4780169995731],[126.9300831995281,37.4757351995242],[126.93100320002411,37.4765461997388],[126.9324479989307,37.4762868996441],[126.9325063983376,37.474049200598806],[126.9309049987063,37.4735588017006],[126.93107829872649,37.4713968007592],[126.9297839994785,37.471077199729905],[126.93323579937281,37.4701169994006],[126.9332422993663,37.4690242004934],[126.9326922992488,37.469213798599895],[126.93397759993651,37.4686045997196],[126.9389365005784,37.4708573999478],[126.9383685000001,37.4719865002874],[126.93619650093069,37.4730122006111],[126.93596810079029,37.4742730000132],[126.9366787006817,37.475125399716106],[126.9379170002097,37.4749489995829],[126.9387259002597,37.475954699352606],[126.9418298998554,37.4755657996745],[126.9447729988957,37.476809098078796],[126.9499879003488,37.4770700983031],[126.95042320055191,37.4779022990206],[126.9513558996192,37.4777402991826],[126.9518713990299,37.4728758984278],[126.95493860299061,37.4730103981399],[126.9562774016518,37.4741764969738],[126.95924689887799,37.471787299007104],[126.9609679993541,37.4733340977047],[126.96207339824869,37.472514798523996],[126.96228839952221,37.4687314993419],[126.9649111981565,37.469179198235],[126.97100619914531,37.467042298832304],[126.9728054003035,37.468936297225206],[126.9747245983843,37.4677653983961],[126.9735582004574,37.465899699114004],[126.9769630003339,37.4674271978196],[126.9779311000163,37.4660721988455],[126.97951790097251,37.4662680985531],[126.97829110206301,37.4690709998887],[126.9806033997507,37.4710080979516],[126.9829779973761,37.469993498966204],[126.9832747998431,37.4710464986311],[126.98493310028981,37.4687244980976],[126.98809969983341,37.4673458988961],[126.9884371995754,37.464687501236895],[126.9874359992987,37.4609114983034],[126.9889542997832,37.4622149977642],[126.9909382016648,37.4618657987742],[126.9912839009645,37.46652279977],[126.98989049951331,37.467163600653],[126.9884667001948,37.4660825013198],[126.9880997003096,37.4673459003582],[126.9863225001999,37.467995400587],[126.983274801921,37.4710464992427],[126.9857053003744,37.472919397576405],[126.98816550008749,37.470486399721096],[126.99067560060371,37.474425596888196],[126.9933763993258,37.472249597546394],[126.9956535983375,37.472537798697],[126.99814429817481,37.4704011963466],[127.00200069819199,37.470281898447006],[127.0012695993787,37.468297598819596],[127.0019492021608,37.4692638992584],[127.0041133999966,37.4686648998574],[127.0054109027113,37.4698304997935],[127.0057839020101,37.471608899434],[127.0089986005116,37.473225398308195],[127.0063786029428,37.4759685982264],[127.007670401651,37.476594497600495],[127.0097781995432,37.4759931982018],[127.010283499336,37.4742048991877],[127.0116338988503,37.4737138986829],[127.0139371983477,37.476250196845704],[127.01433779612171,37.4729862967856],[127.0167723004517,37.4738980979712],[127.01792210558311,37.476366699808096],[127.0240335019735,37.4804233990405],[127.02520719991699,37.483181199402594],[127.0271905001229,37.4837784995985],[127.0287000986133,37.482525000852],[127.0277160990599,37.4796662996893],[127.0289437983101,37.4785731004763],[127.0288143990059,37.47677139952879],[127.0299042985437,37.4753542006888],[127.0293122984602,37.4730627002211],[127.03030629912651,37.4715310005921],[127.0292990993897,37.4676092998744],[127.0300375003316,37.4661511979765],[127.0317755985935,37.465980898146796],[127.0318628994573,37.464208298411904],[127.0330584982617,37.463942198678],[127.0351532996703,37.4612094997641],[127.03433470130351,37.462307599762106],[127.0355120005339,37.463175699531],[127.0374379997795,37.4614658985555],[127.0403546000641,37.463498999653],[127.0419828005213,37.4618284997158],[127.0409843013208,37.4629840989797],[127.0418117004934,37.4645728973909],[127.0434919005153,37.4650151977059],[127.04509469927261,37.4635679989979],[127.0449378994294,37.4624073001586],[127.0430509997219,37.4620021995691],[127.0451908993408,37.4619135989451],[127.0450413991793,37.460581899769004],[127.04628319970041,37.4610070986162],[127.04674799978909,37.4597202991059],[127.048021600916,37.4607335998196],[127.0483621007436,37.4621339993615],[127.049443700479,37.4621848007231],[127.04637170030139,37.4612262016266],[127.0456829017922,37.4646264996201],[127.0462282012469,37.4656896985569],[127.04891270252651,37.4659634980575],[127.04835920266419,37.469352797971304],[127.04996370124891,37.4713215995745],[127.0498487008169,37.4744410999888],[127.05051830014729,37.474886899543],[127.04966570060681,37.4752265001218],[127.05082880079871,37.4753835002825],[127.0513264009569,37.4768234993535],[127.0538688003471,37.475401199264],[127.0546616998785,37.476545099538505],[127.0568181010922,37.475719199671],[127.05612530024911,37.476568899667996],[127.05714659990909,37.4769412991598],[127.0591511000721,37.4753667978468],[127.05837120162279,37.4773182991372],[127.0628928978483,37.476441797762405],[127.0654296999013,37.4777348980513],[127.0725027971359,37.4783282966894],[127.0748134954227,37.4760834980796],[127.0722516979845,37.4719978021653],[127.07069539954071,37.4721506964607],[127.0722517032079,37.4719977973541],[127.077111598348,37.4750565942953],[127.0798557979429,37.4747412935878],[127.08454369452289,37.4727825945993],[127.08647759970529,37.4709390986701],[127.0865052017244,37.475355996908796],[127.088619700449,37.4759171965051],[127.0923027988735,37.4742919990814],[127.0919330999619,37.4733978993951],[127.0931550987399,37.4736498991431],[127.0937723983382,37.4726527997324],[127.0929050988693,37.470821098901204],[127.0957682004518,37.4712719976892],[127.09628560047341,37.4724868981862],[127.1002765997857,37.4718741976621],[127.1025246983929,37.4689410993816],[127.1012227989543,37.4678480999398],[127.1015680997614,37.465413400400706],[127.0994943976803,37.465327297925995],[127.10155119994741,37.4652192983674],[127.1026904990531,37.4623410989795],[127.107251799805,37.4575368987041],[127.10788150075531,37.4578626999104],[127.1068414013444,37.458864699562696],[127.1078905003625,37.462021898029306],[127.1102593010038,37.463746197438105],[127.1116126996504,37.46375719742711],[127.11339370003171,37.4621373986416],[127.11579469763069,37.462988797790196],[127.1173853960301,37.462511298083],[127.1194199939955,37.4589331016612],[127.11793829262331,37.4561134005208],[127.11797049011889,37.451775998824104],[127.11874848974139,37.446592300881896],[127.1182555892726,37.4429702981292],[127.1198030976263,37.4360436012675],[127.119091398338,37.4340937032174],[127.1170416999161,37.4321976000044],[127.1182706986871,37.4305248016772],[127.1167569999379,37.429367702836004],[127.1165463957751,37.4274121002792],[127.1177811990878,37.4286871988893],[127.1189865004181,37.4262661990876],[127.1215972016707,37.4296484979129],[127.1229968001545,37.4295440999469],[127.1221095012924,37.4299375005641],[127.1225781008238,37.4317993987022],[127.1241473992545,37.4313582991433],[127.12387869938121,37.4294939003455],[127.1249222983992,37.42781979901],[127.1239106994108,37.4259320008978],[127.1250384984761,37.4241083012683],[127.123037598561,37.423667300094195],[127.1237496990979,37.423616598033],[127.12436719829279,37.4188987007183],[127.11944629772631,37.4149072031083],[127.11991189783261,37.4126416002848],[127.1185473995366,37.4103785001344],[127.1191682992138,37.4093770992237],[127.1184735996878,37.4050939008292],[127.117195599871,37.4067005005839],[127.1165517995368,37.4056442003885],[127.1154876989881,37.406295200342804],[127.1138655997685,37.403275001057104],[127.1130028998582,37.403649800606594],[127.1129749989919,37.4025459006609],[127.1111381985385,37.4024243999963],[127.1084286993016,37.3998395018343],[127.1088202991921,37.398875999962],[127.1069432998902,37.3979908001362],[127.1070944996377,37.396586300133606],[127.1059044997601,37.3946942997993],[127.1061717003809,37.394173599341805],[127.10648300034559,37.3948935989942],[127.1090838977447,37.3948898989979],[127.1085064982103,37.39246699838311],[127.1096703987516,37.3912801985473],[127.1110634991744,37.3914741990166],[127.1110534992005,37.3897001006117],[127.110224899616,37.3896369997158],[127.1112021997116,37.3896193995288],[127.1120721993695,37.3879327999002],[127.11317229968961,37.3875724997217],[127.1142068995902,37.385206399473],[127.1125789995341,37.383543600032006],[127.1137007999083,37.381873899474805],[127.1156438979652,37.381717199631495],[127.1130298996047,37.3795980009928],[127.1116417997969,37.380918600185204],[127.1108021002709,37.3795226009561],[127.1089029015458,37.3787916015024],[127.1072301006427,37.379682003331105],[127.109895598211,37.3770445995211],[127.109592598514,37.3751822012375],[127.1081334995037,37.375182200048094],[127.10969989841179,37.3738925997071],[127.1077835999048,37.3723706000725],[127.1079696985761,37.3717060006078],[127.1059327998917,37.3708577000003],[127.1044228997861,37.3685194999958],[127.1059545983888,37.3678224998392],[127.1047957979064,37.3666157004021],[127.1053020985625,37.3649670002076],[127.1042371984385,37.3637169000397],[127.10786519923681,37.3632451967987],[127.1082297000099,37.3599142997818],[127.109439700138,37.3616779994346],[127.10975099999611,37.361116298987696],[127.1102835003517,37.3616068999984],[127.109590200473,37.3621905001065],[127.1100345004353,37.3634318994727],[127.1110800993897,37.3634296994749],[127.1108694996285,37.3622949998555],[127.1110742001547,37.3633046994939],[127.1116784003537,37.3626643999999],[127.1114070006239,37.3635724996269],[127.11237410011,37.363297799871695],[127.1123571008288,37.3643682996486],[127.113520100113,37.3641526994862],[127.1146338001397,37.3649807999473],[127.11525900088509,37.3667994999946],[127.1138078000013,37.3679202001618],[127.1129261002412,37.3675954009509],[127.1124380007287,37.3689672003661],[127.1091286005488,37.3705548012122],[127.1084673012101,37.3716599001071],[127.1088219008518,37.3731161989204],[127.1099826009371,37.3740982991899],[127.111778899421,37.3738604992882],[127.11144920014729,37.372932499573395],[127.1136822998149,37.3735007993057],[127.11453950022981,37.3727507993445],[127.11792199962859,37.3726036993874],[127.1173230002441,37.3733490997059],[127.1179507003298,37.3741451996111],[127.1196417997086,37.3729745994163],[127.1208789006509,37.3730942995913],[127.1207158003594,37.3742604997485],[127.1215687002205,37.3743089999818],[127.12093340058169,37.3747564997827],[127.1217257001216,37.3755125000855],[127.1209123003395,37.375617700205],[127.12107450183201,37.376968401769005],[127.119580901441,37.3783970993956],[127.1203540006679,37.379732298060404],[127.1234713994351,37.3798775988598],[127.1244535003087,37.378522499076006],[127.1263347003554,37.3784485000224],[127.1244535010461,37.378522500665206],[127.1234714012666,37.3798776003144],[127.1237776009604,37.380626599565396],[127.1265160006335,37.380733099013604],[127.12651200012111,37.381436600204],[127.1249171015838,37.3817652999173],[127.1235134000705,37.3843791998109],[127.1249955004223,37.3842788995564],[127.1263484994775,37.3858753984788],[127.1271746997617,37.3857988991755],[127.13217560045379,37.3825382990515],[127.132440600239,37.3841636986468],[127.13353050000761,37.3835844991115],[127.1334279004373,37.3844507002284],[127.1324406006754,37.384163700815705],[127.1321673000896,37.3857179004207],[127.1305770016799,37.385512800625804],[127.1282745039824,37.3882299979086],[127.13186830038859,37.3901580959805],[127.1371765004958,37.3900484993699],[127.13605710065501,37.390408900880495],[127.13575210096,37.3919847993046],[127.1377222007892,37.3919657999971],[127.1356735012195,37.3922861011459],[127.1336222028749,37.394233201001406],[127.13571970072499,37.396202199396896],[127.1366670998999,37.396478299736195],[127.1369021045166,37.3955677997455],[127.1351173013871,37.4036880014403],[127.1353599011089,37.4062204989511],[127.1366616998071,37.4068204983511],[127.1377756001079,37.405507899719005],[127.1415845007072,37.4098601998966],[127.1414963005784,37.4119271006162],[127.1397311012404,37.4126256999395],[127.14126240061721,37.414830199859196],[127.1405881007463,37.4145156005883],[127.1388471014509,37.4174596010186],[127.1373578029402,37.4178439006343],[127.1381632023943,37.4250912998737],[127.1403684001891,37.4268717980932],[127.14238909816841,37.426665898299106],[127.1436161004748,37.4273538989555],[127.14649850021091,37.426533899408405],[127.1496323008346,37.426766098866004],[127.1503310008784,37.4284111002181],[127.149405900787,37.4286849000599],[127.1494912007017,37.4294586992861],[127.15243650022349,37.430198098946796],[127.1521704006291,37.4308898994517],[127.1537315990679,37.431225599116],[127.153381099444,37.4304292998061],[127.1540283001623,37.4300307991699],[127.1566876975029,37.431465697735],[127.1600699000917,37.4298409980123],[127.16420070059209,37.4333854995884],[127.1675700009953,37.4322199987958],[127.1687953998315,37.4344987974966],[127.1703853016466,37.435044900619104],[127.1691991029908,37.437156999527296],[127.1742058031731,37.4403048013419],[127.17313040424851,37.4420757995709],[127.1729228021384,37.4473401984036],[127.1765729995887,37.4472315989463],[127.176613001406,37.4465692995233],[127.1771281024106,37.449105401002],[127.17518700259079,37.4502798001424],[127.17583670194111,37.4525240978981],[127.1790332043499,37.452214500672596],[127.17583670310471,37.4525241021516],[127.1756101033313,37.4548161998595],[127.17347240391389,37.4579290980996],[127.1760231019473,37.4600879968915],[127.172431803535,37.4617078018143],[127.1739688004155,37.4661257010543],[127.1729392975639,37.465209904503595],[127.1678400004717,37.4640036050218],[127.16423620182391,37.469269100782896],[127.1624466995776,37.4675833035175],[127.1589492030751,37.4689371021637],[127.1594415001252,37.4715821094581],[127.1525703999533,37.477134603399],[127.1517593000813,37.4807617003621],[127.1502062010716,37.4814976003077],[127.1495365017413,37.483066698738604],[127.1518791008347,37.484545697516495],[127.15675089699721,37.4843326970879],[127.1591741003926,37.4830530979871],[127.1677512012006,37.4847620960337],[127.1701544051539,37.4825208969041],[127.16835660759949,37.4860355990904],[127.170578204737,37.4897826996812],[127.1737121016031,37.4906016988622],[127.1709570990284,37.493165902372404],[127.1701034992707,37.4896550031022],[127.1630248027373,37.493546801741],[127.16111810464399,37.4964304988573],[127.1641657019353,37.500151199787695],[127.16345820258829,37.5018966982554],[127.1652032008433,37.503649096503],[127.16798489965929,37.503979295872895],[127.1697205055457,37.5027932970062],[127.1679232025984,37.504089002072604],[127.1684700011086,37.5063641006579],[127.1678977998135,37.5040823028358],[127.1648679028434,37.5068225000956],[127.1677705007521,37.507317400561696],[127.1643164007815,37.507019502521096],[127.1636113014866,37.5088793006613],[127.1645819016033,37.5109600019439],[127.163189699887,37.5119531001658],[127.1623116989853,37.5107218021942],[127.1598728005043,37.510260003793405],[127.1580534023237,37.5143512997021],[127.1603882999888,37.515721798331604],[127.1615379024977,37.51446819848071],[127.1613998022856,37.515851900737005],[127.1598150013392,37.5161003027459],[127.15901010214411,37.5183926004536],[127.1616733041787,37.520333699629504],[127.1597021018686,37.5204914012393],[127.15745030412039,37.522253499477195],[127.1597477011955,37.526291199701504],[127.1593746970154,37.5255911032994],[127.1559899004002,37.525174503716],[127.15513300125711,37.527306501584],[127.1555939007962,37.5300975987929],[127.1575665988235,37.5312798976106],[127.1602527002785,37.529942097079],[127.1593668017382,37.5328886983121],[127.1605774020413,37.5357329964104],[127.1628874026655,37.537016299744295],[127.1642803990674,37.541317097896],[127.1692154951136,37.540961897196],[127.17034269991781,37.5376913998385],[127.1713530998707,37.5387383989748],[127.1721554011056,37.538357299608904],[127.1713156005372,37.5395405021154],[127.1718172000356,37.541848699807204],[127.17446029971711,37.544143398753704],[127.1759487000631,37.5422887999288],[127.17505820159279,37.5437458997272],[127.1774835010353,37.547314898913704],[127.18034030017199,37.547463199956105],[127.1774835000588,37.54731490049841],[127.1762728010631,37.5493450002296],[127.1776498008601,37.5509236994889],[127.1790972001702,37.5512290995405],[127.1807498994031,37.5496408994877],[127.1799855993006,37.5488855994318],[127.1815614001556,37.5500822994296],[127.18265719905979,37.5493980001139],[127.1827222989664,37.5476579006016],[127.1812748990781,37.547551600312495],[127.1833748996666,37.545897198275796],[127.1860729000147,37.5469441993544],[127.1856950007782,37.548025900032],[127.18714490043881,37.5494449990734],[127.1887706001268,37.5481830998819],[127.1886612011904,37.5500293986878],[127.1902712010272,37.5518612996532],[127.1919674993309,37.551443200071304],[127.19148789944,37.5497113998493],[127.192931399526,37.5498194993188],[127.1929064995509,37.5489912001471],[127.19218889982031,37.5488091004978],[127.1923959997317,37.547819300796704],[127.1914637001439,37.548177600348104],[127.1903039992829,37.5471782994678],[127.1918432999021,37.547708199604806],[127.1922179995274,37.5469643003487],[127.19133329914389,37.5469362001052],[127.1922733998546,37.5450557999947],[127.1922346002151,37.5462381988254],[127.1935554988942,37.5458317992318],[127.1936223002758,37.543672299548895],[127.1941863002586,37.5448867994546],[127.1964649993921,37.5440385998806],[127.1964755993815,37.543468300450904],[127.19477379983589,37.543635499977704],[127.1958395997013,37.5425228997057],[127.1949958995296,37.541336899976095],[127.19570539847669,37.5391944990956],[127.1968872985056,37.5383505986691],[127.19580089950459,37.536760799423],[127.1966300995009,37.536739599907996],[127.19650820022609,37.5361091990233],[127.1982733993036,37.5365878987703],[127.1978849998888,37.5328235999012],[127.1990595994982,37.533007400070204],[127.1998047999515,37.53148379988539],[127.202065399205,37.532154399605105],[127.202203399067,37.5312807004788],[127.20136769789261,37.5310218970978],[127.2019547001091,37.5308267985286],[127.2041726008028,37.5327747991085],[127.2049359000395,37.5346388972444],[127.2071727002127,37.536031095932906],[127.2096700994461,37.5329852986593],[127.2163308009922,37.5329838988062],[127.2167989017852,37.536774196575706],[127.22021549836859,37.53547989787],[127.22125099978939,37.5342598975027],[127.227629299656,37.5337070990844],[127.2285912000572,37.533983599993],[127.2285684002394,37.535365699131],[127.2298328046037,37.5350404985443],[127.23276920166731,37.536146597438204],[127.2340243009949,37.5397088999355],[127.23055359915449,37.537709400777395],[127.2296644999937,37.5379442005088],[127.2299631023461,37.5415322992104],[127.2316864006228,37.542975197767504],[127.2329732009909,37.541948599463396],[127.2326050001795,37.5430429002026],[127.2307440003668,37.543748900800196],[127.22962940067279,37.5429131013573],[127.2270641018388,37.5440745008729],[127.2275070003937,37.5453982004937],[127.2260221001894,37.5453075007117],[127.2256440004441,37.5463037004274],[127.22211780035401,37.5467078001923],[127.221603400337,37.5474461005669],[127.2187924990033,37.5470983010271],[127.2176067996724,37.546108801623],[127.2159496005446,37.5471105009345],[127.2162895002047,37.549528698516305],[127.2176684996107,37.5481833995484],[127.2185793003552,37.549194800840304],[127.2152554003178,37.5505144013786],[127.2127391007508,37.5531141006092],[127.2124659012148,37.554697101079],[127.2034462018929,37.562427802616405],[127.2039725010344,37.5693291003796],[127.2025870020118,37.5708842027052],[127.20268580034009,37.5732646013888],[127.1996773966118,37.572367701664504],[127.2006499984919,37.5704586999487],[127.19918889898099,37.569965900329],[127.19915189881631,37.5691733009862],[127.1977360999223,37.5693439004755],[127.19621740082009,37.5701840010455],[127.1945307003901,37.5756654008771],[127.1908291000806,37.5758154003812],[127.18719779977961,37.577374900223504],[127.1866822997172,37.5762343009467],[127.1859837998195,37.5770444002387],[127.1848378999541,37.5763923007122],[127.1849745998682,37.575354600895395],[127.1813593998326,37.5743441000041],[127.1808047995261,37.5730885998227],[127.18215259940469,37.5731286996449],[127.18198029984681,37.5717356004201],[127.1810185997572,37.5724479003044],[127.1806399999607,37.5711679005995],[127.179155799913,37.570827500458],[127.17808249975751,37.5717074008446],[127.1784354997098,37.5700802002519],[127.17737370039491,37.5691115011065],[127.1763673989881,37.5704190012196],[127.1752843997562,37.5691966007145],[127.1713921994565,37.570245901862705],[127.1720355995222,37.5683812006779],[127.17054249773929,37.5677769994806],[127.17190139936599,37.567064898549],[127.1723972989867,37.5655441994511],[127.1694480010275,37.563786201366206],[127.1626029997285,37.566677301192705],[127.1569199011667,37.571781608007],[127.1581321994335,37.5692755005334],[127.1572426003231,37.568602901206],[127.1565686001085,37.569716101625],[127.1531729991934,37.5683413987432],[127.153424600314,37.5667832984468],[127.1531730009919,37.5683413994509],[127.1542491999553,37.567934899814],[127.1565685993065,37.5697160989805],[127.15697109895191,37.5674213011868],[127.15482039949211,37.5675464998859],[127.1569710985636,37.5674212991112],[127.1569408995552,37.5632284009056],[127.15644050005561,37.562913301220696],[127.15571299806071,37.5639192011354],[127.1547888989848,37.5627120023426],[127.1519815994577,37.5620344030392],[127.1485801006775,37.5640752011092],[127.1484019000982,37.565606200279795],[127.147317001228,37.5663045003535],[127.1430426026123,37.5628965036991],[127.1416350045008,37.5667664067728],[127.1390681017225,37.5668924080462],[127.1392619015287,37.5748252001134],[127.1381838009595,37.5758820000221],[127.1390914006099,37.576315000332],[127.137874500279,37.576008801068895],[127.1379509991171,37.5773565012556],[127.137309299896,37.5758938012043],[127.13696249994689,37.57719470133],[127.1344726024368,37.5784469000778],[127.13492790047249,37.5815179010536],[127.1310579004267,37.5816887018963],[127.1296409016709,37.5835867006929],[127.1308289005157,37.5849254019838],[127.12957270016639,37.5836003021882],[127.1264228009235,37.582652802625496],[127.1247651005814,37.584048602204305],[127.1227812993226,37.5837403007838],[127.1243836982849,37.5828842003651],[127.1217730953605,37.5789587017033],[127.1212610958725,37.5768293038327],[127.1170065001271,37.5763453043167],[127.1144081027255,37.5789842016778],[127.1132865997494,37.5786869021089],[127.1121080004367,37.580710802106296],[127.11037530128961,37.5817141016438],[127.11012010290061,37.5871170001798],[127.1069367021586,37.5882577036415],[127.1052505038448,37.5906566012426],[127.108238300857,37.5931303987688],[127.1094379023784,37.592624998314896],[127.10823830138959,37.5931303997183],[127.10757850327221,37.5971895979769],[127.11193379891691,37.598872796293705],[127.1122775019017,37.6002551986143],[127.1156866022967,37.601709900736104],[127.115589402709,37.603859200737205],[127.1136726006584,37.608510601275604],[127.10993060107,37.609846602363696],[127.10851960039159,37.609575302162405],[127.1074070995881,37.610829902145],[127.1033386003437,37.6125068001845],[127.1036053000133,37.613447901423896],[127.10255989953531,37.612684601439604],[127.10166250043271,37.612991201133006],[127.1023768002491,37.6158851003323],[127.09998830053911,37.6142038020526],[127.0959453009103,37.6156769008515],[127.09503680181881,37.616855399673],[127.0980258004099,37.618467099688495],[127.098064401194,37.619567700769],[127.0946246013418,37.6224168994021],[127.0943282021374,37.6242320978957],[127.0969165001907,37.6251872973374],[127.09774469936251,37.6244411980835],[127.0989028000676,37.624833798381395],[127.0984831009433,37.6258057994526],[127.0993821002782,37.626251300157],[127.0971052014114,37.6259833011744],[127.0962596013524,37.6278539021398],[127.09310440087461,37.6273967022227],[127.0916102023688,37.6288415007779],[127.09147849835989,37.6258008006869],[127.08917990065851,37.62545770103],[127.08873800134981,37.62681340200891],[127.0866586034292,37.6269147019076],[127.0851392049741,37.6280321011501],[127.0828584072549,37.632462896719304],[127.0802391013381,37.6352393991228],[127.081686301233,37.6378777028082],[127.0787162042031,37.6375140031719],[127.0771401057792,37.6381066025793],[127.07645000561959,37.6444480010963],[127.0742197018257,37.6462836012862],[127.0742541018747,37.648468600346504],[127.0725616017234,37.648926599920905],[127.07420949996789,37.6507199988707],[127.07545000128971,37.6506899999647],[127.0729398020181,37.651458400730704],[127.07389380033729,37.653436801263],[127.07203560092371,37.6522023014807],[127.07213390082539,37.6540975995854],[127.0709777009223,37.6561153990805],[127.0747302007308,37.6565453980759],[127.0751302006108,37.6581627989071],[127.07689979884121,37.658346898722996],[127.0768234013221,37.6572014991265],[127.0768998012457,37.6583468979811],[127.0799137000703,37.661201795165],[127.0801610007805,37.6625331030493],[127.0780127007308,37.6632770025506],[127.07774950008529,37.6659286006981],[127.0767089004513,37.664509601237405],[127.07563670107831,37.6648896010319],[127.0757040981644,37.6657673026991],[127.0719663996935,37.665692700227204],[127.0704659997012,37.6651181002094],[127.0703640993558,37.6625702001995],[127.06892100059291,37.662911300639195],[127.0696029990238,37.662070299960305],[127.0683617002651,37.6611992008314],[127.0666507005872,37.661434000387096],[127.06711470024071,37.6621189999702],[127.06647030033851,37.662904599536695],[127.06860020064981,37.664075100552],[127.06792500030261,37.663697300757406],[127.0663401002527,37.6667714002716],[127.06415920005901,37.6668671002739],[127.06280940111881,37.670955899732306],[127.05901249948589,37.6703794008474],[127.0578641006343,37.6714908997359],[127.05817910122211,37.673674999497806],[127.0614094003614,37.6744272993541],[127.0602831016902,37.674987299736195],[127.06071300126031,37.6789550957684],[127.0628283021245,37.6795375987975],[127.06071299870531,37.678955101415305],[127.0588576005607,37.6799825003879],[127.05846890151639,37.6827707996192],[127.05648499914709,37.6823255019836],[127.0549575006746,37.684008400300705],[127.0554024005409,37.685282201634],[127.0547965994551,37.683410301330696],[127.05216399883331,37.6819282013381],[127.0530974980072,37.680374101302604],[127.05159359951111,37.6794419022348],[127.05055560054909,37.6804711012056],[127.0507955002018,37.6818650014013],[127.0505555996176,37.680471101509],[127.0476961998085,37.6807066010129],[127.0473067990275,37.680142700474995],[127.04929529805909,37.678363599404896],[127.0487497000632,37.6770063990323],[127.049487899325,37.6774735985651],[127.0508113980015,37.6765197995189],[127.0514675996624,37.673364299297006],[127.05394719912769,37.673587398924205],[127.0540309989442,37.670701801321805],[127.0522858999348,37.6708931009954],[127.05123139968451,37.6679879003827],[127.0506002995987,37.6684087005769],[127.0499303986924,37.667265400663],[127.0514050982973,37.6664222993671],[127.0522848984624,37.6642273000307],[127.0521541985931,37.662824401433596],[127.0505705983887,37.661806499516494],[127.0522286987085,37.6616365993311],[127.05280379887151,37.6599755985317],[127.0540032998616,37.6614164974777],[127.05513189873301,37.660946197948],[127.0574935980547,37.6574650986444],[127.0595166994343,37.6579314989639],[127.06069259894099,37.6567556996192],[127.0600529990542,37.655578800042],[127.0551602000553,37.6546730003068],[127.05457730031131,37.6539608008343],[127.0534961001015,37.6546753000355],[127.05192400118369,37.654113901676],[127.05144590166181,37.655671900118],[127.0533451008644,37.6562566005609],[127.0514458982856,37.6556719013723],[127.0505713997228,37.6539770015684],[127.04869119907559,37.6526784006632],[127.0489987984012,37.6517581977196],[127.0514283981049,37.6521253948232],[127.0518665976667,37.6461100008386],[127.0526211984792,37.645147200275694],[127.0516003985619,37.644526500263595],[127.052625200026,37.6447514994565],[127.0544999993666,37.643557300054795],[127.05402069999529,37.6426055004628],[127.0524516000631,37.642656199338695],[127.0562319980491,37.641846298698695],[127.0574995988511,37.6422597985449],[127.0579394996013,37.6399080997662],[127.05996889929101,37.639902298540704],[127.05996569929421,37.6383001001429],[127.0590635974176,37.638063100714],[127.0573737995169,37.6353425005093],[127.0583956984544,37.634755499525],[127.0572629996893,37.6326095004243],[127.0583023998158,37.6323480997952],[127.0586404989145,37.630211801223496],[127.0576903998646,37.6293581020772],[127.0559873992218,37.6300403016486],[127.0557589996255,37.6281489988025],[127.0588267004888,37.6283188991971],[127.0590703003345,37.6297151990737],[127.060191799213,37.6300279987609],[127.0609702991511,37.6270695990024],[127.0633954992232,37.6235564988081],[127.0648199977987,37.6230522993123],[127.06217099908811,37.6204973009583],[127.0630368991803,37.618042001873306],[127.06166849980869,37.6183553013641],[127.0609986994393,37.617498400871405],[127.06005569957831,37.618009300191],[127.0586870995726,37.6168987003387],[127.05927269930619,37.616753599953],[127.0574768993602,37.6136213998724],[127.0579809988561,37.6125592009346],[127.0563199997736,37.6115100015897],[127.0553424007512,37.612440700659],[127.054567400372,37.612067101079695],[127.05340000066779,37.6142700000621],[127.0549557997838,37.615180899322596],[127.0558658009709,37.614407799175005],[127.05531000051481,37.6157900006979],[127.0531628994627,37.6163935005366],[127.0513800996972,37.6154711005597],[127.0506573998738,37.6159588000765],[127.0512104994332,37.614141600334804],[127.0503510999642,37.613383899302505],[127.0510559992593,37.6135788991075],[127.0523441979711,37.6118483008381],[127.0511445991707,37.6113735013129],[127.04878330009339,37.612296500327],[127.0477193004093,37.6114039006223],[127.0474889999651,37.612047200842596],[127.04747189940281,37.6104137001156],[127.0455006008746,37.6094751010943],[127.04550180048639,37.611328299335],[127.0461282003,37.6112137004073],[127.04550179953739,37.6113283002424],[127.0449092986643,37.608211000274],[127.0431008004728,37.6075356009494],[127.0417753002811,37.608822001344905],[127.0383660006081,37.6050382008596],[127.0383364003942,37.6063785005973],[127.0377247993333,37.6066633004545],[127.0383363994801,37.6063784999271],[127.03762249986289,37.6054355006727],[127.0365113997062,37.6072859010294],[127.0363550998209,37.606127400352],[127.03338290038441,37.6069267008737],[127.0331685005988,37.6081515996488],[127.0358945009148,37.6092807997082],[127.0346841010473,37.6095886001902],[127.0360322010078,37.6121054005446],[127.0350232019309,37.6146788992684],[127.0352472002253,37.616641599888204],[127.0329703999925,37.617141501515405],[127.0322113002409,37.618988800399194],[127.0278773005785,37.6195523006684],[127.025254299824,37.618434900110294],[127.02511829960591,37.6168501002615],[127.0236586990015,37.6163623993605],[127.0233194997289,37.6144123995094],[127.0241334996045,37.6130912004709],[127.0227598992621,37.6124078998585],[127.022674999347,37.6114925007739],[127.0212935003957,37.611184901189],[127.021366499499,37.6096576014484],[127.0193205003072,37.608548300803506],[127.0192113993742,37.609105101678004],[127.0172012005416,37.606729201748394],[127.015810600598,37.6074471017737],[127.015489300472,37.6091210007482],[127.013884600643,37.6099094001974],[127.0146046003838,37.6110551001218],[127.0135822007846,37.611507500056504],[127.0135616002743,37.6128699006472],[127.0119977005939,37.6136012008851],[127.0111616001899,37.6163401007123],[127.0084563005895,37.617600000965304],[127.0089084001374,37.6189127996525],[127.0103243002319,37.6194361992467],[127.0130752999732,37.6178427994713],[127.0147356001219,37.619069399120804],[127.0154072994502,37.6186116995785],[127.01499129929421,37.6171836996866],[127.0158997987459,37.616424098830706],[127.0176310005533,37.618904598603],[127.0195238001104,37.6192935996776],[127.0217945001438,37.618538799466506],[127.0221601007749,37.620052599069],[127.0231800000629,37.620328099682105],[127.02263710069249,37.621288099432604],[127.0240285008756,37.6216218997992],[127.0212707999798,37.623386400228604],[127.01974170016099,37.6230807008696],[127.0185639999044,37.623990400629],[127.0181658995339,37.6225044003658],[127.01744699973631,37.622520100102705],[127.017801199324,37.6218883005562],[127.0159810003196,37.6214072005505],[127.01546040042349,37.6221464998901],[127.0161621001691,37.6223251001575],[127.01371760017511,37.6226583005948],[127.0129308987714,37.6236637006926],[127.01179589858219,37.620052601105904],[127.01017349961299,37.619849101591],[127.0077118989671,37.617252800474105],[127.0088497989148,37.6162320991743],[127.00871199905261,37.6140185013879],[127.0062352015294,37.6139570014494],[127.0050959001,37.6175839003349],[127.0034201992914,37.616807300225595],[127.0033719998246,37.615994899172094],[127.0046676985289,37.6159391992278],[127.0032538997456,37.6143243004779],[127.00231119922479,37.6146984000652],[127.0010303998698,37.6113689999771],[127.0039562994653,37.610097199316],[127.0043501990886,37.608256599767394],[127.00508820057911,37.6091430990665],[127.0062326994346,37.6077504004592],[127.0055458992494,37.607461299004996],[127.00623939855589,37.606107300359],[127.0058836986015,37.6028497988377],[127.00755579896871,37.5988738003678],[127.0056842996387,37.5940420011319],[127.00478440053861,37.5936357015382],[127.0029004024226,37.594874900299004],[127.00272749997481,37.596951300754],[127.0006415002619,37.5957500006073],[127.0001551007483,37.596246300111],[127.0007418998286,37.5967202003474],[126.99765630008321,37.5960496009417],[126.9958932997267,37.597090300229695],[126.99644999914429,37.5967599996516],[126.9955586998129,37.5961783000062],[126.9958350997696,37.5949507005757],[126.99414449942701,37.59466050003191],[126.99449729947911,37.5930957002509],[126.9938585994651,37.592487199964204],[126.9949565989695,37.5915978003978],[126.9933326002435,37.591064600731805],[126.9926879994123,37.591984600369905],[126.9922616995853,37.590234300618],[126.991176499829,37.5904290001163],[126.9915992991162,37.5895841004652],[126.9896208997096,37.588657699991096],[126.9909522988995,37.5875129003045],[126.9903163995354,37.5869105009069],[126.9878049011337,37.5855781020267],[126.9876395007247,37.5861909013287],[126.9866688007279,37.5848875012795],[126.98463190023,37.5867192009098],[126.9851643993838,37.5842361014384],[126.9842066003416,37.5845286011459],[126.9838484004308,37.5857928010417],[126.9827859999295,37.5852685000767],[126.9826856999114,37.5842401004044],[126.98202180022899,37.5850625002023],[126.98064549972659,37.5838666006362],[126.9794319999346,37.5844736003349],[126.9802379993022,37.581921800703704],[126.9754166995802,37.5837618006565],[126.9749579990518,37.5830084008759],[126.97185909973291,37.5845919000578],[126.9693493997554,37.5824709006969],[126.9677153007482,37.5825101007663],[126.9660124996292,37.581319400355795],[126.96642899931281,37.5780193013883],[126.9627247005912,37.5770263016741],[126.961968200442,37.5782515009964],[126.96005150111671,37.578303700694],[126.9580097995276,37.580093302278],[126.9534842014712,37.5816037024847],[126.95258970172411,37.5834172011021],[126.9528197015352,37.5852067016014],[126.9517964997742,37.5865170030542],[126.95025419928861,37.586173002729005],[126.94895250059031,37.5873783015237],[126.9476930996523,37.5868707010498],[126.9467850001856,37.5880365005942],[126.9463226999093,37.5874933007006],[126.9440869005362,37.5880925004182],[126.9419910014527,37.5909051996989],[126.9432549000117,37.5921067004801],[126.9416262999209,37.591713400314305],[126.94069590003349,37.5926941017981],[126.9401253992358,37.5912745999446],[126.9406475990425,37.5897596003856],[126.9399396986279,37.5890060004034],[126.94082629880499,37.5877843004937],[126.9404946995671,37.5860840001142],[126.94240969946149,37.5861246994302],[126.9444021998449,37.5848032996313],[126.94567000004501,37.5854799995413],[126.94609729961631,37.583756900489696],[126.94531769987411,37.584307500339705],[126.94482949981379,37.5837705998323],[126.9492116985897,37.5822828981615],[126.9498025973321,37.5773065996156],[126.9516506983692,37.5771154988088],[126.9519254990538,37.5736519973158],[126.9524921005711,37.574946498129606],[126.9548984996727,37.574789798263595],[126.95615339843211,37.5712172999116],[126.9546039991645,37.5710920994703],[126.9561279987617,37.5711444992332],[126.9571904976992,37.5699478004299],[126.95533639955329,37.5683643020134],[126.9547735001162,37.5688051015726],[126.9554348979179,37.56741799979],[126.9543928989599,37.56639800081],[126.9532371000274,37.5657287005168],[126.9527419995661,37.5662796005691],[126.9521080996077,37.5650252007306],[126.951150098092,37.564965899941996],[126.9520669995868,37.563658099749794],[126.9520619992993,37.562466600471],[126.9513012995762,37.5623576999064],[126.9518893994638,37.5610592000961],[126.9493240009438,37.560182100697496],[126.9491297015283,37.561458901672],[126.945180800361,37.5632140014101],[126.94517209838949,37.5611305016407],[126.9410402995201,37.5613792004503],[126.93950700000441,37.560130700277],[126.93710469983151,37.562326200381],[126.9358170001254,37.5603498004203],[126.93334879960341,37.5607004001818],[126.9328020997193,37.5595926006026],[126.9301787005914,37.5591431003443],[126.9273961001109,37.56098520072],[126.9271755999603,37.561978400209505],[126.92655810011429,37.5614435004138],[126.9253570997783,37.561978700483095],[126.92510940013369,37.561189500270196],[126.9242801000092,37.5622234001087],[126.92427639926309,37.561239000558004],[126.9234154001241,37.5610769007201],[126.9235323996039,37.5619498004954],[126.9210176001301,37.5607888006343],[126.920037799499,37.561346699695605],[126.9193399993876,37.5579076006641],[126.9198968988849,37.5574227001057],[126.9182210996655,37.5553614001073],[126.9188796995306,37.5548106997167],[126.9186155998608,37.5529271997803],[126.9197983004524,37.553680199020405],[126.9218767000821,37.552400899508804],[126.9220615002984,37.5535619992832],[126.9228377000075,37.5523575998116],[126.9228755002788,37.5529485997174],[126.92492939996029,37.552458499836],[126.9247856001447,37.5530559995187],[126.9285002003718,37.5532907993818],[126.9293294999807,37.554136799606205],[126.930696999406,37.553747299730496],[126.9319689996382,37.552374800353],[126.9317442995524,37.5512810009465],[126.9302361998364,37.55031700005],[126.931168599577,37.550646899413394],[126.9314334995111,37.549350899351204],[126.9327883002905,37.548879299549306],[126.9329263004427,37.5497832994319],[126.9342418991271,37.5499827992324],[126.935273299946,37.5487122993893],[126.93772539985251,37.5488874993351],[126.9380071001646,37.548195299629306],[126.9393372995903,37.5489309991165],[126.9414852993614,37.5479751996394],[126.9409746997953,37.5465665000635],[126.94167980038141,37.5472347993787],[126.9437570997234,37.5456264996216],[126.9417740000531,37.543484900303],[126.9414937000734,37.544221700285505],[126.9413452997906,37.542825500357],[126.939956299575,37.54337090042],[126.93911729970321,37.542485400208896],[126.9395666984419,37.539096401342896],[126.9319007061079,37.5303241101152],[126.9300999020081,37.5312557103953],[126.9287955996188,37.529578800608505],[126.9279583997279,37.529856700226006],[126.92788789998791,37.5288932997579],[126.9297037984099,37.5286335990343],[126.9286050991585,37.526982498508204],[126.9297038001113,37.528633598213],[126.9304478995039,37.528519398412],[126.9341870989428,37.5257388988432],[126.93414389944789,37.524149399963],[126.9332477993038,37.5235747995713],[126.934955499463,37.5243766985989],[126.9376748001372,37.523268299599195],[126.9380569007166,37.5254498993953],[126.9433087014992,37.534791498968296],[126.94688810185549,37.5341073980317],[126.94711540049,37.5353256990168],[126.9479703000244,37.5356142988902],[126.94876560033511,37.5347328995775],[126.9499196994216,37.5349570991826],[126.9492837001941,37.5348664003496],[126.9492775007134,37.536335700034],[126.95042550045119,37.536416499577705],[126.9508445006033,37.5386717995052],[126.9523659005377,37.538362299755306],[126.95173920078251,37.5396868996284],[126.9534609998864,37.5393939997374],[126.9541421994878,37.5401697991219],[126.9555100999939,37.5391367997263],[126.9561868994526,37.5397749992347],[126.9552933995393,37.5382928000613],[126.9560900991816,37.5384032996212],[126.9566875989305,37.5369061005349],[126.955547899746,37.536913400333404],[126.9551624996981,37.5358740992371],[126.95812049948461,37.53675049943109],[126.9596300988633,37.5355893992949],[126.959031599677,37.5347912993628],[126.96031239912321,37.5347998988666],[126.961577599666,37.533731699108195],[126.9607883982702,37.5324222999751],[126.9640429989554,37.5313218987394],[126.963614699942,37.5272467011616],[126.9630731993618,37.5275254009586],[126.96104199924231,37.52527710011319],[126.9586287994447,37.5242932003551],[126.959095499683,37.5238869999419],[126.95796269906259,37.5233755002605],[126.95862549859639,37.5219721997027],[126.9618906005961,37.5202487994882],[126.9670391019144,37.5199909971008],[126.9689243000292,37.5191301979616],[126.96980719919631,37.5168811001913],[126.9651209038826,37.5094379076345],[126.95901549938581,37.5122988008449],[126.961004898606,37.5115603000732],[126.96031169929921,37.5104017012318],[126.95850369836309,37.51062750026],[126.9585921985361,37.5061565002934],[126.9617672002129,37.506473897456004],[126.9625856018595,37.5057945974343],[126.9662641981809,37.505669997558904],[126.9698137987682,37.5023713996359],[126.9698043987303,37.5015278000214],[126.97277579878839,37.4996188000217],[126.97271240016421,37.4986704994765],[126.9787144985089,37.4999804985953],[126.9805124982077,37.4971903994927],[126.9792883988071,37.494487301258005],[126.9762685979322,37.4935581034115],[126.9710729997995,37.489928400301594],[126.9731123981704,37.4879376002157],[126.97223279905,37.4863936017597],[126.9681024008907,37.4894638000534],[126.9680020001111,37.490874001055595],[126.96702339864551,37.4894227006253],[126.9645988010963,37.4894043002317],[126.9643796017906,37.4908613013839],[126.963486798598,37.490648900057494],[126.9626744989462,37.4894469997696],[126.96451769773721,37.4859578997615],[126.96214349992809,37.4827509027471],[126.9601750014457,37.4880993011173],[126.9591553008325,37.488337800580794],[126.95898079996981,37.489451100498094],[126.9575053010276,37.4892338005654],[126.95653880059301,37.4912159997643],[126.9582104006264,37.494451999671],[126.96119470100159,37.495250301501905],[126.96038900008311,37.4947269001456],[126.9603343015047,37.4955975016624],[126.958450700659,37.4966671007405],[126.95863599957259,37.4949792009545],[126.9568797001009,37.496175800186805],[126.956498099954,37.494870100607],[126.9555127009394,37.4951665003106],[126.95561010044901,37.4977701990521],[126.9573397000815,37.4974236000353],[126.95361950282211,37.4995806008793],[126.9546992025969,37.501165202205506],[126.9535939000934,37.5016963009201],[126.9530147001156,37.500895200769605],[126.95226110086921,37.501182300482505],[126.95197920108849,37.5023475997377],[126.9535150010241,37.5033661002153],[126.95175090085199,37.5038162004626],[126.9522637999829,37.505500300232804],[126.9509759991894,37.506503101084206],[126.9487141005915,37.504573701881704],[126.9473913010772,37.506251500599],[126.94808139983651,37.5070816005542],[126.9473912987609,37.5062515011426],[126.9459893996261,37.506757201340605],[126.9439549006525,37.505219301173604],[126.9427216004451,37.5052079007044],[126.94227430076309,37.5069463007816],[126.94129030067441,37.5059092012988],[126.9409920007717,37.5074317999462],[126.940054800725,37.5074971004965],[126.94165050048089,37.5093553996592],[126.941249200938,37.5099407995707],[126.94204640074659,37.5113382985806],[126.94460430009319,37.5099850984595],[126.9459540000334,37.5103165996615],[126.9453143015329,37.5116636996085],[126.9472442007335,37.5118888994859],[126.9485912998151,37.5135073994891],[126.94994669833059,37.5109684996026],[126.9510504999775,37.5120345979281],[126.9532808994797,37.510618798158404],[126.9559361013383,37.5113664999714],[126.9563875002225,37.5138507000424],[126.9497333976246,37.5153151013022],[126.9514368982328,37.51441859955],[126.950155699514,37.5126453013233],[126.9460374003492,37.5144054016236],[126.943239299921,37.513091100578194],[126.9426760001494,37.513797100180795],[126.9392270009524,37.5137152002702],[126.93913020035829,37.5144439002129],[126.9383625999079,37.513099600264795],[126.9376676000766,37.5130788002582],[126.9373216005244,37.514139100150004],[126.93488019864759,37.5131473017455],[126.93464399938871,37.5123608998153],[126.93575630051389,37.511778999104095],[126.9376523990587,37.5124467995684],[126.9371762990939,37.5114694994136],[126.9401359989234,37.5091908999178],[126.9393995998559,37.5051786008074],[126.93802050123499,37.5048081011779],[126.93723569957581,37.5067311014416],[126.9360608988569,37.50633590048071],[126.9354029995133,37.5045232995378],[126.9358788998493,37.5029379986785],[126.93673820013139,37.502592499803896],[126.9368041000655,37.5034969988994],[126.939149199444,37.5036245975637],[126.9410871999672,37.5019238995449],[126.9404114007343,37.50276859974],[126.9430197997508,37.504429199064894],[126.9442709991652,37.501858199604],[126.9451936993694,37.5018334994529],[126.9447979997651,37.5004497008367],[126.94338359896341,37.5012058001002],[126.9447979982492,37.500449699354895],[126.94422539987069,37.4992717998297],[126.94747500013679,37.5005882997599],[126.94730490042251,37.5019249987743],[126.948331399396,37.5008529998463],[126.9476671994292,37.4996970993922],[126.95055859946059,37.4997384991149],[126.9490034980987,37.4963654002728],[126.9490690994359,37.494838899864995],[126.9492612007619,37.4954947993006],[126.9510288989942,37.4955070992883],[126.9506701993529,37.4940359007595],[126.9488624996216,37.4936714999901],[126.9508159002997,37.492546199219],[126.9522691995335,37.4942072981385],[126.9533970984056,37.4930214993243],[126.95288689859359,37.491502099962695],[126.9536694998467,37.489987899999605],[126.9528663000684,37.4889271006537],[126.9520151001085,37.488461201286505],[126.95140009926381,37.489424300864506],[126.9491231995639,37.4876262005715],[126.9462612002602,37.4869935008768],[126.9456403007072,37.4880458005565],[126.94330689982469,37.4875720008226],[126.9427445000916,37.488472200289294],[126.9408589991425,37.4888657005016],[126.9403326994408,37.487886700831496],[126.9374492998362,37.4880635006793],[126.936588699972,37.4870003004868],[126.9351372999296,37.4877398002853],[126.9352720992516,37.4869444008623],[126.9342029000255,37.4868982009373],[126.9332471004717,37.4873233008852],[126.93321060045689,37.4891088999539],[126.93260720065811,37.4892054003923],[126.9336122002273,37.4903552004272],[126.93169420095259,37.4911101002112],[126.9323656002812,37.4915430997782],[126.93204260011261,37.4922050000544],[126.9311808003425,37.4916171007921],[126.9305952004897,37.492718000262904],[126.9284817004016,37.492578701209105],[126.92834260057549,37.4943259996731],[126.9273822000888,37.4949305003619],[126.9249646005478,37.492750201321606],[126.924170401342,37.4928687012031],[126.92350670200571,37.493908400163406],[126.9243681003441,37.4961311006259],[126.923334899823,37.4952754010509],[126.9220490000613,37.4961710008638],[126.9226510985605,37.4953967006988],[126.92056919990391,37.493820300311306],[126.9174450009166,37.495174001113796],[126.9167261016355,37.4963969998908],[126.9191117004052,37.4974251001151],[126.9176956004902,37.497427100573006],[126.9171792004183,37.4981736004534],[126.9171420991926,37.4972815002613],[126.91607579956501,37.496794099609104],[126.91676199940501,37.496652799873],[126.9164442982827,37.4943788003573]]],[[[127.0167158994759,37.6263804001652],[127.0180961991114,37.626373799556106],[127.0183354000952,37.625557999318],[127.0187297001234,37.6265552990265],[127.0203587999634,37.626579499573],[127.0204949000645,37.6244987994843],[127.02790080031819,37.621565699245295],[127.0287672009365,37.6227955002282],[127.0285228010386,37.6243692990981],[127.0304200003424,37.6246699990811],[127.0298446006709,37.625490999293696],[127.0307762999607,37.6254727996392],[127.0308407010381,37.6262994002189],[127.0299057006027,37.6277358997922],[127.03060020060599,37.6285764998955],[127.0282747001847,37.6272117004949],[127.0244799997264,37.6310030007435],[127.02080049937311,37.6266478003788],[127.0180068996253,37.628581300518704],[127.0167315996135,37.6275426996941],[127.0173451995649,37.6271975999342],[127.0167158994759,37.6263804001652]]],[[[127.13428189956771,37.6055503002629],[127.1353465992094,37.6022675997058],[127.1361957993467,37.6026707990128],[127.13569859910099,37.601216099995],[127.134672599785,37.6007337998801],[127.1367412995461,37.5998972993222],[127.1371297994086,37.598533499791],[127.13788009932681,37.5987381995118],[127.1382649992359,37.597596099729294],[127.13976840004999,37.596756199349],[127.1437396010178,37.596898699349694],[127.1445911006842,37.598324299141],[127.146174699918,37.5989992986024],[127.1459958003687,37.599692899410904],[127.14975359898929,37.599711998004],[127.1509099009349,37.598714099309],[127.1498720005172,37.6014187010456],[127.1488978014914,37.6019699004944],[127.1477194010561,37.6060699003842],[127.14946670023531,37.6079199000618],[127.148759000425,37.609433600240905],[127.1473519008605,37.6091259006175],[127.14727290097301,37.6102384001433],[127.1450573014946,37.609275701631496],[127.1439999024795,37.6105478006605],[127.1431365997586,37.6095251007671],[127.1415809997726,37.6109792001944],[127.1393653993964,37.6105599002937],[127.1382248992529,37.6098439998439],[127.13710649936961,37.606950200838],[127.13428189956771,37.6055503002629]]],[[[127.1552270988261,37.6091862998873],[127.1562716993083,37.607459000439995],[127.15540489978879,37.6071833999389],[127.15841330012071,37.6059128996243],[127.158756000466,37.6064554002576],[127.1571891001839,37.6086461997994],[127.15908209981741,37.609436199615],[127.1601534999897,37.6087630996745],[127.16321790000731,37.6100913990025],[127.1646413001154,37.609000199524],[127.1663205002217,37.6098901997859],[127.1674891010384,37.612896599452],[127.16340600040739,37.613583300662],[127.16195409970881,37.614612100533805],[127.1616563990406,37.6135509011649],[127.160096200059,37.613844701066604],[127.155370098504,37.6115798006766],[127.1566441991738,37.610536500227404],[127.1552270988261,37.6091862998873]]],[[[127.0215718997021,37.6389564999743],[127.02281979914949,37.6382725001146],[127.0220351996565,37.6378092999756],[127.0228636993515,37.6378870996474],[127.0231435991899,37.6366238004518],[127.0224291994982,37.6360482990685],[127.0233553999637,37.634868499803204],[127.026898299628,37.6357586997269],[127.0271858000205,37.6349410996352],[127.0271738002862,37.6357804991795],[127.0289453005051,37.6359175000366],[127.0287839004686,37.6393186002691],[127.0274412000199,37.6397866010291],[127.0272568000328,37.6406208006073],[127.0245705000627,37.6400563006604],[127.0234318999522,37.6406087004073],[127.02359539955741,37.6391098006371],[127.0227300004228,37.6390400007069],[127.02265319994679,37.6397136004664],[127.0215718997021,37.6389564999743]]],[[[127.1074038995842,37.3515340008888],[127.1083882003222,37.3517791995055],[127.10977719937709,37.35060819953021],[127.10992569922861,37.349503400635],[127.10882309988729,37.350029701255],[127.1088350999123,37.3486949999444],[127.109501499657,37.3491397994796],[127.109933999888,37.3469682005092],[127.1088385003588,37.3458408988309],[127.1120529001215,37.348139700000495],[127.112054000375,37.3498476993446],[127.113515300385,37.3495195999146],[127.11310749978949,37.351094500494405],[127.1110434004803,37.3506292005792],[127.1114741003138,37.3522345002174],[127.1110370995532,37.3513198004813],[127.10912330021439,37.351311700348695],[127.1083721009951,37.3523144004488],[127.1078600001554,37.351777800648904],[127.10756209942599,37.3523080001148],[127.1074038995842,37.3515340008888]]],[[[127.0417465977406,37.6908345988784],[127.0433806997919,37.6917409984405],[127.04488339959471,37.6906177995266],[127.0452191994501,37.688767400646405],[127.0423513994877,37.6889867003892],[127.0411168996966,37.6880743006359],[127.0439266990204,37.6864971993882],[127.0437337991851,37.6854322993548],[127.0447632999147,37.6858919995402],[127.0465034999589,37.6843887994797],[127.0459943007569,37.6848567997649],[127.04654890020231,37.6854216992],[127.0507564003458,37.686171099715004],[127.04935970168479,37.688310301057],[127.0492245004923,37.6907395002472],[127.04653780066559,37.6905444009],[127.04492410000961,37.692695800936704],[127.0417465977406,37.6908345988784]]],[[[126.9095104993048,37.5491834997386],[126.9092207999098,37.5485565992687],[126.9122173995229,37.547312199435304],[126.91203129940449,37.546312099551905],[126.9127244996816,37.546153799596],[126.9130995005883,37.547068599191405],[126.9149426002695,37.546533099486595],[126.9177061006739,37.548059799870195],[126.9171739006536,37.549585400431795],[126.9163410005665,37.5498524000681],[126.9171237009965,37.5520289007382],[126.9162644003078,37.551836600661204],[126.9158664000053,37.5527624005518],[126.9135846999895,37.552061700882206],[126.9122130001708,37.552761101063],[126.9098620998555,37.5504840006544],[126.9104518992335,37.5492433000826],[126.9095104993048,37.5491834997386]]],[[[126.9325649992216,37.601123899605],[126.9334537003709,37.600343299123196],[126.93380500108081,37.6010110987971],[126.9359716993215,37.6008037991567],[126.936942699399,37.5984650992566],[126.9377616002947,37.5984585996402],[126.9368302005191,37.5994266000109],[126.9377620001334,37.599571400188104],[126.9359717000726,37.60080380009],[126.9354502004176,37.6021604998816],[126.93632220075021,37.6029833004156],[126.93578360002739,37.6023453006875],[126.9341788007448,37.60299129994],[126.9348503996424,37.6036669001156],[126.9341787995589,37.6029913003997],[126.9350251989205,37.6025479003264],[126.9338340001117,37.6012918015825],[126.9327226993692,37.6018720006331],[126.9325649992216,37.601123899605]]],[[[126.9074462983658,37.4882097001243],[126.90778589902689,37.485909399432295],[126.9110645998112,37.4842913994342],[126.9147416997849,37.4837790987108],[126.915673000647,37.4854235993391],[126.91696430099701,37.485917300177995],[126.9174298006878,37.4878990991649],[126.9185523002548,37.4881037990883],[126.9190495003696,37.4896943999262],[126.9170199007259,37.489434100408396],[126.91727490015279,37.4907980002509],[126.9163728981988,37.4909209012674],[126.914175700396,37.4897921023962],[126.91173709889749,37.490430101019],[126.9111266995079,37.489685601763505],[126.9096912009434,37.490134701314396],[126.9089688997974,37.4885484017871],[126.9074462983658,37.4882097001243]]],[[[126.9078757997249,37.555416199957605],[126.9108020998396,37.554291899622605],[126.9103695005834,37.5547656996171],[126.91163979931311,37.555003499379296],[126.91197910004189,37.5543074999373],[126.91163980026191,37.5550034994199],[126.91276320023731,37.5564214000869],[126.9094530000225,37.556795100747],[126.908838500263,37.5574816007366],[126.9078757997249,37.555416199957605]]],[[[127.0488319991212,37.4535860010256],[127.0506224966489,37.4526110992051],[127.0507749959585,37.451406397441204],[127.0525457949028,37.449517296588894],[127.0524027950458,37.442221103885096],[127.0499354996556,37.4404895998449],[127.0524027988333,37.442221096891195],[127.0532782048513,37.441555196205],[127.0575137010209,37.443128194934395],[127.0619481004086,37.439167198167],[127.06332880810889,37.4427551006878],[127.060989703758,37.4436515036503],[127.06026350448421,37.4460724012294],[127.06408670132211,37.4480195021826],[127.0584834041438,37.4519174007154],[127.0606023020196,37.4546071012269],[127.05870660053259,37.452890002968],[127.0570736990373,37.452615702112304],[127.0540936001992,37.455072800387505],[127.0531900000247,37.4543928011888],[127.0517094998107,37.455587100415606],[127.0498254005408,37.4555425009391],[127.0498677998788,37.4542497012041],[127.0488319991212,37.4535860010256]]],[[[127.0917575985459,37.2014869994885],[127.09250679965929,37.2014378995961],[127.0925346999817,37.2004228991723],[127.09478609787459,37.201280098314996],[127.0949402000073,37.1985397998878],[127.0977592007062,37.2012797993536],[127.0985004001815,37.2011798998538],[127.0970145003672,37.201627301199],[127.0959750990097,37.2033635001597],[127.0949123000061,37.201358900248],[127.0917575985459,37.2014869994885]]],[[[126.920258599281,37.5230448999811],[126.9213231987118,37.522164199203196],[126.92075199961879,37.519193998504],[126.9242141007347,37.5213284970824],[126.92754700087191,37.5183604005287],[126.92727290114601,37.5198725990165],[126.92800050102049,37.520312298948],[126.9274120014492,37.5236486003254],[126.92851350062969,37.5243283003991],[126.9264292991672,37.523230900894],[126.9255666998845,37.5240979001645],[126.9230790004834,37.5235045014606],[126.9217739998936,37.5246877008919],[126.920258599281,37.5230448999811]]],[[[127.0764499974185,37.6674040010624],[127.0825419001273,37.6691447993109],[127.08308890034691,37.6702717998831],[127.0814922007018,37.6728928004513],[127.0782951000604,37.673111200657104],[127.0782525993461,37.6724078009489],[127.07672799906601,37.6718656010286],[127.0764499974185,37.6674040010624]]],[[[126.91211329954061,37.5181116995479],[126.913792298779,37.5171527991615],[126.9181634008005,37.5175957012151],[126.9160261001887,37.5176202003202],[126.9137123997359,37.5188996009724],[126.91211329954061,37.5181116995479]]],[[[127.0333591991303,37.6481239993319],[127.0355516997837,37.6474677993479],[127.03545120022319,37.6480996995748],[127.0365807002208,37.6481779002299],[127.03530930054889,37.650019200883605],[127.0333591991303,37.6481239993319]]],[[[126.9260523991942,37.513740199770304],[126.9279730003083,37.5135765000051],[126.9274251011893,37.515163398814096],[126.9289972002849,37.5174324001817],[126.928273399316,37.517614700483406],[126.92856689978791,37.5167595999706],[126.9260523991942,37.513740199770304]]],[[[127.0439692990968,37.6524045006606],[127.04534909858839,37.6511524978989],[127.0478855003831,37.6517086004893],[127.04702280048339,37.6520246001354],[127.0466797016783,37.654603901261694],[127.04575869994429,37.6550706004166],[127.04580969958991,37.65354890027049],[127.0439692990968,37.6524045006606]]],[[[127.10318309934729,37.3500848999929],[127.1063544002603,37.349420099213305],[127.1070701991833,37.348089399659],[127.1078667005498,37.348150299791],[127.1079768000609,37.3486918007535],[127.1077501997704,37.347937100390205],[127.1070702004504,37.348089400237896],[127.1063544000206,37.349420100453905],[127.1044586019164,37.3500761997978],[127.1065083005907,37.350072399793405],[127.1063027990293,37.351419600695],[127.1063538983902,37.3505886010975],[127.10318309934729,37.3500848999929]]],[[[126.9009831987124,37.5342586989403],[126.9027599999603,37.5334499999159],[126.9031725003472,37.535723500446004],[126.901719299954,37.535983000336],[126.9023234991751,37.5355618999106],[126.9009831987124,37.5342586989403]]],[[[127.15036789962271,37.604510398996105],[127.1524222010311,37.6036916981444],[127.1533098002394,37.6048556996167],[127.1548035001659,37.6051451002838],[127.15036789962271,37.604510398996105]]],[[[126.91792019920089,37.5009467994681],[126.9200728999852,37.4981737994333],[126.9208785012279,37.4982231996146],[126.920926401552,37.499587099728],[126.92248650156111,37.4995507999636],[126.9209375015801,37.499903500456405],[126.9207887007796,37.5014288001553],[126.9198988006364,37.5017076015677],[126.91792019920089,37.5009467994681]]],[[[127.1907986007095,37.6042517976402],[127.1935720998906,37.60375899829],[127.1935113003545,37.601522898092],[127.1938512017941,37.6031247001782],[127.1954137002316,37.604773898529],[127.1983866006704,37.6041342985818],[127.1990038020756,37.6049541000698],[127.1961922027503,37.6071072027962],[127.19190880246629,37.607832805558296],[127.1905899993349,37.6068999999992],[127.1911328991853,37.6057014997345],[127.19171469964931,37.6058409994169],[127.1907986007095,37.6042517976402]]],[[[127.105461699477,37.339653600308],[127.11026820145419,37.3380665993502],[127.109017301253,37.339649099657706],[127.11027100145759,37.340052099608],[127.10903020000201,37.3425910002952],[127.1088354000199,37.3407341018616],[127.1073708000064,37.340829400589094],[127.105461699477,37.339653600308]]],[[[126.9266399986341,37.499253999996704],[126.9288574001021,37.4985760986423],[126.9294391010575,37.4997255993317],[126.9306541009663,37.4998165000882],[126.92943910045659,37.4997256008213],[126.9293966000037,37.5006486014076],[126.9276535995041,37.5011186011999],[126.9266399986341,37.499253999996704]]],[[[127.0599139994284,37.622784000241005],[127.06109049867001,37.6221169994038],[127.0605349006123,37.6230259992177],[127.0619913006274,37.6229277994368],[127.060840300303,37.6242633006131],[127.0599139994284,37.622784000241005]]],[[[126.8916592979457,37.4975205001624],[126.8926633996424,37.496305999455],[126.8932270000722,37.4972273992912],[126.8944369007253,37.4956405001548],[126.8939800014453,37.4972731994677],[126.89456270116729,37.499014600596404],[126.8923642986791,37.499124200721496],[126.8916592979457,37.4975205001624]]],[[[126.9045044985729,37.5228705001647],[126.9044049984304,37.521938900061706],[126.9057335014751,37.5221468994582],[126.90517760075271,37.523225700745996],[126.9045044985729,37.5228705001647]]],[[[127.2079431995083,37.5865652002185],[127.208718800445,37.5860071987248],[127.2095874004254,37.5872217999701],[127.2087977997944,37.5874720001694],[127.2079431995083,37.5865652002185]]],[[[126.92165039969841,37.505064999107],[126.9220997005504,37.5046957993902],[126.92292350039119,37.5063191012744],[126.92165039969841,37.505064999107]]],[[[126.9298477993607,37.6097660994656],[126.9312171000956,37.6089226999137],[126.9302158000771,37.610121800052504],[126.9298477993607,37.6097660994656]]],[[[127.04710749993059,37.7104565010802],[127.0472220997312,37.7098430992578],[127.04866890036699,37.710000400042595],[127.04710749993059,37.7104565010802]]],[[[127.0005609980889,37.4513625005836],[127.0033846002221,37.4501997996968],[127.0031708988345,37.4529000012898],[127.0020418994254,37.4529361005071],[127.0005609980889,37.4513625005836]]],[[[126.8945992984703,37.5242082989613],[126.8947711011725,37.5242609990684],[126.8948057007948,37.5243973006549],[126.8945992984703,37.5242082989613]]],[[[126.9188019994795,37.516974499274404],[126.9203310014088,37.5164496993749],[126.91962960074119,37.517015200682806],[126.9188019994795,37.516974499274404]]],[[[126.9352857997045,37.5613862000661],[126.9355316999013,37.561182699709505],[126.9356150001573,37.5613200997044],[126.9352857997045,37.5613862000661]]],[[[126.9913081996621,37.5272595998151],[126.99172930014551,37.527219199914896],[126.9916874002308,37.527538300299504],[126.9913081996621,37.5272595998151]]],[[[126.9251598997127,37.5123992002773],[126.9255132005215,37.5126398999396],[126.92526389996921,37.5126761005612],[126.9251598997127,37.5123992002773]]],[[[126.9291654993131,37.6113262996611],[126.9294099994912,37.610879999542604],[126.9300404006538,37.611198199199194],[126.9291654993131,37.6113262996611]]],[[[127.1895630998425,37.5775659000083],[127.18992219962969,37.5771336996377],[127.190223800527,37.5771296001088],[127.1899222002566,37.577133700117194],[127.1895630998425,37.5775659000083]]],[[[127.1941737989907,37.542459799510404],[127.19438550014,37.541938999374],[127.1944555003612,37.542289099668],[127.1941737989907,37.542459799510404]]],[[[126.8965561997077,37.525956699836],[126.8967814997829,37.5256951991987],[126.8968308005731,37.5259165005029],[126.8965561997077,37.525956699836]]],[[[126.90283839873739,37.5637607996472],[126.9029422994776,37.5634389992181],[126.9030652002599,37.5638185999913],[126.90283839873739,37.5637607996472]]],[[[126.94107079950321,37.5444672999917],[126.94119500014419,37.5444292998029],[126.94137310019401,37.544561699945504],[126.94107079950321,37.5444672999917]]],[[[127.00791059835261,37.443893900208096],[127.0081893005279,37.4439362996394],[127.00773289934939,37.444234801018794],[127.00791059835261,37.443893900208096]]],[[[126.95797549944571,37.4975589998999],[126.9579211999471,37.497340099861205],[126.95804750124661,37.497528800441096],[126.95797549944571,37.4975589998999]]],[[[127.1089387994146,37.3533988994251],[127.1101497007481,37.35340449988681],[127.1087586992275,37.3534012006973],[127.1089387994146,37.3533988994251]]],[[[127.11100109687169,37.381212901800204],[127.111029700409,37.3812386998651],[127.1110655016267,37.3812720016966],[127.11100109687169,37.381212901800204]]],[[[126.9297392994188,37.5250991013317],[126.9303802013317,37.525218900804596],[126.9302003997514,37.5253909015405],[126.9300726999638,37.525031900407704],[126.9297392994188,37.5250991013317]]],[[[126.9569724992,37.4966071002043],[126.9571936002199,37.496749499701],[126.95725610021809,37.496838800154],[126.9571935999536,37.4967495000991],[126.9569724992,37.4966071002043]]],[[[127.0878843982985,37.469683099926094],[127.0881096984471,37.4691495970879],[127.08871000171081,37.469482797538],[127.0878843982985,37.469683099926094]]],[[[127.1073673993255,37.377013700233],[127.10750630060029,37.3773725991931],[127.1072454000188,37.377524800270706],[127.1073673993255,37.377013700233]]],[[[127.1060353992967,37.3525073996072],[127.1063927005954,37.3523123001105],[127.1060343999571,37.3525650008268],[127.1060353992967,37.3525073996072]]],[[[127.0174737992037,37.634187799573496],[127.0175203994764,37.6338423996628],[127.01747380088821,37.6341878000799],[127.0174737992037,37.634187799573496]]],[[[126.90867799951009,37.513483899754995],[126.9087904002007,37.513325699717605],[126.9086780001928,37.513483900172],[126.90867799951009,37.513483899754995]]],[[[126.9892608996154,37.5392437001884],[126.9892609000595,37.5392436999885],[126.9893443001491,37.53930660016481],[126.9892608996154,37.5392437001884]]],[[[127.14239599964921,37.4132531001841],[127.14240389963551,37.412867300396904],[127.14240390063931,37.412867299329804],[127.14239599964921,37.4132531001841]]],[[[126.92484409960281,37.5110171993846],[126.9249616009791,37.5111478997609],[126.9249616003132,37.511147900832995],[126.92484409960281,37.5110171993846]]],[[[126.9314492992773,37.4692823000371],[126.93144929997139,37.4692822989985],[126.93154870012319,37.4692986000264],[126.9314492992773,37.4692823000371]]],[[[126.9759008993999,37.531278699405604],[126.97590090102,37.5312786991244],[126.9759009002334,37.5312787005632],[126.9759008993999,37.531278699405604]]],[[[127.1068939996657,37.3240361997191],[127.1069088002607,37.3242158997875],[127.1069087996184,37.3242159011021],[127.1068939996657,37.3240361997191]]],[[[127.14167919975439,37.408567599955795],[127.1416792011629,37.408567599364694],[127.1416792006157,37.408567600510494],[127.14167919975439,37.408567599955795]]],[[[127.20408369955109,37.4092578004663],[127.2040836998029,37.4092577997975],[127.2040837003224,37.4092577999899],[127.20408369955109,37.4092578004663]]],[[[126.9323372992305,37.5474556997749],[126.9323373002335,37.547455699998004],[126.9323372993985,37.5474557003518],[126.9323372992305,37.5474556997749]]],[[[126.9511784999163,37.5632891999429],[126.951278300083,37.5632924996451],[126.95129220036159,37.563370900037],[126.9511784999163,37.5632891999429]]],[[[126.9578834957586,37.4685551986163],[126.95788350072239,37.4685551992312],[126.9578835000457,37.4685552025951],[126.9578834957586,37.4685551986163]]],[[[127.05366239892909,37.7004163992783],[127.053662400127,37.7004164004567],[127.0536623994275,37.700416400752104],[127.05366239892909,37.7004163992783]]],[[[127.1046383996078,37.4951138996726],[127.10470529998241,37.494969799885],[127.1046383998398,37.4951139003373],[127.1046383996078,37.4951138996726]]],[[[127.1383074995866,37.3897033001776],[127.138307500697,37.3897032994469],[127.13830750067629,37.389703300664],[127.1383074995866,37.3897033001776]]],[[[127.1516733998157,37.597935400027],[127.15158199990711,37.597877400085004],[127.1516444001466,37.5978145989055],[127.1516733998157,37.597935400027]]],[[[127.2030110992036,37.409364200933396],[127.20301110038899,37.4093641990756],[127.2030111006237,37.409364200359896],[127.2030110992036,37.409364200933396]]],[[[126.8912614992493,37.508528999228304],[126.89126150057609,37.5085289991096],[126.8912615006919,37.5085290000616],[126.8912614992493,37.508528999228304]]],[[[127.0541999988899,37.701089000079506],[127.0542000001592,37.701088999751306],[127.05420000016059,37.7010890022713],[127.0541999988899,37.701089000079506]]],[[[127.1075719995823,37.4987044996655],[127.107572000231,37.4987045004113],[127.1075719995073,37.4987045003514],[127.1075719995823,37.4987044996655]]],[[[127.11500279956459,37.6104560002526],[127.1150027998156,37.6104559972635],[127.1150028015839,37.610456000134],[127.11500279956459,37.6104560002526]]],[[[127.1339832993424,37.6032691999655],[127.1339833004699,37.6032691996614],[127.1339832994644,37.6032692010799],[127.1339832993424,37.6032691999655]]],[[[126.92130569966811,37.6188359998591],[126.9213057005077,37.6188359992602],[126.9213057001715,37.6188360000504],[126.92130569966811,37.6188359998591]]],[[[126.9398423998435,37.5146865000027],[126.9398424001627,37.5146865000014],[126.9398424000863,37.5146865001796],[126.9398423998435,37.5146865000027]]],[[[126.9993804990788,37.5979364003768],[126.9993805007009,37.597936399992605],[126.9993804996881,37.5979364011605],[126.9993804990788,37.5979364003768]]],[[[127.15029249988001,37.5656860998364],[127.15029250022391,37.5656861000777],[127.1502924996453,37.565686100239404],[127.15029249988001,37.5656860998364]]],[[[127.15887959947531,37.6083610004628],[127.15887960012181,37.6083610000067],[127.1588795998697,37.6083610006358],[127.15887959947531,37.6083610004628]]],[[[127.1685584998684,37.5632462998997],[127.1685585001691,37.563246299861],[127.16855850021031,37.5632463001251],[127.1685584998684,37.5632462998997]]],[[[127.1911244998758,37.5763943998896],[127.1911245001043,37.5763943997574],[127.1911245000035,37.5763944001838],[127.1911244998758,37.5763943998896]]],[[[127.2190780997077,37.5484277999744],[127.2190781000445,37.5484277998353],[127.2190780999051,37.5484278002875],[127.2190780997077,37.5484277999744]]],[[[126.944527599791,37.5636550999507],[126.9445276002758,37.5636551002342],[126.944527599726,37.5636551003851],[126.944527599791,37.5636550999507]]],[[[126.9448001996939,37.469226000464396],[126.9448001998298,37.4692259993642],[126.9448002002341,37.4692260000801],[126.9448001996939,37.469226000464396]]],[[[126.98951539991201,37.5399045998138],[126.98951540053571,37.5399045997525],[126.98951539999081,37.5399046000527],[126.98951539991201,37.5399045998138]]],[[[126.9901053999457,37.5396442000129],[126.990105399957,37.539644199925995],[126.990105400061,37.539644199961295],[126.9901053999457,37.5396442000129]]],[[[127.06231239991159,37.6560754999829],[127.06231240002569,37.6560755000033],[127.0623123999816,37.6560755000565],[127.06231239991159,37.6560754999829]]],[[[127.11387279972159,37.4045097999314],[127.1138728001432,37.4045097999662],[127.1138727996441,37.4045098008463],[127.11387279972159,37.4045097999314]]],[[[126.93809159965261,37.513465199871796],[126.93809160005921,37.5134651999806],[126.9380915997544,37.5134652008239],[126.93809159965261,37.513465199871796]]],[[[126.9546666999131,37.495713700045904],[126.9546667000148,37.4957136998346],[126.9546667000474,37.4957137000257],[126.9546666999131,37.495713700045904]]]]}}]}