{"type":"FeatureCollection","features":[{"type":"Feature","properties":{"interval":15,"stationId":"355173131"},"geometry":{"type":"MultiPolygon","coordinates":[[[[126.9306756991964,37.357115099767505],[126.9326784005394,37.3560220997477],[126.93199030046499,37.3568441997925],[126.9325481999071,37.3574351992015],[126.9339274006343,37.356455699272],[126.9339797009292,37.3571320994576],[126.9356874997806,37.3575956991172],[126.93643420008169,37.356697199494896],[126.9368332002302,37.3581962001195],[126.935687500225,37.3575957006492],[126.9350587003302,37.3583542000424],[126.93598130075159,37.3597221006187],[126.93449959996539,37.3601164004367],[126.93398730016919,37.3595658006923],[126.9334794999602,37.360762800513],[126.93268969959149,37.3592105997815],[126.93377509953291,37.358784300232806],[126.9335199996297,37.3574889001133],[126.9311521003293,37.356808300398896],[126.93179190036649,37.357704300712705],[126.931102100209,37.3578751005857],[126.9306756991964,37.357115099767505]]],[[[126.90575169805939,37.3254814015895],[126.9075128977727,37.3253692988118],[126.9103684964968,37.323243499200494],[126.91273579836569,37.3226942982649],[126.9153899002767,37.323506896983595],[126.9159510002473,37.320498199707906],[126.91709090100831,37.322488298288704],[126.9197333018926,37.3225452996503],[126.91811850091541,37.3228611019131],[126.9177918012421,37.323749701024504],[126.9209058014564,37.328684697700794],[126.9241142982479,37.3280532983322],[126.92429650062999,37.3272638991213],[126.9241143006682,37.3280532993571],[126.9247766018884,37.3282635995701],[126.9241143011766,37.3280533014533],[126.9225196027713,37.3307941987124],[126.92418640110449,37.3318489976576],[126.9254522998386,37.331289998216604],[126.925845100369,37.3325097990452],[126.9269398000295,37.3326153995678],[126.9279399012829,37.3309742994511],[126.9282592017218,37.3330560009179],[126.9258879039298,37.334608699661196],[126.9248523002089,37.336581200605195],[126.9227194017897,37.3361328009658],[126.922421102088,37.3378634992351],[126.9238133004563,37.3382055020829],[126.92242109725939,37.3378635022031],[126.9200135986031,37.3369809022583],[126.919665698951,37.3355106037286],[126.91698770162901,37.3334811057581],[126.9136618970972,37.333741704138],[126.9116792961937,37.3265813001803],[126.90575169805939,37.3254814015895]]],[[[126.9244902953693,37.3510087999572],[126.92325139805119,37.3464965999349],[126.9250141001378,37.345223299587],[126.9262971004389,37.3470567998029],[126.9257592011588,37.3485389988274],[126.92696769995031,37.3490221983442],[126.9290186028806,37.3481112008851],[126.92686350223529,37.350628800516006],[126.9275640011806,37.3528290010941],[126.9269741005277,37.3535132007241],[126.92486439969811,37.3535939001461],[126.9244902953693,37.3510087999572]]],[[[126.90379349925381,37.3116370000172],[126.9045336997211,37.3115131989547],[126.9048456016515,37.3115159007653],[126.90453370005,37.3115132017157],[126.90379349925381,37.3116370000172]]],[[[126.934180499976,37.360504099754],[126.9341805002845,37.360504100049],[126.93418049969179,37.3605041003744],[126.934180499976,37.360504099754]]],[[[126.93727109946181,37.3601943001465],[126.93727109999071,37.360194299302904],[126.9372711005566,37.360194300498904],[126.93727109946181,37.3601943001465]]],[[[126.94399079961549,37.3720714008218],[126.9439908000245,37.372071399758106],[126.94399080026389,37.3720713999461],[126.94399079961549,37.3720714008218]]]]}},{"type":"Feature","properties":{"interval":30,"stationId":"355173131"},"geometry":{"type":"MultiPolygon","coordinates":[[[[126.8969560968276,37.3228728994896],[126.8989081007322,37.3216384974304],[126.89964409999621,37.3219126971562],[126.90039319924709,37.3190127000562],[126.8992875984393,37.3181729981714],[126.8997996990614,37.317907398023706],[126.89943499942609,37.314438601492505],[126.8979725988176,37.307134200492],[126.8969068994961,37.306141899906],[126.89940019810581,37.3058146986703],[126.89989989760609,37.3041405003445],[126.8984151996595,37.302040399621205],[126.89896709996009,37.302753199942195],[126.9000697008969,37.301990499511604],[126.9044606991126,37.3032114979461],[126.9051589001286,37.302787498687],[126.9057714000492,37.3041200989411],[126.906612499896,37.3022367990918],[126.9059336015543,37.304671197367604],[126.9111656016431,37.3064627931278],[126.9124738028447,37.3097865988615],[126.9129880023305,37.3115594970886],[126.9109540008715,37.3149107994601],[126.9113286007219,37.3168310975325],[126.91412379792669,37.3152800990835],[126.9138450994718,37.314351798122495],[126.9170037963962,37.3134006989669],[126.9184314011688,37.3140821988647],[126.92107710104081,37.3138001982879],[126.9244243001319,37.3151682000002],[126.9259653008994,37.317861998156296],[126.9248792022468,37.3184771006902],[126.9250790022214,37.3219899007637],[126.92876100258209,37.3244825980925],[126.9295332031214,37.3281133007986],[126.9312384014162,37.330186898725],[126.9365847992705,37.329887299180704],[126.9361813001921,37.3281654988415],[126.93658480085921,37.3298872994049],[126.9406750013289,37.3296683999368],[126.93836520186451,37.3326959988406],[126.9384381018874,37.3335861990301],[126.94040300317431,37.3334817016351],[126.93528090214879,37.335931501695],[126.93536230206739,37.337555100071405],[126.9370122004175,37.338105799520704],[126.93788980014459,37.341024700408596],[126.9360504999373,37.339817401165],[126.935162900008,37.340913800555604],[126.93365200054,37.340481700960396],[126.93103520039999,37.341497502722405],[126.9297287017065,37.343882900337],[126.9314099000253,37.3461516980682],[126.9358589002487,37.3486383967643],[126.937803598304,37.3479062974964],[126.9391859009148,37.3483460998813],[126.9356872030922,37.3489649015393],[126.9355664033367,37.3527528983284],[126.9392837996193,37.3531841978971],[126.9395386993644,37.3514319996493],[126.9417227997737,37.3499384989341],[126.94243369976749,37.351017398845606],[126.9446274007497,37.351071599615196],[126.9453602003057,37.353366198594706],[126.9460291996367,37.352358599602304],[126.947844399988,37.3532680986775],[126.94781360074,37.3551586988063],[126.9494450991085,37.3548484991165],[126.9485725994888,37.353613199763295],[126.950396998874,37.3532503998533],[126.9504436988273,37.352163300940404],[126.94909469873771,37.3507048012408],[126.9502051993207,37.35023669908821],[126.9496697999554,37.3492568995117],[126.950418600654,37.3503006996488],[126.9517585007892,37.349972899676],[126.95215320061929,37.3523048001311],[126.9503970013031,37.353250400388],[126.9507490009511,37.3543406992977],[126.9522436994564,37.354648098990296],[126.9537409001827,37.3529564998706],[126.9532844012124,37.3556670990321],[126.9528097004484,37.355330300929296],[126.9506891988971,37.3576025018037],[126.9479340001489,37.3579849005275],[126.9477452001672,37.36205589962],[126.95071750001989,37.3673084974641],[126.9520374007614,37.3664151981735],[126.9517531005423,37.3680465997004],[126.95349760014241,37.3689565993058],[126.9540427005962,37.3684901999279],[126.9535983004397,37.3722760005397],[126.9520304991569,37.3729093005551],[126.95129439932319,37.3721973007258],[126.9497082009094,37.3730225999005],[126.9522947022585,37.3746632992408],[126.9507181996425,37.374010701389],[126.9450859004749,37.377811101942804],[126.9426213029395,37.3777950019589],[126.9405650049958,37.379772899981],[126.93992560246339,37.3816378023043],[126.936108601085,37.3813874008861],[126.9354921013893,37.382073500929195],[126.9365546003268,37.3832324997702],[126.9353631004837,37.3833900001367],[126.9351640011898,37.3845913996495],[126.93412130082851,37.3850932999015],[126.9348889001938,37.3853151999785],[126.93376169949481,37.388288100165],[126.9341037991712,37.3875481004807],[126.931640199119,37.3854745003184],[126.9312783995084,37.383973399760706],[126.9320768003963,37.3830100965768],[126.9341733004667,37.3835311982109],[126.93546760007669,37.381109499276704],[126.9375298994906,37.3813241990716],[126.9376970990426,37.3788274007367],[126.9368682987274,37.3775621988206],[126.93736579927119,37.3760143999877],[126.9362302997855,37.375467799823404],[126.9374141994454,37.375412599363294],[126.9372658989527,37.373419100459],[126.934601399753,37.3725234000658],[126.9349131996497,37.3714049006727],[126.9344651998235,37.3717464005409],[126.9331265988193,37.3699009000703],[126.9328207991251,37.3682516017196],[126.93148590046,37.368524801446405],[126.93136769973819,37.3700286002042],[126.92935919975149,37.368072000164695],[126.9309968989499,37.3685255995331],[126.9310890988577,37.367356700702004],[126.930119999269,37.366411901154606],[126.9290621003269,37.3664882010783],[126.92894750044151,37.367509500057],[126.9281521000568,37.3677619999786],[126.9288123003416,37.3697183004583],[126.9271441998947,37.368215901664605],[126.92636799971659,37.3699419011891],[126.9246515989317,37.367852199836705],[126.9255164984471,37.3647061017762],[126.9237232002404,37.3650154014669],[126.9229977007102,37.3668825004939],[126.9218510959617,37.3660068001926],[126.9230415989209,37.3644695992604],[126.9229303992757,37.362345900735704],[126.9216615005446,37.3619135011681],[126.9217713998651,37.3635578004],[126.92090209922611,37.3623047996498],[126.92111609901211,37.3611114008432],[126.9203400997881,37.3606618012928],[126.9196313986551,37.3616357008546],[126.92034009912291,37.3606618006332],[126.9191293003337,37.3606461006489],[126.9179311993689,37.3593866995857],[126.91966049832331,37.3588984001951],[126.9196485995197,37.3582951996189],[126.9215003998623,37.3585481998021],[126.9216150989024,37.357052600632905],[126.92034890016859,37.356393901291604],[126.9192906007426,37.357318900710105],[126.9189544996961,37.3565394003436],[126.917197199778,37.3569691001668],[126.91720159932869,37.356102100219005],[126.91817499870051,37.3561430995766],[126.91963729976061,37.354417298417204],[126.9225320970417,37.355285896971395],[126.9245948949789,37.353040199217105],[126.9244902953693,37.3510087999572],[126.9214000984595,37.3492898016762],[126.9185657008879,37.3503428007607],[126.91882619967849,37.3520996003665],[126.9169614980518,37.3503851005028],[126.9168577981555,37.3478421030458],[126.9149748985981,37.3442350053299],[126.909381395793,37.3453836045041],[126.91075909505561,37.3378797024521],[126.9056673970577,37.3353395040424],[126.9038780968527,37.3333497987002],[126.9071649971932,37.3280827990427],[126.9052855985255,37.324181102889796],[126.9014329023782,37.322842104228805],[126.8976450929091,37.323944003750796],[126.8969560968276,37.3228728994896]]],[[[126.8450681998995,37.3102626013153],[126.84639849905251,37.3101877993452],[126.84677499909459,37.3090880997636],[126.8457805999827,37.3087551998121],[126.84775719944301,37.3078078993134],[126.8472722996468,37.3046324994001],[126.8482644002492,37.305708598963506],[126.8495714989421,37.3057188989532],[126.84944400032221,37.3040474993795],[126.8510331000163,37.3046003993435],[126.8520617992865,37.303383399836704],[126.8524352003457,37.304572499354],[126.85387330003121,37.3043586995422],[126.8539788998892,37.3034809996578],[126.854804300201,37.304493399364496],[126.85651949945631,37.3043716994531],[126.8569085999858,37.3034439998296],[126.8592083998657,37.3039913999347],[126.8600160997492,37.3032582999175],[126.85995939980589,37.301926401249396],[126.8585964993188,37.3015772998598],[126.85842239985759,37.2991816000055],[126.8596221999861,37.2986100997908],[126.86013840093,37.2990533004674],[126.8593627006213,37.2995229000231],[126.86000799997599,37.2998872996587],[126.8627401988809,37.300167499406804],[126.86268389974359,37.2981218993514],[126.86363759878991,37.2976398998334],[126.8626050998224,37.2968221006512],[126.863054999941,37.295718998956],[126.8664910993773,37.2934411992767],[126.8664530999704,37.292706799517696],[126.8664093009705,37.294201799531606],[126.8674170999627,37.2946675990658],[126.8677601002651,37.2937205996751],[126.8687111004225,37.295430698658095],[126.86962390042669,37.2949700990979],[126.8728216999198,37.2978008986763],[126.87475380249069,37.297735099123294],[126.87636410088041,37.2999846968737],[126.8758000045167,37.3024135017667],[126.87273150012,37.3043489008491],[126.8703543974258,37.3018232009701],[126.86692340084291,37.3019476007141],[126.86692210085809,37.303410999382294],[126.8694299012815,37.3059207004532],[126.8650616010481,37.3090464005954],[126.8648442004877,37.310583801023604],[126.86354559912539,37.31052240084011],[126.8637893993847,37.3095650007145],[126.86133960140589,37.3074084024118],[126.8599433003222,37.3083986011413],[126.8603022992201,37.3080438000886],[126.8563536004205,37.3059812013453],[126.8563719015326,37.307728400988005],[126.8548302999335,37.3090546003193],[126.8542671000472,37.3077895011087],[126.8536338006805,37.3083574005408],[126.8542364025116,37.310149902311196],[126.8523299004547,37.3094587010005],[126.8506248021598,37.310890799568405],[126.8509357020055,37.3130731974814],[126.8491418004315,37.3147211010037],[126.848303600138,37.313602501607],[126.8475248992041,37.314664201204],[126.84717379953399,37.312941299729],[126.8450681998995,37.3102626013153]]],[[[126.9438192980331,37.3878888019101],[126.94348029890871,37.3853163986257],[126.9444837005837,37.3859803984542],[126.9457562997995,37.3849652991701],[126.9466256995367,37.385675598965],[126.9475820994472,37.3848519991055],[126.9485361991986,37.3851305993963],[126.94908119984929,37.384172199317504],[126.9502823007208,37.3849641987727],[126.9512043997987,37.384033899703],[126.9524628002287,37.3852659990356],[126.95556900004989,37.382856499664804],[126.95470860138451,37.384213000304705],[126.9598296997257,37.389868299388006],[126.9633977000434,37.388645999379904],[126.96540419990329,37.38914029913],[126.9648772006596,37.390161300179706],[126.9654764000604,37.390644299696696],[126.9664808990559,37.3906627996782],[126.9671192998363,37.3897289998134],[126.9682155007928,37.3905781992362],[126.9687129005695,37.391679800739496],[126.96592630320211,37.3923982009972],[126.9689746020499,37.394693500192005],[126.9686388003112,37.397562201335305],[126.964953000411,37.396859302417404],[126.96335739973841,37.3988442031552],[126.96129139895369,37.3996713017534],[126.95795699987629,37.397217500222595],[126.95875919904171,37.3957319005212],[126.9559029004033,37.3936560007565],[126.95529640032359,37.3951342006468],[126.95200700062779,37.3946325005239],[126.9513976013566,37.3962653004684],[126.9505502006175,37.3963654014216],[126.9487120013661,37.395309401971204],[126.9471426990386,37.396891700937],[126.9456192993195,37.392859102307504],[126.9431115018273,37.3928197023469],[126.9427858993847,37.3922315004717],[126.9443364987308,37.3918498995415],[126.9441969988703,37.3903630010284],[126.94297499954581,37.3913148006877],[126.9441969985869,37.3903630007866],[126.943308498564,37.3895973003806],[126.9438192980331,37.3878888019101]]],[[[126.8157333998037,37.3176502997126],[126.8216487999411,37.312923599300895],[126.8234186004355,37.3138827996032],[126.8234802004023,37.3146813991777],[126.8256728008497,37.3154221992816],[126.826361301131,37.31703429827731],[126.8274964003273,37.3172421999826],[126.825982199725,37.318769700838295],[126.82532909884661,37.3171283997019],[126.82568519849049,37.315539801290505],[126.8243919990071,37.314633501723],[126.8225879008112,37.31472650163],[126.8212199006964,37.317329899527394],[126.8225372016385,37.3177097991205],[126.8234319022753,37.3191478004602],[126.8212726012388,37.3198611011565],[126.8199964999043,37.3217299006669],[126.8198041998145,37.3208068008048],[126.8157333998037,37.3176502997126]]],[[[126.83312459879231,37.3151192991719],[126.8351618001971,37.316609997651696],[126.836553898805,37.3149420993196],[126.8368978986373,37.3108904994554],[126.83790209994339,37.311231098967504],[126.8385933998988,37.3104371988547],[126.8453394009678,37.3143579998648],[126.84383720121559,37.3163295004654],[126.8414801987855,37.3162646004984],[126.8419084977545,37.3153125005438],[126.8406341990288,37.314033001823304],[126.8389603007027,37.314812601043705],[126.8384890012875,37.316845800569304],[126.8368458001497,37.3182765007193],[126.83312459879231,37.3151192991719]]],[[[126.9709173995069,37.4023875992848],[126.9719754984488,37.4013848002876],[126.97211969838919,37.3993674994318],[126.9730446999487,37.399274499074195],[126.9737177992076,37.39799909838],[126.9749375007282,37.398202898383204],[126.9761352999122,37.3963776998092],[126.97698750107931,37.3974183995593],[126.9784590008952,37.397287998956905],[126.9780029020914,37.3987030000689],[126.9788654021804,37.4001795018423],[126.9768598004037,37.4020994006492],[126.9771609001026,37.4044979982506],[126.9785040025418,37.404601197420604],[126.979024000472,37.4060237014277],[126.9785039998693,37.4046012009368],[126.9749548985891,37.40333540289161],[126.97177119981801,37.404144200617495],[126.9719326989338,37.402748199762996],[126.9709173995069,37.4023875992848]]],[[[126.9449857995923,37.3443161009371],[126.9465070000288,37.3440379981817],[126.9480942006194,37.3423927994964],[126.9479000015171,37.347917700630305],[126.94544169909561,37.345847300200305],[126.94753459989809,37.345946399891204],[126.94739349959191,37.344601500677705],[126.9449857995923,37.3443161009371]]],[[[126.9894955997782,37.4256246998981],[126.9919278001718,37.4257754997418],[126.99239350031611,37.4251419999851],[126.9920755006163,37.4287830004748],[126.9894955997782,37.4256246998981]]],[[[126.949095899043,37.3201044006493],[126.95009320050839,37.319862199742104],[126.94995130088199,37.322021900186705],[126.9495248001843,37.3215308009842],[126.9485735982304,37.3221283012792],[126.949095899043,37.3201044006493]]],[[[126.8559124998302,37.2881849998485],[126.8567023007645,37.288433800828],[126.856777899824,37.2907559002362],[126.8559124998302,37.2881849998485]]],[[[126.9216726987113,37.4037876022685],[126.9230705987453,37.403286299314395],[126.92279189966811,37.4023903999396],[126.9237699000597,37.4011794994131],[126.9230800006924,37.4016400000398],[126.92441020030999,37.4019991997124],[126.9243931011696,37.402684199743305],[126.9216726987113,37.4037876022685]]],[[[126.8669549991404,37.3100553008249],[126.8696076006226,37.308098198771106],[126.8693145006845,37.3100218004364],[126.8696248994586,37.309148900478995],[126.868444500639,37.309259900368],[126.8686161999386,37.310072800681],[126.8669549991404,37.3100553008249]]],[[[126.9368591997885,37.3271796998263],[126.9394845004,37.3264241997477],[126.9397608009082,37.3272659000035],[126.9378599000576,37.328350200219404],[126.9368591997885,37.3271796998263]]],[[[126.80507499798371,37.3205295006627],[126.8063660014488,37.3196900975231],[126.8059820993758,37.3205904023667],[126.80507499798371,37.3205295006627]]],[[[126.995556199618,37.4324199995833],[126.99543749968059,37.4319843993474],[126.99645720218429,37.4318128988539],[126.995556199618,37.4324199995833]]],[[[126.8456495989577,37.307199300403],[126.84556569996869,37.3062097996379],[126.84567940054059,37.3075461006552],[126.8456495989577,37.307199300403]]],[[[126.8558868997458,37.302027500132304],[126.8565408002098,37.3019686998648],[126.8558984001158,37.3022301002645],[126.8558868997458,37.302027500132304]]],[[[126.94567999962949,37.3213376996222],[126.9459693003937,37.3211354003001],[126.94596230040071,37.3213459001408],[126.94567999962949,37.3213376996222]]],[[[126.7877895987194,37.327418800260496],[126.7877895994734,37.327418799255994],[126.78778960058959,37.327418799383395],[126.7877895987194,37.327418800260496]]],[[[126.9719103994684,37.3004423002047],[126.9719103999023,37.3004422992636],[126.9719104002432,37.3004423001905],[126.9719103994684,37.3004423002047]]],[[[126.7886205992459,37.3270111005254],[126.7886206007153,37.3270110993269],[126.78862060059541,37.3270111008724],[126.7886205992459,37.3270111005254]]],[[[126.8047308983785,37.3217699994648],[126.8047309001236,37.3217699993555],[126.80473090062699,37.3217700011871],[126.8047308983785,37.3217699994648]]],[[[126.9294815994474,37.3698412996555],[126.9295798004968,37.3699531997217],[126.9295798002303,37.369953200758594],[126.9294815994474,37.3698412996555]]],[[[126.9382870983514,37.3833841000898],[126.9382870989065,37.3833840988894],[126.93828710125099,37.3833841001546],[126.9382870983514,37.3833841000898]]],[[[126.9899559983468,37.4285660996829],[126.9899560010038,37.428566099482694],[126.98995599934521,37.4285661006598],[126.9899559983468,37.4285660996829]]],[[[126.953138199173,37.3835336996429],[126.953138200216,37.383533700068604],[126.9531381996582,37.3835337005762],[126.953138199173,37.3835336996429]]],[[[126.9562981996121,37.384179699277695],[126.9562982000824,37.3841796997269],[126.9562982000654,37.384179700134496],[126.9562981996121,37.384179699277695]]],[[[126.9891962990776,37.424286099926],[126.9891963007703,37.424286100224],[126.9891963000157,37.4242861011326],[126.9891962990776,37.424286099926]]]]}},{"type":"Feature","properties":{"interval":60,"stationId":"355173131"},"geometry":{"type":"MultiPolygon","coordinates":[[[[126.72160889942221,37.3609907001965],[126.7238763991675,37.3597248998525],[126.7231804990701,37.359006800285705],[126.72391279904099,37.3558549002157],[126.72478989951121,37.356757198588994],[126.7257081987579,37.356042199207295],[126.72477189959169,37.3550338001083],[126.72556589870631,37.3534880998564],[126.7249963992758,37.352901500443004],[126.7257291994385,37.3502630001846],[126.7271203992842,37.3500079998432],[126.7279207991002,37.3468504994983],[126.7267246992717,37.3456181992496],[126.7281424994331,37.3469346990761],[126.7296413979342,37.3466138993969],[126.7327056988141,37.34411389947741],[126.732920798599,37.3427819008094],[126.73122789853409,37.342847100341],[126.7285729981929,37.3390454979768],[126.73145219934561,37.3417786990068],[126.7324061993344,37.3411850990149],[126.7327938987184,37.3393489978802],[126.733950199324,37.3392481998039],[126.7361444991022,37.341969597424196],[126.73786629982989,37.3397485991768],[126.741197301374,37.3404198988785],[126.7452174003384,37.3396882994353],[126.7462875996333,37.3415470986532],[126.7472100995428,37.3409793987214],[126.7478726988802,37.338762200938596],[126.74721719918219,37.3380851000054],[126.74868239870011,37.336205199740704],[126.7479078978372,37.334715197190896],[126.7493487013113,37.3338199976572],[126.75239179983039,37.3360293970492],[126.7541467980754,37.335855697222904],[126.7543363002523,37.332074296040105],[126.7576108014987,37.3331841962409],[126.7601168989926,37.331531397893706],[126.7622011998972,37.33294629787591],[126.76400869808971,37.3302233005989],[126.76227389982449,37.329645901176306],[126.7614111994065,37.3304716002554],[126.7630357979601,37.328640398554995],[126.7659597988446,37.330373696821006],[126.76296159942899,37.3225731986951],[126.7682205026501,37.3211644970414],[126.7713557995148,37.3218744963314],[126.7751310957395,37.3201866980192],[126.7733751956608,37.3154890949301],[126.7767546975086,37.312846099177705],[126.7773641007362,37.3142050982466],[126.7787174993828,37.313818498633196],[126.77934209875819,37.3103098021419],[126.7787845972492,37.309220002018606],[126.7755402004936,37.310138101100506],[126.77374279744909,37.3079103007217],[126.7707890986986,37.30771880124551],[126.77349069675739,37.3055675009249],[126.7729091967586,37.304262800923794],[126.7755213967239,37.3018551009351],[126.774901396717,37.300455800936305],[126.7773537968335,37.297958100912105],[126.77695889673019,37.2969745980225],[126.7805399001492,37.297045496308],[126.78342499726409,37.2951053982481],[126.7890981000416,37.2932411999209],[126.7910912980484,37.2959072972548],[126.79367450310039,37.2974327995758],[126.7965218018347,37.2979822003538],[126.795600701708,37.3011450980228],[126.7996790976296,37.3019492972186],[126.8005981017455,37.2987826986735],[126.8001498016458,37.300392698677506],[126.8031061986894,37.3026088964613],[126.8055109017899,37.2991436967726],[126.8063693009315,37.2996067963095],[126.8070091000708,37.3027972968763],[126.80976539731451,37.3010366986369],[126.80998739781819,37.2992523967949],[126.8141652988208,37.2980451922258],[126.81739660027729,37.298087597778604],[126.8198273005464,37.2951379990088],[126.8213492997824,37.2962239981639],[126.82228460091841,37.2954006988584],[126.8237221003121,37.2978393986745],[126.8264285993805,37.2968807994831],[126.8274337006581,37.293490898322],[126.8274119019768,37.294465098721695],[126.83051239887631,37.296479796707],[126.832812798474,37.2933544985312],[126.83542899714641,37.292415398737305],[126.8371877959775,37.2868963987258],[126.8404648970477,37.2830466987597],[126.8386494988631,37.2810402007662],[126.8361551013575,37.28025640155],[126.835165099723,37.2823646004079],[126.8361550988701,37.2802563993636],[126.83864410086899,37.2802306956035],[126.8406141998565,37.278796296601705],[126.8425495004605,37.2753130947423],[126.8476257953842,37.2760361940192],[126.849816194507,37.2746374944731],[126.8509036982437,37.272435593831105],[126.8518179010893,37.273553297801705],[126.8540948048271,37.272741797133],[126.85805980086211,37.2741491957256],[126.8602455991038,37.2732489964513],[126.8606298984901,37.2695565989944],[126.8619347978441,37.2675163989126],[126.8643821997557,37.267296297589],[126.8680269972995,37.2642775989304],[126.8657824978297,37.259258800556594],[126.8673169984525,37.2597212992328],[126.8679207989329,37.258113198274096],[126.87011579673789,37.2572551991321],[126.86824849860521,37.2542230021643],[126.8697020972154,37.2517305981997],[126.87111269965379,37.252926697688906],[126.8740589011268,37.252607097516396],[126.87462390266991,37.2545134976221],[126.8772714000224,37.254554997580605],[126.8791440011578,37.2532093981939],[126.8819322997797,37.2563126970832],[126.8840107994785,37.254945897907405],[126.8849735008243,37.2576604988317],[126.88688759891019,37.2570237994684],[126.8899475991127,37.253586199438104],[126.89194759711269,37.2525278004965],[126.89013729892301,37.2497705032538],[126.8874398959222,37.2491377986448],[126.8891300978905,37.245530800347396],[126.8886998992604,37.244175798426],[126.89355330042119,37.243987797334796],[126.89401570149009,37.2460105976432],[126.8965519989538,37.246266997386805],[126.8966471004465,37.24376259755989],[126.8994470984554,37.2441646980907],[126.9006476981774,37.243018198428004],[126.9021921990941,37.2390578993473],[126.90140780201641,37.242187996837195],[126.9076039993557,37.2472902935144],[126.9097137972459,37.2453814954232],[126.9108251011063,37.2426817923615],[126.9133368004588,37.246702495585396],[126.9173370028794,37.24639109449409],[126.9236035008987,37.2426651972624],[126.9266107015609,37.2451265985364],[126.9241790032162,37.245921300395],[126.92571650167869,37.2493061970101],[126.9288008987001,37.24764419860951],[126.92928500085979,37.249122899078706],[126.9304423028369,37.2491943047951],[126.9287546032434,37.2517162040538],[126.9249743025937,37.2530260018236],[126.9213646002764,37.255499801271405],[126.9200940991216,37.2554625008551],[126.9153400038757,37.2515000048176],[126.916653702562,37.2587743975432],[126.9186435018832,37.2574953992031],[126.9185694039773,37.2599640976827],[126.9123078996824,37.2619045020956],[126.90679280447381,37.2614648023087],[126.905019804358,37.2629999050395],[126.9058180980973,37.2613052012246],[126.90515109876429,37.2590233035065],[126.9006855032299,37.2565529059769],[126.8978814013887,37.2589752064261],[126.8964514990308,37.2617452065849],[126.89040959946409,37.2581105055742],[126.8891670007067,37.258877504807195],[126.8856222991071,37.258671801995],[126.88353990118951,37.2602913003755],[126.8841352998475,37.2608588002889],[126.8825193007864,37.259293302319705],[126.8809873023184,37.2595119021011],[126.8820557013557,37.262645899080205],[126.8811592010419,37.264260198999004],[126.8836203005811,37.266131099865],[126.8839679002335,37.268042197953896],[126.8854873033654,37.2696206966515],[126.8885219034422,37.2707947962584],[126.8917704009296,37.2709737968494],[126.8935785003294,37.2693150000489],[126.8917704021375,37.2709737983901],[126.89329910030419,37.2751889022989],[126.8880061003416,37.274433202374],[126.8852232007034,37.2772680000431],[126.8857616014444,37.2779738001042],[126.88521220188579,37.280551697975994],[126.8859013042352,37.2808826002062],[126.8883163055723,37.2888076920221],[126.8947357090329,37.2949921918494],[126.9038009020519,37.2960891915003],[126.90911870352559,37.2993366937311],[126.91534199730229,37.2948849981828],[126.9141903961032,37.2915930966763],[126.91868170115039,37.290908494898304],[126.9204330008556,37.2895347958537],[126.91913770788649,37.2923893996672],[126.922403204621,37.2975411945154],[126.92749270011531,37.2975558971736],[126.929374598864,37.29546859931],[126.9317677999606,37.2961647995107],[126.9301670013667,37.2966374007093],[126.9299574051592,37.3029055994319],[126.93297780213881,37.3049559973815],[126.9365133998039,37.3060270976172],[126.94285960060941,37.303479498223204],[126.9437831004769,37.3022536985112],[126.9444627021753,37.3059642947267],[126.9509878968035,37.3046523960028],[126.94924489801339,37.3005170980936],[126.9516264993882,37.2995540991675],[126.9517322993902,37.2974926997694],[126.9539750001529,37.298682897808206],[126.955979898148,37.2976273988637],[126.9558293983681,37.2959387997605],[126.9530835990743,37.294926700054496],[126.95387999902209,37.2947950990401],[126.95359099865411,37.2932169993135],[126.9567347000079,37.2882511970358],[126.9609596969164,37.2910117955975],[126.9614453964307,37.2906468959624],[126.9629558962331,37.2888864958575],[126.9643333973699,37.285180496442905],[126.9680450970444,37.2851716981201],[126.9686206999919,37.278404898577996],[126.97061560014271,37.2778266988502],[126.9721771991132,37.2762929996352],[126.971535499206,37.274650199733806],[126.9735692997859,37.2751105994787],[126.97444349891191,37.2721273993897],[126.9793139992932,37.27080909931],[126.9790267996523,37.2691352996527],[126.9800931991656,37.2686755985671],[126.98101580017669,37.2692652990483],[126.98204339914909,37.2683838999297],[126.9811377957036,37.266427798247804],[126.9829843013159,37.2667930967024],[126.9904577988514,37.2612211995718],[126.9903737989354,37.2600204007726],[126.9837460971424,37.2584825997373],[126.98336209930699,37.2547665005551],[126.9819155007536,37.2527414025802],[126.98103500163411,37.2527454025762],[126.97987260279649,37.2549118004098],[126.9761391028181,37.2554763013472],[126.9769324020248,37.2571539996695],[126.9737289004441,37.2578453014799],[126.973365399954,37.2595379002915],[126.9737288977846,37.2578453012235],[126.9703428993229,37.256107701537005],[126.9705726980511,37.2551215007651],[126.9688400991235,37.2526776025943],[126.9662192017444,37.2533343019376],[126.9668487011009,37.2554866999032],[126.9677669001827,37.255768499621404],[126.9655696011304,37.255556900258],[126.9653590009096,37.256761001064994],[126.9639846997764,37.2553871011832],[126.9620553995976,37.2554109012386],[126.9583839948167,37.251482802186096],[126.9586113963356,37.250724200039],[126.95614999879699,37.2467090040542],[126.9527197022273,37.2495131012501],[126.9525790999092,37.250934800925705],[126.95223719855859,37.2491500978786],[126.9561499954566,37.2467089974359],[126.954113597493,37.2434710006739],[126.9501861000963,37.2436911003339],[126.9491550002197,37.2449437001496],[126.9484221980145,37.2436462000678],[126.9497326979761,37.2436269986138],[126.95270309806709,37.2382988006509],[126.9511778983815,37.237600100738],[126.9511690983014,37.2361260983575],[126.95261599987211,37.2363676979673],[126.953597300008,37.2343519984297],[126.9563026981794,37.2340692986189],[126.9551932992051,37.232190799634495],[126.9565705995753,37.232595598258506],[126.9573913996012,37.2312550984077],[126.95713430028081,37.2295783985915],[126.9622377035672,37.235386595306],[126.966793899011,37.2357099949826],[126.9685699985494,37.232654097445],[126.9689832032213,37.234096198929706],[126.9723215998829,37.2353764976494],[126.9740758993113,37.2374807969425],[126.9771848002115,37.235706797786506],[126.9759916017646,37.2378891002915],[126.9767750009812,37.2407266974539],[126.9792656984905,37.2399231982574],[126.97979839863481,37.2387235987301],[126.98446679880851,37.2405456977405],[126.985248898761,37.2388510978774],[126.9860736014988,37.239064998847596],[126.98731170252121,37.241433999497],[126.9897587005711,37.2418864997053],[126.9883117027743,37.2433052013184],[126.988700002386,37.245528999094596],[126.9920497020872,37.2462686987612],[126.99233320204141,37.248705696975],[126.99426730010731,37.252454693226],[126.9982742032052,37.2536207970523],[126.99947340121,37.2572956964025],[127.004120101895,37.257804197385305],[127.00640799960709,37.2568518983376],[127.0075070997211,37.2545327997826],[127.0094974001909,37.2546495999071],[127.0103025009724,37.2571296989571],[127.015207100117,37.258649499230394],[127.0154992998248,37.2580009998789],[127.0165109005182,37.258288899169095],[127.0197413000192,37.2605734990821],[127.02198640030281,37.2610213993485],[127.02246350003401,37.2622007986791],[127.0245529989779,37.2610876995183],[127.0245253995981,37.2597768994764],[127.026312698625,37.2570222003786],[127.0290922983973,37.256271899946704],[127.0286500003555,37.2551189993686],[127.02966680019401,37.2561186985726],[127.03229799967019,37.2559984989977],[127.03252810010929,37.2571378992252],[127.037618200319,37.2585177992952],[127.0370097007017,37.2595677991888],[127.0384762013181,37.2601265000424],[127.0370096999354,37.2595678011002],[127.0366744002707,37.260672999994995],[127.0358066008322,37.260386500369904],[127.0356304010084,37.261516899239496],[127.0377564004587,37.2630177999897],[127.03558390042521,37.264406001148004],[127.0353798002956,37.2656945007731],[127.03423460016421,37.2659503009127],[127.0339027995834,37.2668587011168],[127.0312154997396,37.2677546003553],[127.03087959867081,37.2667347011263],[127.0292694983995,37.2671453004082],[127.0286073986108,37.265458600993306],[127.0264053996737,37.2660811008923],[127.02477990041339,37.2651272009914],[127.02315810124101,37.2693977004218],[127.0207787019382,37.2708050003013],[127.02065120206571,37.2734385976677],[127.0192472011984,37.273536700231205],[127.0196156004084,37.2740879011753],[127.01772680033031,37.2728613013196],[127.0165483999378,37.2742620005965],[127.0163171993519,37.272830801235],[127.01481429965,37.2730562014795],[127.0137698997326,37.271717001386804],[127.0129274997404,37.2729463008381],[127.0131027994248,37.2718869006901],[127.01158099987201,37.2725986004312],[127.0109269001752,37.2713247014122],[127.0093723017298,37.272474800262096],[127.0106533004488,37.273151499585396],[127.00978290111071,37.2735390999786],[127.01037860174189,37.274207001096094],[127.0091279997747,37.274371702167706],[127.0065367006037,37.277661201205596],[127.0066471004933,37.27876710009971],[127.00597930066631,37.2787828000857],[127.00515400063631,37.2809649009342],[127.0056696006135,37.2829901009551],[127.0043909993193,37.283944600418295],[127.003335300375,37.2830155013474],[127.00121410249619,37.2838988004641],[127.0000642016325,37.286978599137996],[127.0020760996206,37.288382897733705],[127.00314309855361,37.287673398443204],[127.0029587001397,37.286230798976],[127.0044760986223,37.2869898982169],[127.0057089001417,37.2863902992168],[127.0073578006229,37.2920331002088],[127.00595440024449,37.2915396010071],[127.00544110075779,37.292319700227],[127.0060781003282,37.292614500152],[127.0045014999777,37.2926277004713],[127.00439229992281,37.2933480006244],[127.0027109000326,37.292518201374705],[127.0011746004621,37.2944434003746],[126.9995243003251,37.294248800761196],[126.99837409985501,37.295678801036395],[126.9970417006935,37.2950073002207],[126.9972940003016,37.2958156005396],[126.9966691999426,37.2955082003399],[126.99600169968399,37.2964628007903],[126.9959058998915,37.2949341010599],[126.9945070010322,37.2959188003323],[126.9947954003609,37.2969497005894],[126.99270229995551,37.2961635012407],[126.9912499014079,37.296776800627406],[126.9913241008883,37.2984400997287],[126.9925927001003,37.2989172998924],[126.9917766008462,37.29915780020821],[126.9923152001191,37.29998959976341],[126.9933171001485,37.2996443997608],[126.9945481001955,37.3007361991811],[126.9961963001737,37.300337399939096],[126.99524510062511,37.302041199856596],[126.9959573001348,37.302266799916495],[126.99607920031019,37.3035149001532],[126.99483100005571,37.3025651008595],[126.9942582003795,37.3029956005505],[126.9942091004286,37.3039584995876],[126.9952076002036,37.304074799674005],[126.9947579008465,37.3048654997492],[126.9958291000028,37.3054946992021],[126.9962756006647,37.3048856001141],[126.99532070068729,37.3063378010154],[126.9957109005844,37.3074943002698],[126.9952420996889,37.3082293007759],[126.9905989004738,37.3077225005422],[126.9903397003803,37.3105476003813],[126.9888827006159,37.310533000426],[126.9891913994631,37.3114311010634],[126.9865280004643,37.3119033007562],[126.98492850284279,37.3149921993963],[126.9837788012085,37.3156085005535],[126.9832645017228,37.3167371994248],[126.9849769020422,37.3177228006132],[126.9818768000435,37.3181742014374],[126.98011239958029,37.3173372013071],[126.98072469875589,37.3173112996062],[126.98139059809,37.3136417032758],[126.9777702987439,37.3133660061056],[126.97619589947689,37.3096626001451],[126.97609609957671,37.305632004175706],[126.9731247025481,37.307401302406404],[126.97294240258289,37.3110386019733],[126.9680259014457,37.317222900881994],[126.9694662011104,37.320778698948395],[126.97236890185951,37.320892806750905],[126.9655394992464,37.320708301024396],[126.963286901499,37.3228643988683],[126.9643083018805,37.3306732984185],[126.9671393010402,37.3319989003174],[126.966664899415,37.3337870007259],[126.9653785003697,37.332823101303696],[126.9642734014748,37.3333392007876],[126.9652221005261,37.3347400993867],[126.9657471003328,37.334349500163405],[126.96552870055119,37.335825898687006],[126.9680956023401,37.3372246996852],[126.9642770037395,37.341045999873195],[126.9686078996654,37.343306597653395],[126.9705379997479,37.3412290989096],[126.9705752016239,37.3420631988677],[126.9728676023224,37.342880499298],[126.9729195015847,37.3436566997026],[126.9763599005484,37.3443717997078],[126.9774700000942,37.3463899993795],[126.9783100015093,37.34621999891],[126.9781797018848,37.3490285982055],[126.9792216015823,37.3504917997652],[126.9767798021922,37.3520969039774],[126.9753664036056,37.354880101194205],[126.9784114063505,37.3575198014477],[126.9732736018136,37.3638366018432],[126.97036970471751,37.3654882001916],[126.96957220551501,37.3684795972002],[126.9733498055867,37.3749679954249],[126.9809695030322,37.378583297737805],[126.98503910164389,37.3778015970184],[126.9876490023353,37.379738298446],[126.9907995043226,37.387586898033504],[126.99376750135461,37.3883070973133],[126.99573959938249,37.385842399778],[126.99879830051721,37.3840363996621],[126.999140800936,37.384972700572],[126.9969765012962,37.3851604003861],[126.9982621004455,37.3860466993332],[126.99753410116129,37.387480699354896],[126.99806730062811,37.388914897920706],[127.0014765016161,37.3876904000487],[127.0002744012583,37.3891731997544],[127.0013064017282,37.3906420011363],[126.99964320253359,37.391054401625304],[126.9998133022187,37.3943258000025],[126.9983030004617,37.3921150025691],[126.99690250186221,37.393734300949795],[126.9974252013395,37.3945913000928],[126.99675500173139,37.3981024981836],[126.9978225032552,37.4013776985351],[126.9959122028719,37.403117899067695],[126.9994492023636,37.4036695987121],[126.9997037021091,37.4046873976943],[126.99810150299881,37.4085188974178],[127.0014836996166,37.4111330948036],[127.0085371028555,37.412219692555404],[127.010065003331,37.415146300090804],[127.0134468042428,37.4164985986695],[127.0157392019504,37.4187509964171],[127.01325300270861,37.4209750997342],[127.0170590012757,37.4239775986239],[127.0185630997716,37.424377898223604],[127.0214268985901,37.421920697928],[127.0230520003879,37.4231809992916],[127.02194710221451,37.424980600080396],[127.0241140016209,37.4252594020571],[127.01651180170461,37.4285273004591],[127.0171662010502,37.429505499480896],[127.01980640059969,37.42940389933489],[127.0233913023436,37.4335323937841],[127.0277881991402,37.435497392576],[127.02598570464421,37.4380427996014],[127.02912090630899,37.4409487001623],[127.0259857011346,37.4380428052662],[127.0228863029532,37.437558606286004],[127.01866870230671,37.4423885026359],[127.01629850467691,37.444045600978804],[127.0129600027971,37.4441875005584],[127.0115612036692,37.4458157017505],[127.0121255031049,37.449066798499395],[127.0166113989516,37.453421794594504],[127.02138839417461,37.4488495991667],[127.0220956988797,37.4463175987068],[127.0226382999625,37.4471194993144],[127.022992401105,37.4466212996849],[127.0225966006078,37.448023800018404],[127.0214741006433,37.4486209004508],[127.0220930029846,37.4491428013655],[127.0194626048914,37.454383996984696],[127.0210072005623,37.458438900407295],[127.0201474005571,37.4602830997572],[127.0214409011554,37.4603334995617],[127.02079040086369,37.461044300670196],[127.018237200745,37.4594208032485],[127.011209401088,37.4588851032465],[127.0048038993061,37.4634497050726],[127.0019492008005,37.4692639006087],[126.9963191018252,37.4667478036534],[126.99270220128889,37.4697960014388],[126.9933764006241,37.4722495999646],[126.99247420091811,37.4736957996044],[126.9941245005555,37.4741352989459],[126.99584299883699,37.473462899618305],[126.9956535983375,37.472537798697],[126.99755640039179,37.4722920989437],[126.99976240260389,37.474400597343106],[127.00455600182259,37.4764987994698],[127.0045588011698,37.478707499997896],[127.0059861002066,37.4797938994536],[127.0065862007525,37.4816932996533],[127.0072881010835,37.481592200055005],[127.0065862007218,37.4816933001956],[127.0066323006893,37.482578399416404],[127.0073407010199,37.4823514997347],[127.0082766006842,37.483468701158],[127.0047641004819,37.4821041010681],[127.0041288011172,37.483494199678006],[127.0050255011282,37.4849804995471],[127.00586110053,37.4850309005237],[127.00440590040529,37.484971201078494],[127.0043156005677,37.4874806992401],[127.00615190000431,37.4871421996667],[127.007419000349,37.4856311994147],[127.0093868001265,37.4866148990097],[127.0098200001796,37.4857252996311],[127.0112826010541,37.4861304993224],[127.0114189009018,37.4874085996694],[127.0133122006461,37.488874199293],[127.0146206003312,37.488373599150805],[127.0137381008602,37.4895104002989],[127.0148718995747,37.4913601987256],[127.0158361008109,37.490663898875404],[127.01703950029899,37.4913691995884],[127.0190704005391,37.4909644994516],[127.0189901005859,37.4933326995286],[127.021568000378,37.4961661999822],[127.0195878000129,37.4967557002849],[127.016171800106,37.496144100648905],[127.0158111998717,37.4971960004099],[127.0125964998612,37.4984538005928],[127.0122961989468,37.4970078008163],[127.01053949858259,37.496298000763005],[127.0095636995584,37.4945976024634],[127.0076517000043,37.494190203002],[127.0041092998853,37.49799100039],[127.00417949968441,37.4960890999068],[127.00480879936501,37.496259699488405],[127.00478989945101,37.495203399439504],[127.0057891984517,37.4946256000173],[127.0035760999444,37.4929230017083],[127.0022558012647,37.494110000521296],[127.0014048994834,37.493777900613395],[127.0002255998418,37.491709799879104],[127.0044237963115,37.4881455000922],[127.0014738992614,37.4854974027403],[126.9998061009292,37.4869876012501],[126.9996400003996,37.488391403117],[126.99671860203189,37.4904262002755],[126.99799500075551,37.4922459984557],[126.9998347997246,37.4919399018382],[126.9979153012305,37.4927841014591],[126.99765329950729,37.491631301046],[126.99688740027321,37.4915268011505],[126.99492340003981,37.4933510005703],[126.99054460152821,37.4945518005646],[126.9910882993911,37.4955324018931],[126.9898738006056,37.4951544022711],[126.9867077003458,37.4983133001125],[126.9866889003747,37.499181999304],[126.9884744000062,37.4984089990535],[126.9901554993765,37.4990041991958],[126.99102770034631,37.498170999986996],[126.9907409006292,37.4991814996376],[126.9916216017244,37.4998901011557],[126.99000850092081,37.4994710019791],[126.9896014013279,37.5018307996193],[126.99000849937221,37.499471002354596],[126.9891098002709,37.499229302596305],[126.987496300484,37.5017559006761],[126.9825358030583,37.5021375026269],[126.9822523033242,37.5043262004935],[126.98559759999651,37.5049779997864],[126.9868494006695,37.5066262992962],[126.9883262002191,37.5063360990695],[126.9879906987432,37.5075492078476],[126.9853333988917,37.5064730006469],[126.98559759893931,37.5049780018238],[126.98225230228459,37.5043262024756],[126.9808113001508,37.5065723082724],[126.9780711013287,37.5054134008368],[126.97224060086981,37.506740908830494],[126.9767786988832,37.5059751990452],[126.97649829916361,37.5042702007502],[126.9750783994128,37.5045585011096],[126.9742324994559,37.5033899996033],[126.9757419001734,37.5027129988046],[126.9764983000079,37.5042002994463],[126.97737549968639,37.5034521997351],[126.9776990006164,37.5042930999485],[126.98159289870159,37.50435229949],[126.9807710995234,37.502933300909],[126.9800010002935,37.5033888004535],[126.97956279933659,37.5027096006501],[126.9800486984619,37.5007714993622],[126.98231399957291,37.501876499800304],[126.9840722983366,37.5003166997311],[126.98178039804341,37.4976595008784],[126.97931989951259,37.498246801635794],[126.9787201985032,37.4966831018927],[126.97657769901981,37.4964291021422],[126.9762685968915,37.493558099905],[126.9740279991321,37.4916450018181],[126.97157339995209,37.490786300381906],[126.9695729998117,37.4924587011638],[126.9689747990272,37.490753000120996],[126.9700079991894,37.4906443997311],[126.9692612997318,37.489650199867],[126.96982249927841,37.4879401006213],[126.9688379996665,37.4868719012618],[126.9661958997693,37.488495901060894],[126.9653258993698,37.4875731002505],[126.9664532980644,37.4857974001605],[126.96681199533151,37.4828641998867],[126.96079829956449,37.482569301473404],[126.9593699002306,37.481708000803295],[126.9572971018954,37.4841704001325],[126.9580224998073,37.4864196011865],[126.9539687999366,37.4875925002722],[126.9539366988655,37.4865045003429],[126.9506733994277,37.4865119006129],[126.9495426994215,37.486073100098],[126.9488189991347,37.4845470005422],[126.9480728998808,37.484078701010496],[126.9473564001151,37.484676900741796],[126.94663340014979,37.4837816009728],[126.9461708002716,37.484820200522904],[126.9432551008289,37.4864167009825],[126.9408294003632,37.4857076009553],[126.9407389997151,37.48688460044],[126.9406538997202,37.4861433005741],[126.9342044006852,37.4848786005658],[126.93011949950791,37.487740500445504],[126.9274157998001,37.4873064004881],[126.9247840990637,37.484759899427],[126.92517909866869,37.4837301004568],[126.9245542992976,37.4829722998639],[126.9272073998817,37.4833328992464],[126.92742989934911,37.4806467999038],[126.9306352997748,37.4806432993097],[126.9309255006371,37.4799144993892],[126.9306353003283,37.480643299299196],[126.9316994003441,37.4817607994636],[126.9324892002521,37.481422599621204],[126.93253610031739,37.48246729903391],[126.9336930004554,37.4832752998534],[126.9331895004746,37.4841582997013],[126.9360316999927,37.4848187994964],[126.9366885993904,37.484135799844196],[126.93591719964661,37.4828729001378],[126.93782159972321,37.4820898990993],[126.9388666988256,37.4795553998487],[126.9380765994391,37.4790539999766],[126.93901029976851,37.4777906994769],[126.9434765002463,37.4795556992651],[126.9442593003742,37.4783227996268],[126.9444649003007,37.4794567992941],[126.9450844004666,37.478858099603194],[126.94653100008229,37.4797972988955],[126.949182298986,37.4770386985544],[126.9513558996192,37.4777402991826],[126.9517807989099,37.4755635997032],[126.9526327993812,37.4756789986901],[126.95287140017581,37.4744912989906],[126.9548079002472,37.476695398801496],[126.9559058998165,37.4757977995245],[126.95777789911949,37.476376499671204],[126.957649098913,37.4756880996767],[126.95904039850741,37.4749006999267],[126.9585636995612,37.471955998838396],[126.96096799907559,37.4733340977805],[126.9645911992082,37.4706913982947],[126.9664880997152,37.4709190987906],[126.9674781998153,37.4702209994352],[126.968244900287,37.4705344001246],[126.96803220049969,37.4714457992132],[126.9700522996347,37.4722801988358],[126.97007579961121,37.4708592002568],[126.97137399907909,37.4701407997642],[126.9710566993964,37.4690572008478],[126.9699855991874,37.4687315996816],[126.97097310003309,37.467933599108704],[126.9728054003035,37.468936297225206],[126.974724598585,37.4677653982822],[126.9747017996134,37.4659587986147],[126.9772968992246,37.465246799371805],[126.9800453004451,37.4667566980645],[126.97891290144119,37.466915702044],[126.97829110206301,37.4690709998887],[126.9806033997507,37.4710080979516],[126.9829779973761,37.469993498966204],[126.98522289564539,37.466822100470104],[126.9863224999335,37.4679953995277],[126.98809969983341,37.4673458988961],[126.9884371995754,37.464687501236895],[126.9874359989174,37.4609114995024],[126.9886868988555,37.459392799438305],[126.9878057997366,37.458721900109204],[126.9922611956211,37.4535594021874],[126.9854727970974,37.4439980017018],[126.9823946966047,37.4447845023943],[126.97415030005641,37.441665306028],[126.9728343983454,37.442146604236704],[126.9709387952532,37.4356954999256],[126.9671373976927,37.4310866983314],[126.9696375931633,37.4224919003919],[126.9638412989596,37.419284603599195],[126.96257159978241,37.422110601529106],[126.96384129524439,37.419284600927895],[126.9583799007058,37.417078503134],[126.95702339433869,37.4183358021749],[126.9523454990166,37.415147605363096],[126.9494478019143,37.41569780481289],[126.94848039715569,37.4151333993592],[126.9501274989559,37.4141964995518],[126.94912169651441,37.412383602108996],[126.9450446947519,37.410348002302],[126.93936450043209,37.410441802208204],[126.9382641989645,37.4126731014134],[126.927388501557,37.4145678054544],[126.9258069031386,37.4169640030582],[126.9274950014505,37.4205192995029],[126.9270779001435,37.421681899949405],[126.9258200011354,37.4205438012205],[126.92540149907421,37.4215738029161],[126.9231820012937,37.4219614025285],[126.9234298010842,37.4243139022868],[126.9201761022083,37.4256251018062],[126.9182277041567,37.4312555961757],[126.91730540089921,37.4303531014238],[126.91505550314909,37.4320332997436],[126.9148590030462,37.4333455994051],[126.91688260102259,37.435157997592704],[126.9182497026095,37.4351708996194],[126.9137994006573,37.4352069021106],[126.9112123032444,37.437081500236],[126.9140010008608,37.4398187977593],[126.91902990486909,37.4405383970116],[126.9163975010517,37.4424464012365],[126.91220889623169,37.4414685031299],[126.9077401007005,37.4429530016454],[126.90727100116959,37.444194400404],[126.9070059014347,37.4451556994427],[126.9099851013649,37.4479797000081],[126.9095621018045,37.4493487999014],[126.9129557999552,37.4497434996251],[126.91260240030999,37.4508896995605],[126.91328920082299,37.4531865987528],[126.9139550014989,37.453128299088604],[126.9121682010038,37.4542569996564],[126.9125443023339,37.4552808008407],[126.9104792003084,37.4618395997526],[126.9111416003594,37.4621740999867],[126.9076495018444,37.4625679016518],[126.90749570201069,37.4649245995502],[126.9092674008651,37.4652176994426],[126.90730480162121,37.4651419003598],[126.90967950045639,37.4676409009614],[126.9078365006202,37.467282001441],[126.9065845014175,37.4690978998295],[126.90636360195751,37.4719801006975],[126.9042456019488,37.471717400897305],[126.9039935011329,37.473411900566],[126.90117170154511,37.4752369997744],[126.9009705001209,37.476177700630004],[126.8989157998299,37.4774889007601],[126.8978675008782,37.4770163012327],[126.8965027015345,37.4785056003507],[126.8939012993017,37.4782293006338],[126.8923940008776,37.4794720997794],[126.89415840109599,37.480541800076296],[126.8934877014936,37.4823217991497],[126.8939915009898,37.4828802985912],[126.8974911004852,37.4837400984665],[126.89625200090991,37.484720600659],[126.8968443998839,37.4864753995689],[126.8976014000114,37.4855531997325],[126.89712010080899,37.4863364993758],[126.89786200006711,37.4869861987261],[126.90079270001429,37.485851199443],[126.9004324005875,37.4871961986529],[126.9021319011853,37.4870883982258],[126.9041159003852,37.4888043992513],[126.90424830052281,37.4908341001978],[126.9050762008511,37.491762099541305],[126.904523100724,37.4955836997512],[126.9057870997887,37.4963763993246],[126.9066578998049,37.4954323978015],[126.9100990002424,37.4946010990937],[126.9123298004557,37.4963475993888],[126.9118466007848,37.496828399551],[126.914350100156,37.4965572992134],[126.91633469946659,37.4975427993218],[126.91607579956501,37.496794099609104],[126.9183615990834,37.4962877988862],[126.9182697002952,37.4951660991834],[126.91836160111819,37.496287798472395],[126.923157900177,37.4963262989491],[126.9262390994441,37.497889698841],[126.92771119947261,37.4970945991726],[126.9276304007884,37.4959370987834],[126.93079610024739,37.496597699714904],[126.9303967008988,37.4972274000754],[126.9316187010132,37.4979855000369],[126.9311960004751,37.4992514996652],[126.9325768004209,37.4998616995859],[126.932320400681,37.50126010022311],[126.9315633999862,37.5002719008964],[126.9291015002026,37.5030094015559],[126.927672100683,37.502147300689494],[126.9264872990083,37.5028042012541],[126.9259174994621,37.502204100013],[126.9264762994253,37.501157200630004],[126.9248219000276,37.5013306007719],[126.9226501004892,37.5040860009154],[126.9229235013929,37.5063190992517],[126.9221466006572,37.5069642007446],[126.9203330989533,37.5040818005008],[126.9185202976101,37.5032886998851],[126.9174536986767,37.5015815015923],[126.914642700828,37.5019415013287],[126.9141022003625,37.501336401295],[126.9127780016867,37.502112800518596],[126.9140959006006,37.5047674999],[126.91196480085401,37.5025050027412],[126.9105227013686,37.5047270008856],[126.91107959997649,37.5061411007731],[126.90838150105091,37.5032681022437],[126.9064936010558,37.5043377015315],[126.9036677998062,37.5033024002877],[126.9019490997096,37.4985954019037],[126.9002778003913,37.4985842008668],[126.9003980002711,37.4992665001845],[126.8979048006545,37.4995049007004],[126.8982436007156,37.500379700885205],[126.8968593995666,37.5001936010266],[126.8948227999731,37.5013638005102],[126.8937571016604,37.50336970024],[126.8940447020121,37.5075357986134],[126.89714879890799,37.5059813001679],[126.896256399906,37.5040982994226],[126.89851210171281,37.5043754997672],[126.89914760090461,37.5057672003862],[126.8981585008299,37.5073104995555],[126.9001257004769,37.5081215997008],[126.89878040107081,37.5107652010229],[126.8961749997771,37.509686701481904],[126.8952072992324,37.5101719003896],[126.89494379897829,37.5087623011713],[126.89343649952231,37.5080689018762],[126.8923285006303,37.509672700272404],[126.8916106003347,37.509523200463796],[126.8913709999956,37.510922700646205],[126.8892961006577,37.511331801222],[126.8881483016197,37.5131438999464],[126.88733859960651,37.5106386008952],[126.8862142007309,37.5110294005044],[126.88620830116491,37.513284900863106],[126.8852153002867,37.5133079014114],[126.88478019960759,37.5114044007312],[126.8820537003838,37.5120917006791],[126.8812180001259,37.5113610009096],[126.88090490004771,37.5123812010219],[126.8791084990824,37.5119703004394],[126.87318309861,37.506449301077296],[126.8726803982772,37.503237900925505],[126.8750763978659,37.5027500994046],[126.8751694977728,37.499973402181304],[126.8710508008877,37.500590502382],[126.86993860199989,37.5020254009471],[126.8684489998418,37.501243000729104],[126.867920399422,37.501665500461904],[126.8680587994648,37.5009156004349],[126.8662193996506,37.500138700318104],[126.8661057989785,37.4988322991753],[126.8682662997706,37.498663999364396],[126.8672817992528,37.4966222998965],[126.8682536005992,37.4973195986883],[126.8702568000631,37.4966232996725],[126.87084029937759,37.495037501207506],[126.8689640012539,37.495638000607],[126.8661572986819,37.4928939018626],[126.861803099884,37.4937587005854],[126.8596138009151,37.4930528011124],[126.85912830140059,37.4936611005041],[126.8599190010444,37.4950702006453],[126.8583886003761,37.4963391002003],[126.8584587998414,37.4972270011877],[126.85739570008249,37.4966119011174],[126.85652250095569,37.4972942004351],[126.85688419967039,37.498875401240504],[126.8562099991054,37.4972830005572],[126.8543485992421,37.4972584010351],[126.85516369849421,37.4955175008781],[126.8534907001672,37.4942530021426],[126.8524450012129,37.4952793011163],[126.8515452994685,37.4948544006065],[126.8518793996229,37.4934600985734],[126.8540257990341,37.493052999103305],[126.8541981988617,37.491585800570505],[126.8531604995831,37.4913113986067],[126.8552462996459,37.4916262982886],[126.8553968996695,37.4899512980797],[126.85836060014769,37.4901233986133],[126.85902059948769,37.4890920996446],[126.860618799286,37.490439598426704],[126.8649012995212,37.4912286995771],[126.866157300018,37.492893899914996],[126.86731969997419,37.4919385995985],[126.86980869970989,37.4918003995436],[126.8701018996746,37.4906929991701],[126.87158429915179,37.490839598493004],[126.8722757985017,37.4890148000753],[126.871143599867,37.4866548013526],[126.870293599254,37.4871007999325],[126.8708819986656,37.4864990005343],[126.8706039970431,37.481207603146],[126.8677311999159,37.4809568033968],[126.8649025000841,37.479012902326204],[126.8644128005738,37.4804824008567],[126.8629563998437,37.4792828008127],[126.8613777998536,37.4797651004268],[126.86027760018881,37.4792284003602],[126.8605155007159,37.480218399973495],[126.8586227017281,37.4807845038694],[126.8572395031113,37.483398701255204],[126.857625802725,37.4844916001623],[126.8572394999945,37.483398701069504],[126.8562545998811,37.4844048008918],[126.852339499841,37.481440400945495],[126.84970990044779,37.4810433003837],[126.8502855001818,37.4822902020696],[126.8483309990556,37.4811627011118],[126.8493670994131,37.4778181002355],[126.8500093999199,37.4779926994753],[126.8507336001629,37.476019799325805],[126.85159309964111,37.4760051992467],[126.8519444999427,37.4741399998764],[126.8523183002754,37.4749455993028],[126.8530633999268,37.4743131998388],[126.854066900611,37.4747299998953],[126.8533486003801,37.4760311001783],[126.8549575993197,37.4775433985143],[126.8563663008655,37.4753918993329],[126.85831449891731,37.4778423968824],[126.8622026989314,37.4771687976792],[126.8632444978896,37.4765182983297],[126.8622778996611,37.4733747998343],[126.863360000378,37.4736295989889],[126.8654147993198,37.472432999549206],[126.8648730992133,37.470969999660504],[126.86813459994791,37.4695892993587],[126.86877890019649,37.470893799137],[126.869788399187,37.470293799737],[126.871458400371,37.4709542995978],[126.87131080117351,37.471792699637],[126.8734488003065,37.4726149999659],[126.87285460037549,37.4729505001126],[126.87444550000629,37.4742041994867],[126.8753940996985,37.4733369992087],[126.8761604001386,37.4744715997231],[126.8772462990527,37.4737395004552],[126.8787935985221,37.4708551003701],[126.8772864000293,37.4700456011796],[126.87674109923951,37.470946500327095],[126.8767608986763,37.469729200166604],[126.875925199512,37.4692433006525],[126.8749922996431,37.4667175997409],[126.8771438995252,37.4671058987659],[126.8770977995713,37.4656626002092],[126.8762674998333,37.464630301018204],[126.87523629905719,37.465206700249404],[126.8748631000294,37.4644035992421],[126.87587539970009,37.464395799040496],[126.8763042992712,37.4632178002185],[126.8753282002473,37.4626581007782],[126.87454959853879,37.4632795993162],[126.87424879882461,37.4595988998091],[126.8747683007212,37.4591459992686],[126.8762279992615,37.459885598529],[126.8776139978998,37.456785701604296],[126.877364498021,37.4554400976363],[126.88143559536441,37.4537959986657],[126.8773590996567,37.4483974993771],[126.8796470985596,37.448110998238995],[126.88077609928021,37.4461940977464],[126.88362889870041,37.4466322983207],[126.8884617989941,37.444383697610206],[126.8910898006694,37.4446684968333],[126.89477169783561,37.4424996990805],[126.8953043973029,37.4412129003673],[126.8944500981572,37.438829702750496],[126.8915681001911,37.4393715021303],[126.8884521990543,37.437326102273],[126.8878785994028,37.4360953993905],[126.88845220006941,37.4373260980954],[126.893812598005,37.4341487006589],[126.8940642955118,37.4292691954657],[126.8962044000805,37.431060098638106],[126.8972410990438,37.431111598586604],[126.89862949765539,37.429681300016895],[126.89881309716179,37.428305000006304],[126.897411097253,37.4259444990562],[126.898848998589,37.4238380998643],[126.8958958997557,37.4221404005671],[126.8953566997311,37.4197781018186],[126.8943336999677,37.4200117001046],[126.8948605993116,37.419265100553396],[126.8937567982377,37.4180385994513],[126.8947910967034,37.4166464994103],[126.8911236978627,37.4117054005982],[126.8965167991713,37.4043224989528],[126.8986134979895,37.4040468990062],[126.89843740126851,37.3979839972838],[126.9035834961224,37.4005470947207],[126.90506399652969,37.3961137972704],[126.9052912980035,37.3923997988565],[126.9036501969685,37.3910889976881],[126.90539630134761,37.3913255947414],[126.908612898131,37.387912798154204],[126.9115400981208,37.3869249977697],[126.91356949642099,37.3835508003638],[126.9132045967859,37.3809700029446],[126.91016739476491,37.3766909015826],[126.91061789423921,37.372117100781395],[126.9048336973464,37.37230250000481],[126.90499129825231,37.363646902494196],[126.9016718938243,37.3650068012004],[126.90499129614301,37.363646900217496],[126.90546139567289,37.3589379049265],[126.8981772972132,37.3584862035355],[126.9046344989003,37.3576178993582],[126.9075245960102,37.3563408006353],[126.90443889909591,37.3505503064258],[126.9003374031974,37.3499522070239],[126.8973711061637,37.3535968033793],[126.8971462972502,37.3488822042349],[126.8931295996938,37.350590102979],[126.8908767920265,37.3506088007066],[126.8946386927076,37.3467871996987],[126.8947775925687,37.3450911013948],[126.88962988867421,37.3394386999693],[126.88220029610379,37.335489603918404],[126.88068789693409,37.3333640016854],[126.876773896401,37.3326542027813],[126.8786760968705,37.3292633015951],[126.87481549937449,37.3279176021095],[126.8729967998849,37.3256745006254],[126.8650920077897,37.3203896059103],[126.861529502083,37.324223004649504],[126.8616854005306,37.327448200279996],[126.8594609004911,37.328643100989204],[126.859513899337,37.3297803016346],[126.8572774987555,37.328691804654],[126.8542837017493,37.3331353002105],[126.8551612014507,37.3338172001004],[126.8545517003522,37.3347946009549],[126.85320309990931,37.3337697011282],[126.8527414995768,37.3345422007898],[126.851334400879,37.3341612012285],[126.8501021002863,37.334808000345504],[126.85003229985989,37.3360589009716],[126.84850780033459,37.3353824010487],[126.8427575995472,37.338068401728094],[126.838356100694,37.337226001658],[126.8369511004553,37.3388177004085],[126.8348100001191,37.335636102718],[126.83250100242809,37.3354172029369],[126.83018670013399,37.337168002488795],[126.82955030077039,37.3385892010676],[126.8242414033503,37.3379144015299],[126.822699200752,37.3413844007799],[126.8204177004219,37.3412072010968],[126.8198548009848,37.341995700308296],[126.8199466014363,37.3431418999234],[126.82236950036629,37.344641899448],[126.82157690046209,37.34550379998],[126.8221963005749,37.3470969995846],[126.825040901894,37.3483551998533],[126.82316659965629,37.348567201305094],[126.82246909925391,37.3496545006899],[126.81883190021661,37.3488618017403],[126.8156577999038,37.3491977012511],[126.8145384008276,37.3483656016459],[126.813694001672,37.349477500534],[126.8109812010737,37.3495356008178],[126.8091271029278,37.353670696682705],[126.81439569765921,37.3547277956256],[126.81419610136551,37.350970799478],[126.81439570404571,37.3547278012007],[126.8091271051479,37.3536707063693],[126.80721270706229,37.3624690975709],[126.8109554033196,37.363902696137295],[126.8114246005547,37.3650570000859],[126.8109553999218,37.363902701505296],[126.80755660332059,37.363612201795796],[126.808195601825,37.3687146999549],[126.80859220142841,37.3695903990792],[126.8102719009748,37.3693271990423],[126.81029600045619,37.370246200987],[126.8102718995753,37.3693272010247],[126.8087406001979,37.3705645021524],[126.80622539866171,37.3705647012332],[126.80418539822429,37.3652465016299],[126.8020617977445,37.365911499508],[126.80356759777719,37.363644794528504],[126.8072126973258,37.3624690944324],[126.8091270954114,37.353670703230804],[126.8063355977305,37.3530976035291],[126.80444280034881,37.3490790017576],[126.8004916000184,37.349923500619404],[126.8001146000065,37.350614300568196],[126.7987663987806,37.350097499924196],[126.80444279612091,37.3490790000503],[126.8039488966148,37.3463839027454],[126.80128909775911,37.346153800868805],[126.802286298696,37.3457017988399],[126.802887298095,37.3439674005743],[126.8019099999514,37.3431110004171],[126.7969792021941,37.3403952024059],[126.7951995004572,37.3438466000865],[126.7939611988679,37.3435703999115],[126.79289539993371,37.341322302159604],[126.79227369875599,37.3432513014543],[126.7924003984572,37.3407909024017],[126.78898219973041,37.3404639000571],[126.7888561998564,37.3392707012503],[126.7876462010664,37.3402248002962],[126.7886597002877,37.340658099928],[126.7886832005522,37.3431629007842],[126.7883070999394,37.34272150050921],[126.7842275000085,37.3450360014612],[126.7829195004013,37.3447506011536],[126.7817196010276,37.3472154993165],[126.7830921002287,37.3468434990607],[126.7838875004041,37.3475731003759],[126.7831808998941,37.349177700662096],[126.7810379020371,37.3488270010128],[126.7801111013401,37.349445101364594],[126.7804768992572,37.351371303160995],[126.7772399986584,37.3513257987548],[126.7787895984018,37.350305898901205],[126.7784394976603,37.348014196763],[126.7811370949627,37.3454386993385],[126.7805861955136,37.343743001034206],[126.7778979982018,37.3424415023357],[126.7742851998048,37.3421434003709],[126.7722286996859,37.343249101752],[126.768035603879,37.3427332022679],[126.7672169006374,37.3477605015929],[126.7658364020179,37.347009402344],[126.7626050052493,37.3482529011005],[126.7647691031693,37.3551971968597],[126.7685346994037,37.3541322979246],[126.7691675987708,37.3513560007009],[126.76846399939029,37.3513631979902],[126.7691676019094,37.3513559984787],[126.7685347031154,37.3541323004179],[126.76009670365481,37.357478500197196],[126.75704540068179,37.3607492015982],[126.7546026007375,37.3650221001583],[126.7528968062478,37.3656357048879],[126.75475060439399,37.378413092110506],[126.7566048037536,37.3785893038223],[126.753167502465,37.3851705007708],[126.7516199010188,37.3862386010452],[126.7517979984406,37.385350600838905],[126.7505407996978,37.3838108023787],[126.74751620179481,37.3849194013305],[126.7456012009861,37.3833854018461],[126.7435181031726,37.3897613987063],[126.7457983008924,37.391073697394],[126.747793000646,37.3895709003503],[126.7457777036262,37.391928702880904],[126.7457982973979,37.3910737003131],[126.7435180995339,37.389761401539594],[126.7423741006779,37.3902785010225],[126.7397186021155,37.395158197433396],[126.7425722025598,37.3958195978035],[126.74231379992311,37.3963810002545],[126.7392907025986,37.3958472011026],[126.7387154984192,37.3970451005485],[126.7390561974142,37.3945894019947],[126.7360974973243,37.3915328034979],[126.7357616988489,37.3893044000023],[126.7367959989368,37.3888968998769],[126.7359265974935,37.3875544981012],[126.74033440036169,37.38812209853759],[126.7412426994534,37.3871308995288],[126.74077920005391,37.3854979973287],[126.741687500163,37.3869527989796],[126.7448469975782,37.3863612987045],[126.7431894989912,37.3834314012431],[126.7436300001755,37.382346899859904],[126.7456012002713,37.383385397473305],[126.7464446998767,37.380774098363496],[126.74560120192079,37.3833853977687],[126.74747990004211,37.383724397429695],[126.7476129996998,37.3810661995258],[126.74932899798381,37.3794836011084],[126.74959099573779,37.3658534120255],[126.7433196981961,37.3651554072777],[126.7410486004672,37.3668534055797],[126.7411951007168,37.372373203190996],[126.73920440019691,37.3735172010929],[126.7368258985976,37.3721907027998],[126.73703709852569,37.370433501573494],[126.7350412002229,37.3685654031395],[126.73248650277759,37.3689703027346],[126.7338011987356,37.3725662020847],[126.7290222985712,37.3711485014789],[126.72713859950801,37.3722272002883],[126.7275056992234,37.3694667022875],[126.72497289975689,37.3668382027619],[126.7236595010703,37.3684107011894],[126.72268199861331,37.3682777009923],[126.7245831989929,37.363542000151305],[126.7224539999421,37.3609564017961],[126.72160889942221,37.3609907001965]]],[[[126.9623736992683,37.526742199195304],[126.9633920992726,37.5261437992119],[126.963308799991,37.524233298751],[126.9644148996906,37.5252627986272],[126.96599479856211,37.5243119993193],[126.9661891985402,37.5216305011772],[126.96501769896881,37.5217807001328],[126.9652574977125,37.5211681989947],[126.9661891995809,37.5216304989123],[126.96703909548499,37.5199909997329],[126.9691447997795,37.5199403991898],[126.96965559926869,37.5189335001967],[126.96915489979861,37.5172119998798],[126.97134719796179,37.516188691417504],[126.9727200008124,37.5170698999593],[126.97247920032119,37.518179099082296],[126.9745987003668,37.5172514990748],[126.9750852011741,37.5182180990153],[126.9763716002727,37.517462599538305],[126.978129601023,37.5182657999692],[126.97964680065189,37.520756498750096],[126.9830335979017,37.5198066995862],[126.9831076985163,37.5186313991574],[126.9830336004254,37.5198066997499],[126.98413390043031,37.5202349997053],[126.98352990023649,37.5217774007783],[126.98213510089299,37.521982900699896],[126.98299010040459,37.5231990003833],[126.98045020005021,37.5232663010212],[126.9794682005892,37.5250980011176],[126.9794491989921,37.5245509007392],[126.97764599967509,37.5252147011641],[126.9769276993522,37.5235162996252],[126.9779168992602,37.5228559998518],[126.977317499565,37.5217209001247],[126.97503810128211,37.520940301083996],[126.97302450124519,37.5216151004475],[126.97442960038589,37.5225548999593],[126.97244580097251,37.5225521997751],[126.9727332010565,37.5237684995393],[126.9679798012762,37.5271948998531],[126.9687768008534,37.5287904990289],[126.9702459994418,37.528330699405],[126.9714153008142,37.5301171996497],[126.97238690039781,37.5300027997652],[126.97163430095141,37.5308122998579],[126.9733185003313,37.5312840996307],[126.97462780073519,37.533194399344296],[126.9753892999737,37.5326489998897],[126.9780313003315,37.5339678000048],[126.97832220020709,37.534819500633496],[126.9774895003021,37.5346461004939],[126.9773329007123,37.5356951001167],[126.9759948999622,37.5365124006808],[126.97556849957489,37.5356175005095],[126.97452350061991,37.5355586005684],[126.97501620022899,37.5376608002776],[126.9742997002009,37.536743901048595],[126.9740023001698,37.537778700332694],[126.97133189940459,37.536567400452405],[126.97027829880321,37.5335197001758],[126.9674886991725,37.530902901954704],[126.9681784991421,37.5309988992418],[126.9677661995544,37.529823900416794],[126.9665407001733,37.5296072002941],[126.9667300000648,37.5306300000353],[126.9651060009517,37.530853200048305],[126.96547580118539,37.5318992009584],[126.9641262010199,37.5327233007132],[126.9637352007795,37.534466800439],[126.9639911992095,37.533369800643605],[126.9628621998207,37.5337155003499],[126.9633128997612,37.5320282999684],[126.9641712994585,37.5317001000382],[126.9640825994741,37.528694699713604],[126.963614699942,37.5272467011616],[126.9623736992683,37.526742199195304]]],[[[126.9031847996785,37.509462399924594],[126.90477939951259,37.5096899993225],[126.9052468992859,37.5089586996901],[126.9067930990338,37.509103198975396],[126.9110358995526,37.507435699493804],[126.91205400052729,37.5078878998481],[126.9127924997631,37.509782798934204],[126.913529600893,37.509414499989],[126.91485800099059,37.5110307001991],[126.9149449004884,37.5143597000521],[126.91262980180491,37.515724900901105],[126.91420330011739,37.5175345993039],[126.9164906996328,37.517305199601104],[126.9170918995697,37.5162877002508],[126.9163207996085,37.5157575999171],[126.9179342005204,37.5147550996454],[126.9174192003295,37.5173140998689],[126.9193730990429,37.5187733988097],[126.9188019994795,37.516974499274404],[126.9217397984992,37.5158245995583],[126.9222957997596,37.5147349993213],[126.9237976005111,37.5149324994526],[126.9238275024633,37.515509201764694],[126.9189885013823,37.5171858005122],[126.91950640006921,37.519131800386496],[126.9172840993872,37.518130902468805],[126.9142764991718,37.5199312999407],[126.9147629994482,37.519564100232095],[126.9142761997241,37.518509100612],[126.9137123991634,37.518899600691796],[126.9137922994536,37.517152800321696],[126.91236770008841,37.5170643001423],[126.9084875998681,37.5146486009657],[126.9076999992908,37.5152200011135],[126.9049749990741,37.5133751012592],[126.90403769924811,37.509690900299205],[126.9031847996785,37.509462399924594]]],[[[127.0231793989263,37.4971553003081],[127.0271141996145,37.4949095989754],[127.0285414994779,37.4955415987586],[127.0284791995402,37.4944510998491],[127.0293591003091,37.4944577994765],[127.0291589010229,37.4952285997531],[127.0315122009223,37.4980415002846],[127.031332501102,37.4989288993972],[127.033998299709,37.499817299297796],[127.034455199736,37.4989030991744],[127.03501489964239,37.4995162994523],[127.0364178002271,37.498372499528],[127.03936380067701,37.5010679002127],[127.038930800493,37.501903600553],[127.0361211997825,37.5025503004899],[127.0343488997093,37.5008441003217],[127.034650199467,37.5002125005602],[127.0311772008408,37.499241900659904],[127.0260357998134,37.5016386003372],[127.0244678992054,37.4976597007952],[127.0231793989263,37.4971553003081]]],[[[127.0238770990246,37.206522500854895],[127.0266401990996,37.2065553984176],[127.02872209961339,37.204853199437004],[127.0306016991568,37.204524598754496],[127.0322510987392,37.2056319982159],[127.0335147013172,37.2040369982211],[127.0351163997155,37.2045615976965],[127.03770489981119,37.2013720996651],[127.0393920996007,37.2007085995935],[127.0387022002906,37.1999336003685],[127.0369067994175,37.200468799599],[127.0411609997318,37.1987495994793],[127.0407504004172,37.1993133994593],[127.04254470191569,37.1997852994591],[127.0421114005021,37.2013061003659],[127.04117720092401,37.200722600942996],[127.0426444007031,37.20207210004],[127.0425533007942,37.2036282984838],[127.0439017019526,37.2041272010561],[127.0438170020373,37.207918797264504],[127.04479570226819,37.2083824991417],[127.0437100025627,37.2115964012756],[127.0418418001872,37.214127700974],[127.0391504010041,37.2139364009141],[127.0382970010265,37.2149991009332],[127.0363943001705,37.214165301063694],[127.03467119842621,37.2165881008454],[127.0302939980098,37.2133835989678],[127.028161700599,37.2083603027958],[127.0238770990246,37.206522500854895]]],[[[126.99963339908439,37.5005952994513],[127.0038709005122,37.5019528989618],[127.00463379956159,37.499871300830605],[127.00379119870719,37.4999174004098],[127.0036792996446,37.4988802999381],[127.004216200173,37.4989728995548],[127.0058692007841,37.5000670997016],[127.0056979005867,37.5008091993358],[127.0072667004159,37.501004899273596],[127.00802230051829,37.504341799142296],[127.0106934003091,37.504077799434],[127.0111235009321,37.5048897005176],[127.0099279004145,37.5062455015235],[127.0099946003478,37.508323999445004],[127.0133163995144,37.508010898501105],[127.01299690106451,37.5086332997296],[127.0165302004013,37.5095707002401],[127.015350099675,37.50990680150041],[127.01477660024851,37.5091799022273],[127.0105993996557,37.510362001970904],[127.0093262988953,37.5087853011333],[127.0081178996126,37.509017200739805],[127.0078685994468,37.507635401120396],[127.00559079898379,37.506290300753705],[127.0026535014153,37.506453200982705],[127.00327619939951,37.5083426012275],[127.0026534985184,37.5064532001536],[126.9999810991541,37.505386200211895],[127.0006441988045,37.504755500486],[126.99992249933369,37.5036219998113],[127.0009930989044,37.503678199378],[127.00241369790031,37.5022164002144],[126.99963339908439,37.5005952994513]]],[[[126.72097749880031,37.4005306982954],[126.72149969992789,37.401793498759794],[126.7219101009103,37.4011625988951],[126.7243786992725,37.401132099810596],[126.7232481994181,37.3985395999133],[126.7237400996346,37.3995823989181],[126.72522570126499,37.3982823991184],[126.72734390143779,37.398946700574506],[126.7271379016438,37.3999592995619],[126.7284780003037,37.4018429976782],[126.7305206989702,37.4005440987702],[126.7310898989511,37.3987262990311],[126.7303156997971,37.3975691985748],[126.731805402032,37.398658498746705],[126.7347308012929,37.3977840990989],[126.7368336013348,37.3991540989653],[126.7374186009389,37.4035851003556],[126.736022100088,37.4042058009071],[126.73640449917801,37.403165200935],[126.73570329987919,37.402881201219],[126.7336006001956,37.4044409011429],[126.7324782999434,37.403468601570296],[126.7300545008293,37.405229202906],[126.7293642993285,37.4023760005858],[126.72847800021479,37.4018430011188],[126.72788829997161,37.402763800704705],[126.7270671001099,37.4026333006564],[126.72524919993839,37.40167900067],[126.7255260005665,37.4039560998099],[126.72398440089641,37.404029200432994],[126.723804099737,37.404833400834],[126.7235543998569,37.403579900960295],[126.7225843997069,37.4036258003743],[126.7214996993242,37.4017935006774],[126.7206763978826,37.4016710982295],[126.72097749880031,37.4005306982954]]],[[[126.9682020996082,37.544528400172],[126.9706832990018,37.5434407990526],[126.971414000777,37.5441803988892],[126.97220809998291,37.543685599384006],[126.9725561996348,37.5424362006334],[126.97081369973189,37.541628699995094],[126.9718181995668,37.5418706997907],[126.9732910006274,37.5403914993622],[126.9743412002999,37.5416696001319],[126.9735553006348,37.5426112003339],[126.9733818003362,37.5452646995546],[126.97510770065209,37.5454798996495],[126.97550010116241,37.5466196000143],[126.9730718008714,37.5467634001891],[126.9718415988888,37.5482062004317],[126.9718908984894,37.546830700714104],[126.9702299001504,37.5469085006363],[126.9685299996187,37.545368000845606],[126.9693999990984,37.544820000323604],[126.9682020996082,37.544528400172]]],[[[127.0373537983889,37.2503604994234],[127.0394310001019,37.248067397849496],[127.0405072006715,37.2489725983837],[127.0423166998939,37.247872098891904],[127.0436575000696,37.248188798607],[127.0427744015086,37.249144299677795],[127.0438143004687,37.2501159987061],[127.0461317000224,37.2483747997549],[127.0438143031613,37.2501160010891],[127.0455141029157,37.2554558999782],[127.04453679920431,37.253145501450305],[127.04239740134369,37.2541290004668],[127.042282100401,37.2556352012277],[127.0420159997243,37.2539938003786],[127.04126700047331,37.2543021000703],[127.0413805001162,37.255236500187],[127.03975819990889,37.2560143008579],[127.0373671002349,37.254811600611795],[127.0388078986975,37.253604799994996],[127.0372451991853,37.2533320004092],[127.0366310994621,37.2524310010645],[127.0373537983889,37.2503604994234]]],[[[126.9503776997426,37.497263100242996],[126.9522233988055,37.4961224993846],[126.9518190992098,37.495358700148394],[126.9532549001422,37.4937557992657],[126.9546152993088,37.4931560990392],[126.9554280995701,37.4939143992688],[126.956177400333,37.493348499217106],[126.9577914008446,37.4951527998264],[126.9568797001009,37.496175800186805],[126.956498099954,37.494870100607],[126.95531600003889,37.495829400420995],[126.9548359998455,37.4949734005749],[126.9533337006789,37.4965239000486],[126.9545095010051,37.4971449008339],[126.9530801005394,37.498572601008],[126.95110740032389,37.499101700596995],[126.9515193994001,37.4980944001702],[126.9503776997426,37.497263100242996]]],[[[127.0390976975723,37.1904554996541],[127.0397758985649,37.187904898832],[127.0383232000394,37.186699899500404],[127.0403019001707,37.187417698801596],[127.041179599293,37.1865401996791],[127.0406545001883,37.1860963985274],[127.041847500324,37.186743198455204],[127.04291629953231,37.1856240987569],[127.0434251009425,37.1859321989712],[127.04248650106699,37.1871328995739],[127.0441868995886,37.1876605991263],[127.04519289917471,37.1867905981128],[127.04477179950251,37.1843648994371],[127.0460247989046,37.1848603992596],[127.0489194035501,37.1840694984582],[127.0466184009977,37.1863869008951],[127.04677550064869,37.188678699935494],[127.04823570001781,37.188606699390505],[127.05005730260281,37.189847199889705],[127.04809350074699,37.190878104511896],[127.0454220991475,37.189598503049204],[127.0433179010656,37.1901215025245],[127.042840500265,37.1915019024248],[127.03997500126489,37.192287801854306],[127.0390976975723,37.1904554996541]]],[[[126.8919832982656,37.519384199482396],[126.8937229995738,37.519154497685896],[126.8946446986521,37.517273699566694],[126.8938553993395,37.514963400987696],[126.8921683998808,37.515737100066005],[126.8931644989331,37.515009500639195],[126.8924766990138,37.5143865009779],[126.8932531996187,37.513568099706504],[126.8957533998808,37.514290499667204],[126.8961826004827,37.5136955997596],[126.8962071006301,37.5152189991749],[126.8992168013234,37.5168504985882],[126.8980893002597,37.5169372015812],[126.89817890017011,37.5185347999836],[126.89671710148491,37.518947099737396],[126.8965020000654,37.520118000285294],[126.89386399897309,37.520410901298604],[126.8934572987795,37.519329800449],[126.8919832982656,37.519384199482396]]],[[[127.0180310997973,37.510141600495],[127.01908539964049,37.509845899482904],[127.0196779997069,37.5105381992828],[127.0196082998853,37.5095880995429],[127.0224501001243,37.508537099755095],[127.0234910005327,37.5100561001684],[127.02302240077191,37.5110366994915],[127.0246627004496,37.5120340001421],[127.0232896004174,37.511763700939504],[127.0201822998191,37.513793700149904],[127.0189115995737,37.512277000194395],[127.01942109914471,37.511478500323406],[127.0180310997973,37.510141600495]]],[[[126.9373997992544,37.513284200091],[126.9383068998968,37.5125583997451],[126.9386837001779,37.5135322999529],[126.93970079915469,37.513434099306295],[126.9391285990971,37.5118395997575],[126.9401546002077,37.511045199554395],[126.94253380033821,37.5124463986821],[126.9430364001239,37.5136418000275],[126.9373997992544,37.513284200091]]],[[[127.0547673990735,37.2457986993815],[127.05402719990049,37.2447742998755],[127.0557535995833,37.2443396997203],[127.0550675990309,37.243189800048405],[127.0556160996,37.2431440990236],[127.05647830151689,37.2448834982628],[127.05831929967589,37.2442444989018],[127.0583822026359,37.2435660988859],[127.0590795016991,37.2459451981645],[127.0611879002378,37.2457481000063],[127.0575412009664,37.2468247006979],[127.0586480003534,37.247714799834895],[127.0574835993214,37.2488148010952],[127.0547673990735,37.2457986993815]]],[[[126.7990757984381,37.384372299714],[126.80033059937759,37.3841560989826],[126.8011364985717,37.3827054004333],[126.79889259886241,37.3811693011043],[126.80042329931281,37.3800685996575],[126.8000564998076,37.3793345998115],[126.80260629873679,37.3774387939191],[126.8049996015868,37.378421197373896],[126.8075054990809,37.378137097658],[126.8087566019555,37.3744782997341],[126.8082946022758,37.3769439985212],[126.8109590013443,37.3775387003836],[126.8086737033356,37.3808801010118],[126.8115275006172,37.382396301479005],[126.80920240206791,37.3825569014314],[126.8095376012809,37.3844038050662],[126.8089467997063,37.3834458013193],[126.8071072015459,37.3843394004257],[126.8061164047021,37.386627602842395],[126.8044913006316,37.387193103032395],[126.804743098769,37.385280200908795],[126.7990757984381,37.384372299714]]],[[[126.9460653998441,37.5029828002895],[126.9460429000889,37.50181769978909],[126.9485288994716,37.502304199229094],[126.94847350018371,37.501007699489705],[126.9502277007562,37.502511600048095],[126.9490524007855,37.502889099836295],[126.9498684003881,37.5030275999311],[126.9495197000647,37.5041747001185],[126.94865870022899,37.5036929006774],[126.94670090037259,37.504527700647394],[126.9468389991204,37.5035157005576],[126.9460653998441,37.5029828002895]]],[[[126.83543089837171,37.4887186006407],[126.8359036993124,37.4856959001315],[126.83770609932631,37.4851823985602],[126.83829609875329,37.4834035985089],[126.8389901004611,37.4843157977394],[126.8402206992305,37.4843652976899],[126.84164450044621,37.483378399746],[126.8400224023216,37.4846214022141],[126.8421139011147,37.488340500355],[126.8396875001278,37.4879079002675],[126.8391892006378,37.4889284994643],[126.8403568001269,37.490242300148196],[126.83543089837171,37.4887186006407]]],[[[126.8943035992778,37.5256259997402],[126.89615000061461,37.523145899416505],[126.8972840010151,37.523437099839],[126.8975297009445,37.5243658995931],[126.8985253006603,37.5241697995633],[126.89900210047631,37.5261348005542],[126.89809420098061,37.5266261004094],[126.89829310045171,37.5274354006334],[126.8962429990484,37.5282122004807],[126.89437740000939,37.526891500646094],[126.8943035992778,37.5256259997402]]],[[[126.9245669991424,37.5127381002066],[126.92484409960281,37.5110171993846],[126.9262375003537,37.5136809990246],[126.9282813010789,37.5135815995979],[126.9296322010475,37.5145116986941],[126.92861440101031,37.513977500622005],[126.92742510219959,37.5151633994361],[126.9285507000356,37.5168924000736],[126.9264961984399,37.514591099849895],[126.9260346991984,37.5125795006578],[126.9245669991424,37.5127381002066]]],[[[127.0227945992096,37.5039472004639],[127.0242417998531,37.5041637992008],[127.02504490027759,37.5032691992706],[127.0263579003849,37.5038780991404],[127.0255837008954,37.5041435000118],[127.0264913013371,37.5050146004175],[127.0239701997232,37.5059170005976],[127.0242222990018,37.5052637998602],[127.0227945992096,37.5039472004639]]],[[[127.05849839953811,37.16887349986099],[127.0599095996753,37.1693905981975],[127.0619711999667,37.1682064974154],[127.062898300264,37.16845669997],[127.0621110004059,37.172510800350196],[127.0603068996052,37.1721174011118],[127.0612552997876,37.171197199462],[127.0610962999466,37.170268200391],[127.05945820033969,37.1692203005338],[127.0588189992928,37.1704520004948],[127.05849839953811,37.16887349986099]]],[[[126.8223052996394,37.4916921995654],[126.8225508996716,37.4909234992758],[126.8232348006769,37.491751298600995],[126.82480800024081,37.4916985992958],[126.82542650043281,37.4907701994788],[126.8238202008081,37.4919285007667],[126.82396470066361,37.4927545999406],[126.8253962016338,37.493155900165796],[126.8246086994788,37.4939655024187],[126.8233969995267,37.4924950005928],[126.823735999633,37.4919509002261],[126.8228619999548,37.491172500835],[126.8223052996394,37.4916921995654]]],[[[126.9365989999032,37.5045387999732],[126.9383280002652,37.5036533975349],[126.9392156999408,37.5044010993687],[126.93992850005169,37.502752898054595],[126.9405125006929,37.5048077992514],[126.94160390061211,37.504512500132996],[126.94090630105839,37.5067836004244],[126.9399015989628,37.5068657013003],[126.9386369006186,37.504620101365894],[126.9375201997155,37.5054428012883],[126.9365989999032,37.5045387999732]]],[[[126.9109402991724,37.4876268999687],[126.9111878996772,37.4859392991388],[126.9124566998141,37.487616699442896],[126.9126023995447,37.4866428991055],[126.91367419934271,37.4862324997917],[126.9144767003572,37.486866200061705],[126.9128849000098,37.488893201184],[126.91182550009121,37.4890103007063],[126.9109402991724,37.4876268999687]]],[[[127.0091461994144,37.2450248000315],[127.0111494002813,37.245922698934905],[127.0119849994457,37.245233599624],[127.0130710007697,37.2411156997245],[127.01198500074389,37.2452335996133],[127.0130366008091,37.2458644004991],[127.0091461994144,37.2450248000315]]],[[[126.960674798935,37.5093824991575],[126.9605382996329,37.5076463998564],[126.9625855993945,37.5057945981353],[126.9642682012315,37.5067410992377],[126.96702790001781,37.5068845992015],[126.966478200912,37.507853500110606],[126.9642489003365,37.5082879010439],[126.9630371059164,37.5103292067626],[126.961501101023,37.511224908499],[126.96217339863,37.5108908992317],[126.9612145995888,37.5091230009996],[126.960674798935,37.5093824991575]]],[[[126.9711195001626,37.5550632992729],[126.9726150001607,37.55371239945],[126.9736700004152,37.553829999392995],[126.9721855004462,37.5551915002543],[126.9729710999588,37.5558227003053],[126.9711195001626,37.5550632992729]]],[[[126.9013287998485,37.533845499377],[126.9024623003299,37.5340016994747],[126.9028846998016,37.536052100857496],[126.9013287998485,37.533845499377]]],[[[126.9507874993682,37.512635000010306],[126.9538337002661,37.5122909001291],[126.9524964006076,37.5127724018379],[126.9518474007,37.514369700407606],[126.9507874993682,37.512635000010306]]],[[[126.7860548985416,37.4382636000106],[126.7865375000915,37.439123999153],[126.7874896011991,37.4387280996538],[126.7871621001841,37.4398433003033],[126.7860548985416,37.4382636000106]]],[[[127.06991619942819,37.2516034002181],[127.0725048015335,37.2507730003216],[127.0709609008374,37.2524705008329],[127.0699846001275,37.2523244008569],[127.06991619942819,37.2516034002181]]],[[[126.7855035992656,37.4081848000182],[126.78549770048579,37.4065642987641],[126.787482799813,37.4076733976059],[126.7896950004909,37.4063561001036],[126.7885569011179,37.4100148009577],[126.7855035992656,37.4081848000182]]],[[[126.94363029953,37.513678299991],[126.9437108003309,37.5127634993357],[126.9445858006408,37.5138732003896],[126.94363029953,37.513678299991]]],[[[127.0145104992901,37.4849284002358],[127.0162808984165,37.4850242991257],[127.0163522998451,37.4839436984483],[127.0182783007512,37.485444800977504],[127.0158421000451,37.486539300488595],[127.0145104992901,37.4849284002358]]],[[[127.0165220995309,37.240533400283496],[127.0172246990917,37.2407336996412],[127.01864880075979,37.2390084984067],[127.0180348018763,37.2409818986288],[127.0198898013185,37.2419496012184],[127.0165220995309,37.240533400283496]]],[[[127.02995769943709,37.5136351000906],[127.03222129935371,37.5129618991157],[127.0332386004426,37.514648300321],[127.0309034003764,37.5141067008484],[127.0304460997422,37.514689800530796],[127.02995769943709,37.5136351000906]]],[[[126.70736389736861,37.3989467999901],[126.7085106004747,37.4004984984421],[126.710343600841,37.400616398342095],[126.71120260030389,37.401814100451105],[126.70956790123239,37.4030617016853],[126.70788469916879,37.4028407013667],[126.7073538974991,37.4020655001672],[126.7085105980452,37.4004985009268],[126.70736389736861,37.3989467999901]]],[[[126.8460146990323,37.4951476005156],[126.8484767012644,37.4957469992582],[126.8491378011715,37.4963808998101],[126.8460146990323,37.4951476005156]]],[[[126.8723968990902,37.5100263007461],[126.8721983994909,37.5093543981962],[126.87297240083629,37.5091739988159],[126.8723968990902,37.5100263007461]]],[[[126.9327731997751,37.4778377001239],[126.93459720042429,37.4783481993596],[126.93450250028219,37.478820100114],[126.9327731997751,37.4778377001239]]],[[[127.0487058984825,37.505167898911296],[127.049543700197,37.5033774995823],[127.04981700105701,37.5040288009284],[127.048306899636,37.5059928004342],[127.0487058984825,37.505167898911296]]],[[[126.977303399547,37.5577064000012],[126.9780026000968,37.5581843991768],[126.9784809006804,37.557564199820604],[126.9789317010421,37.5586603994775],[126.977303399547,37.5577064000012]]],[[[126.9950000994851,37.5033144009843],[126.9951155993817,37.502976098871095],[126.9954898007846,37.5031364996061],[126.9950000994851,37.5033144009843]]],[[[126.8916327987663,37.4204434010429],[126.89224749898,37.4204551985271],[126.8925235995018,37.418519199071696],[126.8930872004692,37.4205719998656],[126.8922352011736,37.4209040000025],[126.8921274004176,37.422136700542104],[126.8916327987663,37.4204434010429]]],[[[127.0132321998275,37.2389633990798],[127.0143043002713,37.239641899569],[127.0150281007563,37.240078601228994],[127.0143042995364,37.239641901198304],[127.0132321998275,37.2389633990798]]],[[[126.82128839861831,37.351490199435304],[126.8211849992323,37.3507898996585],[126.8217772999457,37.3514615988828],[126.82303740172681,37.3503353988052],[126.8213388990133,37.3522543018936],[126.82128839861831,37.351490199435304]]],[[[126.9279384990858,37.4894362000889],[126.92875630039471,37.489237799479696],[126.92770039970341,37.4900891006535],[126.9279384990858,37.4894362000889]]],[[[126.9503151974384,37.295610600486405],[126.9512973983731,37.29476849985],[126.9498124011118,37.2941420990337],[126.9516404008725,37.2950283002191],[126.9503151974384,37.295610600486405]]],[[[127.0517880991404,37.196978799464],[127.05192579853711,37.1959118986485],[127.0524614003764,37.1960592991839],[127.0517880991404,37.196978799464]]],[[[127.06561039870999,37.1471772002699],[127.0665489008873,37.1474246005218],[127.0656122987613,37.147937400553104],[127.06561039870999,37.1471772002699]]],[[[127.00335169887299,37.388733899791696],[127.0033557997368,37.3883967993423],[127.0032873002031,37.388607199855706],[127.0034474002709,37.388774101048796],[127.00335169887299,37.388733899791696]]],[[[126.694454898693,37.4073187004149],[126.694446399917,37.407106298444404],[126.6952213003088,37.4067318989965],[126.694454898693,37.4073187004149]]],[[[126.8115171993468,37.485328199661595],[126.8120076005024,37.4860317008199],[126.8116076990509,37.4859085996815],[126.8115171993468,37.485328199661595]]],[[[126.8839212982798,37.262000401258796],[126.88369880000481,37.2617756995604],[126.8841267019576,37.2620016028284],[126.8839212982798,37.262000401258796]]],[[[126.9774737996061,37.5016795997167],[126.9776706004055,37.5015037996535],[126.97801170087719,37.502066500625595],[126.9774737996061,37.5016795997167]]],[[[127.04103979937759,37.5170254000091],[127.04142590012839,37.5171327993676],[127.0413670007691,37.5173054001488],[127.04103979937759,37.5170254000091]]],[[[127.0530022986558,37.245519200095096],[127.05315070069021,37.2453972997829],[127.0531078999849,37.2457045001087],[127.0530022986558,37.245519200095096]]],[[[126.7273439994542,37.398209999474496],[126.72844360113771,37.3974384991947],[126.72844360073681,37.397438501835],[126.7273439994542,37.398209999474496]]],[[[126.92269379992031,37.400835799979305],[126.9227879000354,37.4005827999461],[126.9227357999907,37.4008739001284],[126.92269379992031,37.400835799979305]]],[[[126.99410729935829,37.2994742999309],[126.99473850060049,37.298468799884404],[126.9941073006363,37.299474300443],[126.99410729935829,37.2994742999309]]],[[[126.7743414998216,37.346643900497],[126.77416619897059,37.346756099341],[126.7744922016076,37.346504198272996],[126.7743414998216,37.346643900497]]],[[[126.8952651986427,37.2690634003005],[126.8958633018844,37.268991302980005],[126.89560399961381,37.2690226002183],[126.8952651986427,37.2690634003005]]],[[[126.9242099995886,37.5216516997417],[126.9242886011641,37.52137359920199],[126.924525700927,37.5215167990588],[126.9242099995886,37.5216516997417]]],[[[127.0789029987962,37.2595484002998],[127.0789029991621,37.2595483991251],[127.0789030005035,37.2595483993255],[127.0789029987962,37.2595484002998]]],[[[126.9087811989189,37.4855564992894],[126.90890879989391,37.4852886995553],[126.9087812010664,37.485556500666505],[126.9087811989189,37.4855564992894]]],[[[126.9658532994796,37.279074799728996],[126.966278800404,37.2791359000181],[126.9661742001403,37.279259700613096],[126.9658532994796,37.279074799728996]]],[[[126.9464023992972,37.239283503123296],[126.9464024004523,37.239283498234],[126.9473983021611,37.2395065988315],[126.9464023992972,37.239283503123296]]],[[[126.84499649896469,37.4948542004111],[126.8449964992371,37.4948541988147],[126.84499650060559,37.4948541991236],[126.84499649896469,37.4948542004111]]],[[[126.90261479808609,37.5129116992054],[126.90261479971349,37.512911698488494],[126.9026148010401,37.512911700895195],[126.90261479808609,37.5129116992054]]],[[[126.97061959958731,37.5368594000624],[126.9706047000319,37.5367913997772],[126.9706196001169,37.536859400160395],[126.97061959958731,37.5368594000624]]],[[[126.9863034996933,37.560975799965505],[126.9863035003604,37.5609758008118],[126.9863034995718,37.5609758006736],[126.9863034996933,37.560975799965505]]],[[[126.7357053995402,37.3640898998986],[126.735705400372,37.3640898999082],[126.7357053994462,37.36408990023121],[126.7357053995402,37.3640898998986]]],[[[126.8113451989707,37.5062400979573],[126.81134520252911,37.5062400992201],[126.8113451998107,37.5062401008194],[126.8113451989707,37.5062400979573]]],[[[126.8693925994419,37.4906898991331],[126.86939260049749,37.4906898999865],[126.86939260012599,37.4906899006541],[126.8693925994419,37.4906898991331]]],[[[126.74861539712971,37.3321324997736],[126.7486153996758,37.3321324976348],[126.7486154020446,37.3321324993447],[126.74861539712971,37.3321324997736]]],[[[126.8105454997726,37.485014100461804],[126.8105454998024,37.4850140995432],[126.8105455003879,37.4850140998405],[126.8105454997726,37.485014100461804]]],[[[126.8956069997855,37.521242200071704],[126.8956070001038,37.5212421992786],[126.8956070001214,37.5212421999815],[126.8956069997855,37.521242200071704]]],[[[126.919686899366,37.5196584000607],[126.9196868999672,37.5196583996204],[126.9196869010557,37.5196583997991],[126.919686899366,37.5196584000607]]],[[[126.9241703991323,37.4928687001294],[126.9241703998534,37.4928686994173],[126.924170401342,37.4928687012031],[126.9241703991323,37.4928687001294]]],[[[126.8822595998431,37.501797100028895],[126.882259600132,37.5017970998831],[126.8822596000262,37.501797100092],[126.8822595998431,37.501797100028895]]],[[[126.9159338997764,37.4887011997469],[126.9159339000655,37.4887011999283],[126.9159339000069,37.4887012000487],[126.9159338997764,37.4887011997469]]],[[[126.9624802992104,37.5339793996696],[126.9624803002026,37.533979400086],[126.96248029977009,37.533979400389],[126.9624802992104,37.5339793996696]]],[[[127.0333497998591,37.4843928995327],[127.0333497999825,37.4843929000671],[127.0333497996692,37.4843928998976],[127.0333497998591,37.4843928995327]]],[[[126.93809159965261,37.513465199871796],[126.93809160005921,37.5134651999806],[126.9380915997544,37.5134652008239],[126.93809159965261,37.513465199871796]]],[[[126.9546666999131,37.495713700045904],[126.9546667000148,37.4957136998346],[126.9546667000474,37.4957137000257],[126.9546666999131,37.495713700045904]]],[[[127.0140762992705,37.245252799855],[127.014076300288,37.2452527998405],[127.0140762999182,37.2452528007775],[127.0140762992705,37.245252799855]]]]}}]}