{"type":"FeatureCollection","features":[{"type":"Feature","properties":{"interval":15,"stationId":"3605365336"},"geometry":{"type":"MultiPolygon","coordinates":[[[[127.1283527991027,37.4677105002307],[127.12872259995561,37.4666378986099],[127.13048889920451,37.4663507983087],[127.1330217008,37.4674237988301],[127.133925399617,37.466203899160895],[127.137385699202,37.464895597959895],[127.13780899877871,37.4632788995766],[127.1364531975295,37.4611129983567],[127.13847289917649,37.4600866955247],[127.13834409951309,37.4556163992868],[127.1412048034204,37.460779794971195],[127.1446165000087,37.4595287962222],[127.1467782002679,37.459924696243],[127.1501979991492,37.4547466992593],[127.15215550021861,37.4554541999297],[127.1507144015052,37.4563396007667],[127.1507889014307,37.4572216998846],[127.1531780010926,37.4591619013521],[127.14827150635271,37.4612367010071],[127.1495077002039,37.4662663002182],[127.1489380989777,37.4669051018708],[127.1476918987676,37.4653986032745],[127.1462593002002,37.4653374033357],[127.1446804017791,37.4679900006831],[127.1466903996005,37.4702773987643],[127.1480802009462,37.4699444020772],[127.14523150059159,37.4705597019105],[127.1458462998565,37.4693923001062],[127.1452231002841,37.4686540008931],[127.142247300848,37.4699863008408],[127.1420905999022,37.4709608010889],[127.14040939976799,37.4711404003025],[127.1401933991968,37.470095900472295],[127.13903139997309,37.4704822000986],[127.13719160042439,37.4694302007731],[127.13709550029711,37.471149800183596],[127.1359434997519,37.471194700443796],[127.1368100972556,37.4689675996871],[127.13524689881879,37.4678098008449],[127.1334353006304,37.468093100561596],[127.1304536995602,37.4702930004312],[127.13129329947779,37.4700674999421],[127.1310977996703,37.4691417001165],[127.13043900032909,37.468335000923204],[127.13010449971421,37.469023500277096],[127.1304389992938,37.468335000358],[127.1293820001638,37.467634700752996],[127.1283527991027,37.4677105002307]]],[[[127.125766799378,37.47031499988],[127.1269056999364,37.4694011994113],[127.1281260006036,37.4707875997057],[127.12648250026609,37.4714430013599],[127.125766799378,37.47031499988]]],[[[127.15883319882731,37.4510624002578],[127.1594213002881,37.450460799259304],[127.1597489008816,37.451138799343],[127.1618069004649,37.451044099429],[127.16024640104621,37.4522932996996],[127.1605590988952,37.4530182004554],[127.1589517992874,37.4522560004543],[127.15883319882731,37.4510624002578]]],[[[127.1253963985801,37.479371799866904],[127.1268186000535,37.477723398733104],[127.126227200855,37.4788791998226],[127.1268780008874,37.4798564000779],[127.1254684004256,37.4803932008018],[127.1253963985801,37.479371799866904]]],[[[127.12233739774321,37.485777299089605],[127.1230324003305,37.485762799987604],[127.12284909996609,37.4861179000856],[127.12233739774321,37.485777299089605]]],[[[127.15667779972689,37.4451257998047],[127.1568319000431,37.4449776992162],[127.15733400053881,37.445067100405204],[127.15667779972689,37.4451257998047]]]]}},{"type":"Feature","properties":{"interval":30,"stationId":"3605365336"},"geometry":{"type":"MultiPolygon","coordinates":[[[[127.0954001974687,37.4847840006196],[127.0945979985679,37.4843824000423],[127.0990114001705,37.4826911997232],[127.1022009012568,37.484745097052595],[127.1047900997834,37.4822853979012],[127.1056649015427,37.482456397460496],[127.1047901007897,37.482285400635405],[127.10447720110261,37.483199799721],[127.1073399005032,37.4853901981311],[127.1077086006096,37.4886707975346],[127.1096109987072,37.4884197977856],[127.10892630043519,37.4892288999646],[127.11031779958991,37.4901126983238],[127.1119469979607,37.489798498638],[127.1110626980229,37.4877262981911],[127.1140604981195,37.4823174988578],[127.11390279950591,37.4783519000009],[127.11482479984929,37.476966099241196],[127.1176505976364,37.477624398233004],[127.11874399728681,37.4766816984144],[127.11559619979509,37.4738926998702],[127.118371697427,37.4722583999558],[127.1170160987254,37.470649700844],[127.1158131990793,37.4712002005851],[127.114198498494,37.4705330988811],[127.1162772985408,37.469523500301804],[127.1168602982807,37.4661116009408],[127.11560369953729,37.4655935014589],[127.1132500986791,37.4661423006821],[127.113126798175,37.465453799501496],[127.1145562988374,37.464001398136],[127.1164532999642,37.4647594984199],[127.11700670037871,37.4629664995448],[127.1183520024032,37.4652634986095],[127.120841101611,37.465342198455104],[127.119712301296,37.4655901000678],[127.1205771004312,37.4670202986376],[127.1232439012182,37.4661010982129],[127.1249976994644,37.466956197357796],[127.1260508984112,37.4657021986118],[127.127031498002,37.4635682000864],[127.1260938986987,37.462042001142294],[127.12233209966189,37.460794600387],[127.1237035985492,37.460846799394396],[127.1242543979984,37.4595718006694],[127.12430429831561,37.4524706009787],[127.12359169902821,37.451786301663],[127.1223629995423,37.4533254020449],[127.1210428994371,37.451835200522],[127.1235580973512,37.449251500245005],[127.1247182960467,37.4442588001372],[127.1239716958476,37.4417974005287],[127.121583298236,37.4402999020262],[127.12000499981431,37.441007301318805],[127.1193209995907,37.439916001097295],[127.12014939917431,37.440026799784896],[127.1207704995287,37.438866198807396],[127.12336309941931,37.4394174984129],[127.1235628992195,37.4377072001232],[127.1249875989537,37.4359054999689],[127.1239288981989,37.4352608001543],[127.12455509899439,37.4341653998612],[127.1238429997065,37.4330275009991],[127.1218288996087,37.4344484010088],[127.12205979935341,37.4321328992539],[127.1241473992545,37.4313582991433],[127.12414909996859,37.429493899489195],[127.1280558982548,37.4288892989815],[127.1271711010429,37.4274494982887],[127.1294035998995,37.42669449935671],[127.1296692002977,37.427976799515406],[127.1324702002841,37.4281659994152],[127.13441879999941,37.430145499576504],[127.1358708002551,37.4304344996611],[127.13537620026129,37.4316568994708],[127.1365777999449,37.4323643997202],[127.1391273994309,37.431467198193204],[127.14298119982459,37.432923196821896],[127.1444874983183,37.4307555989895],[127.1437780990277,37.429902099843],[127.1445420006802,37.4299448991293],[127.1455543006214,37.4340580979516],[127.1498893004479,37.4357563988353],[127.15002170081179,37.4374624992899],[127.1507948014878,37.437920500008595],[127.1502148011441,37.4399671985001],[127.15317829818059,37.441106397360905],[127.1582252982272,37.437928598466],[127.15829319861841,37.434931798185],[127.15814920054369,37.4363723987255],[127.1593073993855,37.435716799381105],[127.1628650004363,37.4359427992348],[127.1628848004487,37.436613899321195],[127.1647048001495,37.4365659993441],[127.1668241000723,37.438642799155595],[127.1667385004061,37.4411335993367],[127.1676975004449,37.4422419001684],[127.16720500111789,37.4432573992311],[127.1702812026416,37.4477654995747],[127.1696340002636,37.4472122014119],[127.1687758998123,37.4485546006811],[127.1673627005935,37.4477592013122],[127.16729270066351,37.448999800071604],[127.1664170008882,37.4493320006075],[127.16815170015049,37.4509150986908],[127.16942250231139,37.450281199470496],[127.170391201724,37.4518499987756],[127.1727083002816,37.4526109997934],[127.1728678001112,37.4534898000293],[127.1713061008213,37.45342870071941],[127.17037260175479,37.4555443986037],[127.17146150041171,37.4566045011796],[127.1687088007407,37.4583308003746],[127.16940510015661,37.4598674996029],[127.1684428006041,37.460056200189996],[127.1686067006313,37.462138400527],[127.1655496994835,37.4620862003378],[127.1650545999786,37.460555001869],[127.1632644008056,37.4625901004308],[127.1635578000656,37.4633552014351],[127.1632643995396,37.4625901007609],[127.1610566996119,37.4633327026794],[127.1590272012554,37.4623816033181],[127.1579854022972,37.4627600029397],[127.1559103043723,37.4653474003523],[127.1589619034848,37.468845298737996],[127.1594415001252,37.4715821094581],[127.1525704011777,37.477134604286],[127.14906690082809,37.4787856016046],[127.1498449008609,37.4808701999658],[127.14818820053101,37.4825140004724],[127.1445956001493,37.4809153002997],[127.1428487003318,37.4814603004274],[127.14203000025421,37.482594000248696],[127.1400060003393,37.4819084004739],[127.14013950017291,37.4828475004333],[127.1380150998736,37.4804463016814],[127.1363415009977,37.480448701598796],[127.1366057004323,37.483167699709504],[127.1373077001591,37.4828447997154],[127.13779150022201,37.483691000566],[127.13636940084331,37.483559100575],[127.135543501175,37.485115500236],[127.13475200031421,37.4893203996595],[127.133834700594,37.4901074999581],[127.1343141006252,37.490531600553],[127.13264840008519,37.4911708001187],[127.1326762998132,37.490569900550696],[127.13130240046469,37.4907559006742],[127.1310149008652,37.4923302007025],[127.129381300684,37.4916184009028],[127.1288600012053,37.4928319996892],[127.13006270053789,37.4933504008919],[127.1277970004307,37.4931794013586],[127.12766400022089,37.4944301006959],[127.1264533006071,37.4944024004219],[127.12641590057589,37.4960804997827],[127.1283876007745,37.4967969002587],[127.12793020236779,37.5001130995394],[127.1301956001024,37.500973598678904],[127.1316214005045,37.500125999960204],[127.1310192001623,37.50139459992],[127.13166670029669,37.504032500351904],[127.13006979948341,37.5048506008607],[127.1289090999565,37.503678701918304],[127.1273512995122,37.504729601818795],[127.12495859954299,37.5041107014698],[127.125183199319,37.5017388999426],[127.1262357986686,37.50053370091],[127.12575479926329,37.499612400542496],[127.12394229985179,37.4994698006248],[127.1230158004939,37.5005977007154],[127.1206876007797,37.499540701969494],[127.1211029000484,37.5018070008071],[127.11875220239911,37.501495001119096],[127.1155751013135,37.5037315011209],[127.1158884005057,37.5064870007994],[127.11536190006579,37.5056246011019],[127.11440070102701,37.5056662010603],[127.113855701572,37.506631500095],[127.1143917011216,37.507302200474],[127.11310570077521,37.5088780004884],[127.113590000643,37.5095320002663],[127.1122021012987,37.510280100011904],[127.1126600011564,37.5110200006745],[127.110447800532,37.5104736009207],[127.1089284006922,37.5117508001964],[127.1082961010464,37.5131692992614],[127.111107999975,37.514989899323204],[127.1120053996897,37.513947298587],[127.11334859957489,37.515190098393596],[127.11487059987171,37.514582498619504],[127.11563869982591,37.5157573985926],[127.1170668004261,37.5152396998483],[127.1164500008887,37.5165399998317],[127.11757710027591,37.5173626999405],[127.1170250029233,37.5195343006288],[127.11537510073319,37.519749601115095],[127.11477870031071,37.521312700501106],[127.1120026986247,37.5202274998124],[127.11242589830711,37.5176826019596],[127.10648660027489,37.5160366030069],[127.1048259012528,37.5191895001722],[127.10433230045669,37.522110500957496],[127.1033416981427,37.5216675007363],[127.1046699991886,37.518929200366806],[127.1037220993946,37.518145298647],[127.1053999991107,37.5174999981324],[127.1062561982545,37.515979199653195],[127.1057233986934,37.51474420006],[127.1044380993345,37.5146108999802],[127.1061324986189,37.5142847990057],[127.1058054992166,37.5129351998948],[127.10428919988439,37.5123524000538],[127.1050392988558,37.5121319995114],[127.1048257990693,37.50986340178],[127.1034049004902,37.510017401626],[127.1034499004452,37.5115189001245],[127.1028055004318,37.511808600246304],[127.1018296997944,37.5113716000133],[127.1023610998342,37.5099122007459],[127.10033380061161,37.5120566001748],[127.1012784996669,37.512369399861996],[127.1014642001599,37.5118111995737],[127.10139400095309,37.5133883987469],[127.10314539992281,37.512849799392995],[127.1031434999732,37.5157481010442],[127.10157219947921,37.5152352008553],[127.1011559994553,37.5136598012618],[127.0993550007552,37.514454301265594],[127.0984210990101,37.5133477000975],[127.1006730998937,37.511227999678106],[127.10100799957219,37.5101574001703],[127.1004549994979,37.5099972998033],[127.1023610981224,37.5099121991192],[127.1022550982284,37.5082207008107],[127.0997148998173,37.507099101207395],[127.0999086988831,37.5046446001867],[127.0988093988981,37.5044738002737],[127.0987879988166,37.5029719002458],[127.0970414994789,37.503149000444104],[127.0969414994255,37.5018714000147],[127.0972815001844,37.5023804991435],[127.0999179988451,37.501794799840596],[127.1020753001921,37.500257999618704],[127.1031292991381,37.5005877992889],[127.10371689889749,37.4994903996944],[127.102754999956,37.4989038999658],[127.1040433002228,37.4983309996745],[127.1043116002806,37.4991351995307],[127.1048891995969,37.4984966995768],[127.1072627999665,37.4991975999081],[127.1073408004622,37.500297798817996],[127.11048769968,37.501301998553004],[127.110790299567,37.499896599517896],[127.112251399203,37.4992980996537],[127.11153069976301,37.498830399713306],[127.1126826994646,37.498829099640105],[127.1119742997853,37.495733501202],[127.1086764996237,37.4962234002671],[127.1076896000713,37.4952580007772],[127.1048840994279,37.4946548996475],[127.1080236990327,37.4945830990314],[127.1083085987478,37.494013599600905],[127.1073058003159,37.4930743985473],[127.1083085996427,37.4940135978187],[127.1099370980142,37.493915697916606],[127.1105544973968,37.492660299171995],[127.1084801994711,37.4906955011368],[127.10925399929361,37.488805000217596],[127.1067543013761,37.488803802025096],[127.106065300129,37.4898535028664],[127.103345601123,37.488850801809],[127.1014286011619,37.4901459015311],[127.1023041999917,37.491642300552904],[127.1001364001157,37.492073400540704],[127.0997594002007,37.492911200292305],[127.0978320998491,37.4917441007128],[127.0971362996999,37.492827700834496],[127.09695579903891,37.487949802757406],[127.0961589958373,37.487556699912],[127.0954001974687,37.4847840006196]]],[[[127.1249898989888,37.412337899803894],[127.12659339944071,37.411346099411205],[127.1269856995448,37.4097446995521],[127.1286280996226,37.4096730996483],[127.12860550036571,37.4089027996542],[127.13047690076891,37.410371599763295],[127.1293394009192,37.4115743001423],[127.12954040094169,37.4123403996036],[127.1307946004525,37.412380299883004],[127.1304851003628,37.413824499615],[127.1311981007765,37.4138072002566],[127.126275000004,37.414024900064],[127.12598409885089,37.4123546002383],[127.1249898989888,37.412337899803894]]],[[[127.07079779928469,37.4943193997468],[127.0724699000592,37.4912396994941],[127.075068799545,37.4910710998],[127.0754904016117,37.489971999007004],[127.07621370081449,37.4907725996491],[127.07612830060509,37.4930618006756],[127.0733336999246,37.4914394008978],[127.07202430049189,37.4929548001586],[127.07288410073879,37.4941806009923],[127.07237050001281,37.4935092010155],[127.07079779928469,37.4943193997468]]],[[[127.1272307994044,37.5164245997651],[127.1283039001531,37.5174057986186],[127.13057449788249,37.5160555999688],[127.1302521982048,37.5143893016351],[127.12871649986839,37.5132567993868],[127.13329210004841,37.5141023997628],[127.1343397005558,37.515257100172],[127.1324959011773,37.515013601126604],[127.13279950060621,37.517322500537595],[127.1305563006644,37.518009801648404],[127.1279031994418,37.5175808004567],[127.1272307994044,37.5164245997651]]],[[[127.11881869900631,37.527988800537905],[127.12147080053819,37.529063598845504],[127.1224931005779,37.528593499749796],[127.1221461008344,37.5291556001342],[127.1232927005573,37.529735999734],[127.12286020070461,37.5309525996871],[127.1234484999368,37.5313813011172],[127.1211669008513,37.5323600999975],[127.1214053996208,37.5330869005707],[127.1198403007217,37.531726001585],[127.11876360067639,37.5320946015254],[127.1192613989727,37.530948199310394],[127.1185939996401,37.5301100001486],[127.1201881984208,37.52969560025149],[127.11881869900631,37.527988800537905]]],[[[127.0657162970426,37.4895863985594],[127.066639099694,37.488103098706],[127.07082460062739,37.4902151000543],[127.0677949004463,37.4890514008137],[127.0678303008272,37.4899099004748],[127.06571630007221,37.4895864012196],[127.06503839962471,37.4908937007098],[127.0657162970426,37.4895863985594]]],[[[127.1223494995544,37.5388936004005],[127.12319959878711,37.5381266000918],[127.1226522998589,37.5366424996217],[127.12355530025101,37.5372251998648],[127.12347360048359,37.538544799705996],[127.1243928006803,37.5382721010186],[127.12355699941361,37.539534300464396],[127.1223494995544,37.5388936004005]]],[[[127.12740999935029,37.3946499995562],[127.1287964002894,37.3943239997896],[127.1282643012799,37.3959633993341],[127.1289122010556,37.3975133004666],[127.12740999935029,37.3946499995562]]],[[[127.0828378981149,37.4838073986008],[127.0841023988481,37.4822397001857],[127.0830176984303,37.4821069992135],[127.0841023990321,37.4822396993131],[127.0842864028462,37.481388799151496],[127.08505800046531,37.484371100637],[127.0828378981149,37.4838073986008]]],[[[127.094027999463,37.5352640996371],[127.0949565003306,37.5344555998626],[127.09425450018081,37.5355760004098],[127.094027999463,37.5352640996371]]],[[[127.07772659816601,37.5119652001614],[127.0777647999805,37.5118086996285],[127.0780662999843,37.5120596997666],[127.0784215002262,37.5119535998981],[127.07772659816601,37.5119652001614]]],[[[127.0793451988731,37.493696100894304],[127.0797596010448,37.4936147004435],[127.0796114995074,37.4938224009431],[127.0793451988731,37.493696100894304]]],[[[127.08558629971971,37.511597799991094],[127.0858896010842,37.5113641003862],[127.0858307001272,37.5118275001237],[127.08558629971971,37.511597799991094]]],[[[127.0714482993466,37.4889258997793],[127.07191950060961,37.4900667006671],[127.0712048998902,37.4894713000089],[127.0714482993466,37.4889258997793]]],[[[127.0734816989798,37.4879952999776],[127.0742809999169,37.488809298693496],[127.0743279001611,37.489103400750196],[127.0734816989798,37.4879952999776]]],[[[127.0593026973429,37.4862990007544],[127.0593027014351,37.4862989991856],[127.05930269915011,37.4862990031055],[127.0593026973429,37.4862990007544]]],[[[127.1731229990044,37.4536978004503],[127.1733803000384,37.4527997996231],[127.1731230011395,37.4536977997487],[127.1731229990044,37.4536978004503]]],[[[127.1479433987881,37.5276918010097],[127.1481089024056,37.5276450992163],[127.1481089007909,37.5276451024124],[127.1479433987881,37.5276918010097]]],[[[127.1202647995808,37.4324265996487],[127.1211105002115,37.4326303003065],[127.1202648004063,37.4324266018779],[127.1202647995808,37.4324265996487]]],[[[127.1293207994278,37.494320100548705],[127.1293208009592,37.4943201001699],[127.1293169994316,37.4944680004008],[127.1293207994278,37.494320100548705]]],[[[127.0553592979497,37.4909622992544],[127.0553593009662,37.4909623002465],[127.05535929975551,37.4909623006231],[127.0553592979497,37.4909622992544]]],[[[127.0670936997984,37.4869221989681],[127.0670937008153,37.486922199510204],[127.06709369992011,37.4869222009275],[127.0670936997984,37.4869221989681]]],[[[127.12390409847761,37.3853078996932],[127.1239520003767,37.3853417996188],[127.1239520002656,37.3853418009689],[127.12390409847761,37.3853078996932]]],[[[127.0704113989199,37.4891165998542],[127.0704114001377,37.4891165999992],[127.0704113997262,37.489116600506904],[127.0704113989199,37.4891165998542]]],[[[127.1075719995823,37.4987044996655],[127.107572000231,37.4987045004113],[127.1075719995073,37.4987045003514],[127.1075719995823,37.4987044996655]]],[[[127.12754029948661,37.5501243002959],[127.12754029963571,37.5501242989887],[127.12754030102971,37.5501242995557],[127.12754029948661,37.5501243002959]]],[[[127.0985186998015,37.5151882999209],[127.0985187003352,37.5151882998591],[127.0985186999497,37.5151883004807],[127.0985186998015,37.5151882999209]]]]}},{"type":"Feature","properties":{"interval":60,"stationId":"3605365336"},"geometry":{"type":"MultiPolygon","coordinates":[[[[126.93185579882389,37.5136909995148],[126.931948800104,37.5116030986995],[126.9338913988285,37.5104782002753],[126.9325781995955,37.5099285988616],[126.9360934999816,37.5083483983151],[126.9388644004074,37.5081659978399],[126.9399015993702,37.5068656991402],[126.9386369006186,37.504620101365894],[126.9369032992539,37.5052777005541],[126.9368041000655,37.5034969988994],[126.939149199444,37.5036245975637],[126.9402916003382,37.5027370992281],[126.9400777003337,37.5035034992651],[126.9427216006787,37.505207900006305],[126.9414268012359,37.5051666009817],[126.9412903013724,37.505909200239095],[126.9430374005101,37.5077278990126],[126.9467269006295,37.5086624994641],[126.9472602000788,37.5105705984209],[126.9482772990617,37.5105710984204],[126.94902709968089,37.5085729991772],[126.9507595996833,37.5092322988723],[126.951525300061,37.5080831997584],[126.9510280017326,37.509962698814505],[126.9533957993648,37.5106436981335],[126.9546223989462,37.509132098627],[126.9567961985243,37.5086941989554],[126.95477819903881,37.5056373012062],[126.9554654991234,37.5049247000703],[126.957278299957,37.5044080995449],[126.9581258997205,37.505100799309],[126.96088709692539,37.5037302005406],[126.9602942967005,37.5009688984011],[126.96088710177459,37.5037301979941],[126.9644450992934,37.50322889853221],[126.9643005999766,37.5018421993953],[126.9697901991247,37.5006159988243],[126.9704652984496,37.498995800444504],[126.9695423997528,37.4976424992921],[126.9723546997859,37.4971158988364],[126.9732749993979,37.497792799058196],[126.9742008020678,37.4969695965885],[126.9755975009802,37.4985712978578],[126.9772234014968,37.4985757981073],[126.9800486997751,37.5007714977664],[126.9823615974622,37.5000263985115],[126.9817026988098,37.4971755000149],[126.98270039995779,37.4951358997315],[126.98377590071959,37.4951982991623],[126.9837917006712,37.4964608987295],[126.98478949967341,37.4964535987368],[126.98640089931831,37.4933477998688],[126.9832955004818,37.4926790012855],[126.9828710992463,37.4939988008801],[126.980987298449,37.4921737006471],[126.9782015000937,37.492355200504],[126.9775773989024,37.4902752012144],[126.9752389999948,37.491077200359],[126.97445939866451,37.4891656007812],[126.9727176000884,37.4885564009139],[126.97226499958339,37.4891399001351],[126.9731123981704,37.4879376002157],[126.97223279905,37.4863936017597],[126.9708995003833,37.4871444010089],[126.97099949998601,37.48789830059],[126.9704385002922,37.4874108010498],[126.96982250005041,37.4879401014541],[126.9688379996665,37.4868719012618],[126.9672190012855,37.4880243001094],[126.96794160019711,37.4895431009314],[126.9635917992844,37.488530600576595],[126.96681199533151,37.4828641998867],[126.9665410957238,37.481973400449604],[126.9631629991019,37.481084001339],[126.9624236992145,37.480078701158],[126.9610766002451,37.4806348007915],[126.9610986997823,37.4797996004344],[126.95987630028361,37.4793129007753],[126.9595021002106,37.480386700382795],[126.9590730996901,37.4796335007215],[126.95754100056041,37.4801306007065],[126.9552967008392,37.484585699637194],[126.9560434998114,37.484534600705004],[126.9540115003817,37.485154700823905],[126.95383319980401,37.4839449008936],[126.953030199626,37.4847009015729],[126.9509730991603,37.4843322008455],[126.9494440993841,37.483428000094],[126.94921309925769,37.4823560004249],[126.94733879935849,37.4818820007934],[126.94829319931429,37.481781899324204],[126.9511186998564,37.4777814991414],[126.9555777004813,37.478576799406],[126.956283599947,37.479824698587905],[126.9590532993399,37.4770461996308],[126.9582822993668,37.476022399665695],[126.9596109994294,37.475537699362995],[126.9598319992084,37.4748080000927],[126.9590739996752,37.4745589979808],[126.9631282003175,37.4723931993746],[126.966453399963,37.472754099120905],[126.9706970000139,37.474928799787],[126.9721154989087,37.4742140990547],[126.9727734988826,37.4729452994597],[126.9720968990917,37.4721839990146],[126.9732266995513,37.4705942985842],[126.97455979918999,37.4716325986942],[126.97733600095509,37.4705417985292],[126.9823870997887,37.473054399385305],[126.98272300033159,37.4722620999145],[126.9825868004678,37.4731094990671],[126.9847799007224,37.4759263979371],[126.9875753009379,37.476163999006694],[126.98843720035411,37.4781655976594],[126.9937160999737,37.4797750969027],[126.995468798221,37.4793514973263],[126.9982423992022,37.477117896551306],[126.9997623984149,37.4744005985587],[127.0015529008134,37.4748253969183],[127.0035818987844,37.4734072983364],[127.00637860262,37.4759685972568],[127.0062831013338,37.477060299513],[127.008059399611,37.477650498944],[127.0112308990526,37.474619599585296],[127.0139371975855,37.4762501976259],[127.01641189792589,37.4751301978561],[127.0167723004517,37.4738980979712],[127.01792210558311,37.476366699808096],[127.0240335019735,37.4804233990405],[127.02520719991699,37.483181199402594],[127.0271905001229,37.4837784995985],[127.0287000986133,37.482525000852],[127.0277160990599,37.4796662996893],[127.0289437983101,37.4785731004763],[127.0288143990059,37.47677139952879],[127.0299042985437,37.4753542006888],[127.0298037979687,37.4736581996256],[127.02826309977391,37.472430299863696],[127.0300735002328,37.4725245990064],[127.0307702001006,37.473712898580104],[127.0325711986933,37.4717301998266],[127.03152709896901,37.4707033000646],[127.0318766996111,37.4699014994462],[127.0339906989079,37.4708858984357],[127.0331060993853,37.46917059994],[127.0337788987125,37.467983201127396],[127.0320325997769,37.466993899863],[127.03400839849701,37.4655859997727],[127.0348811995107,37.463636898873794],[127.0365577997531,37.465863998436305],[127.0389882996827,37.4634477989475],[127.0405914003929,37.463440499543594],[127.0434919005153,37.4650151977059],[127.0455718003094,37.462918099108606],[127.0468182004999,37.469049199827],[127.0537512977253,37.4717057970986],[127.05449180304029,37.471134297829806],[127.0568640006681,37.4735769953871],[127.059632898652,37.4722053967234],[127.060049398262,37.4690968997581],[127.061624102394,37.4689519938233],[127.060862501927,37.469481699712006],[127.0609518018377,37.472155197038504],[127.0653841010628,37.4694233985189],[127.07069539954071,37.4721506964607],[127.0722517032079,37.4719977973541],[127.077111598348,37.4750565942953],[127.0798557979429,37.4747412935878],[127.08454369452289,37.4727825945993],[127.090420796136,37.4670207992167],[127.0928222989144,37.4681206979387],[127.0935465981901,37.4667964992629],[127.09311539862131,37.4648172012422],[127.090041500197,37.4642880011436],[127.0867628997939,37.465156501081],[127.0869006985269,37.4623845021798],[127.0848802995405,37.4617274001379],[127.08810799874071,37.4627002970561],[127.0900818985798,37.4609764965685],[127.0924333990344,37.4603779989274],[127.0949678983764,37.4608292990905],[127.0950702988562,37.4565661992687],[127.0950372006073,37.459176196763],[127.100258495386,37.4570836988555],[127.0989794964142,37.454778500859604],[127.10243989820509,37.4533756972271],[127.1021797999549,37.4493645981383],[127.1038920982426,37.449500998001895],[127.10476059857251,37.4480355984256],[127.105049300934,37.4495760989602],[127.1070276989556,37.4498656986706],[127.1073327988543,37.448658099707906],[127.10630210058979,37.447850698509896],[127.1080894004005,37.450600096874105],[127.1179704905194,37.4517759956982],[127.11874848974139,37.446592300881896],[127.1182555892726,37.4429702981292],[127.1198030976263,37.4360436012675],[127.119091398338,37.4340937032174],[127.1170416999161,37.4321976000044],[127.1182706986871,37.4305248016772],[127.115671295905,37.428674001025904],[127.11232149925479,37.4276913020086],[127.1110337959372,37.4281862016777],[127.1064523004712,37.4275601020656],[127.10207340135939,37.4300372021705],[127.09905099935051,37.4257585014076],[127.1015163000003,37.4240317989414],[127.10208489943169,37.422907100066105],[127.1011145988396,37.4225788001708],[127.10200549946491,37.4215675988274],[127.1043024995436,37.4196818991761],[127.1060073978387,37.420156198701804],[127.1083571979794,37.417741896521],[127.1088931974434,37.414705899557],[127.1075948984542,37.412235698367596],[127.1092955003411,37.4112747978722],[127.1104534006189,37.4125656982225],[127.1129206989315,37.4117385980673],[127.1139486979035,37.4094372003687],[127.1113180005342,37.4079046019013],[127.11104129975139,37.408362202106396],[127.11053269911149,37.4069922001871],[127.108132201512,37.4065257006536],[127.106573697657,37.4071510022354],[127.1064626984723,37.403966901428504],[127.103997800461,37.4034260006672],[127.1037247998645,37.405589902712],[127.1003146996249,37.4077244009542],[127.10164319855559,37.4060292012103],[127.10002489932059,37.406438101246806],[127.0990215987544,37.403718999595704],[127.1013613979769,37.3991934994061],[127.0994621998761,37.3974361011635],[127.09793019984579,37.401584901729805],[127.096403399844,37.400203400201],[127.0971226994497,37.399638100173895],[127.0963222998604,37.398231199947695],[127.0979974989244,37.39637169832881],[127.0981966997337,37.3947425991834],[127.0997423995234,37.3942955991733],[127.0992729999987,37.3927171996008],[127.1006042009168,37.392876199713804],[127.0999242016251,37.3959867003594],[127.101347300255,37.3966808001232],[127.0999242002015,37.3959867012865],[127.09946220066351,37.3974360998371],[127.10332459905929,37.3978419986658],[127.1042811988208,37.3957435000492],[127.105889999472,37.3948992997314],[127.1046313000788,37.39375480072891],[127.1020146994999,37.3950737998748],[127.1026199991739,37.3929810992013],[127.1013792996371,37.3885996002015],[127.0994880002411,37.388175200536],[127.09948990023919,37.3895509991602],[127.1005699004465,37.3896121991889],[127.0997394997602,37.390305100389],[127.0981523999214,37.389552700051006],[127.0994898991134,37.389550999305996],[127.0991067994965,37.3884785003785],[127.0970994999255,37.388887700396],[127.0963899995704,37.388195300365],[127.09753299891639,37.3865917003848],[127.09572750072189,37.382227504749],[127.0920670992045,37.3832988002206],[127.091906400692,37.3824386895603],[127.09579740023939,37.3795898959663],[127.096478799558,37.3775364980197],[127.0999329973635,37.3746978975457],[127.0996203976761,37.3717884004552],[127.0967968004997,37.3706440015996],[127.0931790993751,37.3706565002148],[127.0941360991362,37.3703077996686],[127.0937327995395,37.3655941043823],[127.0927489005234,37.3658755041009],[127.089111591516,37.3644557956541],[127.09236059669911,37.3639465947793],[127.097092495353,37.3618020952956],[127.0979067945387,37.355956301141404],[127.09492259752291,37.354655302442396],[127.0921526996517,37.3471825005639],[127.0894842987362,37.3472442998075],[127.0909426986671,37.346464097942196],[127.0905042991055,37.344283700122595],[127.0896314993735,37.3439586993303],[127.092790896438,37.3408280992627],[127.09047729872701,37.337943001422104],[127.0866477979654,37.337517300537904],[127.0890067000014,37.3354044995083],[127.0900166002874,37.335533599566396],[127.09084829869221,37.3343258991879],[127.09359329878,37.3331438997519],[127.09335389901939,37.3317559011399],[127.0919633995897,37.3302626011657],[127.088088699593,37.3301316027348],[127.0855201004197,37.3272470024645],[127.08462259823611,37.327429300899496],[127.0846963993268,37.3254095980786],[127.0861020979211,37.3240485994396],[127.0832285989241,37.3213045016597],[127.0800600993237,37.3216088000053],[127.08130149906259,37.320992699631],[127.0807851995789,37.3198558007679],[127.08012809990879,37.320453000307204],[127.0803577995195,37.3196657998812],[127.0815627997025,37.320743499011996],[127.0821893995319,37.3203505989804],[127.08188219966739,37.3190708002346],[127.0829865988163,37.3188158000312],[127.0827890990138,37.3174912013558],[127.08159000021291,37.317088001759],[127.0772247026526,37.3193885001585],[127.0773506003059,37.3208168010062],[127.0759666973361,37.3206686037544],[127.0753377992882,37.3177332005754],[127.07132730010689,37.3177093006272],[127.0706596000156,37.3161633011709],[127.0691983998785,37.3170050004148],[127.0693892999028,37.3161072998645],[127.07262169879179,37.314966499420294],[127.0712202989178,37.310487400123],[127.0735974985388,37.3063904004382],[127.074001298135,37.303035103793505],[127.0680784998261,37.2999808011202],[127.0669618009428,37.300290500810505],[127.06740420088249,37.3015987027652],[127.06508049956729,37.300409801764495],[127.0639660994739,37.301077003031],[127.0638080986362,37.2988626999389],[127.0647724986178,37.298825797743405],[127.0658958988785,37.2973407977623],[127.0685921996448,37.2977065982247],[127.06813249910381,37.2923956010295],[127.06642619933939,37.293307199948],[127.0672443998864,37.2920333987936],[127.06986260082269,37.2919387981011],[127.0713473003124,37.2935704993723],[127.07441880066061,37.295146899502996],[127.0760310004975,37.294989299717194],[127.0767559997725,37.2961015986049],[127.0779277003196,37.295370799082804],[127.0762967016143,37.2965089001939],[127.07672240131609,37.298044299578],[127.07531900068349,37.3013123002538],[127.0755803013085,37.3039923999817],[127.0749976002549,37.303923600657896],[127.0749145007493,37.3057401990956],[127.0761066011062,37.3055131990177],[127.078828199759,37.3082326991505],[127.0786498993636,37.305754299535096],[127.078868200524,37.3067011991663],[127.08045919988551,37.307115498681405],[127.0827523997021,37.3053243992088],[127.0830376004181,37.306354799157404],[127.08399900018091,37.3051938995689],[127.0858359999651,37.3070129996075],[127.0865470001111,37.30618479975659],[127.087424200375,37.307120498901305],[127.0865911006651,37.3075084998251],[127.0871557001005,37.308355498978095],[127.0890084007086,37.3085289994936],[127.088451300464,37.3106663001691],[127.0880341000819,37.309674800520604],[127.0870218005644,37.310028500259904],[127.0873997005124,37.310980900318995],[127.0862603012427,37.312413000193],[127.08717830032471,37.3135696990363],[127.0889270007859,37.3129407995605],[127.0950753000684,37.3168943988886],[127.0972081984478,37.315947099516],[127.0972584982387,37.3143248008054],[127.0977870004345,37.3144177993963],[127.0987317014468,37.3152746994441],[127.09893240124609,37.316993697725096],[127.1016102985682,37.3159965987222],[127.10456429875691,37.3092272026987],[127.10432199813799,37.3077077991064],[127.1056366993501,37.3079375000004],[127.10598559884039,37.306683200876705],[127.1043630978307,37.304249200419],[127.1024039997898,37.302980401687805],[127.1010081999948,37.3035416011216],[127.0991972993814,37.3023964008781],[127.1022102982937,37.301116398716196],[127.10212249945019,37.2955994999611],[127.100664700908,37.2943814011792],[127.0985796997946,37.2947468979666],[127.09976259948921,37.2932992987496],[127.1021225012597,37.2955994980579],[127.105047498741,37.295411698788605],[127.1041331991086,37.2929487991378],[127.106828297544,37.293813998003294],[127.1073918969804,37.2921954996218],[127.1087264993555,37.2921639988443],[127.1091157000189,37.2911427993484],[127.11097600026159,37.2915701998674],[127.11080680090011,37.2931104992265],[127.1115431001638,37.2935867987502],[127.1121355998581,37.292429899317],[127.1128658005504,37.2928607984704],[127.1117113007176,37.2943826000747],[127.1137914006091,37.2947174000616],[127.1111985016355,37.295236900418196],[127.1133851011275,37.2994495997248],[127.113374098843,37.2988008006685],[127.111931100286,37.2988454006239],[127.1120083003786,37.2999704004301],[127.1114646000192,37.3004811003222],[127.1110386000354,37.2999169005923],[127.110658000416,37.301077799431404],[127.11243060117799,37.3015320997415],[127.1108009005311,37.301957000505],[127.1114678002377,37.303508999468896],[127.1150716055746,37.3049941026618],[127.1138124024277,37.3144061025327],[127.1160443001958,37.316938400000396],[127.1155225012328,37.3187358991541],[127.1173295004852,37.3191332996596],[127.119009401282,37.3226618005943],[127.11858600140039,37.324094699669104],[127.1201145009379,37.3261471004172],[127.1190962009298,37.3266691997499],[127.1201577998728,37.327069800488],[127.11844620135949,37.3271239004075],[127.1182608010269,37.3293233993763],[127.1203565004619,37.330208999675],[127.1190151012681,37.3307286001437],[127.1192806010026,37.3315247993475],[127.1202601009762,37.331356399577494],[127.1202535012401,37.3321158000184],[127.11761660086671,37.3329421001614],[127.11891299957031,37.3345823985211],[127.1204753010379,37.3347166987323],[127.120448101825,37.3376328980615],[127.1211275011456,37.338162397532],[127.1244121018963,37.3381331005716],[127.1244338993713,37.341772801006805],[127.1227547003956,37.3420340025096],[127.11978030014801,37.3397911024957],[127.11797720195109,37.3402310020558],[127.11982650010181,37.342354299932495],[127.1200212031291,37.3464562980873],[127.1241601003561,37.3472814979794],[127.120794903524,37.348537799411105],[127.1236126007063,37.349875898073],[127.1245080012839,37.348792799409395],[127.1218284023694,37.354615002380704],[127.1214777024747,37.3570934002179],[127.12369890025349,37.3576370996742],[127.1250168006263,37.3594739003065],[127.12325560151459,37.362313998308196],[127.126082899217,37.3638652967581],[127.1271170003752,37.3621402975365],[127.131095504844,37.363875294873296],[127.1317215020063,37.3673013007021],[127.1344903005533,37.369724898846805],[127.1354651995784,37.368855599716106],[127.13705870138409,37.369487998996995],[127.1365394004962,37.369106200911496],[127.1357492012864,37.3706324993852],[127.1373588003836,37.370921999637304],[127.1371321006315,37.3723282990185],[127.1398319002579,37.3724800999356],[127.1386702008816,37.3738530997189],[127.1388779011651,37.374821699421],[127.1410306998303,37.375766199229],[127.14125229892291,37.3728601001499],[127.14199959999651,37.3724469996908],[127.1442606004715,37.3741445994456],[127.14479780118441,37.3755672999308],[127.14364960124891,37.374765001474394],[127.142575702237,37.375017901593104],[127.1422834025293,37.3773960992149],[127.143412202207,37.3812515959044],[127.14615060205149,37.383337796352],[127.14994280017231,37.383537700837095],[127.1461506029433,37.3833378009779],[127.1472320032146,37.3869073023917],[127.1413861051429,37.3908833023837],[127.14312000332879,37.3951799984273],[127.1450900013585,37.3955199984703],[127.1462491014242,37.3948056988343],[127.1480729027565,37.396313098217604],[127.1496505030108,37.403501497245095],[127.1520483012421,37.4038164995279],[127.1540847003582,37.4054903994346],[127.15620720080089,37.405325399942505],[127.156120399776,37.40893380095],[127.1498644024873,37.4089011020558],[127.1502581020936,37.4127182982386],[127.1520384003133,37.413927297029595],[127.1537821021143,37.4131328967509],[127.1584546010042,37.4160156991433],[127.15752240201451,37.4194621983186],[127.1587043008326,37.4213606964201],[127.1607465987903,37.4217942959865],[127.1622860015451,37.420482794658604],[127.164188704347,37.421978800473596],[127.1634977011737,37.426050700995795],[127.1611801989814,37.4258346020187],[127.1585162016454,37.4232191046342],[127.15419060597101,37.4292006986526],[127.1587094014522,37.430889696963604],[127.1600699000917,37.4298409980123],[127.1614173987442,37.430660597192706],[127.1661544985169,37.431141495905],[127.1711996937292,37.4304408964097],[127.1706113970812,37.4225138004346],[127.169885702741,37.4219014987971],[127.17072450195431,37.4222082993023],[127.1711997013254,37.4304408929293],[127.17666679706231,37.4280289957044],[127.17968759859339,37.4278416987293],[127.1807692995111,37.4259023983934],[127.1807331028877,37.4277978990586],[127.1845963006257,37.4280767953798],[127.1829487034328,37.4315299972732],[127.1841646022169,37.4324266963765],[127.18428970269119,37.436498394877],[127.1903310034295,37.4433021952109],[127.1925025033932,37.4425253016069],[127.1908609042575,37.443939202684405],[127.1929265085723,37.4535163026584],[127.1925428079971,37.4553986046834],[127.19090130071619,37.4575102001123],[127.1890709009882,37.4584416003817],[127.1858373036468,37.4639011040774],[127.1818523032689,37.46840960282],[127.1832132009093,37.4709845003279],[127.1813454027771,37.4733489979634],[127.18473250090169,37.4775508002552],[127.1832181995396,37.4772704001498],[127.1823994996674,37.4747692018857],[127.1796849012423,37.473743403205994],[127.17811310281411,37.474783402166],[127.1772793036479,37.4765857003637],[127.1767614038405,37.4796507997755],[127.1781099027417,37.4807925017455],[127.1701544058431,37.482520902147094],[127.16875170720441,37.4842619008641],[127.1689517987994,37.4807958039663],[127.161632206119,37.4836508011113],[127.1631550045962,37.485383399378705],[127.1670377007135,37.485551699210404],[127.1665529018037,37.4864801995554],[127.1677231023804,37.4893645002905],[127.16744950192471,37.491458901298294],[127.1630248027373,37.493546801741],[127.16111810464399,37.4964304988573],[127.1641657019353,37.500151199787695],[127.1633895008643,37.503629800075196],[127.16137410147721,37.5050137012654],[127.16221890047049,37.5065252004823],[127.16107869688591,37.5051046015459],[127.157023000502,37.5055476010661],[127.155468002151,37.5093372974355],[127.1598728017174,37.5102599987799],[127.1615250025533,37.5145463002771],[127.164354299724,37.516445798377596],[127.1653212021965,37.516086900659],[127.1611542032107,37.5188461993142],[127.1631596009074,37.5260797998713],[127.1626646002716,37.5255086012705],[127.16094320130101,37.525992701893706],[127.1593668017382,37.5328886983121],[127.1605774020413,37.5357329964104],[127.1628874026655,37.537016299744295],[127.1633478009813,37.5392130989448],[127.16498330423221,37.541355899605996],[127.1628879002379,37.5427230004249],[127.1601879011168,37.5415439013252],[127.15744890385581,37.5459042969648],[127.1599975013072,37.546247196621906],[127.16073610189069,37.5482798986828],[127.1618780007488,37.5489184980442],[127.1634111001571,37.5476452988861],[127.1649343993116,37.5480859985284],[127.1659431984129,37.544100900653696],[127.1669009011444,37.544108398012],[127.16801820097321,37.54465740023],[127.1681053008861,37.545697499189906],[127.17077470066519,37.545975999420506],[127.1720064997992,37.5483011991263],[127.17431090003049,37.5489922996874],[127.17374340032981,37.5510762995862],[127.17492369969689,37.551744398877695],[127.176081700734,37.5507716991605],[127.1771192003719,37.5517864991089],[127.1732511021145,37.556199399994],[127.17443930092631,37.557203198990194],[127.1766339987316,37.5570014991919],[127.17799479990829,37.553917998754],[127.1782297007836,37.5546664990402],[127.17934889966439,37.5546617990449],[127.1806180991388,37.55222650063531],[127.1785586991979,37.5522603997929],[127.1799057993994,37.550546999573],[127.18098839965471,37.5513180992451],[127.1829676004913,37.5509908000735],[127.1818696017282,37.5526365997978],[127.1839988003059,37.5528931999802],[127.1867252005703,37.5579280984958],[127.1880692993493,37.5570083994668],[127.18769329972531,37.5563875000877],[127.1907948000354,37.5550712999131],[127.19154830012869,37.555747399363504],[127.1918834001511,37.5551178992278],[127.1941868000654,37.5555580986721],[127.1961670000769,37.5546874995324],[127.1965341991646,37.5530920981313],[127.1981571976403,37.5518427989628],[127.1978081985756,37.5492430007777],[127.1962521973284,37.5485269004469],[127.1984780981019,37.548215799483],[127.1982414993871,37.5466968999265],[127.1998497003412,37.5476267996397],[127.1989255008816,37.548536899567104],[127.1995619002452,37.5493701987338],[127.2013664984406,37.548930599173396],[127.200143099612,37.544813000435],[127.2007300990506,37.5419070005063],[127.1998894996031,37.5416236001142],[127.2008796995175,37.5411359995483],[127.2011056998225,37.5394700998366],[127.2016834996178,37.5397627994172],[127.2013986995721,37.5390451995398],[127.20243099981461,37.5381722996436],[127.2038327992504,37.5383066992856],[127.20303049910089,37.537225900403605],[127.20421829916279,37.537413399585695],[127.203942199664,37.5365481994281],[127.21300130013451,37.5385056994664],[127.2123224007327,37.540753999529],[127.21315800053601,37.5425113002821],[127.212613500255,37.5437420004573],[127.21111050090191,37.543580200641],[127.2103169012477,37.5447382004784],[127.2106731001236,37.5466276001305],[127.2071278994931,37.5458559008501],[127.2056685005903,37.5471666996626],[127.2072624003313,37.5474009997533],[127.2090055000469,37.5492762998432],[127.2095468988811,37.548178700277404],[127.2090286999519,37.5470907993609],[127.2109278000642,37.548740599298604],[127.21242790015859,37.548579599907995],[127.2125339001142,37.5497564004823],[127.2114325007563,37.5505847998133],[127.2122667002458,37.5512546017193],[127.2103739012629,37.5530588999722],[127.21057220097791,37.5541194000744],[127.2054366003942,37.558575500712],[127.2041261000152,37.5582052010822],[127.2035254999696,37.5588195002512],[127.20276599967829,37.557011600487506],[127.2015457998515,37.5576610002908],[127.1998407001241,37.5567973999639],[127.2000451999927,37.5590847984497],[127.2014556002793,37.5583453997472],[127.2019863014599,37.5616615007663],[127.20017210098041,37.5636189000974],[127.2005655012277,37.564685102183496],[127.1995678005592,37.5644469003195],[127.1983076002935,37.566262299885196],[127.1982517014781,37.567888400597404],[127.199493200187,37.5692509001967],[127.1986460005059,37.568612300561],[127.19654130049621,37.570040901188605],[127.1956871002055,37.5687832005096],[127.1950024008902,37.5698376994551],[127.19583540038201,37.570151100032895],[127.19449570015941,37.5701854002801],[127.1940877999551,37.5709440001824],[127.1929231999162,37.569792300851105],[127.19141329969969,37.5718018005915],[127.18775459964951,37.5721584001442],[127.1881252995246,37.5715728002156],[127.1861111995424,37.5694266000214],[127.186879099297,37.5689357999538],[127.18652299965309,37.5682288006608],[127.1837552996702,37.5669125001475],[127.1856847998021,37.5654272990874],[127.18597459941759,37.5634401005127],[127.1847328991876,37.5620665010685],[127.18367040004989,37.562961300576795],[127.1823138990636,37.561825300734505],[127.1802609011166,37.5614845010753],[127.1801966011809,37.5629312996285],[127.1819287000807,37.5645221001082],[127.17984530022089,37.5642036007921],[127.17754329985189,37.566168100683896],[127.1781711982904,37.564873399056204],[127.1759871997086,37.5616541018213],[127.1737801019157,37.563789499685896],[127.1751319007745,37.565052300327],[127.1729397005497,37.5648821007723],[127.1723972995041,37.565544201520694],[127.1694480010275,37.563786201366206],[127.1658745007128,37.5654776015919],[127.16710699862111,37.565048100167395],[127.167336098392,37.5637463014692],[127.16631149941661,37.5626990025165],[127.1624150020416,37.563009702967705],[127.1616238028328,37.5656772003002],[127.16260300185361,37.5666772993001],[127.16162379977371,37.565677201769404],[127.1600453013522,37.5668358006108],[127.15899850051339,37.566383801197595],[127.1579537001785,37.567854101421396],[127.15845419851689,37.5671460002753],[127.1567722987624,37.565393801138704],[127.1569408995552,37.5632284009056],[127.15644050005561,37.562913301220696],[127.15571299806071,37.5639192011354],[127.1547888989848,37.5627120023426],[127.1519815994577,37.5620344030392],[127.1485801006775,37.5640752011092],[127.1484019000982,37.565606200279795],[127.147317001228,37.5663045003535],[127.1430426026123,37.5628965036991],[127.1417114039435,37.566509400086204],[127.1381137992267,37.5666572003701],[127.1415180983059,37.5666152988452],[127.14095419890819,37.5646821995718],[127.1388127010497,37.5625559016981],[127.13928580053819,37.5649683004922],[127.1375753996325,37.563403901418894],[127.1364721007358,37.563761701061104],[127.1371516001889,37.5661131009142],[127.1343299990269,37.5661858010557],[127.1353437992648,37.566412399311794],[127.1347709994107,37.5650155000652],[127.1318110955519,37.5650700050749],[127.12767809306139,37.5615666047691],[127.1239013912073,37.5568383044845],[127.11916409474131,37.5473863077548],[127.1111680027374,37.5510545040866],[127.1106976032078,37.5547866003545],[127.1113185025869,37.557187797953304],[127.1128006001021,37.5580704016729],[127.1106515996359,37.5583193004588],[127.10799180041009,37.553657204110806],[127.1023338023104,37.5591174008001],[127.1020558995115,37.558031800734],[127.099355001487,37.556218002545904],[127.0958701049719,37.5573508014131],[127.0959940009338,37.562862400682],[127.09501909852351,37.561059301915996],[127.0918509016917,37.5602811026942],[127.0886536003848,37.564105400891],[127.0883618006766,37.5651462998501],[127.0909367015805,37.5657048994654],[127.0927948011061,37.5692627975349],[127.09399890078011,37.5686466012118],[127.09101770185269,37.5695734007312],[127.09192780290279,37.572010600304296],[127.09104430378629,37.5738054985094],[127.0933855014451,37.577478894836005],[127.09599130271779,37.5768064956908],[127.0979507002542,37.5797786999431],[127.0966431011064,37.5801830009291],[127.0970972006523,37.5816078995042],[127.0965071014316,37.5826638009553],[127.09454990048681,37.582754100089105],[127.09593920075531,37.5836551002898],[127.09441750038131,37.5834992011094],[127.0941553006435,37.584513600095],[127.0945018002334,37.5880448000465],[127.09573980054721,37.5902047007889],[127.0920953999519,37.591825800779205],[127.0903591009751,37.593508199688],[127.0917343004118,37.5949895996206],[127.0911498009372,37.5963002987613],[127.09215280055919,37.596808700428596],[127.0906414002655,37.5965391006108],[127.0905222002133,37.5974628002387],[127.08917650054309,37.59793940162],[127.08911980019961,37.599212800541],[127.088206700035,37.5984663005262],[127.0878280000689,37.5994100005135],[127.0871371997091,37.5993011002559],[127.0864704997301,37.5976060005862],[127.08489870070899,37.597916400281804],[127.0850977993673,37.598771200888],[127.0836981996494,37.597067000655706],[127.0812592994814,37.5970419004327],[127.08047060007449,37.596095400314205],[127.08015599987121,37.5971835004973],[127.0800261996907,37.596245600417205],[127.0776907004162,37.5971298002329],[127.0773021002223,37.5984377002402],[127.0739263998191,37.5981877006926],[127.0739396992788,37.5969894999809],[127.0711743990505,37.594451000196],[127.0716038004936,37.5926531988614],[127.0726767998269,37.5929374991303],[127.0729220997766,37.592035199792996],[127.0738801000532,37.5924689996301],[127.07404769996309,37.5917544987287],[127.07688089857031,37.592483698422],[127.0773198992982,37.591449298720704],[127.0815169001577,37.592823699515996],[127.0816743003005,37.5940763995199],[127.0835888983859,37.5933212002751],[127.08310589927561,37.5912836005337],[127.0819843985701,37.590260800102406],[127.08252499830401,37.589857299349596],[127.0820464987772,37.5878247012613],[127.07996949949191,37.5882778005484],[127.0807882991607,37.588279099531604],[127.0807657991832,37.586839700971],[127.07923669978399,37.586565799949305],[127.08203129965949,37.5850072997429],[127.0819891997805,37.5842037000042],[127.0783851995304,37.5810629997939],[127.07964649961579,37.5808818998844],[127.08011109946369,37.5792364000306],[127.0814117997548,37.5788779001231],[127.081081499799,37.5781536006744],[127.07960989976259,37.5780978997809],[127.0801810994815,37.5774976001887],[127.079202399412,37.5763540999674],[127.0794862985321,37.569603298375796],[127.07825249976591,37.5673628006163],[127.07616609882079,37.565995300464294],[127.0738180005269,37.566419700617395],[127.07333680021301,37.5680374004413],[127.07254150042439,37.5679579007165],[127.0728900003229,37.5688893002593],[127.0724844001131,37.567973900980995],[127.0722876004254,37.5690627007545],[127.07092330060631,37.5695295011529],[127.07101760002591,37.570913500041506],[127.0687293998719,37.5690459005548],[127.0651629003042,37.569371700645995],[127.0623596009131,37.5683011014408],[127.06188089994461,37.5700718023982],[127.0607719005612,37.5701227024609],[127.06011080122231,37.5719523006313],[127.0585548004869,37.572347300526594],[127.0576175000304,37.5736551004138],[127.0575092999524,37.57306960054839],[127.05738030004511,37.573637900560804],[127.0553679997988,37.5736597015306],[127.0543990000121,37.5752184010996],[127.0532543996443,37.5746950008003],[127.0521139995506,37.5751890002266],[127.05097450049419,37.5742512010305],[127.051053700415,37.5758014994802],[127.0529563002089,37.5761136997398],[127.0546272003594,37.5780186990493],[127.05600099983299,37.5772394995781],[127.0575034003615,37.5784082999447],[127.05591340042679,37.5792079003753],[127.0566877006433,37.5797515004569],[127.0562876004172,37.5817312004165],[127.05559560043561,37.5816260005369],[127.05481120030291,37.5834606000055],[127.0555725001352,37.5846508989711],[127.0564368004713,37.5837873995835],[127.055572500391,37.5846509000469],[127.0570991992711,37.5849912994576],[127.05748159989601,37.584443199804404],[127.0572423002055,37.58499779954769],[127.058563999872,37.5852897993866],[127.0609783003851,37.5847972997358],[127.0632811004278,37.5867362997851],[127.0647984001206,37.5904501996534],[127.0661042001492,37.5911107996684],[127.06514060055751,37.5910669000499],[127.0650466003224,37.592368200284405],[127.0639916999436,37.5931036001824],[127.0616881998236,37.590930400839696],[127.06036360091291,37.591297700372095],[127.0621563000599,37.5941864005168],[127.060537899705,37.5935129004548],[127.0582584995412,37.5944791001941],[127.0546906999638,37.5929753001115],[127.0526490997889,37.593183400424],[127.0522540997257,37.5916104010789],[127.05076719896729,37.5914275000271],[127.05150959953241,37.5888955002347],[127.0510388991096,37.588484700079505],[127.0517714995942,37.5887314995761],[127.0519299995177,37.5881186000447],[127.0507219002918,37.587761000265],[127.0496878000466,37.588754900518396],[127.0481873995877,37.587967600298796],[127.0473556999854,37.5896913005235],[127.044483799875,37.5880528004461],[127.043124800002,37.588704600304396],[127.0417663998258,37.5881761007689],[127.0413903993049,37.5866806005467],[127.0401197998185,37.586625500089],[127.0373107994822,37.5828753005424],[127.03163619981689,37.5813529010371],[127.031629199476,37.5800059011234],[127.0300176992467,37.5801055006168],[127.0293567996385,37.5792766010651],[127.0276247013706,37.5801310002107],[127.0285468006176,37.5807547003994],[127.0272681007463,37.5804647007782],[127.02773090052139,37.5814622010263],[127.0253721005683,37.5804901009407],[127.02513119946231,37.5813183009707],[127.02214049999,37.582139600979296],[127.021831300886,37.585086499077505],[127.0236419999837,37.5865961001751],[127.0224599997147,37.586300001279504],[127.0217185002583,37.5874173004961],[127.0172852001189,37.5883793011304],[127.0146054988984,37.582971301722196],[127.014543399424,37.580855801873504],[127.011237899816,37.5800628002053],[127.0119887990242,37.5799145000242],[127.0135588994204,37.576948399665696],[127.01305859939869,37.5748380003516],[127.0106051998914,37.575539800202904],[127.0102364999808,37.574852200878105],[127.0093063002256,37.5758769001598],[127.0052217002985,37.5753768006186],[127.0041913995849,37.5726659008079],[127.0020377000145,37.573318600335],[127.001508799846,37.5720422013989],[126.9973983999242,37.5751315007643],[126.9971107995835,37.5739117008388],[126.9962812985713,37.5744594001728],[126.9966046981345,37.5733619993777],[126.995842198897,37.572014700725],[126.9940670005531,37.572039100012596],[126.99105559988459,37.5757137017462],[126.9867668006531,37.5759539008061],[126.98753230062489,37.5776575000057],[126.9855059997707,37.5782186005766],[126.985488999667,37.5765164013484],[126.98409220008051,37.5777503001976],[126.9840489995271,37.575888400191],[126.98295679968369,37.575631899886396],[126.9840489998187,37.5758883995086],[126.98479260047101,37.5751213998017],[126.98435390091561,37.5759936993095],[126.9854889997805,37.5765163987868],[126.986468699525,37.5758726991729],[126.98716369913079,37.5742867001563],[126.98632429989031,37.5733271004469],[126.9854904001118,37.5735932005855],[126.9854021991637,37.5726300996986],[126.9856922999618,37.571789799497296],[126.98682459930771,37.5720594994162],[126.98696909954819,37.570542100588995],[126.9857522000948,37.569760700290104],[126.98462550087771,37.571570800147505],[126.9830595006712,37.5716453008994],[126.9830431999554,37.5723613005363],[126.9813958998477,37.5719116003125],[126.9809986996107,37.5703950004978],[126.9793360999809,37.5704153007862],[126.97870880026551,37.569239601027604],[126.97858910072789,37.5703733008282],[126.9769427005099,37.5704199003616],[126.97705090022899,37.57201620057],[126.9753750005005,37.5716164003229],[126.9745738999039,37.5729538011267],[126.9747234991622,37.5721410003462],[126.9732513993407,37.5716084999311],[126.9749943994608,37.570225399851395],[126.97520199997649,37.5707847993152],[126.97551090025411,37.5701105993131],[126.9763863993786,37.5704042990194],[126.976842099612,37.569024999861],[126.9779098995071,37.568707900141],[126.9754504990129,37.5666260997782],[126.9768032989919,37.5665372991214],[126.9767248998204,37.5646070002875],[126.97368560092049,37.564493300592005],[126.97253459918531,37.5666240009499],[126.971658398689,37.563680399781205],[126.969712699008,37.5617203001724],[126.9642548008487,37.5611610009777],[126.96424359990391,37.562588000023],[126.9605587995705,37.5584226999554],[126.96395369960291,37.557154699524],[126.96726480031299,37.5579659986351],[126.9675211001768,37.5586647003793],[126.9662411009391,37.5585429007074],[126.9662119009683,37.5598291994211],[126.9677584994217,37.5609815982687],[126.96841780088799,37.5596736997668],[126.9701407002665,37.5622244988731],[126.97154719886001,37.5623729987246],[126.9717328986743,37.561156499941106],[126.97265330036281,37.56094439968879],[126.9720382997145,37.561725700511595],[126.9717329000199,37.5611565010808],[126.9712921004382,37.5628555996417],[126.9723104994198,37.563165299332],[126.9745261996571,37.5606771999765],[126.9738054999842,37.559786599084504],[126.9752760994359,37.559921599305206],[126.97519009969221,37.5582106998209],[126.9761370994074,37.557909699309604],[126.9760516994928,37.557228299990996],[126.9733624997058,37.5565074999328],[126.97487550007969,37.5558902994527],[126.97543499971701,37.5569906994032],[126.9765142000016,37.5547112997659],[126.9780335011133,37.5551616995565],[126.97864780020521,37.5567370988718],[126.9808014001682,37.5555043996293],[126.98035830060951,37.556191999523406],[126.9815869002664,37.5566204993064],[126.9821602003714,37.5580019997014],[126.9829847995468,37.55815959954381],[126.98447590002681,37.5563437997889],[126.98414360082249,37.5569742994866],[126.9858115000761,37.556798099886905],[126.9840971018476,37.5578938992746],[126.98541950052521,37.5584620987064],[126.9861989996886,37.557237199447805],[126.98826230064981,37.5573955990229],[126.99005030067369,37.559714899541206],[126.9916876991605,37.559453099519295],[126.9924178984303,37.55836240061],[126.9921007979003,37.5570227998125],[126.99236429993921,37.5576236995604],[126.9934395998913,37.556049599595504],[126.9963481004177,37.5569444997768],[126.9969784997873,37.558507298214],[126.9992491995306,37.5582481997352],[126.9992358979743,37.5570534991116],[127.0009515993894,37.556877198586605],[127.0021614997066,37.5529313995092],[127.0033467998454,37.5549012986224],[127.0044739993244,37.553113599876404],[127.0040546981835,37.5517153995278],[127.0048680995621,37.5493257993411],[127.0060105992211,37.547704699573096],[127.007071000128,37.5467304998786],[127.00891750066229,37.5485192993755],[127.0113744986269,37.5458233998673],[127.0100073990139,37.5445936999703],[127.0102740983618,37.5426984005669],[127.00952509764551,37.541499600570404],[127.0117806985413,37.538211498599104],[127.0112863990356,37.5369593998512],[127.0125712008359,37.5372831988837],[127.0123902004288,37.5390119993035],[127.0131553005851,37.5387840994523],[127.0142269997678,37.5401126993941],[127.0150144999845,37.5391870987946],[127.0147880004585,37.54002309995],[127.0155803996661,37.5404043995687],[127.016429498969,37.5387086005075],[127.0160407989743,37.538019999670105],[127.0201214942982,37.537420798766],[127.0208889985318,37.5297236990806],[127.0198601995745,37.5275340012585],[127.01642580141919,37.526705800838904],[127.0124065003083,37.5278878034352],[127.0118891997426,37.522126906285905],[127.01003299976071,37.520504000044205],[127.0102327995609,37.5184777020705],[127.0079280946802,37.5191792059839],[127.0070535953067,37.51874280603],[127.0030453953418,37.5141234067652],[127.0007890975981,37.5131705077181],[126.9960469963337,37.5153343018493],[126.9940796994151,37.5088563008921],[126.99210869920181,37.5087774998544],[126.9915904993303,37.507366599330396],[126.9924014991433,37.507516899409296],[126.9926808988639,37.5067400001862],[126.9903664000701,37.5032182030007],[126.9883262004455,37.506336100778],[126.9885452989736,37.5054056005169],[126.98225230228459,37.5043262024756],[126.9808113001508,37.5065723082724],[126.9780711013287,37.5054134008368],[126.97677870045669,37.5059752094417],[126.97649829916361,37.5042702007502],[126.9750783994128,37.5045585011096],[126.97440110009009,37.50363750203061],[126.9721374023538,37.5056941999739],[126.9726334005836,37.5061749003479],[126.9673902034879,37.5079641084291],[126.9584013010853,37.5131437043403],[126.9585595003159,37.5173871004595],[126.95660999996,37.513893103695594],[126.9532014000657,37.515338700041504],[126.9499715996385,37.5151897014171],[126.9473580005452,37.5166173004638],[126.9497333978685,37.5153150994025],[126.9475760000259,37.5133928013248],[126.9440776003836,37.5152960011019],[126.94400639963881,37.513692400005695],[126.943239299921,37.513091100578194],[126.94220000021829,37.5141000008068],[126.9409438001256,37.513271200692195],[126.9392270009524,37.5137152002702],[126.93913020035829,37.5144439002129],[126.9383625999079,37.513099600264795],[126.9376676000766,37.5130788002582],[126.9373216005244,37.514139100150004],[126.9359292994227,37.513223000737604],[126.93185579882389,37.5136909995148]]],[[[127.10426789926619,37.2851391009715],[127.1056870998514,37.2850992986673],[127.1074964993458,37.2870704979372],[127.108126298716,37.286483698523995],[127.10789599894629,37.2851042999034],[127.1055428996668,37.2834434999889],[127.10693819929911,37.283319499361795],[127.1069488997779,37.2816884996566],[127.109507298327,37.2807035989372],[127.1096134982208,37.2796037000371],[127.1111908999966,37.2783302997551],[127.1112099004239,37.2795970995968],[127.11221640026399,37.2791868994302],[127.1142053000001,37.280238499610206],[127.1151255990798,37.2796058002429],[127.110222299339,37.2759142000099],[127.1106885006962,37.272681397984705],[127.1135433988937,37.2737386975188],[127.1139266985212,37.2712455999121],[127.114494099677,37.271325998963505],[127.1162698001256,37.272471598787],[127.116083601051,37.2738230001343],[127.1172312999033,37.2758426981146],[127.1190047009549,37.274604596018],[127.1206665019232,37.274698899258794],[127.1205496012158,37.2760739025637],[127.1187345011885,37.276615301253706],[127.1187317009463,37.2784744003555],[127.1180886994874,37.276898000795505],[127.1170572005189,37.2778640998294],[127.1174571014096,37.2795979011343],[127.1163623999832,37.278801601051],[127.1159103004353,37.2796147002379],[127.1158125007264,37.2818640993782],[127.1179936019177,37.28706690029],[127.1192659006454,37.2874147999421],[127.11799360116581,37.2870669008748],[127.11825520090419,37.2882499996917],[127.1192835003389,37.2883613999699],[127.1186189001931,37.2892089011351],[127.1132477999978,37.2866870007573],[127.1123253008947,37.2877841997038],[127.1128867003333,37.2884814990065],[127.1156941031179,37.2893063010377],[127.1122031012131,37.2892449020863],[127.10995049989509,37.2901350004595],[127.1080753999416,37.2884939005382],[127.1069617008222,37.2892660004027],[127.10780179927231,37.290025800848206],[127.1067115983108,37.2889199010402],[127.10749649789689,37.2870704996065],[127.10426789926619,37.2851391009715]]],[[[126.9638774991209,37.5299852000761],[126.96534529932539,37.527851998779006],[126.9650939994159,37.5263840997068],[126.9662071994094,37.5271697988832],[126.9677615987699,37.5269800985261],[126.9679974994329,37.523094299478196],[126.9712625997597,37.518214899489394],[126.97143850024851,37.5192025995184],[126.9727227990733,37.5187004003],[126.97247920032119,37.518179099082296],[126.9729699010334,37.5191999993757],[126.9757372006172,37.519326099802804],[126.9786033998294,37.521279299054406],[126.9807012002341,37.5203219990709],[126.9804898002765,37.522360000583],[126.9797588005995,37.5222473006385],[126.9797834001986,37.523124200158],[126.9777336003248,37.5243316005339],[126.9769276993522,37.5235162996252],[126.9779168992602,37.5228559998518],[126.977317499565,37.5217209001247],[126.97503809923161,37.5209403011223],[126.97302450124519,37.5216151004475],[126.97442960038589,37.5225548999593],[126.97244580097251,37.5225521997751],[126.9727332010565,37.5237684995393],[126.970231800762,37.5251803011731],[126.9686832005698,37.524266001825495],[126.9678257014273,37.5248718012197],[126.9682900013402,37.528292799526604],[126.9698948997353,37.5288354989839],[126.97024600100221,37.5283307000279],[126.9714153008142,37.5301171996497],[126.97238690039781,37.5300027997652],[126.9714983003164,37.5313680003307],[126.9716925001222,37.532230899467805],[126.97313540018311,37.5324187988653],[126.97258220095951,37.5339092988761],[126.97365090064109,37.5337016992386],[126.97499910011571,37.5347899997399],[126.9741031999273,37.5364061004236],[126.97218529982551,37.535101901272704],[126.97151289989239,37.5363567001729],[126.97027829880321,37.5335197001758],[126.9674886991725,37.530902901954704],[126.9681784991421,37.5309988992418],[126.9677661995544,37.529823900416794],[126.9665407001733,37.5296072002941],[126.9667300000648,37.5306300000353],[126.9660038000539,37.530816700084806],[126.96602089908511,37.5291716016816],[126.9647861003199,37.529175101678106],[126.96445989958309,37.5304383008836],[126.9638774991209,37.5299852000761]]],[[[126.9442279989339,37.5041040006573],[126.94527859928449,37.5014067998796],[126.9448820998976,37.5003310995858],[126.94730490042251,37.5019249987743],[126.9487049993125,37.4998531992404],[126.95055859946059,37.4997384991149],[126.95091949900039,37.4982646000334],[126.94948079867021,37.4974092005757],[126.9492611995249,37.495494799754006],[126.9498462011827,37.49683799866909],[126.95127679975211,37.497014198492906],[126.9522233988055,37.4961224993846],[126.9515126994542,37.4948316996994],[126.95229539997379,37.4951589990483],[126.9533791984235,37.4924813998644],[126.9546152993088,37.4931560990392],[126.9541698990642,37.4916486994217],[126.9551177009829,37.492296098896595],[126.9563149002239,37.4915760996399],[126.9582104006264,37.494451999671],[126.9595316008574,37.4948502998766],[126.9589938001794,37.4957719002399],[126.95863599957259,37.4949792009545],[126.9568797001009,37.496175800186805],[126.956498099954,37.494870100607],[126.95531600003889,37.495829400420995],[126.9548359998455,37.4949734005749],[126.9533337006789,37.4965239000486],[126.9555145997772,37.497978799070296],[126.9573397000815,37.4974236000353],[126.9568670001278,37.4982748010952],[126.9555146014802,37.4979788013912],[126.9536195010797,37.499580601584604],[126.9537611009381,37.5004244007408],[126.9536195000489,37.4995806007309],[126.9512354002988,37.500597000175],[126.9519375010883,37.5025821000794],[126.9518526008562,37.503281200348404],[126.950769900981,37.5029745008417],[126.9515078004808,37.5048403000447],[126.9507672006318,37.5055868002256],[126.9487140986772,37.5045737016778],[126.9473370986523,37.5061874005698],[126.9449781997817,37.504812701210305],[126.944362900397,37.5052206008024],[126.9442279989339,37.5041040006573]]],[[[127.2183112993549,37.5407796996622],[127.2189183004255,37.539712199638096],[127.2198436998029,37.5411668990145],[127.2203597994834,37.5407116994521],[127.22024729958909,37.5391150003788],[127.2187975990943,37.5386882989869],[127.2202960999194,37.538487996991904],[127.2217221004652,37.5391535995087],[127.2218165997124,37.5405693992123],[127.22290440049291,37.539800299427704],[127.224365699211,37.54064689874],[127.22493009948289,37.5387770000366],[127.2240137003778,37.5374494994482],[127.2254221002586,37.5382603997082],[127.226329200309,37.537784800024994],[127.2257893008109,37.5392795988194],[127.2278063002012,37.5390288001242],[127.2265795005571,37.5395565002839],[127.2262305003701,37.5403261996789],[127.22681520024611,37.540212799950496],[127.2251554999566,37.541798900410505],[127.2232503997045,37.5414132003835],[127.223330099222,37.5407573005098],[127.2223709001812,37.540907100359995],[127.22209310011979,37.5419326004617],[127.221175000372,37.5410429003459],[127.2209164000286,37.5423859001603],[127.22075339941341,37.5414522002891],[127.2183112993549,37.5407796996622]]],[[[127.23807389889771,37.402706800632],[127.2420850998751,37.4014124982647],[127.2426373993228,37.4003132993639],[127.23934819984659,37.3956313005201],[127.2395613989503,37.3944268999919],[127.241988898798,37.3938780991552],[127.2430732995239,37.3907560999025],[127.2446053984288,37.3914164991631],[127.2450769983315,37.388338200765],[127.24580000012651,37.3892064990222],[127.246807702545,37.3883538993798],[127.24713300221971,37.3895231982105],[127.2504578001796,37.388950099914105],[127.25434869930349,37.390883998927],[127.25489780003329,37.389214599572306],[127.2546519006634,37.3904140991285],[127.25606000148021,37.3907354990629],[127.2577441001677,37.3932202969871],[127.2598732041783,37.3935226973857],[127.26068940367361,37.3945100984212],[127.26220500281329,37.4008939000835],[127.260691201931,37.402826299489504],[127.26244850142861,37.4065174989757],[127.2649860012114,37.406253900532604],[127.2628382013976,37.407361099994404],[127.2638465005287,37.4081068010056],[127.2606135016547,37.410176400668796],[127.2592609003514,37.409981301101695],[127.257393200456,37.4117213006404],[127.2536024990842,37.410506900948704],[127.2522080000773,37.4112871004534],[127.2504034012285,37.410503301508705],[127.2482220996615,37.412502102205295],[127.2457025943163,37.4102578991305],[127.2475331988123,37.4103023988633],[127.2483082980372,37.408714900450796],[127.2447051959656,37.4034688017374],[127.23807389889771,37.402706800632]]],[[[127.087442599249,37.202011100542],[127.09247889926381,37.1968743988853],[127.0931552006116,37.1983349986715],[127.0926607011197,37.1995950988303],[127.0959019990455,37.198307300120305],[127.09501789991731,37.196880798748104],[127.09758820084751,37.1969387999139],[127.0998471006723,37.1999567977044],[127.1017059999831,37.200676899563994],[127.10093880003099,37.2008824000963],[127.1011036001396,37.2015752995586],[127.1022009011218,37.201456300959094],[127.0986988002544,37.205321600744],[127.0979827000444,37.2045744013152],[127.0947583989999,37.2045956011997],[127.09313920061909,37.204891300904],[127.0930173999663,37.2058733002444],[127.0914449982398,37.2034380010871],[127.08970269922851,37.2032458005677],[127.0882225999209,37.2015692006358],[127.087442599249,37.202011100542]]],[[[126.91861089837471,37.5205025002983],[126.9262907981925,37.5172738977591],[126.9265336979496,37.5148348001982],[126.9249360995472,37.514441000592],[126.92363089891501,37.512962700372604],[126.9250208997104,37.5120231992071],[126.92484409960281,37.5110171993846],[126.9266165023349,37.5109960986446],[126.92527480112669,37.5119808999588],[126.9270015006868,37.513684599745396],[126.9295098998503,37.5140636991158],[126.9306174006836,37.5131784983814],[126.9295099011698,37.5140636991421],[126.92913060213249,37.516966198034396],[126.9323186009759,37.5194967989286],[126.9314358994655,37.5189501014904],[126.9292706006067,37.5211161003688],[126.9291432009295,37.524727400304506],[126.9297392994188,37.5250991013317],[126.9271420995088,37.525397401259504],[126.9254512001306,37.5242624019442],[126.92389540030791,37.5261682002418],[126.9226045001121,37.5243388015172],[126.9212696997695,37.524534801177495],[126.92154279973529,37.5237184007413],[126.9209405994347,37.524277801289],[126.92025859926589,37.523044900342505],[126.9192082996058,37.523195900294596],[126.92003499821939,37.5213674003474],[126.9181190988665,37.5208549999458],[126.91861089837471,37.5205025002983]]],[[[127.075703099569,37.6034294999452],[127.0765852999237,37.603529299528695],[127.07684599984431,37.6027152995718],[127.07742779990899,37.603328299560104],[127.0777699997095,37.6015600006965],[127.0761168996549,37.601213099773005],[127.0799068999567,37.5993945993084],[127.0800460998899,37.5986720996122],[127.0810182001231,37.600307299580194],[127.0816489004149,37.5999688002058],[127.0814078004659,37.6011659994967],[127.083543000087,37.601860100019906],[127.0827058005738,37.603887300636295],[127.0785419999747,37.6064526001315],[127.0785679994683,37.605503900635306],[127.075703099569,37.6034294999452]]],[[[127.2879215946444,37.37588310155],[127.28824670137,37.375454099034],[127.2904780997771,37.377076697166004],[127.29239350037291,37.3765947993245],[127.2948502979161,37.377499998419296],[127.29607919668719,37.376515499403794],[127.2963167964496,37.375037500881795],[127.2950689976974,37.3730919028274],[127.2931265952018,37.3732287986609],[127.2947000930746,37.3707390999894],[127.2963116988009,37.3722446980502],[127.2961885991448,37.369791898626204],[127.2969563002199,37.3696579983586],[127.2981948995898,37.3714552978687],[127.300583098982,37.3706773981723],[127.30099390190469,37.3683057960832],[127.30256930047081,37.3693687986488],[127.303463600525,37.368282099004205],[127.3050510030678,37.3698313988112],[127.3042842025913,37.3716152028077],[127.30110259950469,37.3733729028023],[127.30065209974029,37.3724683005998],[127.2990297003726,37.3733586001401],[127.2978403017555,37.3769505011048],[127.2981534023913,37.379471700795],[127.29747470307,37.3799140003527],[127.3001649003798,37.3831949970717],[127.3036361015568,37.3832657988985],[127.3013394023891,37.383957000301706],[127.3014251006546,37.3849668018585],[127.300334498683,37.3842315024517],[127.29892129725441,37.384609100556595],[127.2966362990043,37.380408103178496],[127.29175569935529,37.3832556005491],[127.29308079663039,37.381585600090304],[127.2928093969018,37.3791175025584],[127.29129889841231,37.378137503538404],[127.2890523976133,37.378605303445],[127.2894789979836,37.376582501041696],[127.2879215946444,37.37588310155]]],[[[127.1906713968906,37.4192763002045],[127.1924887999892,37.4122588998857],[127.19335369942931,37.4139287981912],[127.1948327979502,37.4119872001328],[127.19307329997939,37.4114098995432],[127.19618279302391,37.4067987978994],[127.19748169958069,37.4063349963277],[127.1987910982713,37.403997798664896],[127.1985620985003,37.4026759999867],[127.1987911015743,37.4039977986411],[127.2010460993193,37.4028762997626],[127.2014630989023,37.402304900333995],[127.2007370992647,37.401377699148995],[127.2018476008506,37.401425300041],[127.2049795003633,37.4076182951811],[127.2113582998679,37.4059557962708],[127.2130616991676,37.4050990968377],[127.2140657981635,37.4033790985577],[127.2159358987586,37.402946396217196],[127.2168629004066,37.406003296739],[127.2177835994859,37.4029307998115],[127.2219092014441,37.401181297293995],[127.2219076002954,37.4024864003125],[127.22106550113749,37.4029835998153],[127.2224087006056,37.403249100533195],[127.2205533999573,37.4032071025441],[127.2168629036478,37.4060032997479],[127.21886930495799,37.408914897861],[127.21864530270331,37.4114635064468],[127.2158272055214,37.412115305795005],[127.2131283005584,37.4115296033901],[127.20780240588431,37.415915699003996],[127.2080694014775,37.4200656030604],[127.204638299914,37.4200109098474],[127.1955332002846,37.4161421067673],[127.1906714051464,37.4192763036331],[127.1905438026638,37.4200611037481],[127.1906713968906,37.4192763002045]]],[[[126.9389791987858,37.4834366002626],[126.93948759947071,37.480032500168],[126.9402669003946,37.4804309994498],[126.9413843999087,37.479585299601794],[126.9428171002315,37.479621699456104],[126.9436599001651,37.4810562999433],[126.943938100176,37.4804243998545],[126.94483430019659,37.4817587997627],[126.945929300407,37.4818803999644],[126.9437786000272,37.484087700167805],[126.9410266998339,37.4843874004683],[126.9389791987858,37.4834366002626]]],[[[126.9977698994413,37.581899700472],[126.9990238989039,37.5821932989325],[126.9997290004258,37.5812481989777],[127.0019837986859,37.5817548992183],[127.0010054992758,37.5792343003488],[127.00156889965929,37.579998499107504],[127.0021804000131,37.578902799694305],[127.0044295005261,37.5804830000004],[127.0038468007165,37.5817521995804],[127.0048292004549,37.5841550005212],[127.0026938006436,37.5836989006758],[127.0028632004742,37.5844627999119],[127.0014245002266,37.5859154006955],[127.0002045996728,37.5832940008164],[126.998322899952,37.5834770006175],[126.99808279950851,37.582494600012],[126.9990238988687,37.5821932999871],[126.9977698994413,37.581899700472]]],[[[127.0267329988363,37.5863765001759],[127.0276027000019,37.584809199857006],[127.0288358999138,37.5860877991673],[127.028896500242,37.5843224994671],[127.0319365005117,37.5863895998423],[127.0292379999757,37.5882657005965],[127.02872659968929,37.5863795007213],[127.02768740072851,37.5863837007171],[127.0278774992219,37.5873908007081],[127.0267329988363,37.5863765001759]]],[[[127.0457647997407,37.290237599749695],[127.0460084999137,37.288436699923],[127.0506016999665,37.2890248972824],[127.05222639893239,37.2861530995404],[127.0518072992293,37.2852190976011],[127.0525735002789,37.2860930984981],[127.054600900038,37.286003197823206],[127.05540050233921,37.2871122992434],[127.0540939011387,37.2895168005491],[127.0545807006519,37.2902919997739],[127.05399199930399,37.2904141998268],[127.0540938993712,37.28951679757],[127.05515339831169,37.287281499805296],[127.0542561992089,37.2862924007944],[127.0509755024896,37.2892743978124],[127.0529896005612,37.2913033020667],[127.0522644994236,37.2905989027517],[127.0490789005411,37.2929734012443],[127.04863829955539,37.2907168015294],[127.0474079007858,37.2907064015398],[127.04772679965761,37.2929358012122],[127.0457647997407,37.290237599749695]]],[[[127.0627579996604,37.5944606000963],[127.064775500116,37.593897499441496],[127.066214100072,37.5954415997249],[127.0668099002947,37.5952026998142],[127.0662141004928,37.5954416003245],[127.0658561003592,37.5984816003494],[127.0648035996147,37.597496300085204],[127.06485219961371,37.5963125001548],[127.0637697998585,37.5961214004109],[127.0627579996604,37.5944606000963]]],[[[127.0469598960865,37.4549525989532],[127.0488319983724,37.453585999526105],[127.0472713958834,37.451816201323005],[127.0467334986718,37.4488475981655],[127.0525457949028,37.449517296588894],[127.0524027950458,37.442221103885096],[127.0493805951982,37.440232799981295],[127.0512361036048,37.4391122944768],[127.0628099992031,37.4368038975093],[127.0623567005319,37.437334199548005],[127.0634448011562,37.4372860999516],[127.06332880127219,37.4427550944826],[127.0652312014259,37.446936899509396],[127.0584834041438,37.4519174007154],[127.0606023020196,37.4546071012269],[127.0588086984899,37.456046201431],[127.05870659900599,37.4528900026669],[127.05707370063891,37.4526157029412],[127.05611100160161,37.4547280008289],[127.0548768994159,37.4544012010591],[127.0507890997919,37.456718200751595],[127.0489115990074,37.4567304005516],[127.0498677987179,37.4542497003243],[127.0488319997537,37.453586000988004],[127.0469598960865,37.4549525989532]]],[[[127.0755944996682,37.6111390003016],[127.0756120997788,37.609678999749796],[127.078087499715,37.6088706993933],[127.0782296001841,37.6081513989797],[127.0786507004938,37.609792899225],[127.0806202003416,37.6111798000547],[127.0792829002769,37.6112857008142],[127.0786700000265,37.61252910022],[127.0778319004966,37.612170600612195],[127.0779648998895,37.61327110008],[127.07693429974411,37.613114600722504],[127.0772620995033,37.6123264007084],[127.0755944996682,37.6111390003016]]],[[[126.93044789925591,37.5285194001142],[126.9359658006001,37.5248679996268],[126.93606320220971,37.5269703987637],[126.9333062017068,37.529106299537204],[126.9325344998785,37.527525200694],[126.9312501002084,37.5295915005089],[126.93044789925591,37.5285194001142]]],[[[126.8996005995083,37.535057800111296],[126.9009831987124,37.5342586989403],[126.9004832999675,37.531893599354696],[126.9033779005535,37.5331829986872],[126.904937398994,37.5324139994562],[126.9050553999807,37.5313263999534],[126.9061959002984,37.5322596998574],[126.9062976008853,37.5330575998182],[126.9041288999509,37.535534300402205],[126.901779100192,37.535942300174604],[126.9023234991751,37.5355618999106],[126.9016832998153,37.5347571007154],[126.8996005995083,37.535057800111296]]],[[[127.0038031985912,37.587892599746404],[127.0047739999819,37.5870551990912],[127.0060691999995,37.5876062994265],[127.00691469988969,37.5867590991422],[127.0084024003248,37.587721300259396],[127.0074753009264,37.5880791004716],[127.00828970020271,37.5887115000964],[127.0076725003502,37.5896539005444],[127.00656959977181,37.5899390003139],[127.0040527997224,37.5891751005472],[127.0038031985912,37.587892599746404]]],[[[126.9543524987881,37.5578414999272],[126.9537042995818,37.5567288995579],[126.9555583993907,37.55633229923],[126.9558170997107,37.5555281990857],[126.95606700050851,37.557109999178],[126.95849100070829,37.5573411998442],[126.9567471008149,37.5594437004073],[126.95631179937419,37.5579360009264],[126.9543524987881,37.5578414999272]]],[[[126.9702946992801,37.555052599111605],[126.97141049987161,37.554938299397904],[126.9727757003831,37.5531623990983],[126.9741179005005,37.5546685001953],[126.9721855004462,37.5551915002543],[126.9731230999452,37.5561870002533],[126.9702946992801,37.555052599111605]]],[[[126.9655708995817,37.5655538998969],[126.9662949995793,37.5655360997169],[126.9659181998326,37.564745899872996],[126.9667335000957,37.5653271992023],[126.967644100115,37.5646168989027],[126.96782250023979,37.5661650003904],[126.9656305002422,37.566777700638205],[126.9655708995817,37.5655538998969]]],[[[127.01406549932351,37.5922905997219],[127.0159629992797,37.5917622994978],[127.016887699715,37.5905938997172],[127.0184671007704,37.5933068001036],[127.0161702006542,37.5942650002048],[127.0166557997122,37.594623600950996],[127.01406549932351,37.5922905997219]]],[[[126.927614799725,37.4839007999656],[126.9293262994947,37.4834403996043],[126.9298664004819,37.4824830997926],[126.9297220008221,37.483878599627495],[126.9320097005014,37.4844590002036],[126.9294510005601,37.4858981006141],[126.92957489954131,37.485258300553895],[126.9283247998716,37.4850231009056],[126.927614799725,37.4839007999656]]],[[[127.0657074990663,37.6022857000205],[127.06559870000059,37.600872699224],[127.0670873004408,37.6001640996296],[127.06764010074721,37.6014395000404],[127.0663900007599,37.602486399871],[127.06705030021341,37.6030162002185],[127.0657074990663,37.6022857000205]]],[[[127.07448309921719,37.6186545998963],[127.0747299999259,37.6173399992041],[127.0759565004107,37.6173283997353],[127.0747989003311,37.617777900073],[127.0760751998981,37.618791500315],[127.07448309921719,37.6186545998963]]],[[[127.3405415994136,37.3538128994409],[127.33954530007409,37.3518461988026],[127.3434306987882,37.3513993987568],[127.3438811983377,37.3498076003486],[127.3432567986392,37.348700098948804],[127.3449307996324,37.347991897528],[127.3501816011135,37.3470190976108],[127.3520935006228,37.3488404958777],[127.354850901343,37.3484169991129],[127.3546823024244,37.3496569021995],[127.3455618072957,37.3549930073002],[127.3405415994136,37.3538128994409]]],[[[126.914120599325,37.5180306001454],[126.9164906996328,37.517305199601104],[126.91709189998531,37.5162876993191],[126.9167963006511,37.516912499779],[126.9181634008005,37.5175957012151],[126.914120599325,37.5180306001454]]],[[[127.0910527996827,37.597726499975],[127.09208200018901,37.5987466994804],[127.0930937006532,37.5981175997035],[127.0936441003746,37.599238900288],[127.09252049992861,37.5991447010978],[127.09184989948,37.600196599970495],[127.092081999263,37.5987467001226],[127.0910527996827,37.597726499975]]],[[[127.00142469937501,37.538217200122496],[127.00256620018901,37.5388715998178],[127.0017587006528,37.539288499981495],[127.0019555007476,37.5405361009325],[127.00142469937501,37.538217200122496]]],[[[127.04272779953679,37.2994742996493],[127.0434683996306,37.298712098887],[127.0451916994941,37.299839998767204],[127.04673799981491,37.2990046993812],[127.04713770124609,37.2994324997427],[127.0446560000198,37.3007681007503],[127.043837399782,37.299111001353204],[127.04272779953679,37.2994742996493]]],[[[127.40108340231531,37.3179078052765],[127.404491396505,37.3159263000427],[127.4046718980466,37.3139606968111],[127.404942200463,37.315179799758305],[127.40573809983539,37.3153555996257],[127.4059581018365,37.3145173983077],[127.4055289013605,37.31698629908681],[127.4070340014376,37.3167540989383],[127.4082952007722,37.3177936993266],[127.40552890118319,37.3169863015585],[127.40108340231531,37.3179078052765]]],[[[126.9447861995802,37.539046999667995],[126.9464364002103,37.5388417994778],[126.9476215002529,37.5400400001256],[126.9468116999364,37.540537801936104],[126.9447861995802,37.539046999667995]]],[[[127.0360582991591,37.5911674999496],[127.0362753002436,37.589439999804505],[127.03684770022319,37.5912358000038],[127.0360582991591,37.5911674999496]]],[[[126.9714295990604,37.5450282002571],[126.9723132998777,37.543306399763196],[126.9732891002662,37.5436626989485],[126.9729003999099,37.5451987007879],[126.9714295990604,37.5450282002571]]],[[[126.90796719921791,37.512663799896195],[126.90984900080939,37.5131840006664],[126.90814489993869,37.5143984005817],[126.90796719921791,37.512663799896195]]],[[[126.9163951990584,37.5286769003139],[126.9182647005887,37.5274061993428],[126.9170538006006,37.5286105000723],[126.9175302998342,37.5288150004627],[126.9163951990584,37.5286769003139]]],[[[126.9188019994795,37.516974499274404],[126.9225435012541,37.5154743994581],[126.91962960074119,37.517015200682806],[126.9188019994795,37.516974499274404]]],[[[127.0780650996341,37.2586735011747],[127.0798303001539,37.259886399768796],[127.07968150020861,37.260355400227304],[127.0780650996341,37.2586735011747]]],[[[126.9454796997397,37.556684699379595],[126.94586940000741,37.556051999604],[126.9467508007872,37.5567435996292],[126.9458810003047,37.5573445007079],[126.9454796997397,37.556684699379595]]],[[[126.9739497995296,37.5759158999216],[126.9743277009415,37.5753655990681],[126.9745727005304,37.575973500158305],[126.9739497995296,37.5759158999216]]],[[[126.9280007986263,37.500244199505396],[126.9282040998947,37.4989723995477],[126.9294391010575,37.4997255993317],[126.9280007986263,37.500244199505396]]],[[[127.0038423995228,37.5475625999478],[127.0039700002511,37.547402499699096],[127.0045569007676,37.547554100747796],[127.0038423995228,37.5475625999478]]],[[[127.097437699769,37.389556200049],[127.09779230029139,37.389505499247896],[127.09781100017189,37.3896765],[127.097437699769,37.389556200049]]],[[[127.1088683972148,37.261788498796],[127.1095822020947,37.2605559974057],[127.11141710348069,37.2618934989952],[127.1088867998389,37.2634346020935],[127.1088683972148,37.261788498796]]],[[[127.2225078990007,37.543222300328694],[127.2228353000071,37.5428040995061],[127.22334760059499,37.5429035997748],[127.2225078990007,37.543222300328694]]],[[[127.07265479976209,37.6254536999003],[127.0729968002695,37.6254054996825],[127.07307540021989,37.6256307000901],[127.07265479976209,37.6254536999003]]],[[[126.97195929965339,37.5511262010177],[126.9722572000011,37.5510733993607],[126.97239500078831,37.5510509992873],[126.97225720006671,37.5510734002834],[126.97195929965339,37.5511262010177]]],[[[127.0129524987031,37.602720899753],[127.01363290010251,37.6023396997198],[127.01409010073701,37.602765600586096],[127.0129524987031,37.602720899753]]],[[[127.10426189864519,37.2615067005018],[127.1055741993573,37.2615081993097],[127.10574290034029,37.260823899760595],[127.1055485000412,37.2618733011546],[127.10426189864519,37.2615067005018]]],[[[127.0829345992416,37.598290900068704],[127.0832874003971,37.5984422002337],[127.0831142006186,37.5985866010941],[127.0829345992416,37.598290900068704]]],[[[126.95532449993931,37.4969440997947],[126.9553511000038,37.496719899530504],[126.9556659003422,37.4965517996565],[126.9556829003762,37.4966999001224],[126.9553511002823,37.496719900162],[126.95532449993931,37.4969440997947]]],[[[126.97172449963739,37.540964600693805],[126.9719532993779,37.540967498449],[126.97204940107311,37.5409808993344],[126.9719532998649,37.5409675009032],[126.97172449963739,37.540964600693805]]],[[[126.9569724992,37.4966071002043],[126.9571936002199,37.496749499701],[126.95725610021809,37.496838800154],[126.9571935999536,37.4967495000991],[126.9569724992,37.4966071002043]]],[[[126.9635836994904,37.5317470002497],[126.963586399412,37.5315945984667],[126.96362980054151,37.5317382999618],[126.9635836994904,37.5317470002497]]],[[[126.9646890996905,37.4904098004515],[126.9647199995272,37.490172099857105],[126.9647430995041,37.4901190999101],[126.96475889983991,37.4899763994279],[126.9646890996905,37.4904098004515]]],[[[127.0632021991651,37.4544394992305],[127.0633307993012,37.4542292994373],[127.0634416006061,37.4540904000173],[127.0633308007169,37.4542292998784],[127.0632021991651,37.4544394992305]]],[[[127.0549107995003,37.5762309000871],[127.0549107999221,37.5762308994072],[127.0549108004908,37.5762309003733],[127.0549107995003,37.5762309000871]]],[[[126.9496463992161,37.4939093997621],[126.9506702001063,37.4940358988828],[126.95067020159901,37.4940359001714],[126.9496463992161,37.4939093997621]]],[[[126.99448359946679,37.534544499914304],[126.9944907005191,37.5344927994914],[126.99448360103919,37.534544500071604],[126.99448359946679,37.534544499914304]]],[[[127.1037147999657,37.4461492000079],[127.10377079980181,37.4461414995241],[127.1039947009719,37.4461225001275],[127.10377079997001,37.44614150008071],[127.1037147999657,37.4461492000079]]],[[[126.8750306992998,37.546893900162],[126.8750307000567,37.5468938993911],[126.8750307002691,37.5468939002954],[126.8750306992998,37.546893900162]]],[[[126.9515511995367,37.544822599973806],[126.9515511998779,37.5448225995042],[126.95175400025069,37.5449796003025],[126.9515511995367,37.544822599973806]]],[[[127.08855129733331,37.3504815015333],[127.0885512994526,37.3504814976727],[127.0885513016461,37.3504814994141],[127.08855129733331,37.3504815015333]]],[[[127.1259475996717,37.270159300600106],[127.12594759693451,37.2701592988328],[127.12594759744991,37.2701592973315],[127.1259475996717,37.270159300600106]]],[[[127.0777058993283,37.5718479000555],[127.077705901195,37.5718479001407],[127.0777058994139,37.5718479009276],[127.0777058993283,37.5718479000555]]],[[[127.1146847997594,37.3386334002374],[127.1146847000415,37.338585899874495],[127.1146848001928,37.3386334004029],[127.1146847997594,37.3386334002374]]],[[[127.1548203997425,37.5675465003913],[127.15509349970081,37.5673247997318],[127.1550935018776,37.5673248000965],[127.1548203997425,37.5675465003913]]],[[[126.9200619995666,37.5258332001504],[126.9200620001212,37.5258331999212],[126.92012630025391,37.5258842999933],[126.9200619995666,37.5258332001504]]],[[[126.95882690031881,37.496161299971796],[126.9588268996238,37.4961613005058],[126.95881749994919,37.4961106999097],[126.95882690031881,37.496161299971796]]],[[[127.06615769954041,37.5913672997495],[127.0662226000568,37.591386800015904],[127.0661576998025,37.5913673006554],[127.06615769954041,37.5913672997495]]],[[[127.0764007997498,37.6188588000022],[127.0764007997896,37.6188587996382],[127.0764008002438,37.6188588000503],[127.0764007997498,37.6188588000022]]],[[[127.0953192979267,37.3991774991132],[127.0953193008634,37.399177499001404],[127.0953192994815,37.3991775006926],[127.0953192979267,37.3991774991132]]],[[[127.1046383996078,37.4951138996726],[127.10470529998241,37.494969799885],[127.1046383998398,37.4951139003373],[127.1046383996078,37.4951138996726]]],[[[127.1247586990465,37.3427230000566],[127.1247586998909,37.3427229992742],[127.1247587012796,37.3427230006817],[127.1247586990465,37.3427230000566]]],[[[127.220038699281,37.541886300514804],[127.2200387002552,37.5418863000571],[127.2200386997718,37.5418863009017],[127.220038699281,37.541886300514804]]],[[[126.9189252005812,37.5189176002142],[126.9189251999383,37.5189176000804],[126.9189584000621,37.5188810999593],[126.9189252005812,37.5189176002142]]],[[[126.9224904994657,37.5056277001462],[126.9224904998558,37.505627699656095],[126.9224905003116,37.5056277003846],[126.9224904994657,37.5056277001462]]],[[[126.9435754996366,37.480094999814796],[126.9435755002088,37.4800949994299],[126.9435755003011,37.480094999969396],[126.9435754996366,37.480094999814796]]],[[[126.9578953999729,37.4973736998276],[126.9578954000801,37.4973737001853],[126.95789539990629,37.4973737000509],[126.9578953999729,37.4973736998276]]],[[[126.97434969986341,37.55934040014991],[126.97434970005581,37.559340399744805],[126.97434970018391,37.5593403999702],[126.97434969986341,37.55934040014991]]],[[[127.03010059947209,37.5414836011498],[127.030100599865,37.5414835999002],[127.0301006017568,37.5414836001824],[127.03010059947209,37.5414836011498]]],[[[127.1075719995823,37.4987044996655],[127.107572000231,37.4987045004113],[127.1075719995073,37.4987045003514],[127.1075719995823,37.4987044996655]]],[[[127.1542491992457,37.5679349005261],[127.1542491999553,37.567934899814],[127.1542492007482,37.567934900923994],[127.1542491992457,37.5679349005261]]],[[[126.9133309994995,37.4872173004012],[126.9133309998981,37.487217299959],[126.91333100041889,37.487217300152196],[126.9133309994995,37.4872173004012]]],[[[126.9302003997514,37.5253909015405],[126.9302003998723,37.525390899640996],[126.9302004015115,37.5253909006326],[126.9302003997514,37.5253909015405]]],[[[126.9331302994139,37.517244600701],[126.933130300485,37.517244599649196],[126.9331302998123,37.517244600945695],[126.9331302994139,37.517244600701]]],[[[126.93686279988,37.555102399904605],[126.9368628000746,37.5551023999869],[126.9368627999139,37.555102400170504],[126.93686279988,37.555102399904605]]],[[[126.9398423998435,37.5146865000027],[126.9398424001627,37.5146865000014],[126.9398424000863,37.5146865001796],[126.9398423998435,37.5146865000027]]],[[[127.01245129957009,37.5811895998777],[127.0124512999839,37.5811895995621],[127.012451300124,37.5811896001842],[127.01245129957009,37.5811895998777]]],[[[127.0569807995444,37.5789564003708],[127.056980800038,37.5789563999472],[127.05698080009451,37.578956400025106],[127.0569807995444,37.5789564003708]]],[[[127.0630942996569,37.5935168998711],[127.06309430007761,37.5935168998964],[127.063094300122,37.5935169003263],[127.0630942996569,37.5935168998711]]],[[[127.1685584998684,37.5632462998997],[127.1685585001691,37.563246299861],[127.16855850021031,37.5632463001251],[127.1685584998684,37.5632462998997]]],[[[127.1688579966949,37.535462001298605],[127.1688579997848,37.535461999280805],[127.1688580010306,37.5354620010758],[127.1688579966949,37.535462001298605]]],[[[126.8966683997879,37.5257157998253],[126.8966684001131,37.5257157999794],[126.89666840005209,37.5257158002168],[126.8966683997879,37.5257157998253]]],[[[126.9243061997689,37.5097106994342],[126.9243062009584,37.5097106990774],[126.924306200114,37.5097107006294],[126.9243061997689,37.5097106994342]]],[[[126.9652876997811,37.531886300045194],[126.9652876999427,37.5318862998275],[126.96528770009171,37.5318863000429],[126.9652876997811,37.531886300045194]]],[[[127.0313352997497,37.4665535000817],[127.03133530044029,37.466553499427405],[127.0313353004742,37.466553500303405],[127.0313352997497,37.4665535000817]]],[[[127.0677625999757,37.615395200061904],[127.06776260001209,37.6153951999434],[127.0677626005632,37.6153952000084],[127.0677625999757,37.615395200061904]]],[[[127.11441020013899,37.3389707001031],[127.1144101998321,37.3389707001072],[127.11441019983039,37.3389706999006],[127.11441020013899,37.3389707001031]]],[[[127.1148632999503,37.3392001000523],[127.1148632999585,37.3392000998701],[127.1148633000506,37.339200100041],[127.1148632999503,37.3392001000523]]],[[[127.1831762998363,37.564129799956305],[127.1831763005289,37.564129799534705],[127.18317630018029,37.5641298005806],[127.1831762998363,37.564129799956305]]],[[[127.2082007998317,37.5479583000159],[127.2082008002518,37.547958299507094],[127.2082008001084,37.547958300249995],[127.2082007998317,37.5479583000159]]],[[[126.93809159965261,37.513465199871796],[126.93809160005921,37.5134651999806],[126.9380915997544,37.5134652008239],[126.93809159965261,37.513465199871796]]],[[[126.9546666999131,37.495713700045904],[126.9546667000148,37.4957136998346],[126.9546667000474,37.4957137000257],[126.9546666999131,37.495713700045904]]],[[[127.11486369995811,37.3390765999936],[127.1148637000139,37.3390765999597],[127.1148637000145,37.339076600020995],[127.11486369995811,37.3390765999936]]]]}}]}