{"type":"FeatureCollection","features":[{"type":"Feature","properties":{"interval":15,"stationId":"4520040946"},"geometry":{"type":"MultiPolygon","coordinates":[[[[127.0353704995548,37.706082703210406],[127.0406907011616,37.706385097851395],[127.0393232014625,37.7061907009667],[127.0375066020634,37.707227001823],[127.0393746005154,37.7101922990277],[127.04090220052241,37.710423898632804],[127.0428503993735,37.709166698730094],[127.0423608004123,37.7097449999088],[127.0436069994348,37.709936699615],[127.0441364991399,37.7083774004629],[127.04224319854251,37.7071457000117],[127.0432729990852,37.706800799274205],[127.0452576989776,37.7030619000703],[127.0443311962542,37.7008592971782],[127.0455703993604,37.7002562995096],[127.04556049991149,37.6990495998479],[127.0474322001577,37.699340699404],[127.05150029997701,37.702314299273],[127.0537365005951,37.7055220002881],[127.0528326004283,37.705319100466795],[127.05143700109701,37.706423500017],[127.0520271012296,37.7072047993691],[127.05107020004449,37.7103943003563],[127.04958050153421,37.7112596994909],[127.0518277037665,37.7145186006834],[127.0519743036046,37.7166334986028],[127.05104730083649,37.7157349013397],[127.0497311002802,37.716152301464],[127.04807250070661,37.718129900715],[127.04811090066819,37.719116999727895],[127.04603810084011,37.7191916004597],[127.0456404999156,37.7199216002281],[127.04546339888701,37.7177174003405],[127.0448530994973,37.717179700878205],[127.0433633985336,37.7176427007122],[127.0446180988412,37.7162825002611],[127.0424386007915,37.715982800515796],[127.0421987999065,37.7165653002503],[127.04168409894619,37.715934599962196],[127.04221529823239,37.710451300808906],[127.039374596985,37.7101923015119],[127.0375065974187,37.707227002066105],[127.0353704995548,37.706082703210406]]],[[[127.0431980996693,37.7244395998249],[127.0440107998227,37.7233917999491],[127.0469613003772,37.72341509966979],[127.0478453999138,37.7222320995398],[127.0481245003085,37.7241305992779],[127.0490491998798,37.7246569989165],[127.0497793993658,37.7232397994817],[127.0503751010257,37.7239621998807],[127.0481912999792,37.7266641005443],[127.0469496999367,37.7259296006905],[127.0455332000018,37.7266141005833],[127.0431980996693,37.7244395998249]]],[[[127.0453119993573,37.6888729005409],[127.04750030019629,37.6895310002196],[127.0465589995413,37.689641200912],[127.0453119993573,37.6888729005409]]],[[[127.0480004999393,37.738554199972405],[127.0480040000896,37.7385748000304],[127.0480613000804,37.7387244000867],[127.04800399994451,37.7385748000378],[127.0480004999393,37.738554199972405]]],[[[127.0374263985986,37.713178299507206],[127.03857860069469,37.7133263006105],[127.0374264001328,37.7131783030293],[127.0374263985986,37.713178299507206]]],[[[127.04745179956001,37.738607800103395],[127.04745180007471,37.7386077998259],[127.0477093000273,37.7386291999575],[127.04745179956001,37.738607800103395]]],[[[127.0455459999096,37.6904237997894],[127.0455460003843,37.6904238001167],[127.04553839996319,37.6905276001929],[127.0455459999096,37.6904237997894]]],[[[127.0435203997111,37.7289272002525],[127.0435203999215,37.728927199671],[127.04352040057731,37.7289271996762],[127.0435203997111,37.7289272002525]]],[[[127.04566449959461,37.6792729995652],[127.04566450066581,37.679272999836904],[127.0456645000527,37.6792730007037],[127.04566449959461,37.6792729995652]]],[[[127.04644209915699,37.6882563993099],[127.04644210050179,37.6882563996969],[127.0464421002541,37.688256400514],[127.04644209915699,37.6882563993099]]],[[[127.04675329985551,37.738548599871],[127.04675330027311,37.738548600063304],[127.0467532998576,37.738548600163],[127.04675329985551,37.738548599871]]],[[[127.04765239980611,37.7389645000216],[127.0476524000409,37.7389644998986],[127.0476524001002,37.73896450004],[127.04765239980611,37.7389645000216]]]]}},{"type":"Feature","properties":{"interval":30,"stationId":"4520040946"},"geometry":{"type":"MultiPolygon","coordinates":[[[[127.02624419527389,37.7000648958208],[127.0290989003302,37.6990682994803],[127.0328224966066,37.7030221955264],[127.03856329252001,37.6955707977716],[127.036436294647,37.6925146008278],[127.0333314977518,37.691867601474804],[127.03531599720719,37.6870746010331],[127.036254896489,37.679697099121796],[127.0348085983509,37.6776695005828],[127.03808480083269,37.6787093992467],[127.0398485990689,37.678393399562694],[127.0429519982023,37.6759680993426],[127.0412794998748,37.673752301558395],[127.0346081990988,37.66910190053],[127.03387739950469,37.6668785004596],[127.0346956994754,37.6630866997574],[127.0384597994159,37.6616716996275],[127.0385221996958,37.660555199269],[127.0404160993947,37.658596700111495],[127.04340689897889,37.6592885992458],[127.0426664995989,37.657042400782004],[127.0418437998316,37.6573437007131],[127.04122019989519,37.6559766013129],[127.0396110999179,37.6566816000293],[127.04063909913161,37.6551645002252],[127.0400328997378,37.6542880011017],[127.0392956989579,37.65456669965489],[127.0393509991095,37.6516958003055],[127.0382382995658,37.6514657992983],[127.0415889984672,37.6508665987675],[127.0411282999529,37.6489931998752],[127.0418271998458,37.6496628987869],[127.0437903003597,37.648077999182],[127.04393750106979,37.649051399676594],[127.0460007997854,37.6495575993955],[127.0464793992535,37.6481747992093],[127.0455689997089,37.646776300419],[127.0463207989162,37.64626229907449],[127.04575350086141,37.643275598049804],[127.04949070016,37.6411934992222],[127.0502904007022,37.6427992992706],[127.05224679993381,37.64324649915989],[127.05356929787041,37.6404253992011],[127.0542810996516,37.6405449984234],[127.05402070221129,37.6426054992408],[127.0524516015644,37.6426562004121],[127.05016230143809,37.644790099736404],[127.0508462002931,37.6455038000996],[127.0503917005371,37.6463535996198],[127.0518665990622,37.6461099998634],[127.0525180001332,37.6447646994433],[127.0528314013355,37.6460162991053],[127.0548075004895,37.6456306996799],[127.0518666037855,37.6461100035869],[127.0514284022623,37.652125400139404],[127.0535578000532,37.6532201000022],[127.05057140087449,37.6539770016949],[127.0489133998982,37.6534751000488],[127.04899879926981,37.6517582004397],[127.048011600257,37.6514568007411],[127.0467682003834,37.6533206008549],[127.0459206009086,37.6595958995398],[127.0475201004946,37.6612847985474],[127.0490873007752,37.6604636987863],[127.05065359933441,37.6610111990028],[127.0507473014069,37.6642579985664],[127.05406239989891,37.6634816989851],[127.0553665992479,37.6617644000709],[127.0546327993705,37.661696999719496],[127.0557053001058,37.660987399734104],[127.0562514997396,37.6614688996249],[127.0589331998278,37.660642199182995],[127.0605346000077,37.6618228989003],[127.061480100203,37.661026799859805],[127.0613562021784,37.6641018001424],[127.0619769015577,37.6651877990564],[127.0634371000975,37.664797299446896],[127.06363160029849,37.6659754003371],[127.0619015001679,37.667234800431906],[127.0618582996933,37.666534300742704],[127.0608769006747,37.6665358007412],[127.0611801992943,37.6673850005776],[127.0606407998337,37.666768501194106],[127.05935450112,37.6671529008097],[127.05968230057961,37.6686187005453],[127.058453000209,37.6680086006151],[127.0578945999828,37.6687159008356],[127.0573624000932,37.6678165003555],[127.0552351004795,37.6687978005496],[127.0534317994367,37.6672890002955],[127.0542211990096,37.665941301106],[127.0507473009534,37.6642580011673],[127.0497024008614,37.665789401428505],[127.0499304006334,37.6672653999525],[127.0506536004292,37.667541200415904],[127.04829950189949,37.6689571000285],[127.0487736007706,37.6734922998545],[127.05066599995001,37.6750584989],[127.05110620002381,37.6733656992956],[127.05394719912769,37.673587398924205],[127.05393579913911,37.6722005003111],[127.05297519931071,37.6720235988695],[127.0539358002988,37.6722004984798],[127.0563617005561,37.6707550999705],[127.0580762005733,37.6719529998494],[127.05817910122211,37.673674999497806],[127.05979330002019,37.6737041990048],[127.0604148005558,37.6745284990225],[127.0611657000906,37.674042499812096],[127.0602831016902,37.674987299736195],[127.06071300126031,37.6789550957684],[127.0628283021245,37.6795375987975],[127.06071299870531,37.678955101415305],[127.0588576005607,37.6799825003879],[127.05846890151639,37.6827707996192],[127.05648499914709,37.6823255019836],[127.0549575006746,37.684008400300705],[127.0554024025305,37.6852822004291],[127.0532635011877,37.6851313005327],[127.0522465022047,37.6862977993662],[127.0541424013023,37.6889772991629],[127.0551920002527,37.688980399159796],[127.0547674006784,37.69054290100949],[127.0497168013385,37.690986700961105],[127.0486339017872,37.6921988011737],[127.04843250185971,37.6948677002687],[127.0494857008065,37.6962280989083],[127.0513300000232,37.696851199828295],[127.0544842995205,37.695860597664804],[127.0556460007695,37.6944629990684],[127.0544353024897,37.6962381987584],[127.056612000313,37.6981559968406],[127.0600663035669,37.699369695521796],[127.0644511047267,37.7063442064583],[127.0608438046462,37.7130400023432],[127.0573710982231,37.7121088030932],[127.0518277037665,37.7145186006834],[127.0519743036046,37.7166334986028],[127.0522593033196,37.7176195976167],[127.0568577987211,37.719717195519095],[127.0590381018325,37.7218459982722],[127.0608024000682,37.7206263994918],[127.0592570014638,37.7219329005885],[127.0606501002089,37.7235440990096],[127.05968420092651,37.7249521998965],[127.0620769998854,37.7250706991708],[127.0612249008026,37.725903199579996],[127.0630946009134,37.7265996992141],[127.06211500079091,37.7262745004325],[127.0621212998756,37.727715400799504],[127.0620996994145,37.726582200128504],[127.0612301002841,37.7261683005424],[127.06160199973479,37.7285176010904],[127.06025800056021,37.7269693011536],[127.0593214011281,37.727587500837],[127.0595296009199,37.7288402995842],[127.0604173009195,37.729055800552196],[127.0588981999779,37.7317738005828],[127.05791190025559,37.7316420009016],[127.0575373005399,37.7325558003251],[127.0576497004275,37.7335990992818],[127.0590593003474,37.733793500190394],[127.05838780041181,37.7346698994506],[127.0612972006859,37.7359169998541],[127.06037089999319,37.7359212009453],[127.059300101064,37.7368831999833],[127.0600609996236,37.7371192031176],[127.05775130193331,37.7388795013573],[127.0586032010814,37.741049499187305],[127.06140740004679,37.7429117999179],[127.0601291014049,37.7436456000829],[127.0599746016636,37.744938999375606],[127.061333200305,37.7451844991301],[127.0605823006116,37.7457859009482],[127.0611554002898,37.747964499476105],[127.06465979985231,37.747460699733494],[127.06519630006039,37.7466998991677],[127.0654817003829,37.7475476994598],[127.0663653005936,37.747087300265896],[127.0662995007445,37.748606698787306],[127.0675230999576,37.749905399236305],[127.0684591995014,37.7487047998788],[127.0691080001697,37.7497766995149],[127.070651799907,37.748721399089504],[127.0737151998306,37.748799098812],[127.0748330003415,37.7517988004466],[127.0739501998397,37.751535100767896],[127.0730621007278,37.7521087001943],[127.0736177001588,37.7524279002661],[127.0714494990977,37.752995000133296],[127.071420899166,37.751478601091996],[127.0695134992628,37.7516843001303],[127.0702237998367,37.7501660007739],[127.0677652006456,37.7499592007865],[127.0675595001205,37.7510470002829],[127.0663763989203,37.749412501879696],[127.064562700734,37.7499883013039],[127.0636541005417,37.7519409031345],[127.0623803997221,37.751361100077894],[127.0620143996657,37.750030601152204],[127.06108929974681,37.750831600542895],[127.05999589987461,37.748904500667905],[127.0579595996183,37.748327200492],[127.0571714001215,37.7488012006676],[127.0576929994899,37.7479972000489],[127.0560050005438,37.746267500813005],[127.05581400028059,37.7477463003815],[127.0545486004865,37.7481054998452],[127.0549774000976,37.7490979993434],[127.0564455002986,37.7490951003264],[127.05390270040259,37.749699400337],[127.05481930010781,37.7506536000755],[127.0537604010846,37.7505095002894],[127.05253370000649,37.7521711002281],[127.05144009991399,37.7521870000612],[127.051433799817,37.7511102002682],[127.0505271005226,37.7514183001855],[127.0509015005697,37.7532787001236],[127.0491753009604,37.7527987011251],[127.048819199954,37.753810901738994],[127.0474503013229,37.7538565016934],[127.04698320179,37.7563546991952],[127.04992270282109,37.7585909009537],[127.05014680260659,37.7610066991054],[127.0470959999514,37.76242220210651],[127.04658020046719,37.76410220042651],[127.0454820981994,37.762703501029],[127.0407737993118,37.7637242029142],[127.0396748004108,37.762840403798],[127.0376490994053,37.763146003870396],[127.03461969984329,37.7617622002046],[127.0341965986287,37.761232399928],[127.0350300991917,37.760192399699804],[127.0360416989933,37.760336699579405],[127.0350087995396,37.7582067007327],[127.03425319964809,37.758632300490504],[127.0339979992127,37.758048699370704],[127.0350087996723,37.758206699699706],[127.0362024999573,37.7567925997289],[127.03777439939681,37.7570859997168],[127.03751679921581,37.7530618006157],[127.03508819967331,37.7501807999881],[127.0351451992381,37.7491779006694],[127.0300387992819,37.7462316005453],[127.0300926997126,37.744861000107804],[127.0291384995167,37.7448512004557],[127.0280663997715,37.7427877001199],[127.02924999852901,37.741591198742405],[127.030075497806,37.7391911991746],[127.0295425968548,37.7376134989422],[127.0313400958888,37.734067799402396],[127.03331729873669,37.7342048989963],[127.0340994993211,37.7319558988289],[127.0337423980652,37.7278203022153],[127.0323347970002,37.7275999003896],[127.0337438971311,37.722464699108],[127.028637199474,37.7110439087092],[127.0275184957383,37.7107157073499],[127.027222896318,37.703765599148],[127.02624419527389,37.7000648958208]]],[[[127.0562502989973,37.6534373007435],[127.05923180071271,37.6531739979332],[127.0613261997997,37.651247399034304],[127.06195940084791,37.6515504002237],[127.06065600115309,37.6519588000847],[127.062001600534,37.6540891984518],[127.0634387990968,37.6540731984678],[127.0641291003313,37.6520775989262],[127.0634388031845,37.654073198564],[127.0644879021354,37.6551885974486],[127.0665418000815,37.654651097986104],[127.0688942002034,37.6557783987964],[127.06935210045171,37.6582692005131],[127.06739620133071,37.6590085997959],[127.0679424998273,37.6594448010943],[127.0642593004204,37.6596299013428],[127.06318930020551,37.6604324004146],[127.0640120993506,37.6598505001898],[127.06204750008881,37.6588630012702],[127.06144020019791,37.660177300578],[127.06109509926671,37.659470500258095],[127.05878219973499,37.6595732002833],[127.05937519957581,37.6578954989999],[127.0613620997384,37.6592952995888],[127.0615973996055,37.6573014005417],[127.0605897998081,37.657195700357704],[127.0600529990542,37.655578800042],[127.05713889981669,37.6549032006212],[127.0574104997478,37.654097800021205],[127.0562502989973,37.6534373007435]]],[[[127.0307953997633,37.6483058999682],[127.0317643995697,37.647942499565],[127.03281409984399,37.6451048997489],[127.0371153003329,37.6467824997155],[127.0384391007733,37.6481886001669],[127.0370906005006,37.6493943998668],[127.03662200027169,37.6516762007886],[127.03461300042679,37.6507990005563],[127.0332803999481,37.6512177004975],[127.0318665996772,37.6503515002316],[127.0307953997633,37.6483058999682]]],[[[127.0705296993182,37.661605899432296],[127.07118029993609,37.6599083996808],[127.07237869873771,37.659895999693205],[127.0709605994725,37.658812500415806],[127.0716158001798,37.6579866993206],[127.0751302006108,37.6581627989071],[127.0753746015252,37.6597027986441],[127.0779645020195,37.659647196719604],[127.07669170207039,37.6611372997565],[127.0778054008978,37.662287499988295],[127.0764001014759,37.6624910003788],[127.07557340006329,37.6639857009039],[127.0719833998913,37.664043300210004],[127.0718387997967,37.6616538001715],[127.0705296993182,37.661605899432296]]],[[[127.055330499348,37.6319068001938],[127.0575549984324,37.631435298605],[127.05769039908449,37.6293580998259],[127.05755500108549,37.6314352987765],[127.0590703003345,37.6297151990737],[127.0584817017504,37.6325476985511],[127.0604029002817,37.6321403001875],[127.0586815018149,37.6327149998006],[127.0587174000659,37.634338199435604],[127.06029000059479,37.6341099986423],[127.05928040045501,37.634761100348896],[127.0606624006869,37.6363078008428],[127.0594315999173,37.635526602258],[127.0568906983204,37.6358517998781],[127.0583956984544,37.634755499525],[127.05820949864061,37.6338158004647],[127.0563693004808,37.6332480010325],[127.055330499348,37.6319068001938]]],[[[127.04075299761459,37.7724723006599],[127.0407713999718,37.7712694985818],[127.0430819976612,37.7712584985928],[127.0425523991005,37.7690224994659],[127.04507990082651,37.7680387999975],[127.0460995007825,37.7688624998164],[127.0447921014691,37.7706423002048],[127.0455751006861,37.7729369979101],[127.0476645006505,37.7720530995095],[127.0482797006334,37.7733175990932],[127.04950860160349,37.7737296993448],[127.0477630000657,37.7759815007883],[127.046690900177,37.775143701703904],[127.04546230140559,37.7761657006819],[127.04574939983131,37.7778254005706],[127.04276479988751,37.775685300847],[127.041631899537,37.776045700194196],[127.0414654997034,37.7728093034306],[127.04075299761459,37.7724723006599]]],[[[127.0242567993458,37.636575699515],[127.0250156005018,37.6375031990354],[127.0274551002485,37.636733300228],[127.0263703005577,37.638897200522],[127.0239263001272,37.6391122005909],[127.0246227993705,37.6377739996569],[127.0242567993458,37.636575699515]]],[[[127.0760270995361,37.7544629998569],[127.07691050006329,37.7533619996209],[127.0790820011565,37.755130100578704],[127.0778110002024,37.7556438007171],[127.0769606000031,37.7538054008758],[127.0760270995361,37.7544629998569]]],[[[127.06081969935819,37.6448594003321],[127.06366599916049,37.643261898758],[127.0647824002878,37.6434114985767],[127.065991001183,37.643925600327],[127.06508210155239,37.645695699741495],[127.06630000372,37.646190001549996],[127.0647705003024,37.647446800689394],[127.0626223000869,37.647843601150605],[127.0629374995615,37.6466506010316],[127.06081969935819,37.6448594003321]]],[[[127.0584205996101,37.622579699050405],[127.0592198003354,37.6213750997438],[127.0599139998465,37.6227839987368],[127.06109049867001,37.6221169994038],[127.0610032003185,37.621410899329504],[127.0616342009845,37.6227739995906],[127.060840300303,37.6242633006131],[127.05923199836779,37.62403200114],[127.0584205996101,37.622579699050405]]],[[[127.0781927989005,37.670817500697495],[127.0781720998519,37.6689527993355],[127.08073810029431,37.6705214996066],[127.08010830000151,37.671473400529806],[127.077888299205,37.6713855001295],[127.0781927989005,37.670817500697495]]],[[[127.08199909823941,37.7535673021415],[127.0822666990234,37.752249299720106],[127.083567500936,37.752137198642],[127.08199909823941,37.7535673021415]]],[[[127.06786269800291,37.6359311992734],[127.06856840115191,37.6356218997831],[127.0690998012147,37.636672100533495],[127.06786269800291,37.6359311992734]]],[[[127.0259904993354,37.6262538002233],[127.02624990014759,37.6261515991894],[127.0260597999522,37.6264007002928],[127.0259904993354,37.6262538002233]]],[[[127.0625540999209,37.620598699979006],[127.0628406040426,37.620674500137],[127.0628406019794,37.6206745023778],[127.0625540999209,37.620598699979006]]],[[[127.05568259965409,37.689042400522595],[127.0566839025644,37.689505899471],[127.0566839004327,37.6895059024109],[127.05568259965409,37.689042400522595]]],[[[127.0752621996556,37.753956100203304],[127.0752621998366,37.7539560988531],[127.0752622006402,37.753956099164206],[127.0752621996556,37.753956100203304]]],[[[127.0478903999719,37.7387261000094],[127.0478904000581,37.7387260998865],[127.04791769996,37.7388025000786],[127.0478903999719,37.7387261000094]]],[[[127.08499529885721,37.7428203997939],[127.08499529912321,37.7428203988205],[127.08499530041631,37.742820399787696],[127.08499529885721,37.7428203997939]]],[[[127.0728008998539,37.6255168999368],[127.0729293000675,37.6255707998347],[127.0729293001461,37.6255708000599],[127.0728008998539,37.6255168999368]]],[[[127.0445546989538,37.6443085993232],[127.04455470067121,37.6443085987285],[127.0445547001448,37.644308600289804],[127.0445546989538,37.6443085993232]]],[[[127.06231239991159,37.6560754999829],[127.06231240002569,37.6560755000033],[127.0623123999816,37.6560755000565],[127.06231239991159,37.6560754999829]]],[[[127.0677625999812,37.6153952001317],[127.06776260001209,37.6153951999434],[127.0677626005632,37.6153952000084],[127.0677625999812,37.6153952001317]]]]}},{"type":"Feature","properties":{"interval":60,"stationId":"4520040946"},"geometry":{"type":"MultiPolygon","coordinates":[[[[126.9682020996082,37.544528400172],[126.9706832990018,37.5434407990526],[126.971414000777,37.5441803988892],[126.97220809998291,37.543685599384006],[126.9725561996348,37.5424362006334],[126.97081369973189,37.541628699995094],[126.9718181995668,37.5418706997907],[126.9717244996067,37.5409645984519],[126.9718182001351,37.5418706990968],[126.9732910006274,37.5403914993622],[126.9743412002999,37.5416696001319],[126.9735553006348,37.5426112003339],[126.9733818003362,37.5452646995546],[126.97510770065209,37.5454798996495],[126.9755001012674,37.5466195995454],[126.9730718008714,37.5467634001891],[126.9716408009631,37.5488825997753],[126.9745250002077,37.550429899331895],[126.9752941003875,37.5524900998716],[126.9767760007399,37.5522006994739],[126.9773728009843,37.5535564991175],[126.9786979999991,37.553223999295604],[126.97930260005829,37.5540855992564],[126.980935800296,37.5540212998149],[126.9809929000972,37.554747999540396],[126.98143919990609,37.5541925995586],[126.9831887999349,37.5544925992816],[126.983927301164,37.555538399848004],[126.9889120996089,37.5564184955735],[126.9962484006401,37.5549034981492],[126.99721020117279,37.5561650994731],[126.9999708003702,37.5570704983933],[126.9997323001739,37.558003899581706],[127.0004938997689,37.5573491996269],[127.0006951003287,37.558419399317096],[127.0015017995707,37.5586116991151],[127.0024250991806,37.558017499635895],[127.0019824996232,37.5569650006884],[127.000533999807,37.556976598487196],[127.0026337997413,37.553891799663],[127.0053551002952,37.5565026983431],[127.0069571992859,37.554727299729606],[127.0063761989192,37.5536416993091],[127.0072705991747,37.5513392001572],[127.00773480004409,37.5525970991167],[127.0085143999417,37.5513841992109],[127.0101024998149,37.5510232987302],[127.0098944002629,37.5520063993795],[127.0144038010095,37.5516464989546],[127.0154697007755,37.5538184993774],[127.0136150013075,37.5556377999582],[127.0142771008265,37.556680799251104],[127.01525860046219,37.556234099796896],[127.0166149010629,37.5575651999997],[127.0190572996946,37.5580488995448],[127.0198360989158,37.557233800359896],[127.0183319993458,37.5567767007882],[127.0177094995757,37.555334900087196],[127.0182284990567,37.5540986013235],[127.01761559926099,37.55340339991],[127.01884479922559,37.552196199807696],[127.0178190992001,37.5511959003376],[127.0193978993984,37.551844798858795],[127.01883530000151,37.5507002998006],[127.0212618999603,37.5508498993713],[127.0212786018244,37.553645698774396],[127.0236833994196,37.55296039945971],[127.02379880100689,37.5522238002932],[127.0240787007347,37.5560068996586],[127.0219470003764,37.5565300005221],[127.0222369004707,37.557618300137],[127.0188900011779,37.5583800008053],[127.0188600012079,37.559140000045296],[127.0200315003538,37.5597201997045],[127.0193532005792,37.5602332000329],[127.0210429003288,37.5618796995662],[127.0252353000222,37.5640687995902],[127.0273185991471,37.5630269002733],[127.0267892992417,37.5621964990505],[127.0272351996456,37.5627590995904],[127.0297783998585,37.5622075997167],[127.0304224000224,37.5611755996346],[127.0321840008174,37.5616042996409],[127.032189501045,37.562484498977796],[127.0338290000807,37.5622608998741],[127.0335009003609,37.563793399972305],[127.0327405002335,37.5635919003421],[127.0326668004873,37.565567300155195],[127.0308652008693,37.5658909005218],[127.03096240069851,37.567187699616795],[127.0317232002177,37.567091499551694],[127.032199600015,37.5681041992397],[127.0365611999099,37.565473399374305],[127.0377320999998,37.5658158999738],[127.03779920012269,37.5671172993141],[127.0398531996335,37.568729098241796],[127.0417081994443,37.5661372993888],[127.0415370995709,37.5651606998844],[127.04368000013079,37.565992798915],[127.0444231010018,37.565558898136096],[127.04496920032129,37.567462900212604],[127.0428551008594,37.567464100922],[127.04105230266221,37.569194599191505],[127.0427373009772,37.570368098018],[127.0477548983533,37.5676408003626],[127.0471741998819,37.566773799363],[127.04915970035721,37.5685918972539],[127.05073339878349,37.5680359978098],[127.0506773989874,37.565092400484595],[127.0497864990538,37.5653558987979],[127.0500384992965,37.562868900022295],[127.0489724003626,37.562374000517195],[127.04812009983331,37.5639570002962],[127.0483740990236,37.5629170002628],[127.0469388993863,37.560873400045],[127.0477744000572,37.560967399512606],[127.04797450012589,37.5602151999274],[127.0499773995304,37.5612375990007],[127.0504579001494,37.559368799666004],[127.0532179011989,37.5604892005571],[127.052439400654,37.5610896998923],[127.0538177005911,37.5614930002511],[127.0537934006154,37.5622457994983],[127.05251560093971,37.562462600279304],[127.0544753001243,37.5641288999136],[127.0543382004533,37.5650137993686],[127.0556524007598,37.5645309996599],[127.05578370037121,37.5661043003122],[127.0538073001188,37.566837000487],[127.0531919001511,37.568144499851705],[127.0537146003617,37.5689508996563],[127.0525868003105,37.569381899977905],[127.057986500253,37.5727932994132],[127.0576751003384,37.574438199321705],[127.0588361013365,37.5752344002739],[127.058496800453,37.577490299678104],[127.0616912998758,37.5775955996016],[127.0620614000708,37.5767702997446],[127.0624859000975,37.5780239002891],[127.0613560006729,37.5782071998499],[127.06222370035971,37.5786977996152],[127.0640254999559,37.577571999470706],[127.0645680002323,37.57828220012539],[127.0634270013733,37.579186199221404],[127.0651292008718,37.5785558001084],[127.0638281018633,37.5804227994623],[127.0649209007705,37.5811365987485],[127.0669576998385,37.580472999429496],[127.0671116998677,37.5786806998246],[127.06849970032681,37.5785218996786],[127.0696605004344,37.5794803998059],[127.0692641007813,37.5805315998559],[127.07055269990089,37.580939299613],[127.07060199991129,37.5800459997145],[127.0721909997092,37.580169399923804],[127.0718125995958,37.5785633996023],[127.0736060999768,37.5774943996546],[127.0758131000112,37.5777309991749],[127.0759330998709,37.5765978996854],[127.0765628007942,37.5773319989705],[127.0784768988801,37.5771166991858],[127.07967759782339,37.575133299851096],[127.079462797985,37.574095400766],[127.077119800328,37.5727755020859],[127.07642459988129,37.574145500196],[127.07456829949369,37.5730480000962],[127.074525199937,37.5720239001341],[127.07374639922631,37.5723225005883],[127.0773241978255,37.5675628005274],[127.0753824977113,37.5632386008117],[127.07285059921199,37.5600953021058],[127.0716804003822,37.5607085014926],[127.0706633002182,37.5602516005358],[127.0717851005496,37.562560400959],[127.06995309985291,37.5618268008815],[127.0669398004225,37.5635899006096],[127.0667955005059,37.5644723009983],[127.066051198897,37.5638838995101],[127.06661179904981,37.563116699963004],[127.0659971996644,37.562140700939004],[127.0642407007075,37.5623442010498],[127.0644439003308,37.5636831004745],[127.0632828002714,37.5638911003018],[127.0613342996072,37.5633966009936],[127.0610280989893,37.5621815007905],[127.05938129916869,37.5624557011457],[127.05922189852869,37.5614495005955],[127.0599518991712,37.5605864003822],[127.0594380992153,37.560214998648],[127.06106320011021,37.5601594983049],[127.0621867995046,37.557136399021495],[127.0629359001866,37.558403098934],[127.0637500011934,37.5579603974457],[127.0649429011094,37.5593991973393],[127.0680642988714,37.5579626979779],[127.0681107005597,37.5601841980323],[127.0690484996219,37.5598803983361],[127.0706418980285,37.557066401150095],[127.0698548984457,37.556342901535096],[127.0701770986872,37.553362600407],[127.06841869994909,37.551967600387094],[127.06653219994139,37.5516213002791],[127.065588400385,37.5499870009041],[127.0638019984403,37.5490419997328],[127.0657806990477,37.545239399869],[127.063599398949,37.542930301196805],[127.0618748985801,37.542961600352896],[127.0632196986312,37.5422606005119],[127.0636344996756,37.539925699493395],[127.06449039957529,37.539624099674],[127.06375169955929,37.5367957998415],[127.0646088994322,37.5370334995703],[127.0628078998531,37.5353488000457],[127.0629524997636,37.5345703002002],[127.06082629893591,37.534086999581],[127.0647808990341,37.5323511000505],[127.0640448997532,37.5312102008186],[127.0612945997494,37.5318698000613],[127.0618223996284,37.531142900123896],[127.0643069006493,37.5300025995596],[127.0654360995412,37.530335399219396],[127.0665912999438,37.5288464998711],[127.0705428003772,37.5281161999177],[127.06967690061781,37.5289049003784],[127.0699959007716,37.5309755992691],[127.07120559956189,37.5310193992253],[127.07096299983151,37.5290538992409],[127.07174910060971,37.529064999855706],[127.0724459996388,37.530815799192],[127.0732976987871,37.5300476999601],[127.0727073008572,37.5292173990809],[127.0739242007105,37.5298818998551],[127.072754800647,37.5331294998157],[127.07248730001281,37.532564200767105],[127.0711738013263,37.533284300047],[127.07199680053989,37.5351242989857],[127.0738614004362,37.537020899706704],[127.07589960023,37.536318799786294],[127.079147801504,37.5375160996272],[127.0786360000769,37.5396467003416],[127.0775251008568,37.540301800491],[127.0799674015375,37.5422046011578],[127.0789165005782,37.542280800912],[127.0784639010308,37.5435403996524],[127.07997620152871,37.5440622993001],[127.0800769016756,37.5452673985627],[127.0823552999873,37.5442546993795],[127.08246390104769,37.5452076991582],[127.0838085020345,37.5451288021871],[127.0789275009438,37.546899600833605],[127.077065701424,37.5464062011093],[127.07521730106231,37.5491870003002],[127.0752624010172,37.5510716984155],[127.076950499843,37.5503421993219],[127.0779714003304,37.5527042990755],[127.0792195008152,37.5516204981024],[127.08047310042821,37.55314179914],[127.0836094993032,37.552675399025],[127.0873492985723,37.5507486983503],[127.0871844987371,37.5489745001245],[127.0864211994416,37.548746699710804],[127.0873039994363,37.5481280989956],[127.0886514998699,37.5489364990296],[127.0891974993239,37.5484146995514],[127.0908482994333,37.549149398621594],[127.0932106004298,37.5487984998449],[127.0935465011403,37.5521024002822],[127.0926757007321,37.5523553009072],[127.092847900974,37.5536239001518],[127.0909009004273,37.554339300388804],[127.09029170103649,37.555462299265805],[127.0909448004566,37.5585375995093],[127.09280500221409,37.559428301631],[127.090777602765,37.5618207011546],[127.0925172011536,37.565170299668196],[127.0911694022302,37.5667779988379],[127.09390090278539,37.5667976973588],[127.0962059041593,37.5686982996006],[127.0959913025321,37.5768064956804],[127.10139500175859,37.576204896000704],[127.10465310086549,37.579266500178704],[127.10282050142261,37.5807044004188],[127.1032646011469,37.5841828004858],[127.10131290132699,37.5838343008369],[127.102386900253,37.586588898082304],[127.10504120223091,37.5873407980155],[127.1040970013693,37.5872527010117],[127.10343180203449,37.589736298528095],[127.10433500091551,37.5907213999352],[127.1032352012079,37.596814599775705],[127.1046958003113,37.5979864998868],[127.10545860053891,37.6006997998854],[127.1029093001788,37.6020412002636],[127.10220810036189,37.60294110014],[127.1027762002599,37.6039733003065],[127.100980600239,37.602695300684104],[127.1005703006493,37.603254900124504],[127.10128400035991,37.603701200041],[127.09963810037611,37.6049983001696],[127.0978935001408,37.605001600381],[127.0981371000187,37.6060578998446],[127.0987436004053,37.6059537004124],[127.0979785002252,37.6073947997037],[127.0994713004832,37.6073550989139],[127.1001414001209,37.6081585001358],[127.0978076009687,37.6079293019233],[127.0962023020767,37.6099057004729],[127.097685300506,37.611409899112395],[127.0979527010576,37.6134420988966],[127.1000010999508,37.612916399191505],[127.1003399008777,37.6137255997491],[127.1014054006898,37.6137974003268],[127.1008042997231,37.6146507016057],[127.09998830053911,37.6142038020526],[127.0974739012768,37.6155794008437],[127.0966122002434,37.615299201229206],[127.09503680181881,37.616855399673],[127.0987183012798,37.6185462999698],[127.10001320072561,37.6265456007819],[127.0960153014725,37.6279506022479],[127.09310440087461,37.6273967022227],[127.0909957995574,37.6288658001328],[127.0900295005237,37.6278344011642],[127.09008780046541,37.6288223001763],[127.08665860344351,37.6269147021095],[127.0851392049741,37.6280321011501],[127.0831316069817,37.6315143976678],[127.08319130692199,37.6366278925543],[127.0885636015497,37.640951288230895],[127.09109150288751,37.6412102884091],[127.09156010247919,37.642146600629495],[127.0907605028212,37.645028902531],[127.09290610067559,37.6481523994075],[127.0927993007824,37.6505931969667],[127.09397300670821,37.6527291016331],[127.0920480040142,37.657501698881696],[127.0958514002108,37.6594587969246],[127.10115040085279,37.6585366975393],[127.1069427979052,37.662834497199405],[127.10912449718589,37.659653594510395],[127.1138843986884,37.660447997248],[127.1142259997638,37.657675099232996],[127.1187954976309,37.6585963987252],[127.1196592006932,37.657184299139196],[127.1224505997875,37.6579413993997],[127.12333440014241,37.656478899045204],[127.12667550011571,37.6595665994412],[127.1256486007134,37.660577499859805],[127.1272418005525,37.6613796999536],[127.1262654998927,37.661738900520305],[127.1263351995065,37.6610085006328],[127.125336700505,37.660880900760404],[127.125393100319,37.6619165001243],[127.12429940087169,37.6622146001974],[127.12481770035339,37.6631963992156],[127.1285239004747,37.663584100138],[127.125456801429,37.6668272007558],[127.1272573008991,37.6678051028874],[127.1224579056985,37.6699877007048],[127.1197746101308,37.6750586023064],[127.11779969755881,37.675032004021205],[127.11291200105819,37.6774773022609],[127.1120228997266,37.6790526012705],[127.111219397887,37.6764561009674],[127.1084823982941,37.6724047030709],[127.1068860963499,37.6730668967869],[127.11017489795661,37.6701085996863],[127.1106200975114,37.6686840011109],[127.1092427986751,37.6670184024612],[127.10696159822311,37.6654571028097],[127.1048972989073,37.6678355014387],[127.10603999740489,37.6649005027556],[127.1015341019108,37.661008506647605],[127.097751905693,37.662719504936604],[127.0970200064249,37.6635756040805],[127.1006251053065,37.6709664044837],[127.0992519066797,37.67911869633139],[127.1020563035128,37.680688506307305],[127.0993502997465,37.6799840043007],[127.0944013046955,37.6811220031627],[127.0963485995846,37.6861943027131],[127.09430160141109,37.6853147029125],[127.0916300968401,37.6872781028993],[127.0876939981801,37.6860608025354],[127.0844733014008,37.687059601536596],[127.0850667008074,37.6890143995818],[127.0845383011698,37.6895057012449],[127.07898780310579,37.6905800042408],[127.0783827037109,37.691308803512],[127.0769695051241,37.693423801396996],[127.0778434042502,37.6963979984228],[127.0818850004905,37.696432699830105],[127.0826699015479,37.697639800198495],[127.0820700021478,37.6987735990647],[127.0825517027229,37.6998726003373],[127.0846470017206,37.7023831003013],[127.08244510235271,37.7035317000567],[127.0808035039943,37.7058619977264],[127.0796656058437,37.7113103035288],[127.07686490864441,37.715321199517895],[127.0843997011096,37.718922995916095],[127.0931520005057,37.718629795116605],[127.09799730084491,37.723436894840304],[127.1011407996824,37.7206579989812],[127.1014107021352,37.723643200690596],[127.1001940020928,37.7251067002478],[127.1007820015153,37.7278921994645],[127.10432470005641,37.7280150996678],[127.10487960044641,37.7300366991768],[127.1060360992899,37.7306721985413],[127.1067473998461,37.72953499951],[127.1084560005135,37.729240599146394],[127.10841160032639,37.7303684992998],[127.1090538000618,37.730263900122296],[127.1071584012034,37.731117001626],[127.10653290079921,37.7322565029406],[127.1050607995647,37.7326541005785],[127.1022582006119,37.731087803169494],[127.0993720034981,37.732689401567896],[127.09859300427709,37.734529299727996],[127.1032861045897,37.738942300481696],[127.1025280014048,37.743957601028],[127.1015516015369,37.7445201018935],[127.1014690008747,37.7469190001893],[127.1025121011467,37.7474401995536],[127.10175210063029,37.7470926003964],[127.1020043014724,37.748374599771495],[127.1038049996717,37.7497186984274],[127.1066028998725,37.7491127998765],[127.1058820982157,37.745657300900895],[127.10466959926319,37.7450142999713],[127.1052646988475,37.743308300034904],[127.1056937998091,37.7450731980384],[127.1066451014962,37.7450426995768],[127.1058821010772,37.7456573000647],[127.1077198005439,37.7457066998603],[127.1059171006449,37.748242200129],[127.1066029010094,37.7491127993359],[127.1062355003546,37.7500957002689],[127.10471580116089,37.7499787009294],[127.1042973015794,37.7511065998015],[127.1045677017597,37.7527440991535],[127.1065682010254,37.753736699971896],[127.1045677006759,37.7527441008638],[127.1033281025059,37.7540645001939],[127.1023913970525,37.753850701675304],[127.098906201048,37.7505628016324],[127.096503302372,37.7507592025134],[127.0934557054196,37.756642796629805],[127.09534410409981,37.7636334918925],[127.0993160047815,37.7637612000653],[127.0987328025433,37.768004101749796],[127.09709910042919,37.7674411025793],[127.0948869949514,37.7704656085413],[127.0897404938255,37.7677079037012],[127.0852712982947,37.7665376048715],[127.0788721984785,37.769579504552595],[127.0733654039853,37.7679469061852],[127.0716439001343,37.7732199009669],[127.0714021982367,37.7714089000025],[127.07317599646291,37.767812903598504],[127.0698049980257,37.7647864055115],[127.0657624020683,37.763921006376904],[127.0673745010403,37.7703762012716],[127.0660854023294,37.772337199310606],[127.0675178029508,37.774707398852094],[127.06711180096791,37.775468100847895],[127.0647681010384,37.7741635030697],[127.0637099994792,37.7709071025694],[127.0591195040697,37.7711094023671],[127.059586203603,37.774740998735496],[127.06096690477659,37.780182898355896],[127.0651377015179,37.783383196670904],[127.0685481981074,37.782419397634705],[127.0686879979676,37.780091499962595],[127.07030980065801,37.780459799009904],[127.0707855004977,37.786793601650906],[127.0700052994418,37.7875124010611],[127.0688598988944,37.785396101843],[127.0664464013079,37.78550910173],[127.0635598004761,37.7880994020855],[127.0621616004001,37.7834649054063],[127.0604655978632,37.7831046062814],[127.0567314015974,37.784627204758806],[127.04866100222219,37.7898509991799],[127.05102100435411,37.7925190993397],[127.0502082010625,37.7938256020336],[127.0506835990458,37.7922826013773],[127.0492329004965,37.792381801278104],[127.04965830024871,37.793659600118595],[127.04823260007791,37.793160200505],[127.0476133006972,37.7939739996912],[127.0473180011803,37.7952761984179],[127.0484064037784,37.7970865000463],[127.04664959946639,37.7971250001061],[127.04715539942609,37.7953734014185],[127.0444829987305,37.7957326002857],[127.04566299774261,37.7909732036113],[127.0396677990895,37.785084506337405],[127.0399291994643,37.7843238005097],[127.0379459007421,37.7836765010743],[127.03807260061541,37.7842855004653],[127.0367938997454,37.7843274009074],[127.0378639990798,37.7836285001074],[127.0377331992106,37.7798303039056],[127.0346445022993,37.7812884024475],[127.0356834012604,37.783871999863905],[127.0335299018844,37.7858500999743],[127.0336540048877,37.7870783043971],[127.030615200592,37.7874635073984],[127.0305507998693,37.7858145016316],[127.0266336997268,37.7865549008623],[127.0244403014023,37.786069701795],[127.0235691999154,37.788865300508],[127.0216431998544,37.7869423014155],[127.01972809945889,37.787590700583],[127.0216976945057,37.7849078964003],[127.02105949656541,37.7810429991072],[127.0238365975096,37.7822737980363],[127.0243169970292,37.78177379853631],[127.0229615983846,37.7767040036061],[127.0212989963259,37.776987203163],[127.0191586984662,37.776082704067505],[127.0166327009922,37.7773439028063],[127.01778689790831,37.7760264007499],[127.0148117992954,37.7742947009282],[127.016260098461,37.7738052992516],[127.0168287945027,37.7674685966293],[127.01241109606889,37.7619748005207],[127.01257959590039,37.759329503166],[127.0107869909608,37.755917997562],[127.0121662932555,37.7549820970544],[127.0136586927013,37.7509841975796],[127.00760189610699,37.7461247978847],[127.00990989379899,37.7423981016114],[127.0053124923223,37.7363331002173],[127.0143793024712,37.7368932962394],[127.01720469964579,37.7377764953562],[127.0201962920261,37.7292386987545],[127.0199325922898,37.727061200932],[127.0126805971036,37.7263207013268],[127.0198608928487,37.7267763991783],[127.0151527968693,37.7198649019058],[127.01226819805689,37.721347801033],[127.0131302971948,37.7168779055029],[127.0057028971956,37.7108532033994],[127.01021099247829,37.6972533116842],[127.0072001951425,37.696558600695404],[127.0089980991208,37.6941108962028],[127.0126175955013,37.6923232979904],[127.0090319990869,37.6867203035934],[127.0094858994806,37.6854018008596],[127.00878939920939,37.6855818996925],[127.010574102044,37.6858080973492],[127.0160629965551,37.6889214942358],[127.017757094861,37.688755194402106],[127.0210846915334,37.6860467971105],[127.02192239017509,37.6766169025834],[127.0205739935776,37.6714894033459],[127.0179926961589,37.6660874087479],[127.01069050346109,37.6662115086238],[127.005987192876,37.6654058002378],[127.0080348973877,37.6645938977629],[127.00652649770461,37.661114897839404],[127.0079331962979,37.654995303959005],[127.0043586925182,37.649998500180004],[127.00290149397539,37.645694504484],[127.00397529847339,37.643943701415004],[127.0016615994466,37.6421886004568],[127.003222598431,37.6420056997215],[127.0052995953808,37.6374406026207],[127.0018392988411,37.6366769033844],[127.0004801916654,37.63362729854],[127.0054310977005,37.6273729978571],[127.0040502990813,37.624006801223295],[127.004511298272,37.6219696997132],[127.0038750989082,37.621176500506394],[127.0007921008422,37.6201328020497],[126.9987957996995,37.6179151009301],[126.9979813995172,37.6185631000288],[126.9997589988136,37.6157557001437],[126.9975208964905,37.61382159867],[127.0002390988716,37.610493299573],[126.9992495989773,37.6098449993404],[126.9994207991506,37.607933599861404],[127.0009718989878,37.606364999703196],[127.0024765990917,37.607289498705],[127.0047952974943,37.606466298888904],[127.00448519790781,37.601687502720296],[127.0036126987803,37.600301804105996],[126.99995219825449,37.5987865020462],[126.9977721004346,37.6001464006863],[126.995773399716,37.5997739004303],[126.9929711993757,37.5978668014291],[126.9939785993065,37.596924300268896],[126.9921041989858,37.5968068007432],[126.99207569970851,37.5951961004317],[126.9901401992997,37.5945489000932],[126.99134549941749,37.5935676994608],[126.9904135995017,37.592311299098796],[126.9918469995671,37.5908523006104],[126.9900783996892,37.5904047005976],[126.9906828992613,37.588710200533704],[126.9896208997096,37.588657699991096],[126.9898517990868,37.5878173997874],[126.99031639891649,37.586910496011],[126.9937016986013,37.5871792992153],[126.99520849831481,37.584133599535704],[126.99377459860119,37.5828554998034],[126.99453299859941,37.580427900241396],[126.9930848992123,37.5795865000773],[126.9940413994817,37.5795442991203],[126.9941977990348,37.5774293010274],[126.98965919957871,37.5773813005526],[126.9895864995776,37.5761652008312],[126.9873407995617,37.57430830083],[126.9855774001114,37.5747825002333],[126.98377649985011,37.5739382008708],[126.9829181007085,37.5746101001989],[126.9831020997478,37.5759566003345],[126.9820353998505,37.5756180004323],[126.981368299598,37.5739890008123],[126.9784058991462,37.5727157001506],[126.9785444987354,37.5717035008827],[126.9771735998773,37.571413200603004],[126.97669499962171,37.5720229009861],[126.9785469996043,37.571545199184],[126.9785890995627,37.5703733003015],[126.9755990996029,37.5702744005104],[126.9765626992023,37.5702782991454],[126.9768513996027,37.5685407003453],[126.9746441994458,37.5668984015816],[126.9768032988465,37.5665372992523],[126.9768826996888,37.564935300067205],[126.9751097996168,37.564829400604],[126.9746188998349,37.563694400371006],[126.97359610085769,37.5636176004478],[126.9737657005083,37.564345299962696],[126.9727556998608,37.564833400144195],[126.9723104989816,37.563165299690304],[126.97337059939359,37.5624659001583],[126.9730924000219,37.561953699771294],[126.9757989991216,37.561242200105],[126.9745261993537,37.560677200347904],[126.9737897000158,37.558871100915496],[126.9718176987255,37.5584540010832],[126.9712699980341,37.557190000990495],[126.9717974997909,37.5581994991403],[126.9720999991571,37.5558700007339],[126.9711955996305,37.555062401219494],[126.96920539991001,37.555360500064296],[126.97141049987161,37.554938299397904],[126.97315879929249,37.5522607002546],[126.9706929997203,37.5487076003743],[126.9718415985387,37.5482061993386],[126.9718908984894,37.546830700714104],[126.9702299001504,37.5469085006363],[126.9685299996187,37.545368000845606],[126.9693999990984,37.544820000323604],[126.9682020996082,37.544528400172]]],[[[127.0406793969419,37.895228000058204],[127.0426575991244,37.8952323966556],[127.0448660969159,37.8933930984949],[127.0450262967372,37.8911169981709],[127.0461276957502,37.8894193986988],[127.0416935995854,37.887585300468096],[127.04122269779121,37.886687697067806],[127.042569306349,37.886910094894],[127.0485022004161,37.885018396785696],[127.0508405980777,37.8826987991053],[127.0506269898952,37.879855396952294],[127.05446359895281,37.8797322956797],[127.05724400003089,37.8770326997971],[127.0565761017786,37.8783004990875],[127.05981630211099,37.8813378981351],[127.0616680047815,37.8853514981465],[127.06547020097929,37.887693395804604],[127.06684109960841,37.8863350971629],[127.0674580004507,37.883608099192195],[127.0723844032893,37.886848298421],[127.069303604581,37.891152097764596],[127.0688854072781,37.8953080968858],[127.06961940964709,37.897292903188095],[127.0689462095733,37.9011560015843],[127.0708173077022,37.9051561975841],[127.06713740242289,37.9069914009348],[127.068680701727,37.9085354996573],[127.0660555016388,37.91015890393],[127.0619720018408,37.9087308047139],[127.0607372030756,37.909418304026396],[127.0602856016843,37.9124542014947],[127.0613551006056,37.9141909002087],[127.0606874005125,37.9139858008398],[127.0603676000196,37.9148409011823],[127.0603368988114,37.914260900605605],[127.05890360024469,37.9142747005918],[127.0588997000601,37.9148583010749],[127.0574111005576,37.9148954009369],[127.0576205996021,37.9136546010837],[127.0562759007845,37.9139707007443],[127.0561740008315,37.9153492996302],[127.0568338011349,37.915359300473],[127.05617399934759,37.9153493008896],[127.0562758981624,37.9139707014847],[127.05166799931031,37.9093211022766],[127.0493257003388,37.9107122014563],[127.04855290000961,37.9096856011188],[127.0479103986259,37.909987699704104],[127.0468180997182,37.9068293028625],[127.0417532020799,37.9061234045826],[127.0433101981927,37.9060326997559],[127.0439092978496,37.8983828046297],[127.0406793969419,37.895228000058204]]],[[[127.0474275977197,37.8479794013591],[127.0481241012313,37.8488869982604],[127.0500138993415,37.8476217995256],[127.0496153996665,37.8472192992079],[127.05193679734509,37.8463176001096],[127.0533237959551,37.8425012999733],[127.0548745994908,37.8419692995186],[127.0547422996231,37.8407845007034],[127.0533402959386,37.840895501579105],[127.0543190994446,37.8400293989545],[127.0550092021479,37.8399886008875],[127.05487460228251,37.841969298906804],[127.0571332000239,37.8438046970714],[127.0592249994431,37.8442506965587],[127.0605272981408,37.8432690975403],[127.0622244993696,37.8435989987276],[127.0628860988158,37.8368728995217],[127.0640293973966,37.8351184002353],[127.0636042017058,37.8371291985712],[127.0677836983676,37.837461997108],[127.06859060072429,37.8382066996507],[127.0667212006249,37.8401991993957],[127.06795619966489,37.8407766990481],[127.0701621991527,37.8387921990652],[127.0706646007706,37.839340399578],[127.0697134014216,37.8394520001396],[127.0702154053748,37.842390799300894],[127.0680542043585,37.847116402845394],[127.0657181045019,37.848966402827],[127.0685756033067,37.8529080005582],[127.0657126019734,37.8528081012619],[127.0631238004359,37.8578671026225],[127.0626186995019,37.8552478030153],[127.060531698369,37.8562734019187],[127.05533550100469,37.85573490212],[127.0550551992519,37.8564077005834],[127.05526869865,37.8554871998575],[127.0531170960261,37.8536121022565],[127.0541940964237,37.8509885985804],[127.0524375981802,37.8480937014753],[127.0500139006039,37.8476218019472],[127.0481241024937,37.848887000682],[127.04855790058531,37.850402605466],[127.0474275977197,37.8479794013591]]],[[[127.1846100996946,37.7091577001941],[127.1863128988725,37.7070228994686],[127.1879882004184,37.7074091987755],[127.1900889987206,37.7048841004689],[127.18937889715909,37.7021236017477],[127.1865209991189,37.7010760002779],[127.1875770993229,37.701608599101704],[127.1878843996248,37.699314898833194],[127.190447099672,37.701678998995895],[127.191868398751,37.699942200311206],[127.190393699262,37.699191600098096],[127.1913216993004,37.6992744996331],[127.1917620994098,37.6982062989239],[127.1934667001553,37.6997911982519],[127.1938207999725,37.6981343994171],[127.1972967017792,37.6988770996699],[127.1969349006912,37.7013943995566],[127.19813980094301,37.7005851996322],[127.1977394015699,37.701185800504895],[127.19922410075199,37.7028797002217],[127.19828640171801,37.7047580994138],[127.19957890033311,37.7069203000662],[127.1989664004515,37.706716300809695],[127.1978474015705,37.7083436991823],[127.19861010010119,37.7099351000012],[127.1977592990502,37.7095475013299],[127.19563619968079,37.7107207006948],[127.1962141980116,37.709808200131],[127.1942678999579,37.7068011031381],[127.1915838987984,37.7086408039228],[127.1900689994455,37.7078068028407],[127.1885019010126,37.709434901212596],[127.1846100996946,37.7091577001941]]],[[[127.1961093995144,37.720989700506394],[127.1968177997108,37.71857579940951],[127.20070469932661,37.7171865992171],[127.2010357997359,37.715869999250906],[127.2026239981477,37.7159181992027],[127.2039764009894,37.714823496249004],[127.2065925001585,37.7163387991514],[127.2073551001744,37.7159541000186],[127.206173500595,37.717104199726805],[127.2089718015841,37.721280399577594],[127.20683070061939,37.7235675996829],[127.2079052002296,37.723661300259806],[127.20615400050019,37.7237000001704],[127.2078255001299,37.724983700334604],[127.2066249006941,37.724673500924105],[127.2060442999063,37.7255169007714],[127.20427719972311,37.723981501530304],[127.2035083008675,37.7260942007665],[127.2028946002321,37.7241539016961],[127.2008262997952,37.7234326017939],[127.2004653996956,37.7219352012292],[127.197638199833,37.7223735019364],[127.1961093995144,37.720989700506394]]],[[[127.04571709911271,37.819367199784104],[127.0464754996939,37.818483499947],[127.0458559997096,37.8170915999365],[127.0480527997857,37.817065699607],[127.0484953993431,37.8163378003349],[127.0474488988757,37.815552600244196],[127.0485973002577,37.8157383975838],[127.04922399973239,37.8134122987392],[127.05197739749819,37.8131722989601],[127.05485139847481,37.8117173984012],[127.0533475994544,37.8098879994772],[127.0551981997945,37.809306599499],[127.0583948000352,37.8113993988173],[127.0599275003694,37.811169699945104],[127.0585399007571,37.8135093995893],[127.0594400024408,37.8136112978832],[127.0602153016655,37.8163280951664],[127.0663832009055,37.8171923986037],[127.0657169010363,37.819106399756],[127.0664984023442,37.8214344016284],[127.06531649864169,37.8217226021693],[127.06402229780211,37.8209577031953],[127.0613891004353,37.8238652002878],[127.0608789975604,37.825899503113696],[127.0588936971462,37.8229965016175],[127.05773929830059,37.822485802128206],[127.0485618989792,37.822157800428],[127.046875199661,37.819479900255],[127.04571709911271,37.819367199784104]]],[[[127.0445758956846,37.9273241016694],[127.0459479983858,37.927713898360004],[127.04933910078189,37.926616295459496],[127.052172993032,37.9198164010237],[127.0562287987306,37.9205534970382],[127.0560999989224,37.9178199992496],[127.057120999516,37.9166653997808],[127.0584006012837,37.9181689005005],[127.0569433009968,37.9179845022837],[127.0565978013423,37.9199713002969],[127.0568217009015,37.9276668005029],[127.0556273000425,37.9272888006025],[127.05500999940409,37.927970000494405],[127.054138100276,37.9270602014042],[127.0538842005299,37.9285669998974],[127.0539036005105,37.929658698805696],[127.05655679880789,37.930985797424604],[127.0578336008477,37.9299895994247],[127.0567829016951,37.9324559999239],[127.05371000059719,37.932210001368794],[127.0532326014383,37.9349829989605],[127.0539890006819,37.9357419982015],[127.0556788006479,37.93470679943],[127.0539890013777,37.9357420007214],[127.0552554004302,37.9370446018489],[127.0530052014738,37.937725803355704],[127.05247709875451,37.9364913017726],[127.05021049746111,37.9372869989315],[127.0491399985316,37.9345200016985],[127.0475882989526,37.9329067021691],[127.0458286997269,37.9327097000579],[127.0475494979185,37.929760400973],[127.0447102992192,37.9301439020674],[127.0445758956846,37.9273241016694]]],[[[127.03442369917451,37.561982499848],[127.0351359997422,37.561146899969394],[127.0347770992339,37.5602708994192],[127.0350011999913,37.560848999874295],[127.03711729980641,37.5601062994233],[127.0379668996591,37.5609283993808],[127.0386921001041,37.558458899973395],[127.0383400005572,37.5618999998271],[127.0375145008619,37.5629810006943],[127.03442369917451,37.561982499848]]],[[[127.0265322993747,37.5559423005045],[127.0279400001954,37.555685799734],[127.0282356000351,37.5567632992299],[127.0293011005316,37.555203799157304],[127.030027000173,37.5566008994109],[127.0310048993281,37.555512398417996],[127.031822100919,37.5558056987525],[127.0318568008294,37.5580941985191],[127.03259320009299,37.5582244983888],[127.0330855008707,37.556588700995796],[127.03247180019109,37.5586514001694],[127.0289899002735,37.5597821003486],[127.0304229989609,37.5580442003917],[127.0291471000679,37.5571930006138],[127.0270222996887,37.5580681004005],[127.02668899947861,37.556801299742695],[127.0274234990706,37.5568011995531],[127.0265322993747,37.5559423005045]]],[[[127.04780369884111,37.5183087991077],[127.0502692996927,37.5185787977659],[127.0524632998482,37.5157835992907],[127.0534320993838,37.5167837988813],[127.05403890050249,37.516261399377996],[127.0548153008374,37.5181896993597],[127.0557771004058,37.518176299631904],[127.0573352007672,37.5201554002681],[127.0552280005009,37.5212024009259],[127.05429429975399,37.5210333010649],[127.0546229993762,37.5203750006229],[127.0524196987726,37.5199951015976],[127.05100380018851,37.5206802009125],[127.0501381003777,37.5222959003393],[127.04960279957331,37.5201393008135],[127.0485744994527,37.519419400510095],[127.04891389943461,37.5187630004574],[127.04780369884111,37.5183087991077]]],[[[127.0812096995395,37.5370041001151],[127.0823739991967,37.5367257996491],[127.082071599616,37.535627899344],[127.084439000114,37.5344908997044],[127.08428940053581,37.536478999424],[127.0891982004413,37.5377914000922],[127.0877457004428,37.5375922009515],[127.08573700069559,37.539323700424994],[127.0841880999571,37.53958510038029],[127.0828388996727,37.5367466014293],[127.0812096995395,37.5370041001151]]],[[[127.100992599609,37.5462491997677],[127.1015933996765,37.5449707996332],[127.103306599248,37.545467199102895],[127.1036470999316,37.543598599611805],[127.1038398002395,37.5448818997634],[127.1049021998986,37.5452471993327],[127.1056901012743,37.5446107997125],[127.1059834007666,37.5464257002043],[127.10579370000481,37.54699110077],[127.10300549978899,37.5460562009144],[127.1025032001727,37.5469287009126],[127.1019115994374,37.5457034006686],[127.100992599609,37.5462491997677]]],[[[127.0140805996555,37.5471437994528],[127.0150168992,37.5471626995794],[127.015682500261,37.545368099033794],[127.0165569005089,37.545582099609796],[127.0171051014336,37.5473020994874],[127.0187768005389,37.547187099682105],[127.0197698007758,37.548314900294],[127.0183266004899,37.5494319006153],[127.01677960039841,37.5485903010864],[127.01489670051659,37.550066300534795],[127.0154638981101,37.5482302004691],[127.0140805996555,37.5471437994528]]],[[[127.1054533986599,37.6054873992595],[127.1061314996125,37.6040183992854],[127.10859660085009,37.605387100486205],[127.1084783008181,37.6074291008922],[127.1066819003092,37.608062999957],[127.10612019987781,37.6091977001077],[127.1054533986599,37.6054873992595]]],[[[127.0382481989379,37.516194299848],[127.0420641003007,37.5151001992214],[127.0439564013377,37.516944800245696],[127.043848000605,37.5177751001127],[127.0421248004844,37.518993900305695],[127.0401044997987,37.5192048005476],[127.0390447992592,37.5164383999498],[127.0382481989379,37.516194299848]]],[[[126.9705200984764,37.532419099504196],[126.9726140998993,37.532564199188705],[126.9731579001626,37.5348804999592],[126.9737159006438,37.5341319994533],[126.9749209006476,37.5350480005695],[126.97284259961901,37.53601540142029],[126.97097259959439,37.5349190014392],[126.9705200984764,37.532419099504196]]],[[[127.0925042992138,37.5344291000556],[127.09429249953129,37.5350051993954],[127.09488679984369,37.5339274989446],[127.0952393007373,37.5347751001651],[127.09425450051991,37.5355759999393],[127.094864901201,37.5361201004272],[127.0932729999017,37.5369373003066],[127.0936792991822,37.5358522009154],[127.0925042992138,37.5344291000556]]],[[[127.0151428989754,37.541196900661404],[127.0163176997783,37.539965399996],[127.0178050002414,37.5406853994885],[127.0184820002792,37.5401175991631],[127.0187300001191,37.5406600005915],[127.0178939009552,37.5410401002114],[127.0193759012462,37.5417196002836],[127.01748760132739,37.541830600599],[127.0165154995714,37.5438058004257],[127.0151428989754,37.541196900661404]]],[[[127.10535059981659,37.7259764003312],[127.1074483004159,37.7276071998143],[127.1067599998335,37.7286279004171],[127.1056283996934,37.7278065001991],[127.1050419999113,37.728233199959796],[127.1062640993927,37.7268275000714],[127.10535059981659,37.7259764003312]]],[[[126.96307419968609,37.5591368999878],[126.9652514000197,37.5589797996248],[126.9648559008705,37.5593926000097],[126.9659068003343,37.5596545988883],[126.9658611003642,37.5605761002651],[126.96387419992071,37.5610864001905],[126.9643751990731,37.560180600543],[126.96307419968609,37.5591368999878]]],[[[127.054936199359,37.5442632993544],[127.0562504990238,37.543880199440395],[127.0558446003502,37.5428463994094],[127.0575216008583,37.543470798899904],[127.0580088012659,37.544638899609204],[127.05647719980351,37.5443792010467],[127.0552393010414,37.5448967005292],[127.0554849990814,37.5453933007976],[127.054936199359,37.5442632993544]]],[[[126.9725743995122,37.5657145994954],[126.973471600214,37.5651449993483],[126.97344550043199,37.5654413004448],[126.9725743995122,37.5657145994954]]],[[[127.1232978999017,37.5380985000281],[127.1243928006803,37.5382721010186],[127.12348760010461,37.5388173003703],[127.1232978999017,37.5380985000281]]],[[[127.03048509927841,37.5139884005044],[127.03222129935371,37.5129618991157],[127.0332386004426,37.514648300321],[127.0324377005653,37.513707801035],[127.03048509927841,37.5139884005044]]],[[[126.9675756994095,37.5287327997555],[126.9682546006673,37.5294450002976],[126.9673399999806,37.5301500000907],[126.9680355993189,37.529461199927],[126.9675756994095,37.5287327997555]]],[[[127.0065574994531,37.547752699952],[127.0068812002357,37.5476766997176],[127.00703140027261,37.5480096001345],[127.0065574994531,37.547752699952]]],[[[127.1071867998091,37.603790800179596],[127.1074514000761,37.6040012997445],[127.10716360002871,37.6041392001983],[127.1071867998091,37.603790800179596]]],[[[127.03871889965751,37.5629321007432],[127.0386751998536,37.562650899340504],[127.039070300393,37.5631400005462],[127.03871889965751,37.5629321007432]]],[[[126.96884249978879,37.530318800420105],[126.9690883002306,37.5299808996768],[126.9694191004308,37.530327199954705],[126.96884249978879,37.530318800420105]]],[[[127.0451333989657,37.5538971995459],[127.04556080013161,37.553894298071505],[127.04523060039999,37.553987900555704],[127.0451333989657,37.5538971995459]]],[[[127.1033321994333,37.5212450997481],[127.1034487999806,37.5210322994966],[127.1034415003004,37.521126500102],[127.1033321994333,37.5212450997481]]],[[[127.0437531997799,37.553929099897],[127.0437701001803,37.553846399871595],[127.0437532000156,37.553929100888],[127.0437531997799,37.553929099897]]],[[[127.01659959963841,37.5446184999903],[127.0168166002013,37.544680899275605],[127.0168166001629,37.544680900111906],[127.01659959963841,37.5446184999903]]],[[[127.0478903999719,37.7387261000094],[127.0478904000581,37.7387260998865],[127.04791769996,37.7388025000786],[127.0478903999719,37.7387261000094]]],[[[126.9854889989741,37.576516400800706],[126.9854889997805,37.5765163987868],[126.9854890009797,37.5765163993563],[126.9854889989741,37.576516400800706]]],[[[127.05526979849391,37.8388165001674],[127.055493003737,37.8388005992082],[127.0554930016641,37.8388006020755],[127.05526979849391,37.8388165001674]]],[[[127.1437679997742,37.6035949001028],[127.14376799946959,37.6035948989506],[127.1437680006782,37.603594899364595],[127.1437679997742,37.6035949001028]]],[[[127.02143509977991,37.5110811999273],[127.0214351000328,37.5110811994735],[127.02143510037871,37.5110812000527],[127.02143509977991,37.5110811999273]]],[[[127.102981199114,37.6128036013206],[127.1029812003574,37.6128035997032],[127.1029812005199,37.6128036006392],[127.102981199114,37.6128036013206]]],[[[127.1097179996187,37.6071489996367],[127.1097179999244,37.607148999352496],[127.1097180004643,37.6071489998208],[127.1097179996187,37.6071489996367]]],[[[127.026481899606,37.5291542001401],[127.02648189984899,37.5291541994987],[127.02648190070519,37.5291542004641],[127.026481899606,37.5291542001401]]],[[[127.0441930997323,37.5539490999211],[127.044193099906,37.553949099494],[127.0441931000797,37.5539491000433],[127.0441930997323,37.5539490999211]]],[[[127.0466209997108,37.5474159000807],[127.0466210007792,37.5474158992146],[127.0466210003212,37.5474159006238],[127.0466209997108,37.5474159000807]]],[[[127.1156894997506,37.6647879998471],[127.1156895005419,37.664787998982405],[127.11568950009931,37.664788000121],[127.1156894997506,37.6647879998471]]],[[[126.95618309982261,37.5573367000111],[126.9561830998839,37.5573366997733],[126.95618310034101,37.5573367000022],[126.95618309982261,37.5573367000111]]],[[[126.9793782991807,37.5742778000286],[126.9793782991187,37.5742777993487],[126.979378300252,37.5742777996455],[126.9793782991807,37.5742778000286]]],[[[127.0076434999026,37.550779299370404],[127.0076435008126,37.5507792998158],[127.0076434999967,37.5507793003734],[127.0076434999026,37.550779299370404]]],[[[127.1072797998863,37.604383200000704],[127.107279800193,37.604383199759],[127.1072798000366,37.6043832000501],[127.1072797998863,37.604383200000704]]],[[[127.0511750998959,37.5219364003488],[127.05117509991409,37.521936399810905],[127.0511751000681,37.5219364000227],[127.0511750998959,37.5219364003488]]],[[[127.06231239991159,37.6560754999829],[127.06231240002569,37.6560755000033],[127.0623123999816,37.6560755000565],[127.06231239991159,37.6560754999829]]],[[[127.0768072999422,37.574975700098406],[127.076807299911,37.574975699594404],[127.07680730020469,37.5749757000164],[127.0768072999422,37.574975700098406]]],[[[127.0956739990565,37.533455499416604],[127.0956740002307,37.533455499949305],[127.09567399998521,37.5334555005049],[127.0956739990565,37.533455499416604]]],[[[127.1264478997559,37.6630786998768],[127.126447900008,37.663078699724],[127.1264479000576,37.6630787001529],[127.1264478997559,37.6630786998768]]],[[[127.06139199941529,37.8354557994755],[127.061392000034,37.8354557998979],[127.0613920003099,37.835455800938796],[127.06139199941529,37.8354557994755]]],[[[127.1042947999596,37.7276477993716],[127.10429480008631,37.7276478000351],[127.1042947999756,37.7276478000402],[127.1042947999596,37.7276477993716]]]]}}]}