{"type":"FeatureCollection","features":[{"type":"Feature","properties":{"interval":15,"stationId":"4937987051"},"geometry":{"type":"MultiPolygon","coordinates":[[[[127.0450739987988,37.905282298655905],[127.04626809760471,37.9043706995675],[127.0459665972383,37.9022859012828],[127.0475942990805,37.8986422985874],[127.0489333991671,37.8971380991642],[127.05041989847099,37.897104598994495],[127.0503773983375,37.8960041985279],[127.0523449996635,37.8955584996681],[127.0550858969494,37.8933342008595],[127.0522509993874,37.8934131999635],[127.0521572981598,37.891274599347],[127.05289190052531,37.8906677991379],[127.0541892993773,37.8913777996751],[127.0547537999245,37.8886544989936],[127.0567176004205,37.8886152989513],[127.056810702107,37.8898791999457],[127.0602474003852,37.8899633998038],[127.05975820091051,37.890115400134796],[127.060789301584,37.8924004999117],[127.0594873014392,37.894271900679996],[127.0595900013365,37.8958799990719],[127.0613936002831,37.8974183994898],[127.0650602015334,37.8980099982924],[127.0663812010281,37.9016339004746],[127.0630899034082,37.903733702458396],[127.0661942005102,37.9063992000705],[127.06513540081521,37.9073196008478],[127.065598200345,37.9083573009654],[127.0619720040835,37.9087308014281],[127.0607372030756,37.909418304026396],[127.0593144009991,37.9124301006846],[127.05943609955,37.9101958022275],[127.05806290092319,37.911012501410795],[127.0570897999291,37.9130159008553],[127.0552416000795,37.9121274009058],[127.0554072991386,37.9110364006959],[127.0543850999547,37.9095539019682],[127.0526506986249,37.910556201274304],[127.0507248988339,37.9087343009317],[127.0491252994276,37.908820000865596],[127.0480403987777,37.9058244010049],[127.0450739987988,37.905282298655905]]],[[[127.0605272966059,37.8432691005356],[127.06052729870271,37.8432690947397],[127.0605273016972,37.8432691003299],[127.0605272966059,37.8432691005356]]]]}},{"type":"Feature","properties":{"interval":30,"stationId":"4937987051"},"geometry":{"type":"MultiPolygon","coordinates":[[[[127.0324426955808,37.9049986975791],[127.0376212955918,37.8952861986645],[127.0409265964047,37.8908020992291],[127.0417819998978,37.891887998761405],[127.0448300968497,37.891855298794106],[127.0461276956358,37.8894193998685],[127.04122269779121,37.886687697067806],[127.042569306349,37.886910094894],[127.0485022004161,37.885018396785696],[127.0508405980777,37.8826987991053],[127.0518927995766,37.879874794766906],[127.05446359895281,37.8797322956797],[127.0565760968403,37.8783004971115],[127.05981630211099,37.8813378981351],[127.0616680002593,37.8853514941215],[127.06547020097929,37.887693395804604],[127.06684109960841,37.8863350971629],[127.0674580004507,37.883608099192195],[127.0723844032893,37.886848298421],[127.069303604581,37.891152097764596],[127.0688854072781,37.8953080968858],[127.0789410025915,37.8936145008178],[127.0764212028453,37.8940541064269],[127.0696194089001,37.897292905447394],[127.0689462095733,37.9011560015843],[127.0699802085393,37.9037463989939],[127.0732881052314,37.9094366933036],[127.0752794039246,37.9108933068068],[127.0746384045656,37.911511106188996],[127.0735670000521,37.91029990496],[127.0676943031889,37.914088903111406],[127.0660767024977,37.9184783032119],[127.06330459937,37.9176340012606],[127.0601162011226,37.918946401751406],[127.0569433009968,37.9179845022837],[127.05663510182309,37.9236964019873],[127.0556947009324,37.9245853996212],[127.0566606017976,37.9246949009888],[127.0550935004545,37.924589500927006],[127.0539035998064,37.9296587025513],[127.0523199985239,37.9294800023975],[127.0521927985781,37.927505599959204],[127.0504335989055,37.925842300774],[127.0540848987335,37.924372899661],[127.0559912969287,37.921946001524],[127.0521362007838,37.9202156032544],[127.0510332996955,37.9227683009884],[127.05243039277461,37.918321102519],[127.0520436931613,37.9165485042916],[127.0456301995748,37.914510806329304],[127.0432054958112,37.9155670058958],[127.04262939347089,37.9148547010044],[127.0432966928036,37.9130634027957],[127.03534349809979,37.9080726035264],[127.0341826992606,37.9082855033135],[127.03296379750691,37.910120199743],[127.03108299858229,37.90880279636259],[127.0324426955808,37.9049986975791]]],[[[127.0460141997009,37.819273899402496],[127.0464754998924,37.8184834990404],[127.0482473988826,37.8184561990736],[127.04804209908791,37.8174805000493],[127.0467238995416,37.817160799988706],[127.0480527997857,37.817065699607],[127.04792809952079,37.8154481001045],[127.0485973002577,37.8157383975838],[127.04922399973239,37.8134122987392],[127.0499616020158,37.8134479997243],[127.0501023018751,37.8163918967804],[127.0516139003635,37.8170105961617],[127.0528324991449,37.8132697999025],[127.0524438984697,37.8125235970447],[127.05485139847481,37.8117173984012],[127.0533475994544,37.8098879994772],[127.05538639981181,37.8114881978184],[127.0566180016945,37.8100409970316],[127.0583948011735,37.8113993988904],[127.0585399007571,37.8135093995893],[127.0594400024408,37.8136112978832],[127.0602153047759,37.8163281008913],[127.0657178006654,37.8175431996492],[127.0658100025326,37.821763502458204],[127.06402229780211,37.8209577031953],[127.0613891004353,37.8238652002878],[127.0608789975604,37.825899503113696],[127.0588936971462,37.8229965016175],[127.0524465980119,37.821891702075504],[127.04915289965909,37.8222251005256],[127.0460141997009,37.819273899402496]]],[[[127.0395239990467,37.759134500811705],[127.0410154989779,37.7582740002371],[127.0401086005963,37.757980098390995],[127.0429061998016,37.758085199619096],[127.04310859992239,37.7560149998479],[127.0429692010472,37.7567148990901],[127.0465183034044,37.758667799923096],[127.04525539907131,37.759089000672404],[127.04400630011581,37.7582785014472],[127.0425955001966,37.759449800042496],[127.0420000002531,37.7604117999347],[127.042978101144,37.7606388990868],[127.043637200022,37.7624299002537],[127.0426835990057,37.761251000586704],[127.0407996993345,37.7617638],[127.0406698991963,37.7594388007034],[127.0395239990467,37.759134500811705]]],[[[127.0542923996384,37.8464752996047],[127.0570034001298,37.846575797228894],[127.0605272981408,37.8432690975403],[127.0622244993696,37.8435989987276],[127.0626421001883,37.8424027999286],[127.0628540004024,37.8436301995294],[127.064217500715,37.843702999630395],[127.0645172010774,37.8468907978371],[127.0659852012573,37.8469746981234],[127.06595150210269,37.847893899222505],[127.0648591001549,37.8489201003566],[127.06511159926059,37.847904900514806],[127.0641010002218,37.84779120061091],[127.06370780035981,37.8492374997031],[127.0643736011384,37.8493410031095],[127.0622156991363,37.8492307025672],[127.06092309932049,37.8515066003377],[127.0611669996613,37.8466646003387],[127.06028649978231,37.8461225006659],[127.0597546992696,37.8467610003098],[127.05953079875671,37.8455384012571],[127.0576769006106,37.846398700396804],[127.05683299799419,37.8491589019682],[127.0550591993202,37.8465037005696],[127.0542923996384,37.8464752996047]]],[[[127.0418030997794,37.7468971999402],[127.0433398998816,37.7458475999384],[127.04331280004969,37.7464734995669],[127.0441358992266,37.746486399554],[127.0440736994749,37.745447599802695],[127.0454649000525,37.7447416995383],[127.0480219009055,37.747047500099],[127.0467370000719,37.747002100631704],[127.0458592998343,37.7486015006143],[127.0432101999603,37.748281000705],[127.0428039996638,37.747042300321],[127.0418030997794,37.7468971999402]]],[[[127.04152519922779,37.7726459998263],[127.0446262003869,37.768836299553996],[127.0456173007781,37.7700276998693],[127.0447921014691,37.7706423002048],[127.0455751006861,37.7729369979101],[127.0482797006334,37.7733175990932],[127.0486221008865,37.774283699445995],[127.04748960027341,37.7750943008872],[127.0455985010924,37.7746566004871],[127.0452168004732,37.776121201322],[127.0431805998424,37.7755942000225],[127.04152519922779,37.7726459998263]]],[[[127.06123999757389,37.9490000017879],[127.0613809997233,37.9469965996341],[127.0617519009141,37.9479535000596],[127.06123999757389,37.9490000017879]]],[[[127.04745179956001,37.738607800103395],[127.04745180007471,37.7386077998259],[127.04745180026471,37.738607800115894],[127.04745179956001,37.738607800103395]]],[[[127.0442258997608,37.7493317005459],[127.0442259000726,37.7493316995046],[127.0442259006692,37.749331700378896],[127.0442258997608,37.7493317005459]]],[[[127.04341359852299,37.7630148995486],[127.0434136002456,37.763014899668704],[127.0434136001401,37.7630149006675],[127.04341359852299,37.7630148995486]]],[[[127.04622569983229,37.8172756999635],[127.0462364000291,37.817238699910796],[127.0462257002076,37.817275700205506],[127.04622569983229,37.8172756999635]]],[[[127.04675329985551,37.738548599871],[127.04675330027311,37.738548600063304],[127.0467532998576,37.738548600163],[127.04675329985551,37.738548599871]]],[[[127.0619691992696,37.9201333005645],[127.06196920172839,37.9201332997479],[127.0619692011247,37.9201333019383],[127.0619691992696,37.9201333005645]]],[[[127.04364429952619,37.7489954999905],[127.04364429986809,37.7489954992924],[127.0436443004993,37.7489954998011],[127.04364429952619,37.7489954999905]]]]}},{"type":"Feature","properties":{"interval":60,"stationId":"4937987051"},"geometry":{"type":"MultiPolygon","coordinates":[[[[127.00317719939629,37.9100081999997],[127.0057519982811,37.910033398357704],[127.00580209842829,37.9069593985873],[127.00997289808859,37.9042458953017],[127.0115573994376,37.8994631005246],[127.0095053989481,37.8939699999675],[127.0137648990117,37.8946351946969],[127.0170231957534,37.8942139951181],[127.0186329948,37.889100294944],[127.01866649476649,37.882488001556304],[127.0169144965185,37.8815395025048],[127.0174026982941,37.8798412965071],[127.0183339034086,37.8819290994998],[127.02140450033801,37.882262599166296],[127.0238608978816,37.881061100367795],[127.02318589860481,37.878362100363695],[127.0239388973828,37.876177799951],[127.0210599980727,37.873816500257995],[127.022057399351,37.873085598822804],[127.0221001007658,37.8713949977343],[127.0245833016988,37.8703690986345],[127.0239032021483,37.872953498396],[127.02999649605499,37.8741610971884],[127.03339929964059,37.8729034957739],[127.0345097985301,37.8711715975058],[127.0360279022477,37.8711631966421],[127.0346385058837,37.873214703593],[127.03581600470619,37.8774617993459],[127.0394180011042,37.8780508987568],[127.0391870013352,37.8793699974377],[127.0489182916039,37.881804095003595],[127.0506269898952,37.879855396952294],[127.0514693890528,37.874641702165995],[127.04848889203329,37.8697949070128],[127.0433667949088,37.8647650030403],[127.0426368992603,37.862248701305205],[127.0413125939144,37.8626223018643],[127.0419403989076,37.860568398570095],[127.0458931003899,37.8599334967885],[127.0476692986137,37.856767599954395],[127.0491431971398,37.8558686008534],[127.0447461015369,37.8516789050431],[127.0433653029177,37.8536186031034],[127.039449801457,37.854453903705306],[127.0391179017889,37.8570498011094],[127.040232000616,37.8582533008852],[127.0386133995909,37.857422099899004],[127.03945539782069,37.852225102470996],[127.0345617003949,37.8532881008397],[127.03375919944281,37.8543182017522],[127.03299320020881,37.8534409026295],[127.03166309935911,37.8570886006382],[127.0307070987356,37.8568102960626],[127.0316552977874,37.856457196415704],[127.03299319644951,37.853440899432],[127.0317155977271,37.852251000621905],[127.02938069812491,37.8519044006496],[127.0292377999766,37.850211099963204],[127.0293807005557,37.8519043983177],[127.0346058953305,37.849679200542894],[127.03487299506341,37.8476188026033],[127.0340671942664,37.845215601696204],[127.03585819955781,37.8470726989001],[127.0374920986459,37.843370702597504],[127.03502659971869,37.84290450052681],[127.0358750993197,37.8423204995799],[127.0354070987361,37.8416856969799],[127.0380648002795,37.8435112981592],[127.0394162996281,37.8432418986253],[127.0395605010647,37.841354794472295],[127.0446752959499,37.8379622978648],[127.0464239946035,37.832615000526],[127.04042460060289,37.8283149048261],[127.0330420961622,37.8286881041564],[127.0295322996309,37.8253014000149],[127.0296679994952,37.8194902058261],[127.0260962967976,37.8166024069372],[127.0249768947287,37.8132509993167],[127.0266884018374,37.8151349978407],[127.0323953968182,37.8166915961654],[127.034124595089,37.8089346039224],[127.03029889891471,37.809444003413],[127.0279065962459,37.8050059960502],[127.0299470961151,37.8048688948042],[127.0349887962184,37.8006141942477],[127.0370974991457,37.8019822969667],[127.0403017003676,37.7988707979337],[127.0461314983967,37.7985318993598],[127.04715539942609,37.7953734014185],[127.04340159905179,37.7954048998908],[127.0427374960198,37.788328903093],[127.0396677990895,37.785084506337405],[127.0399291994643,37.7843238005097],[127.0379459007421,37.7836765010743],[127.03807260061541,37.7842855004653],[127.03679389915541,37.784327399901],[127.0378639990798,37.7836285001074],[127.0377331992106,37.7798303039056],[127.0346445022993,37.7812884024475],[127.0356834012604,37.783871999863905],[127.0335299018844,37.7858500999743],[127.03365400070639,37.7870783069435],[127.03083430046179,37.785431900513096],[127.02884570157441,37.786456800989306],[127.0244403014023,37.786069701795],[127.0224909002129,37.787690400514705],[127.021643199033,37.7869423005028],[127.0216976939509,37.7849078971491],[127.0243169970292,37.78177379853631],[127.0229615983846,37.7767040036061],[127.0212989963259,37.776987203163],[127.0203230992361,37.7743398014507],[127.0175073981878,37.7765707002056],[127.01778689790831,37.7760264007499],[127.0156396984675,37.7743368008861],[127.0177868985358,37.7760263980311],[127.01839099793169,37.7735737004838],[127.016260098461,37.7738052992516],[127.0166257975467,37.7701830030333],[127.018437099368,37.770220797859395],[127.0202396979535,37.7674100998553],[127.0185732938378,37.7637280982467],[127.0187160958295,37.7582847989927],[127.01549589904971,37.7566981005794],[127.0163952990572,37.7560120002313],[127.0151811002714,37.755161301082],[127.0136169985493,37.755183799798296],[127.0151716994062,37.7544301968721],[127.0168306990479,37.7551619980883],[127.01786759792961,37.7541118983932],[127.0203865009447,37.753464198731706],[127.02276380170301,37.757200497869604],[127.0250531996939,37.7567700984094],[127.02737279993559,37.751261099618404],[127.02588730113929,37.7564232988192],[127.02981429914699,37.755372399284],[127.0296085995694,37.7543376996239],[127.03298409951789,37.7513261000285],[127.0328166997781,37.7499273010379],[127.0310778998048,37.748141601096194],[127.0291421991838,37.748977700883295],[127.02861469971131,37.7484441014169],[127.02799569931271,37.7497768011027],[127.02860839978379,37.7471032002868],[127.0270192005126,37.7461502009279],[127.0250460006955,37.7461624021822],[127.0241932972962,37.7474260028856],[127.0193517973045,37.7428964005582],[127.01727219934939,37.7423323980421],[127.0206904985028,37.741746998411294],[127.0226390982101,37.740148399678105],[127.0253164952197,37.737301301962496],[127.0256367969347,37.7350911972435],[127.0272288953426,37.7334701988645],[127.02534469814141,37.726703198562],[127.02819319777241,37.7249868996352],[127.0256862965317,37.721064502417],[127.0281111951456,37.719753098312495],[127.0290521987574,37.7094888004785],[127.031579295769,37.7073931000363],[127.03044349700541,37.703661600165],[127.0328224962764,37.7030221960461],[127.03856329086581,37.6955708029778],[127.0310832983495,37.693342402637995],[127.0303199936146,37.6937451980611],[127.03108329735271,37.6933423945209],[127.0325231959128,37.688107699755605],[127.02923729926921,37.6852392994402],[127.0303386992291,37.683657098520996],[127.0305899001647,37.6851401985273],[127.03531459544001,37.6861400975274],[127.0362548944997,37.6796971039704],[127.0311685988393,37.6785101008213],[127.0318647979714,37.6765481005142],[127.03808480083269,37.6787093992467],[127.0398485990689,37.678393399562694],[127.0429519982023,37.6759680993426],[127.0392193966311,37.672083304783996],[127.03610469707989,37.670573504247606],[127.0325028996381,37.673951900361196],[127.0361046965662,37.6705735026217],[127.0323290993066,37.671087302616705],[127.0298593991932,37.669845500235304],[127.03035129945391,37.669077600496],[127.0293636994385,37.6690825001442],[127.0305320980278,37.6675503004449],[127.03079689945889,37.6641362003906],[127.0299918991339,37.6631653002257],[127.030524499565,37.6635954994036],[127.0307509993385,37.662718000281096],[127.02967649877449,37.6624577000486],[127.03500769973829,37.659358999793504],[127.03511949957739,37.658147299977905],[127.03624529983361,37.6573621000168],[127.035249599877,37.6571363996916],[127.0362449988816,37.6571832996447],[127.0367381983884,37.656138600689395],[127.0337463998267,37.6527504009261],[127.03017489983621,37.6522322006525],[127.03026119985199,37.651532600697806],[127.02744059977671,37.6489981000343],[127.0284384998941,37.6468641998677],[127.03177889963871,37.646947199386396],[127.03222149919611,37.646211600122],[127.03120209946731,37.644500300217494],[127.03025069970509,37.6444637001386],[127.0306801000534,37.6426191999189],[127.0310466999949,37.643173799905696],[127.0319434006781,37.642687899959896],[127.0332190009635,37.6442729988145],[127.0347260994564,37.643633499454],[127.0345828996296,37.6429503996051],[127.0363240002541,37.642956599565],[127.03836990004511,37.6442597997503],[127.0390251003204,37.6458175994275],[127.0421132007005,37.6458052990547],[127.0425036004379,37.646567599790394],[127.0416730017518,37.6484497992284],[127.0437902996345,37.6480779996002],[127.0450291984376,37.6452356995304],[127.04233089968639,37.642727201622805],[127.04047169935589,37.642597101012605],[127.0402228989585,37.6409173996164],[127.0427706985287,37.6421723981014],[127.0456163991617,37.6386038000405],[127.04773389991419,37.638284799895004],[127.0465980016635,37.6395296991361],[127.0474912007703,37.6409979976678],[127.0485779991864,37.6386997992747],[127.0510470991706,37.6391757983578],[127.0526951997773,37.6382971997919],[127.05245089917669,37.6365621991764],[127.05459949785269,37.636619999405],[127.0537418984296,37.6332795008066],[127.05487649875421,37.632487900467204],[127.05268799881651,37.6284244000537],[127.0550329001332,37.6289309987742],[127.057555599832,37.6256234996343],[127.05890979869,37.625289299882695],[127.05923199836779,37.62403200114],[127.05784759975221,37.6226805024915],[127.0561367986167,37.6227505010601],[127.0569602998818,37.6178112988571],[127.0583664004573,37.6199360983646],[127.0596340004217,37.618200299809],[127.058366401843,37.619936099148596],[127.0602225999868,37.6206482984364],[127.0614772001913,37.6197193986359],[127.06252590051099,37.620126297915704],[127.0638311992057,37.6182647997772],[127.0633563992242,37.6168033997598],[127.0643219000946,37.6164864997184],[127.06284060333981,37.6206745016972],[127.0612591013596,37.621455600908995],[127.0616342009845,37.6227739995906],[127.0597029014404,37.6249385999378],[127.0601214018096,37.6260719995984],[127.0579817013338,37.6271389003771],[127.0588267007917,37.6283188995143],[127.0596400012904,37.6279999995296],[127.0601918008031,37.630027998742804],[127.06350300032669,37.630505298639804],[127.0669670987299,37.6327048986064],[127.0673755000561,37.6316884993493],[127.069745999547,37.6329392996675],[127.0708399983406,37.6272100003605],[127.0695669981569,37.6269407988223],[127.06986649883311,37.6248491999029],[127.0709408981493,37.623726300503805],[127.0681507995731,37.6244654012977],[127.0680483992328,37.6236032996782],[127.07094089892189,37.623726298331505],[127.0721527995991,37.6217102999186],[127.0734299997666,37.6219695990503],[127.0737016994949,37.6211295998903],[127.0723279996627,37.6193136003975],[127.0731407988669,37.6186091999592],[127.0721315998761,37.6166111019573],[127.0701250018827,37.6176873008811],[127.0701879980542,37.6189273007179],[127.0677536997929,37.6157534004653],[127.0665111997937,37.6165260001749],[127.065748599374,37.6144809999212],[127.0670893005295,37.6141519995984],[127.06859880008321,37.6156272997239],[127.0705957998738,37.614566999472004],[127.07079710122949,37.616199999576196],[127.0721641998624,37.616539199236996],[127.07562800015499,37.6149339997532],[127.0778242002035,37.6160742995694],[127.0784516001787,37.618527799064005],[127.07889139973891,37.6178896997021],[127.07925700133539,37.6187871996618],[127.0790621997853,37.619438201083796],[127.0767411002854,37.6197794000631],[127.0772072001115,37.620337401278995],[127.07529300055191,37.621197200114196],[127.0750254006207,37.6221562997138],[127.0772000002913,37.6246389000641],[127.0775186003556,37.625774299724206],[127.0768029005023,37.626975100036105],[127.0780596002742,37.6279377002041],[127.0767414999613,37.6276895002114],[127.0761132002568,37.6286672013628],[127.07420609991149,37.628268801059704],[127.0735244005932,37.6284031009254],[127.0736574001924,37.629296600223604],[127.07233930031259,37.6290938027517],[127.0707654016662,37.632962299872204],[127.0720580026787,37.6336904005126],[127.0712971006635,37.633461901081404],[127.07068060128,37.6350723994709],[127.0718800000806,37.6351399994033],[127.0726320002028,37.6362643996926],[127.07247390160211,37.639463099902],[127.0705574005893,37.6398970002612],[127.0682730015736,37.641808500437904],[127.0671740026726,37.6442525979938],[127.0707400007847,37.6452900005118],[127.0666345033855,37.6454372023028],[127.065964004056,37.6486485990914],[127.0681098019102,37.649961997778],[127.0695769004431,37.6492013985386],[127.06848000103109,37.650790001674004],[127.06827630123479,37.652862899601104],[127.0695224004285,37.6530497994184],[127.0705484004974,37.6544160986732],[127.0742311011772,37.654699798851304],[127.0747302007308,37.6565453980759],[127.0759960008753,37.6552132998066],[127.0768234002977,37.6572014984296],[127.0781455018385,37.656328000038805],[127.0779645020195,37.659647196719604],[127.0817931006267,37.6616603998074],[127.0817397992017,37.6626101029723],[127.0801610007805,37.6625331030493],[127.0787435015754,37.6658276007107],[127.0801885001304,37.6676344989038],[127.0808885013075,37.6668413997873],[127.0806294010768,37.6677070994757],[127.08165590005031,37.6683875987952],[127.08303080039771,37.6677915988963],[127.08495930012499,37.6700253000782],[127.08362770051629,37.6729579000504],[127.0799763989513,37.674561302823],[127.0772642016635,37.6743292030551],[127.0757940003522,37.6728942018159],[127.0754241975462,37.6734248013846],[127.07494939891909,37.6709944974719],[127.0769630969054,37.66922369924271],[127.0757040981644,37.6657673026991],[127.0730738007947,37.6653341031323],[127.0707800001673,37.666990000331296],[127.0695634997111,37.666703400624705],[127.0685581997989,37.665143300591296],[127.0674883003654,37.667285800006304],[127.0654842011477,37.6678834013508],[127.0651587007319,37.669308901863396],[127.0640872004311,37.669583501024],[127.0632104013079,37.6731875974199],[127.0661719012348,37.6724980997088],[127.0632104035614,37.6731876007195],[127.0633912033806,37.6757041982029],[127.0654091019302,37.6780647987026],[127.0659758028944,37.6806218005486],[127.0639297017011,37.6797420047483],[127.0608115048193,37.6824196020707],[127.0609113047195,37.6838745006158],[127.0591368027935,37.6870895012525],[127.0607773028559,37.692151902739596],[127.05710160653159,37.6946662002253],[127.0600663035669,37.699369695521796],[127.0659132005366,37.700870902785496],[127.06252890142531,37.703674002499596],[127.0633279006263,37.705987300186294],[127.0602641036901,37.707686298487296],[127.05985150045099,37.711111700751],[127.05834950034951,37.7100048015663],[127.05744919992189,37.7109306011782],[127.0511147062564,37.7107506013582],[127.05094520642591,37.7130446990641],[127.0518277055434,37.7145185975902],[127.06059710049699,37.7150115993702],[127.0578292033554,37.7172215986063],[127.06133789984669,37.717541898286],[127.061541299957,37.7183148991786],[127.0616917037983,37.7174398979433],[127.0663558021966,37.721914596977],[127.0630081994678,37.719712702493105],[127.0612473003933,37.72115780017],[127.0615346008899,37.7238158984165],[127.0650163001979,37.7266229986357],[127.0683595993426,37.7259967963634],[127.07176470024301,37.7265666938835],[127.0701425015358,37.729055700624706],[127.0703403020494,37.73069800139589],[127.0674259011903,37.734604100875096],[127.0689254996907,37.736363199116],[127.0739212998509,37.7355717971538],[127.0728153002083,37.735809600464805],[127.0724534006925,37.736793999815106],[127.0730477016782,37.7387424006369],[127.0701231029156,37.740425300260696],[127.0711866018521,37.7429547977312],[127.0732366001714,37.7420984993682],[127.07318760043239,37.743402498379304],[127.0768490980619,37.7436112978678],[127.0787555983419,37.7394906990155],[127.0811910984211,37.7389923983637],[127.0814158981963,37.737194100162],[127.078372399814,37.7366393004673],[127.077930698505,37.734459798045805],[127.0804994989458,37.7336192989963],[127.0817961001287,37.731650197669],[127.0835643983604,37.7311839981352],[127.0835588003185,37.7288769980388],[127.08532629997791,37.728728197346896],[127.0889748002608,37.7294250975162],[127.08859960132989,37.7314542992447],[127.0895469003826,37.7321496985493],[127.09092009900941,37.7320285986704],[127.0914108985186,37.7309452997537],[127.0931061988528,37.7302857992312],[127.09396250049011,37.73078829922],[127.0914108995943,37.730945301278304],[127.09029310047549,37.732693899752604],[127.0950011002685,37.737342399929204],[127.09333630149341,37.7378984002613],[127.09471500058359,37.7395482999675],[127.0942788003051,37.741138299937205],[127.0918033013364,37.7432671996405],[127.0932773000976,37.744142999153404],[127.0948363004913,37.7435718998517],[127.0926040010577,37.7466548005171],[127.0911623990093,37.746376502284996],[127.0886325013137,37.7476067011737],[127.08855120139499,37.7489380998423],[127.0902514998261,37.7509697029527],[127.0874311026465,37.7499236039988],[127.0845035028747,37.7507792051644],[127.0836248037534,37.752428103515506],[127.0850006024274,37.7582746984547],[127.08613010129791,37.7586110981183],[127.088639202351,37.7574613012221],[127.0877206009163,37.7604819008418],[127.0820734017723,37.758994105424804],[127.0802105986616,37.763244806334704],[127.07852649873759,37.7603594036138],[127.0787203000058,37.758275600285394],[127.07542220092631,37.7593528999512],[127.0752025979734,37.7623177054952],[127.0665782965158,37.7586901044763],[127.0638048970817,37.756368104805105],[127.0581433978233,37.7552602036826],[127.0581071977288,37.7538313006833],[127.05641709941891,37.7522193022953],[127.05304690278909,37.752989301525304],[127.0499675058685,37.7565676979469],[127.0537560022107,37.7594375995052],[127.0499675027763,37.756567702976895],[127.0495540027686,37.7654856960559],[127.0521910001316,37.7655719959696],[127.0558641970285,37.762095399054],[127.0553656006011,37.7614026975401],[127.0607383001483,37.7623284988447],[127.06003130129521,37.7621867004581],[127.0614008999256,37.7676138950309],[127.0633400024224,37.7691674947535],[127.0673745010403,37.7703762012716],[127.0660854023294,37.772337199310606],[127.067019899781,37.7733941005111],[127.0660744986936,37.773435900727605],[127.0637099994792,37.7709071025694],[127.0591195040697,37.7711094023671],[127.06096690477659,37.780182898355896],[127.0651377015179,37.783383196670904],[127.0691112995767,37.782108097983404],[127.0707533019399,37.7836567998433],[127.0698526000435,37.7863835000979],[127.06885990033541,37.785396101498],[127.0664464013079,37.78550910173],[127.0635598004761,37.7880994020855],[127.0621616004001,37.7834649054063],[127.0604655978632,37.7831046062814],[127.0567314015974,37.784627204758806],[127.04866100222219,37.7898509991799],[127.05102100435411,37.7925190993397],[127.0502082010625,37.7938256020336],[127.0506835995085,37.7922826015417],[127.0492329004965,37.792381801278104],[127.04965830024871,37.793659600118595],[127.04823260007791,37.793160200505],[127.0473180011803,37.7952761984179],[127.05066700208141,37.8019989953437],[127.0557265057029,37.8053455953253],[127.0591276023018,37.8054563952145],[127.0614484999809,37.8063956942752],[127.0654668987008,37.8040907957111],[127.0667847973829,37.8008853989165],[127.0694345984531,37.8011506974722],[127.0738103956944,37.798389094129504],[127.0760416009658,37.798527497961295],[127.0769401002739,37.8000871982291],[127.07885300024519,37.7985250987719],[127.0797572012596,37.7993284991456],[127.0787687007286,37.8002652005557],[127.07979570252431,37.8032117996214],[127.0770872002728,37.8041597005087],[127.07581850210549,37.8069665987338],[127.0779958999281,37.8085956971047],[127.0804975991068,37.807702997338296],[127.0822502999898,37.808486799312796],[127.08275070034041,37.8080121997067],[127.085241402359,37.8104917993057],[127.0847330009471,37.814008097134],[127.08629690301859,37.8148689983788],[127.0883174009981,37.8148579983898],[127.0905855001249,37.8135639979821],[127.0899285005749,37.815183999215705],[127.0914470001495,37.8151583999119],[127.0908794011011,37.8167385000222],[127.0919244008571,37.8183092994741],[127.0931474005705,37.8182749005359],[127.0919244012171,37.8183093004981],[127.0917358,37.8196713008041],[127.09151449978481,37.818772601560205],[127.0889870001324,37.8182785020482],[127.0869702021492,37.8196953006314],[127.0866247014012,37.821045000612095],[127.0883098008445,37.8224832995346],[127.08682730030719,37.822675502079605],[127.0855234016111,37.824299100455995],[127.085879800471,37.826672299869095],[127.0868383006417,37.8266936998697],[127.0844054002326,37.8278575017277],[127.0825033021347,37.825911603673596],[127.0764687021615,37.8313162017512],[127.0769363016939,37.833452399615],[127.0792408002756,37.8343932995403],[127.0837350022999,37.8385107968816],[127.0859264001085,37.838370397022004],[127.0859432008183,37.8400306994785],[127.0827661989471,37.8421207004283],[127.0837981995304,37.841590500061706],[127.0839455986121,37.839776001314],[127.0818298992985,37.839680800932896],[127.0814698989886,37.8388078013068],[127.0793748005737,37.8396171033516],[127.07914189644829,37.8383570033347],[127.0742150013752,37.837892603799105],[127.0702154053748,37.842390799300894],[127.0745171010731,37.845852095839604],[127.0783295005913,37.84484439919],[127.07913910029971,37.8439311998479],[127.0794798999589,37.844944598834495],[127.0811466021344,37.8453367974293],[127.083827300553,37.8479613000047],[127.0833509010294,37.8494736984923],[127.0843422040057,37.8540977013058],[127.082309499801,37.8527567020911],[127.0810614010491,37.8539389009089],[127.08105020106031,37.8564399984078],[127.0835564024628,37.8578998001829],[127.08227310138379,37.8573721013372],[127.07923280454379,37.8632383960794],[127.0811662023516,37.871172300408496],[127.080474803043,37.8728420987387],[127.0848923986254,37.8829491886316],[127.0904419021173,37.884833194113305],[127.0947446133892,37.8813359867724],[127.10612040252829,37.89013940768],[127.0988313098174,37.8898840079354],[127.0970786115701,37.890576507242905],[127.0889093202749,37.9057264031624],[127.08793710031891,37.907304002113904],[127.0862855018872,37.907893101758404],[127.0844341037386,37.9122090974424],[127.0877309091278,37.9167178048996],[127.0844139007633,37.9178587018299],[127.08342760174959,37.9189778007108],[127.0837927014046,37.920934598821006],[127.0849562010682,37.9216337993964],[127.0807877050589,37.921816201360706],[127.0781384077082,37.9236339995429],[127.0754992121941,37.928695496097504],[127.0815017061916,37.9377704870225],[127.07932100370309,37.941477000203896],[127.08064810261891,37.9425305029081],[127.0747272085398,37.9469823984562],[127.0704524115276,37.9575880992422],[127.07161371036631,37.9616140952162],[127.06773130652631,37.969042802544195],[127.07052760373,37.9731575984294],[127.07746641070051,37.976866801660606],[127.07297800389841,37.97430780296],[127.0674554035512,37.9768524059863],[127.0681837028229,37.9813770014617],[127.0702119007947,37.9845365983021],[127.072030404177,37.9841867951108],[127.0730552016044,37.9865383987784],[127.0743459003137,37.9874333978834],[127.07542219923741,37.9860271992896],[127.0752011013237,37.9877725985157],[127.0799195966052,37.9878679984203],[127.08011809698671,37.9859526946409],[127.0824301000215,37.987973099082495],[127.0831060018173,37.9873470996568],[127.0813424004466,37.9883169014302],[127.08101190061629,37.9896199009298],[127.0799196005177,37.9878680028957],[127.0753370019184,37.9904944024467],[127.07597319915581,37.9928314011232],[127.07293920062699,37.9905605037705],[127.0704771030891,37.9921253022057],[127.07118079729919,37.99538540156151],[127.07047709800291,37.9921253048216],[127.0713917978565,37.9891770021519],[127.0664530027953,37.9835044078245],[127.0614175050535,38.004258795949404],[127.0654999009711,38.0034347967734],[127.06907130189431,38.0008568962548],[127.06951480175199,38.0020726990423],[127.0707572029805,38.002389000087504],[127.0692205027679,38.002244702845196],[127.0658289061595,38.0043606007293],[127.06467430501449,38.008798505030896],[127.0605254832155,38.004905194815905],[127.0614174823235,38.0042587954623],[127.066452977288,37.983504416216704],[127.0640412996093,37.9798889997656],[127.0671223992309,37.97305849819],[127.0668331995201,37.9697683014802],[127.0659060992581,37.9704168002484],[127.0661540990101,37.9696477010175],[127.0649934001708,37.968396202269],[127.0633686961459,37.9680011999518],[127.0581926990764,37.967705200261896],[127.0565359980655,37.9641392031578],[127.0565981980033,37.962108005189],[127.0443329964064,37.9585394111549],[127.0433218960159,37.9527624001747],[127.0421493951526,37.952039589773996],[127.0460762912257,37.9468178949957],[127.04457449272749,37.9398392019744],[127.03992509737691,37.938902902910705],[127.0366072912942,37.9411177025198],[127.0349804917163,37.9398517022178],[127.02697979813871,37.9268718026271],[127.0291361008054,37.9276289965822],[127.0397457953691,37.9262729940828],[127.03901669708361,37.9214627943963],[127.0432966928036,37.9130634027957],[127.0353435007568,37.908072607786494],[127.033443302657,37.911599004260104],[127.0335120016029,37.9145891057667],[127.0282245968799,37.920208104937906],[127.02415519722649,37.917049604164696],[127.0155406966229,37.917780900568594],[127.0137387986504,37.913535498403505],[127.019507498015,37.9125853983364],[127.0194282980942,37.9107981001237],[127.0130698000259,37.910488400134],[127.00997479978359,37.9088221014226],[127.00843330009259,37.9099315009364],[127.00317719939629,37.9100081999997]]],[[[127.02040959961259,37.6388656005603],[127.0209288996988,37.6360393995957],[127.0227240997697,37.6345161991],[127.0243038002441,37.635195099151495],[127.02662510000691,37.6343497995028],[127.0280727000829,37.635012699570396],[127.0283912999381,37.6339726996882],[127.0302114008648,37.6360031000489],[127.0292635999779,37.6416196009075],[127.0276993992336,37.6415673005517],[127.026659998854,37.6400900013602],[127.0232148000419,37.641736300808496],[127.0233840995483,37.6410160006826],[127.02140249967249,37.640080900516104],[127.0215718998746,37.638956500842],[127.0209773002734,37.639642700147306],[127.02040959961259,37.6388656005603]]],[[[127.0223456995402,37.6252669012206],[127.0233574995017,37.6255301996803],[127.0229667999467,37.6249371994713],[127.0274949000097,37.6234457997374],[127.0291245005141,37.625955999836904],[127.0286786003179,37.6268640994118],[127.029562500447,37.627204000169996],[127.0271676007817,37.6273682008251],[127.0249909004352,37.629454100720594],[127.0223456995402,37.6252669012206]]],[[[127.0755944996682,37.6111390003016],[127.0756120997788,37.609678999749796],[127.078087499715,37.6088706993933],[127.0782296001841,37.6081513989797],[127.0786507004938,37.609792899225],[127.0806202003416,37.6111798000547],[127.0792829002769,37.6112857008142],[127.0786700000265,37.61252910022],[127.0778319004966,37.612170600612195],[127.0779648998895,37.61327110008],[127.07693429974411,37.613114600722504],[127.0772620995033,37.6123264007084],[127.0755944996682,37.6111390003016]]],[[[127.064048799696,37.600865400828404],[127.0650881994096,37.6008702994954],[127.0662282002394,37.5993041993858],[127.067637700076,37.5992395993801],[127.06746680197031,37.6005567989683],[127.0683873014906,37.601479900598804],[127.06659250006349,37.6042211004511],[127.0647742997574,37.6030835001858],[127.0657074990614,37.6022856998467],[127.0640574000027,37.6016932004645],[127.064048799696,37.600865400828404]]],[[[127.0631325995957,37.5950416001984],[127.0644077999953,37.5947368999092],[127.0655057002505,37.5957617003171],[127.0637697998585,37.5961214004109],[127.0631325995957,37.5950416001984]]],[[[127.06977459901701,38.028701000495396],[127.0710731003944,38.0263987989994],[127.0730543988352,38.026825298053],[127.0736069985703,38.0245067998639],[127.0725421997878,38.0239268997584],[127.07518589738899,38.021557800662094],[127.074805897769,38.0203891018308],[127.0754804000238,38.0204983983549],[127.0726893065131,38.0287624028111],[127.07119560092269,38.0280730006137],[127.06977459901701,38.028701000495396]]],[[[127.0783187995068,37.6028283002064],[127.07975790041921,37.6015252992772],[127.07986990062811,37.603182600077695],[127.078963600018,37.6035864005568],[127.07909289954061,37.6029245000676],[127.0783187995068,37.6028283002064]]],[[[127.0291588994156,37.6134711995431],[127.0299443990999,37.6132034992001],[127.0296794997734,37.6120558994528],[127.0313113004355,37.6125362996216],[127.0304755007286,37.6129021004688],[127.0301353005442,37.6145162005993],[127.0291588994156,37.6134711995431]]],[[[127.0704916993606,38.0226874999259],[127.07133570047081,38.0217900994071],[127.0718290007459,38.0226336995862],[127.0704916993606,38.0226874999259]]],[[[127.0578296996386,37.5893137998196],[127.0579288001996,37.5891181999437],[127.0581210000904,37.5895348000721],[127.0578296996386,37.5893137998196]]],[[[127.0873475996965,37.8381650000905],[127.08735230015341,37.8379695991363],[127.0875837001398,37.837970899880304],[127.0873523002203,37.8379696001266],[127.0873475996965,37.8381650000905]]],[[[127.0621695999456,37.6137460998084],[127.06246850073339,37.6139149003887],[127.06246849988369,37.6139149010021],[127.0621695999456,37.6137460998084]]],[[[127.0648035996147,37.597496300085204],[127.0648036004694,37.5974962999814],[127.064890500496,37.5976394003565],[127.0648035996147,37.597496300085204]]],[[[127.0859766972903,37.9490546963839],[127.0859767067006,37.9490547053332],[127.0859766960033,37.949054707775595],[127.0859766972903,37.9490546963839]]],[[[127.0478903999719,37.7387261000094],[127.0478904000581,37.7387260998865],[127.04791769996,37.7388025000786],[127.0478903999719,37.7387261000094]]],[[[127.0378622994567,37.8577311998429],[127.0378576000219,37.8576687996676],[127.0378623002502,37.8577312001157],[127.0378622994567,37.8577311998429]]],[[[127.0369600979965,37.8554531986746],[127.0369601003772,37.8554532013473],[127.0369600962419,37.8554532006172],[127.0369600979965,37.8554531986746]]],[[[127.08204899979,37.806813700026],[127.0820490002204,37.8068136998959],[127.0820490000185,37.8068137001169],[127.08204899979,37.806813700026]]],[[[127.029387499609,37.626422899853004],[127.02938750032659,37.626422899953305],[127.0293874999554,37.6264229003188],[127.029387499609,37.626422899853004]]],[[[127.06231239991159,37.6560754999829],[127.06231240002569,37.6560755000033],[127.0623123999816,37.6560755000565],[127.06231239991159,37.6560754999829]]],[[[127.0632848998122,37.6142692994074],[127.0632849000754,37.6142692999767],[127.0632849001191,37.614269300801894],[127.0632848998122,37.6142692994074]]]]}}]}