{"type":"FeatureCollection","features":[{"type":"Feature","properties":{"interval":15,"stationId":"4937987035"},"geometry":{"type":"MultiPolygon","coordinates":[[[[127.0493256992368,37.9107122000922],[127.04855290000961,37.9096856011188],[127.0479103986259,37.909987699704104],[127.0480139988041,37.9088765979527],[127.0504059985813,37.9078397979303],[127.05029589869139,37.9043856013845],[127.05130229888991,37.9037509003117],[127.0492693986803,37.902628400834494],[127.0488446985137,37.900467199376],[127.05252259789731,37.8989663981382],[127.0521211982562,37.8955547004495],[127.0550858969494,37.8933342008595],[127.05225099978429,37.8934132007805],[127.0516954991991,37.888749000021896],[127.0517958003274,37.8897993994674],[127.0527537993694,37.889801399465405],[127.0532983010759,37.8888132994332],[127.0543721000021,37.8894558987906],[127.05467829969591,37.8876481005984],[127.05371979841419,37.8876846991189],[127.0565689978623,37.8867487984505],[127.0582406004946,37.8885405992435],[127.0605318002443,37.8884162990595],[127.060632600214,37.8897671986309],[127.0629433019988,37.8901353993041],[127.06415130079081,37.8920982973412],[127.0623733023569,37.8923122008613],[127.05893520096559,37.8972847999674],[127.0612380001556,37.898443798974604],[127.0630002007081,37.8978112986525],[127.06420920150039,37.9009264992163],[127.0628934021149,37.9034348981478],[127.0676943031889,37.914088903111406],[127.0660767024977,37.9184783032119],[127.06330459937,37.9176340012606],[127.0601162011226,37.918946401751406],[127.0569433009968,37.9179845022837],[127.056635099992,37.923696400510195],[127.0559912969287,37.921946001524],[127.0521362007838,37.9202156032544],[127.05134779877321,37.9219253001505],[127.0523941986651,37.9156760990331],[127.0544382974312,37.9154553986577],[127.0553210972703,37.9130331992416],[127.05166799931031,37.9093211022766],[127.0493256992368,37.9107122000922]]],[[[127.04826659872751,37.8921718003909],[127.0490142012179,37.8919891997141],[127.0486368000426,37.8925020011064],[127.04826659872751,37.8921718003909]]],[[[127.056446299122,37.8174255004204],[127.0566659005467,37.817745001354304],[127.0565225998687,37.8177778000964],[127.056446299122,37.8174255004204]]],[[[127.0605272986977,37.8432691009816],[127.0605272981408,37.8432690975403],[127.0605273016972,37.8432691003299],[127.0605272986977,37.8432691009816]]],[[[127.0619691992696,37.9201333005645],[127.06196920172839,37.9201332997479],[127.0619692011247,37.9201333019383],[127.0619691992696,37.9201333005645]]]]}},{"type":"Feature","properties":{"interval":30,"stationId":"4937987035"},"geometry":{"type":"MultiPolygon","coordinates":[[[[127.0341826971884,37.908285500407],[127.03534349709919,37.9080725969261],[127.0400897956375,37.9022940968498],[127.040699295028,37.8957147034292],[127.0376212955918,37.8952861986645],[127.0406794002472,37.8952279955741],[127.0417819991446,37.8918879989141],[127.0448300968497,37.891855298794106],[127.0450262966535,37.8911169995324],[127.0402150988555,37.8883823008778],[127.0394497995641,37.8871639965915],[127.0425692964446,37.886910096845405],[127.0506269898952,37.879855396952294],[127.05446359895281,37.8797322956797],[127.0579493981096,37.8762329987691],[127.0591194021314,37.877509700729796],[127.0574480032666,37.8793575999145],[127.05981630211099,37.8813378981351],[127.0616680002593,37.8853514941215],[127.06857960011581,37.8826197999567],[127.0692551022048,37.884802198086106],[127.0742389014348,37.8886891965801],[127.0693036056056,37.891152098411496],[127.0761634987457,37.8921938973697],[127.07701880015891,37.8913587998192],[127.0764609043384,37.8940498090524],[127.0699802108191,37.9037463993558],[127.0732881075112,37.9094366936655],[127.0752794055199,37.9108932922089],[127.0736191031357,37.9152599071891],[127.0708832058716,37.9172003052487],[127.0713044054504,37.922301000147996],[127.074623802131,37.9239290985199],[127.0756289006123,37.9236175006924],[127.06748760253531,37.9249901018718],[127.06755199984471,37.9230657020043],[127.0619691992696,37.9201333005645],[127.063697598977,37.919881199013396],[127.06330459937,37.9176340012606],[127.0601162011226,37.918946401751406],[127.0569433009968,37.9179845022837],[127.05632840078219,37.9219174998511],[127.0568217009015,37.9276668005029],[127.0556273000425,37.9272888006025],[127.05500999971859,37.9279700005356],[127.054138100276,37.9270602014042],[127.0539036005105,37.929658698805696],[127.05655680035919,37.9309857976245],[127.0591915033473,37.9290166980793],[127.0596470011481,37.9303280005034],[127.05847800111049,37.9323798989678],[127.0596046008744,37.932210700698],[127.05847800120699,37.9323799005922],[127.05847800069199,37.933052500495],[127.05587179985541,37.933626100422195],[127.05607259947479,37.9327395009582],[127.05371000059719,37.932210001368794],[127.05342379981501,37.9330540008492],[127.0502358003937,37.931815901388596],[127.0491308000092,37.933073701446304],[127.0494199981683,37.9317300011767],[127.0484590991292,37.9302718026349],[127.0450736996366,37.9291982009457],[127.04494579531469,37.9280509009426],[127.04933909499469,37.9266162994576],[127.0501209942128,37.922075803998105],[127.0452049938117,37.9208401006227],[127.04262939347089,37.9148547010044],[127.0432966928036,37.9130634027957],[127.03534349809979,37.9080726035264],[127.0341826971884,37.908285500407]]],[[[127.03986179923899,37.746785401067],[127.0430897000671,37.7441324995643],[127.0447261996801,37.7448834993461],[127.0448423996437,37.743669899821],[127.0465312995811,37.742971699673596],[127.0504291005772,37.747409500345405],[127.0488341006912,37.7478896005864],[127.04902130022491,37.7487306002203],[127.04714090008041,37.7501203002698],[127.0434086996705,37.7509583007142],[127.04262609931811,37.748975200729994],[127.0418628993327,37.7491665999855],[127.03986179923899,37.746785401067]]],[[[127.037900899659,37.7588353003767],[127.0390051999116,37.7565808993647],[127.0410154996894,37.7582739980971],[127.0429363994026,37.757443499631],[127.0426140997936,37.754666200153004],[127.0432905997994,37.754287099521896],[127.0462406007426,37.7563557999989],[127.0450401010999,37.7576361998755],[127.0465183034044,37.758667799923096],[127.04532920062479,37.7610503000186],[127.04525539907131,37.759089000672404],[127.04400630011581,37.7582785014472],[127.0420000002531,37.7604117999347],[127.042978101144,37.7606388990868],[127.0436372002254,37.762429899542],[127.04324660019431,37.7618655006958],[127.0419366015043,37.762563499997796],[127.0434136001401,37.7630149006675],[127.04077869999091,37.7620813006407],[127.03978550098829,37.7628381008861],[127.03972449995031,37.762091500748895],[127.03871499925239,37.7620898004156],[127.03955929975689,37.7614447003153],[127.0385833991132,37.7612406004894],[127.037900899659,37.7588353003767]]],[[[127.0440347990492,37.8198200990201],[127.0451548987182,37.8177925007365],[127.0446572996048,37.8168489993228],[127.04556559923971,37.8170280986509],[127.0466944993232,37.8141428996939],[127.0460249996985,37.813228199364495],[127.04947559952859,37.8121323983391],[127.0509135980906,37.8095683009032],[127.0505275000843,37.807940099484206],[127.0509827002176,37.809247899469],[127.0548656008609,37.8084959968496],[127.0583948000352,37.8113993988173],[127.0595683003954,37.810289797472],[127.0607635015424,37.8103915003075],[127.0585897007073,37.8125745005242],[127.0602153016655,37.8163280951664],[127.0657459043196,37.8128925967604],[127.06728870262191,37.8157960990205],[127.06638320122231,37.8171924001547],[127.0674996007102,37.8177515003148],[127.06675320145659,37.8188623992039],[127.06852650010751,37.8209502000555],[127.0658099998361,37.8217635042027],[127.0640222999359,37.8209577029342],[127.06182440213381,37.8241529997389],[127.06293620270989,37.8252313007349],[127.0608789975604,37.825899503113696],[127.0588936971462,37.8229965016175],[127.05773929830059,37.822485802128206],[127.0504757999827,37.8219426020246],[127.04975619981751,37.8231092011953],[127.04915289965909,37.8222251005256],[127.0471237006777,37.8227941008247],[127.0464009998538,37.821727799818795],[127.0485114990341,37.8220162994166],[127.04797189957489,37.8206840006324],[127.0470044991676,37.8205650000432],[127.0462499998449,37.8190906002739],[127.0440347990492,37.8198200990201]]],[[[127.0522126978012,37.846920600701196],[127.0542080005937,37.8454014969529],[127.055059202074,37.846503697301],[127.0570034001298,37.846575797228894],[127.0605272981408,37.8432690975403],[127.0622244993696,37.8435989987276],[127.06245700005259,37.8408037993994],[127.0640020000599,37.8413801000052],[127.06243570042929,37.8420349002],[127.0629482002681,37.8427868995304],[127.0642958997583,37.8428591998365],[127.0643757002035,37.841979299534096],[127.0663440006817,37.8434617999074],[127.0659852012573,37.8469746981234],[127.0680542064629,37.8471163987357],[127.06501140063361,37.849323003108196],[127.0629939994419,37.8493453037091],[127.0612285995858,37.8522941034582],[127.06136099946731,37.8471418998614],[127.06028649978231,37.8461225006659],[127.0597546992696,37.8467610003098],[127.05953079875671,37.8455384012571],[127.0576769006106,37.846398700396804],[127.0564077002809,37.8506046008823],[127.05683299799419,37.8491589019682],[127.05439679804081,37.8471993008944],[127.0522126978012,37.846920600701196]]],[[[127.0464024998677,37.7390902003455],[127.0477864998999,37.7369169992693],[127.0498331005966,37.7380430998035],[127.04761030031061,37.7397639003566],[127.04849099951029,37.7378468006043],[127.04739410011301,37.738204500124],[127.0476524001002,37.73896450004],[127.0464024998677,37.7390902003455]]],[[[127.0394653988776,37.771269099254795],[127.04165290003671,37.7684883995255],[127.04255240011531,37.769022499345496],[127.04349909954921,37.767775998794896],[127.0459063999928,37.7680362998204],[127.0456173007808,37.7700276999657],[127.0462962020188,37.7707557008069],[127.0455751020335,37.7729369989641],[127.0476645006505,37.7720530995095],[127.0482797006334,37.7733175990932],[127.0495086016138,37.773729699247795],[127.0485965007559,37.776266900261405],[127.0478286990392,37.776769800077794],[127.046690900177,37.775143701703904],[127.04546230140559,37.7761657006819],[127.04585980001521,37.7785272001889],[127.0456899994766,37.7774432011724],[127.04153909906299,37.776540600275496],[127.0407713987277,37.7712695010786],[127.0394653988776,37.771269099254795]]],[[[127.059857198685,37.9467352997571],[127.06085920125099,37.9458690987282],[127.06165250141859,37.94695459898],[127.0635843994867,37.947092998841605],[127.0636410001848,37.946525799969706],[127.0626660010463,37.948013099653096],[127.06308620083131,37.949154399607394],[127.06123999757389,37.9490000017879],[127.0613809993652,37.9469966001086],[127.059857198685,37.9467352997571]]],[[[127.0468190994978,37.7244250000134],[127.04709030055109,37.7243935998651],[127.0470305997307,37.7245104004209],[127.0468190994978,37.7244250000134]]],[[[127.047174699819,37.7401029999866],[127.04745410025619,37.7403362000437],[127.0473019998235,37.7403826000297],[127.047174699819,37.7401029999866]]],[[[127.0441787997538,37.743578999985395],[127.0442737002124,37.7435804999104],[127.04412940003951,37.743651600092],[127.0441787997538,37.743578999985395]]],[[[127.05567879899209,37.9347067992367],[127.0557761005506,37.9341844999523],[127.0556787996879,37.9347068017566],[127.05567879899209,37.9347067992367]]],[[[127.0478903999719,37.7387261000094],[127.0478904000581,37.7387260998865],[127.04791769996,37.7388025000786],[127.0478903999719,37.7387261000094]]],[[[127.04353569989101,37.7383872000932],[127.0435357004053,37.738387199900295],[127.04353570027351,37.7383872001724],[127.04353569989101,37.7383872000932]]],[[[127.0448468998721,37.738417400109704],[127.0448469000709,37.7384173998955],[127.0448469001535,37.7384174000588],[127.0448468998721,37.738417400109704]]],[[[127.0457043992326,37.8207393997509],[127.04570440032711,37.8207393996893],[127.0457043997649,37.8207394005913],[127.0457043992326,37.8207393997509]]]]}},{"type":"Feature","properties":{"interval":60,"stationId":"4937987035"},"geometry":{"type":"MultiPolygon","coordinates":[[[[127.00623329951871,37.910014000019395],[127.0070404002352,37.9078322990199],[127.011702899182,37.9101572960972],[127.0136287972561,37.910122196132306],[127.0115554992462,37.9050410011415],[127.0096605001998,37.9046747010983],[127.007982396248,37.9056267999199],[127.00997289808859,37.9042458953017],[127.0115554992954,37.905040995846996],[127.0136727978846,37.8990739003892],[127.0108472993456,37.8950969010781],[127.01122339811401,37.8943683986275],[127.0170231957534,37.8942139951181],[127.01863299414359,37.8891003002318],[127.01866649476649,37.882488001556304],[127.0169144971783,37.881539499903106],[127.0236686977358,37.886202296060304],[127.0231920985986,37.878251400474404],[127.0213216983785,37.8761288001961],[127.02105999864021,37.8738165025084],[127.0191326980178,37.8740744997587],[127.02140839724319,37.8719083992548],[127.0209084949364,37.8695422967768],[127.0228658991695,37.869129299881294],[127.02327650109119,37.868154199808],[127.02327150129081,37.869133699337],[127.0245833016988,37.8703690986345],[127.0239032021483,37.872953498396],[127.02999649605499,37.8741610971884],[127.03339929964059,37.8729034957739],[127.0345097985301,37.8711715975058],[127.0360279022477,37.8711631966421],[127.0346385058837,37.873214703593],[127.03581600470619,37.8774617993459],[127.0394180011042,37.8780508987568],[127.0391870013352,37.8793699974377],[127.0489182916039,37.881804095003595],[127.0506269898952,37.879855396952294],[127.0514693890528,37.874641702165995],[127.0454477928278,37.8662428015625],[127.04129469437379,37.863385101549206],[127.0397823991275,37.8582527005873],[127.0320263994658,37.8571479014208],[127.0297285979425,37.8577591026793],[127.0301828975258,37.856960400550996],[127.0267685946744,37.8527436997978],[127.02825469783731,37.8512446986539],[127.0281521992652,37.8489979995892],[127.02993639858539,37.850222097444906],[127.0348729936488,37.8476188000482],[127.0340671942664,37.845215601696204],[127.0342866982751,37.8429076999296],[127.0331914973089,37.842505197929995],[127.0388787011108,37.8409257943548],[127.0395605010647,37.841354794472295],[127.0446752959499,37.8379622978648],[127.0464239946035,37.832615000526],[127.04042460060289,37.8283149048261],[127.033042100966,37.8286881065095],[127.029163192681,37.825316302565994],[127.0296679949462,37.819490204072096],[127.0260962967976,37.8166024069372],[127.0249768947287,37.8132509993167],[127.0226141970914,37.8108768016909],[127.0266884018374,37.8151349978407],[127.0323953968182,37.8166915961654],[127.034124595089,37.8089346039224],[127.03029889891471,37.809444003413],[127.0284613000645,37.8107175022582],[127.0268553968689,37.8072114999089],[127.0246725971391,37.8057649962933],[127.0299470961151,37.8048688948042],[127.036243194964,37.7989489959129],[127.0461314983967,37.7985318993598],[127.04715539942609,37.7953734014185],[127.04340159905179,37.7954048998908],[127.0427374960198,37.788328903093],[127.0396677990895,37.785084506337405],[127.0399291994643,37.7843238005097],[127.0379459007421,37.7836765010743],[127.03807260061541,37.7842855004653],[127.03679389915541,37.784327399901],[127.0378639990798,37.7836285001074],[127.0377331992106,37.7798303039056],[127.0346445022993,37.7812884024475],[127.0356834012604,37.783871999863905],[127.0335299018844,37.7858500999743],[127.03365400070639,37.7870783069435],[127.0316009996062,37.7875972072647],[127.02884569751481,37.7864568009604],[127.0244403014023,37.786069701795],[127.0235691999154,37.788865300508],[127.0216431998544,37.7869423014155],[127.0191869979414,37.7881737013888],[127.0216976945057,37.7849078964003],[127.0208400967848,37.7804695996806],[127.0212989963259,37.776987203163],[127.0191586984662,37.776082704067505],[127.0157567995929,37.7773276019501],[127.01723319846201,37.7770347997415],[127.01778689790831,37.7760264007499],[127.01563970005549,37.7743368024395],[127.0141071992061,37.7752228999773],[127.0144481985651,37.7739269999795],[127.016260098461,37.7738052992516],[127.0168287945027,37.7674685966293],[127.0185732938378,37.7637280982467],[127.0188404950454,37.7588122990568],[127.01454559934031,37.7572775005916],[127.0121662941615,37.754982094324],[127.0151716994062,37.7544301968721],[127.01579719878069,37.7525050987972],[127.02270609878339,37.7517678985437],[127.02133120238861,37.75219590119929],[127.02276380170301,37.757200497869604],[127.0250531996939,37.7567700984094],[127.02737279993559,37.751261099618404],[127.02588730113929,37.7564232988192],[127.02981429914699,37.755372399284],[127.0296085995694,37.7543376996239],[127.03298409951789,37.7513261000285],[127.0328166997781,37.7499273010379],[127.0310778998048,37.748141601096194],[127.0291421991838,37.748977700883295],[127.02861469971131,37.7484441014169],[127.02799569931271,37.7497768011027],[127.0289219994702,37.7476168997731],[127.0270192005126,37.7461502009279],[127.0250460006955,37.7461624021822],[127.0241932972962,37.7474260028856],[127.02042270106679,37.7440975062141],[127.0166562934883,37.7434546014952],[127.01699259733809,37.7422847979467],[127.0206904985028,37.741746998411294],[127.0253164952197,37.737301301962496],[127.0225053977857,37.7322272968729],[127.0246979957052,37.7273734014207],[127.0243584963664,37.7267426002766],[127.02534469814141,37.726703198562],[127.02596559752051,37.724622100643096],[127.0251022984104,37.723921601096094],[127.0256862973243,37.7210644971304],[127.0281111951456,37.719753098312495],[127.0286371946196,37.7110439070217],[127.0275184957383,37.7107157073499],[127.0273482948069,37.7074293972828],[127.03052249692641,37.7035348002918],[127.027649198595,37.7006651993997],[127.0305224985764,37.7035347955335],[127.0328224962764,37.7030221960461],[127.03856329086581,37.6955708029778],[127.02943279681139,37.6959804040845],[127.03108329614291,37.6933423954146],[127.02692929415541,37.6851189009279],[127.02911999890131,37.679283297302405],[127.0286228993984,37.6768541997315],[127.0298361994663,37.677062296847105],[127.03160799795121,37.6744234992423],[127.0308672986919,37.670749802916006],[127.0290525986712,37.6700808028115],[127.0288021981049,37.669226700768604],[127.0305320980278,37.6675503004449],[127.0305153980445,37.6653940026012],[127.0285142990346,37.6640261009645],[127.02754899848249,37.664307800497205],[127.02794019894121,37.6626679003871],[127.0294983000256,37.6606498997224],[127.0305937998724,37.661178398522594],[127.0311247993309,37.6594827996518],[127.0323550996801,37.659305799698295],[127.03287129964559,37.658016599384304],[127.032894700909,37.6593777990804],[127.0342092995944,37.6590110994471],[127.03437699882001,37.6567013003828],[127.0330868995003,37.656429299727996],[127.034562899061,37.6553594004681],[127.0345356990374,37.6541330995434],[127.0337463998267,37.6527504009261],[127.0317714987879,37.652338601128],[127.0305964999629,37.6522444012222],[127.0301392997989,37.6535274018688],[127.02883900026521,37.6530710021255],[127.0295652987279,37.6514779006293],[127.02847039982281,37.6510333010739],[127.0282104998713,37.652094501057],[127.0284703984193,37.651033300533804],[127.0272227996669,37.6503414012257],[127.0259665996459,37.6508527000708],[127.02653479968349,37.6506767998611],[127.0256108996721,37.6499406000667],[127.0258406994804,37.6484683001464],[127.02681889948059,37.646278000037704],[127.0283325991058,37.646731899006596],[127.0283444995821,37.644084899614604],[127.029235499434,37.6440742998077],[127.0282494000798,37.6422011007139],[127.0261088999871,37.6427122005624],[127.0259656999377,37.6418602006604],[127.0246922997558,37.6430858006349],[127.0240471993298,37.6425007009348],[127.02230710002421,37.6429515002687],[127.0207733995215,37.6405741005925],[127.0187462991079,37.6394704005852],[127.0188531994902,37.638752700228196],[127.0177600993224,37.6386796999669],[127.0190932996059,37.637716999324404],[127.019413199838,37.6382021995499],[127.0195793993527,37.6365829998865],[127.0187662994974,37.635495500069794],[127.0216366996256,37.6337583000919],[127.0213869999375,37.633129699493296],[127.02249379965211,37.6336161990747],[127.0230765998259,37.632627099543],[127.02566849987639,37.6326909995295],[127.02663199970391,37.6338525985593],[127.0278109985249,37.6339333984785],[127.0298557005114,37.6332966955608],[127.03000320028299,37.6345640989774],[127.03098030026369,37.6344687998131],[127.0303000006566,37.6351799995308],[127.0313952995613,37.635776898933905],[127.0321430004796,37.635311800039695],[127.03129270061919,37.6412072994912],[127.0356952997491,37.6417200990048],[127.03719650049709,37.6438069985945],[127.0386164993412,37.6418656993139],[127.03873250004119,37.639342699426],[127.0390290002836,37.640354799028394],[127.0402130995983,37.6390739997393],[127.04067109993329,37.639734399442],[127.0416576000185,37.6392810992558],[127.04308919972449,37.6398703996528],[127.042939799719,37.6392571992284],[127.0447780982175,37.6386442987701],[127.0450221994307,37.6366769971376],[127.04594320186699,37.6381171974848],[127.05176229830879,37.637031899406],[127.0516275996596,37.635738598360206],[127.0523925997789,37.6356643984217],[127.0537418986768,37.6332794993494],[127.0523432985173,37.632398099930704],[127.0509259986146,37.6298221012789],[127.0528308986736,37.629334499143596],[127.0511689984702,37.6264980984758],[127.05196859976509,37.6257275989356],[127.05509809956659,37.6263674989801],[127.0575997983114,37.6251719995196],[127.0578475980636,37.6226805020111],[127.05613679886571,37.6227505013626],[127.0564126980222,37.621381601504396],[127.0545038996408,37.620134199762504],[127.0553478996156,37.6195194984568],[127.0552492000608,37.6170544987355],[127.05978609904389,37.6165057982142],[127.0595283004018,37.61709479952469],[127.0612904995453,37.617294998514],[127.061920798915,37.6166184991905],[127.0612280999582,37.615678699715296],[127.0642013992026,37.615463399607805],[127.0635193998846,37.6142038008674],[127.0605202983097,37.614021000699005],[127.06055950004999,37.6126033997052],[127.06477899959481,37.613628599178],[127.0648283997968,37.6128544997072],[127.0658703999098,37.6134026996589],[127.0674370996939,37.6127029981263],[127.0671682004582,37.6136257998618],[127.0687316010768,37.6137528001406],[127.0692071006013,37.6149505989428],[127.0709047000277,37.6143121995945],[127.07204689889511,37.6148951994153],[127.0730485998923,37.6135434998871],[127.0742509997208,37.6141274994294],[127.07558519920681,37.6129149001443],[127.0737686996916,37.6117997003379],[127.075235899552,37.6102593004207],[127.0743817998956,37.6102748005436],[127.0737137993373,37.6091317997273],[127.0785663000274,37.606326199847],[127.0788628004092,37.6076271993658],[127.0794128003634,37.6072309998268],[127.0798138004935,37.608611099188295],[127.0809189001019,37.6087385993615],[127.0818592009036,37.610521399088604],[127.08193300165571,37.6117535012553],[127.0801692999322,37.6121176013501],[127.0787306007228,37.6153090997122],[127.0790603007726,37.6165234996653],[127.0798192003917,37.6163015002709],[127.07926610041349,37.617248199744196],[127.0800188007755,37.616971699969],[127.081632500496,37.6195078010145],[127.0810403006239,37.6204953002338],[127.0774596005148,37.6220304002979],[127.0781914003225,37.624695199052596],[127.0790622003334,37.6245149987555],[127.07880730062209,37.6261353996774],[127.0797300001184,37.625999999839095],[127.080030000303,37.6265711001226],[127.0792792007972,37.6269672000448],[127.0800024003179,37.627387200098404],[127.0789559001924,37.6285452007736],[127.0761132002568,37.6286672013628],[127.0754313002118,37.629742501325296],[127.0738941002274,37.6293755001794],[127.0720580026787,37.6336904005126],[127.074761400443,37.636632000099496],[127.0743010009034,37.636980399751096],[127.0753636998407,37.6387113980201],[127.0771401057792,37.6381066025793],[127.07030330216661,37.6412423003893],[127.0706173018526,37.6425512990803],[127.07181510265029,37.6430823012046],[127.0707400005423,37.645290000946105],[127.0715146005782,37.6478480002214],[127.070020000265,37.647740001283296],[127.0695769004687,37.6492014000991],[127.070262599783,37.6505462987542],[127.0711283000735,37.650217998436005],[127.0722966019129,37.6510322996877],[127.0711283000885,37.650218000750804],[127.07045640076039,37.65101829995049],[127.07077030044651,37.6521048988639],[127.0720356003909,37.6522022996869],[127.0729592994672,37.6536829982062],[127.07389380106409,37.6534367987523],[127.0742311011772,37.654699798851304],[127.07817,37.65455999895379],[127.079984003629,37.6563667995413],[127.0824198011932,37.6614677944403],[127.0834612028629,37.6614910999345],[127.08173980177929,37.6626101012776],[127.08094150257759,37.6655823983053],[127.0837436997754,37.6665602973274],[127.0837119011885,37.6683451983876],[127.0851459022805,37.669818899012505],[127.0868906015354,37.6702525010747],[127.086288100466,37.6702430003661],[127.0864509005669,37.672036900265105],[127.08498160055501,37.6744726000817],[127.08427999995651,37.673859000634],[127.0828268997673,37.6750737007236],[127.08184990028789,37.674227400985096],[127.07614619774169,37.6747101028058],[127.0754241975462,37.6734248013846],[127.0728952991304,37.6727414004583],[127.0714572963581,37.6679067033917],[127.068969398846,37.667726103572306],[127.0668544006592,37.6692429021354],[127.065890601623,37.671172300206],[127.0667718006349,37.6739070982998],[127.0677697011314,37.6742169985539],[127.06887020481551,37.6811704023254],[127.0658033041239,37.6846187020651],[127.06040770152259,37.6841262042158],[127.0591368027935,37.6870895012525],[127.0607773028559,37.692151902739596],[127.05710160653159,37.6946662002253],[127.0600663035669,37.699369695521796],[127.0677680044338,37.701412400064505],[127.06030250054131,37.711862701177296],[127.0605971003249,37.7150115993993],[127.0610941043959,37.7143818010014],[127.0578292033554,37.7172215986063],[127.06133789984669,37.717541898286],[127.061541299957,37.7183148991786],[127.0616917037983,37.7174398979433],[127.0639309018305,37.7192904965402],[127.0685524051764,37.71889159908],[127.0677022043055,37.722360198089994],[127.06904300296469,37.725524194926],[127.0739478012798,37.7270796997514],[127.0715063019393,37.7275584008692],[127.071678302866,37.7296804009151],[127.0696842027055,37.731305600788296],[127.0686162039973,37.7354791979676],[127.0709810016325,37.7364913969554],[127.0790823973533,37.7339122985933],[127.0791430972926,37.7319053006003],[127.0806998992727,37.7303819984598],[127.0807836994085,37.7286755996885],[127.08179679889801,37.728590499405506],[127.0822623005412,37.7273293992074],[127.0824640006074,37.727880398882895],[127.0844447998882,37.7261368994378],[127.08532629997791,37.728728197346896],[127.0876130016226,37.7295861973551],[127.0909669006104,37.7281929992631],[127.0899967019623,37.728859900657106],[127.0914109002543,37.7309452996044],[127.0931061988528,37.7302857992312],[127.0939624995824,37.7307882989415],[127.09607030013349,37.729406899215704],[127.0947710034875,37.7315646028314],[127.096594001999,37.735097999431304],[127.0969770037013,37.738095599888],[127.0961483007165,37.739037899716],[127.09683000066269,37.740198300655805],[127.09649880001501,37.7408833008387],[127.0952024999777,37.7400874010995],[127.0941787011642,37.7422388992702],[127.0955943006139,37.7422861996434],[127.0942812005374,37.7425495007063],[127.0946422001764,37.743595299660505],[127.0964249004292,37.7427003996795],[127.09727740013389,37.7431250000144],[127.09576160109991,37.7439242998877],[127.0961679009192,37.745420000080905],[127.094924001573,37.7466192991867],[127.09521819974731,37.7472696008047],[127.093661700833,37.747171901403696],[127.090171704323,37.7486614999141],[127.0914971019586,37.7516731049697],[127.0874311026465,37.7499236039988],[127.0873782026994,37.7559435979788],[127.08931050119979,37.7560965997325],[127.0882067011011,37.7619266005539],[127.0869877001918,37.760622001038],[127.0867714004201,37.761460901146],[127.08698769946379,37.7606220006002],[127.085992500459,37.7596726015496],[127.0820734017723,37.758994105424804],[127.0802105986616,37.763244806334704],[127.07852649873759,37.7603594036138],[127.0789495997824,37.7586412000049],[127.07761429946639,37.758210001233095],[127.07542220088621,37.7593529000069],[127.0752025979734,37.7623177054952],[127.0665782960249,37.7586901039038],[127.0608866017166,37.7611732014207],[127.06140090169319,37.7676138955525],[127.0633400024224,37.7691674947535],[127.0673744983879,37.7703761935448],[127.0660854023294,37.772337199310606],[127.0675178029508,37.774707398852094],[127.0669973997461,37.7751523006678],[127.0669667995614,37.7741634008976],[127.0647681010384,37.7741635030697],[127.0637099994792,37.7709071025694],[127.0591195040697,37.7711094023671],[127.06096690477659,37.780182898355896],[127.0654088012468,37.7834726965814],[127.0685481981074,37.782419397634705],[127.0684926994787,37.779782198461],[127.07030980065801,37.780459799009904],[127.0726932032134,37.7835001017382],[127.0707855004977,37.786793601650906],[127.0683763010708,37.7877997007738],[127.069195298713,37.7868941004674],[127.0688598988944,37.785396101843],[127.0664464013079,37.78550910173],[127.0635598004761,37.7880994020855],[127.0621616004001,37.7834649054063],[127.0604655978632,37.7831046062814],[127.0567314015974,37.784627204758806],[127.04866100222219,37.7898509991799],[127.05102100435411,37.7925190993397],[127.0502082010625,37.7938256020336],[127.0506835995085,37.7922826015417],[127.0492329004965,37.792381801278104],[127.04965830024871,37.793659600118595],[127.04823260007791,37.793160200505],[127.0473180011803,37.7952761984179],[127.05066700208141,37.8019989953437],[127.0557265057029,37.8053455953253],[127.0591276023018,37.8054563952145],[127.0614484999809,37.8063956942752],[127.0654668987008,37.8040907957111],[127.0667847973829,37.8008853989165],[127.0694345984531,37.8011506974722],[127.0738103956944,37.798389094129504],[127.0760416009658,37.798527497961295],[127.0769401002739,37.8000871982291],[127.0781578990561,37.7995650987512],[127.0791019981262,37.7965076999824],[127.0796335008852,37.7967071988768],[127.0798249001689,37.7980946992144],[127.0800799004254,37.7973861997955],[127.0812658002055,37.798316399284595],[127.0819794001927,37.8002320999283],[127.08091710091249,37.8001422002739],[127.08260320154419,37.801391199121795],[127.08365740108181,37.8043575002985],[127.0825307006537,37.8060266995917],[127.0847832018168,37.8102436950826],[127.0876004016177,37.809797496593205],[127.0852414023686,37.8104917998872],[127.0893154990482,37.8132477975147],[127.0925574018257,37.8135920986391],[127.093010700428,37.815008400147505],[127.0923510001213,37.8136916006348],[127.090942000266,37.814239900419196],[127.0910324004016,37.8152970996584],[127.091596500238,37.8150703001076],[127.0908794011011,37.8167385000222],[127.0919244008571,37.8183092994741],[127.0937178997477,37.818810798971704],[127.0943459991196,37.8182932994892],[127.0938445000144,37.8172728993846],[127.0947204001694,37.8181437997489],[127.09528230113959,37.8178072002341],[127.0916218002926,37.8212025010711],[127.0915144989784,37.8187726017413],[127.0889870001324,37.8182785020482],[127.0869702021492,37.8196953006314],[127.08802590109711,37.821657099625305],[127.0896775001648,37.8217513000913],[127.0880259011284,37.8216571003608],[127.08906110009319,37.8224814995364],[127.08906210024331,37.8240653000976],[127.08786980042011,37.8231904007444],[127.0872569003389,37.824903500522495],[127.08557020178051,37.8251358003404],[127.0868383002815,37.8266936996981],[127.0890220008395,37.8266150997596],[127.0869291992396,37.828150602081],[127.0868036991897,37.8269875011862],[127.0858798001136,37.8266723015014],[127.084405401588,37.8278575003162],[127.08463799487839,37.8295852043484],[127.0825032961269,37.825911607155795],[127.0764687021615,37.8313162017512],[127.0769363016939,37.833452399615],[127.0792408002756,37.8343932995403],[127.0837350022999,37.8385107968816],[127.0859264001085,37.838370397022004],[127.08766879836611,37.836371399021],[127.08906070101901,37.8366977990307],[127.0898099001122,37.8385090998904],[127.0876322006183,37.8382138002673],[127.0879531011444,37.839244600292304],[127.0867615004202,37.8395092014989],[127.0867817004,37.8410424999656],[127.0874864006999,37.8415100015324],[127.0855085003797,37.842365800710006],[127.0856284989702,37.8413280009953],[127.0844338998559,37.8410521011877],[127.08114660230629,37.845336800281096],[127.0833301001228,37.847052898565],[127.084421799845,37.8452005994805],[127.0851721012903,37.8452966991072],[127.0843907011901,37.8453342012068],[127.0833301022507,37.8470528994881],[127.0858481997326,37.850568595972405],[127.0876788039085,37.8513796963828],[127.0843422040057,37.8540977013058],[127.0860192097898,37.8580827093717],[127.0845786099215,37.859188609942805],[127.0886617058384,37.8720190971123],[127.0848924076668,37.8829491959973],[127.0904419021173,37.884833194113305],[127.0947446133892,37.8813359867724],[127.0988313072891,37.8898840002554],[127.0892023199819,37.90450880438],[127.0877309091278,37.9167178048996],[127.0844139007633,37.9178587018299],[127.08342760174959,37.9189778007108],[127.0837927014046,37.920934598821006],[127.0849562010682,37.9216337993964],[127.0807877050589,37.921816201360706],[127.0781384077082,37.9236339995429],[127.0754992121941,37.928695496097504],[127.0815017061916,37.9377704870225],[127.0830186024853,37.9430783023894],[127.0806481026069,37.9425305028136],[127.0747272085398,37.9469823984562],[127.0704524115276,37.9575880992422],[127.07161371036631,37.9616140952162],[127.0772555103352,37.9651335016933],[127.07746641070051,37.976866801660606],[127.0766052004996,37.9789965015971],[127.076876399331,37.9772678020298],[127.07297800322941,37.9743078049898],[127.0674554035512,37.9768524059863],[127.0681837028229,37.9813770014617],[127.0702119007947,37.9845365983021],[127.072030404177,37.9841867951108],[127.0730552016044,37.9865383987784],[127.0743459003137,37.9874333978834],[127.07542220110261,37.986027200261105],[127.0752011013237,37.9877725985157],[127.0799195966052,37.9878679984203],[127.08011809698671,37.9859526946409],[127.0856421004398,37.988141399704006],[127.07512900202221,37.9939546017932],[127.0754807980854,37.9927615015695],[127.07293920062699,37.9905605037705],[127.0704771030891,37.9921253022057],[127.0711808023854,37.9953853989456],[127.07354410063881,37.9945125014727],[127.0719361023158,37.9969590995126],[127.0709656012655,37.997111700328595],[127.06907130219551,38.0008569002581],[127.06951480175199,38.0020726990423],[127.0736949024013,38.0021311996688],[127.07198840220539,38.0050899018954],[127.06968880450499,38.0138293931559],[127.0720404999851,38.014652701138296],[127.0697819948798,38.0151408029638],[127.0696887932637,38.0138293989784],[127.0605254832155,38.004905194815905],[127.0614174823235,38.0042587954623],[127.066452977288,37.983504416216704],[127.0640412996093,37.9798889997656],[127.0649847986658,37.976965602689],[127.0572690971097,37.967967101197104],[127.0555612988175,37.9684186007456],[127.0572690977165,37.967967099935606],[127.05759759700389,37.965833701463296],[127.0565359980655,37.9641392031578],[127.0565981980033,37.962108005189],[127.0443329964064,37.9585394111549],[127.0435314980043,37.956759902943105],[127.03933778912089,37.9529370969501],[127.0373019905995,37.9418136018239],[127.0349804929069,37.9398517036568],[127.02669678967959,37.942069504369904],[127.0251184865223,37.929498902541],[127.0206588905249,37.9268379015849],[127.0220578993238,37.9241010971132],[127.0251044962772,37.925145996068295],[127.0282245931571,37.9202081010062],[127.02415519722649,37.917049604164696],[127.0188942981852,37.9179762024076],[127.0165361990045,37.9176122001687],[127.0137387980852,37.9135354995469],[127.019507498015,37.9125853983364],[127.0194282980942,37.9107981001237],[127.0130698000259,37.910488400134],[127.00997479978359,37.9088221014226],[127.00843330009259,37.9099315009364],[127.00623329951871,37.910014000019395]]],[[[127.0620574988765,37.601697098309906],[127.06203579889821,37.6008558991511],[127.0637349990988,37.6008638987364],[127.065325699948,37.599590899161],[127.0646276998369,37.5967040005333],[127.0627579996604,37.5944606000963],[127.064891499791,37.5933389994292],[127.067561800015,37.5947543996773],[127.0665338002421,37.5976411995768],[127.06803350006369,37.59726239992],[127.0676158001951,37.5996988997112],[127.0694370997355,37.5995250994293],[127.0702159008761,37.6002545009046],[127.0683873013778,37.6014799003443],[127.067594501557,37.6032155004218],[127.06807460102691,37.6048369011516],[127.0652880998884,37.605561900637596],[127.064891799561,37.6042252999066],[127.06552689955019,37.6048012992076],[127.065773099304,37.6043127996961],[127.0645316999211,37.6032693008626],[127.0636897002871,37.603740600975904],[127.0622774997794,37.6029191000608],[127.0628609996832,37.6025457000006],[127.0620574988765,37.601697098309906]]],[[[127.02002999951151,37.6248500000033],[127.0282152003132,37.6216411992557],[127.0285228010386,37.6243692990981],[127.0298941996672,37.6243657991016],[127.0304200003424,37.6246699990811],[127.0298446006709,37.625490999293696],[127.0307763004075,37.625472800112],[127.0299057006027,37.6277358997922],[127.03060020060599,37.6285764998955],[127.0282747001847,37.6272117004949],[127.02544810069841,37.6304710001978],[127.02364159983951,37.630737100416596],[127.0214705996416,37.6271768008016],[127.0202628995943,37.6265722003399],[127.0208107997646,37.625737999848795],[127.02002999951151,37.6248500000033]]],[[[127.0768791994621,37.6015515002858],[127.0798756002053,37.5995567998581],[127.08047230054589,37.6009395993677],[127.0825777005133,37.6019079999539],[127.0824565001827,37.6033169999153],[127.0796668005207,37.6042500006253],[127.0787129998807,37.6055195006537],[127.076644299941,37.6032369002924],[127.07684599984431,37.6027152995718],[127.07742779990899,37.603328299560104],[127.07808249938769,37.6022318001038],[127.0768791994621,37.6015515002858]]],[[[127.0553882996018,37.5891334988125],[127.0565863001368,37.588099899580804],[127.05814220013471,37.5895021994802],[127.0583684997886,37.5885276998686],[127.05994340038639,37.5890550001159],[127.05803279969221,37.590477400404396],[127.0553882996018,37.5891334988125]]],[[[127.0272767993758,37.6125806011732],[127.0285367983835,37.6111115989407],[127.030168799093,37.611431799895],[127.02952379962451,37.610430700028104],[127.0301249999093,37.6098891996862],[127.03233730017179,37.6116044995943],[127.0328765001709,37.611178999285],[127.0332018005516,37.612648899755506],[127.03268920030209,37.614152500239804],[127.0296934001094,37.616510000072495],[127.02777169965441,37.6151845999743],[127.0290286991096,37.614048300708504],[127.02857449856991,37.6130143003637],[127.0272767993758,37.6125806011732]]],[[[127.06717929943761,38.028054199836596],[127.069038400232,38.0285479984746],[127.0695915002993,38.027104199345395],[127.0707882999625,38.027808098981204],[127.0710731003944,38.0263987989994],[127.0730543984131,38.0268252985729],[127.0736069985703,38.0245067998639],[127.0725421996351,38.0239269004438],[127.0728772995015,38.0231402005613],[127.0706408991832,38.02432610050511],[127.0687322996462,38.0236482005259],[127.0685231989429,38.0223313003132],[127.06968860021911,38.0211019990658],[127.0718064981012,38.021197198970604],[127.0735781988857,38.0188685980937],[127.0744579998052,38.0200712984905],[127.0754965072188,38.0182371952574],[127.07544530254499,38.0209370017535],[127.07360700485279,38.024506798681095],[127.0720926020454,38.0304116009963],[127.0684091003109,38.0300812014091],[127.06717929943761,38.028054199836596]]],[[[127.08426639961111,37.5953295005168],[127.0858152996816,37.5952444992175],[127.0859843999456,37.5945907999146],[127.08581530051039,37.5952444995318],[127.0868388005036,37.5952304001127],[127.0872418001393,37.5961318000384],[127.0855113999998,37.5963827005487],[127.08426639961111,37.5953295005168]]],[[[127.0242709996291,37.6031567001209],[127.02582650030949,37.603028399055],[127.0257929005598,37.604907600109996],[127.02508930005851,37.6043424006161],[127.0245567996328,37.604999400633496],[127.0242709996291,37.6031567001209]]],[[[127.0155660985015,37.7394777000819],[127.0171464000583,37.737961599814895],[127.01714240115379,37.7397658002322],[127.0155660985015,37.7394777000819]]],[[[127.0859766972903,37.9490546963839],[127.089172499816,37.9481269989049],[127.0893588062702,37.9482821003399],[127.0859766972903,37.9490546963839]]],[[[127.0874608998729,37.5884710005006],[127.0875686001588,37.5883729999038],[127.0876842005228,37.5885320006366],[127.0874608998729,37.5884710005006]]],[[[127.0668208983076,37.6254472011245],[127.0671357004965,37.625523198804906],[127.0671080006159,37.6257038000593],[127.0668208983076,37.6254472011245]]],[[[127.0600938993048,37.5902198005546],[127.0601068998398,37.590075999990205],[127.06011310019849,37.5900192996683],[127.06010690035,37.590076000237104],[127.0600938993048,37.5902198005546]]],[[[127.0622325990663,37.6275152997491],[127.0623057999541,37.6276096998594],[127.0623548002713,37.6276663999161],[127.06230579987991,37.62760970026],[127.0622325990663,37.6275152997491]]],[[[127.0708365993302,37.6131112998349],[127.0708366019371,37.6131112989436],[127.0708853000422,37.6135341002892],[127.0708365993302,37.6131112998349]]],[[[127.0478903999719,37.7387261000094],[127.0478904000581,37.7387260998865],[127.04791769996,37.7388025000786],[127.0478903999719,37.7387261000094]]],[[[127.0627511997639,37.5933879998834],[127.06309430007761,37.5935168998964],[127.063094300122,37.5935169003263],[127.0627511997639,37.5933879998834]]],[[[127.032934598783,37.6555269998911],[127.0331460004779,37.6555181003094],[127.0329345996526,37.6555270006303],[127.032934598783,37.6555269998911]]],[[[127.0634674998445,37.5928332999301],[127.0634675000725,37.5928332999218],[127.0635258002323,37.5928593001034],[127.0634674998445,37.5928332999301]]],[[[127.0450074999314,37.5801195001606],[127.0450074999187,37.5801194998282],[127.04500750021529,37.580119500120404],[127.0450074999314,37.5801195001606]]],[[[127.0601211000631,37.5896316999705],[127.0601210997507,37.5896317000393],[127.0601210999102,37.5896316998095],[127.0601211000631,37.5896316999705]]],[[[127.0624257000654,37.595471100053],[127.06242569986361,37.595471099989595],[127.0624257000274,37.595471099889394],[127.0624257000654,37.595471100053]]],[[[127.06231239991159,37.6560754999829],[127.06231240002569,37.6560755000033],[127.0623123999816,37.6560755000565],[127.06231239991159,37.6560754999829]]]]}}]}