{"type":"FeatureCollection","features":[{"type":"Feature","properties":{"interval":15,"stationId":"5347802254"},"geometry":{"type":"MultiPolygon","coordinates":[[[[126.9179210989367,37.346349501492604],[126.9207075972746,37.3457279991408],[126.9242695981515,37.3402883975751],[126.9244700026084,37.341431398879195],[126.92749000023831,37.3431535977723],[126.9289589010675,37.3424810968572],[126.92749000223871,37.3431536007293],[126.9278575018712,37.346306897576],[126.92901860239131,37.3481111980405],[126.9318992039597,37.3489962996421],[126.9340144016728,37.351905097059806],[126.9338059013955,37.353446999381],[126.9347124005854,37.354207100609806],[126.9332049005299,37.353382001378],[126.9315783021565,37.3554744992855],[126.9326784005394,37.3560220997477],[126.9321322003231,37.3572054994312],[126.9339797009292,37.3571320994576],[126.9339069002255,37.3581732003626],[126.93343089942431,37.3585984004166],[126.93390689958089,37.3581731996248],[126.9329963001534,37.356953300648904],[126.93254819998,37.3574352009288],[126.9311521003293,37.356808300398896],[126.93236730009029,37.3588842000834],[126.929880500227,37.3593405005747],[126.9308258992292,37.3582145996835],[126.9303512997038,37.3574884004097],[126.9282889011568,37.3561605011463],[126.9274975003887,37.3572044002504],[126.9262224001529,37.356483500742904],[126.9258789004964,37.357683699542704],[126.9270505002468,37.3577923997074],[126.9267360003075,37.3591492996445],[126.9276775005073,37.3596591006318],[126.92685019979561,37.3592112006099],[126.92461779997129,37.3599579000827],[126.92349080083869,37.3589553004675],[126.9229023997665,37.3602720005007],[126.9217902991044,37.3594338998304],[126.9216411991391,37.358737499982695],[126.9222416993848,37.3588046997349],[126.92085439937689,37.3554453001711],[126.9228473996847,37.3555985996873],[126.924593097939,37.354348900937],[126.9244902953693,37.3510087999572],[126.9214000977119,37.3492898008155],[126.9213025966861,37.3464315018089],[126.9179210989367,37.346349501492604]]],[[[126.9116792954857,37.3265813015015],[126.9181541996376,37.324638699111],[126.9204559019063,37.3275502988352],[126.9209058014564,37.328684697700794],[126.9202781009352,37.328947899966806],[126.9225196027713,37.3307941987124],[126.9202709017979,37.3318963001462],[126.91999289967279,37.3333230021876],[126.9193156992462,37.332062701519504],[126.91712150144039,37.3325503010319],[126.91698770162901,37.3334811057581],[126.91541749824441,37.329963403778294],[126.9116792954857,37.3265813015015]]],[[[126.90379349925381,37.3116370000172],[126.9039905993671,37.3093962006384],[126.9031339995138,37.309237498042904],[126.9038297998989,37.3087079994752],[126.9039906010608,37.3093961990834],[126.9052272006129,37.309185399879],[126.90571440117719,37.3108047995664],[126.9068956999959,37.3113720989991],[126.9048456016515,37.3115159007653],[126.9071270015188,37.3138437004052],[126.9048455997381,37.311515901713],[126.90379349925381,37.3116370000172]]],[[[126.8661831992587,37.3016577011864],[126.86690900046041,37.301550299485505],[126.8669221025078,37.3034110025097],[126.8661831992587,37.3016577011864]]],[[[126.85336959941499,37.3096368008224],[126.85336959996529,37.3096367993242],[126.85336960057569,37.3096367994018],[126.85336959941499,37.3096368008224]]],[[[126.92940109954421,37.3580327998682],[126.929401100654,37.3580327998653],[126.9294011000501,37.358032800812296],[126.92940109954421,37.3580327998682]]],[[[126.9347925993398,37.3586404998953],[126.9347925995689,37.3586404990663],[126.93479260036139,37.3586405001952],[126.9347925993398,37.3586404998953]]]]}},{"type":"Feature","properties":{"interval":30,"stationId":"5347802254"},"geometry":{"type":"MultiPolygon","coordinates":[[[[126.8930507965583,37.3057645005399],[126.8964073010987,37.3056711988138],[126.8958142005888,37.3064337996141],[126.8969733994296,37.3065440995038],[126.89940019810581,37.3058146986703],[126.89989989760609,37.3041405003445],[126.89850029900569,37.3025206019644],[126.89570349735669,37.302850799884105],[126.8959542992845,37.3006180998033],[126.8975551027917,37.3005346998184],[126.8980321020906,37.301289199642596],[126.89755510023801,37.3005347008815],[126.8968359009572,37.3011426002736],[126.8983759999252,37.301725899789204],[126.9000417008275,37.301336599837796],[126.9007794001872,37.302491699010396],[126.9013761993824,37.3015579992379],[126.90744530114311,37.3003177991414],[126.9074879017097,37.3020387975307],[126.9111655997724,37.3064627927655],[126.915721100909,37.3056690984141],[126.91150620381231,37.3070622015859],[126.91340000191849,37.3123675962805],[126.9171913017887,37.3122527966623],[126.9198961022892,37.3151083000159],[126.91969950094779,37.3167616002586],[126.92076269988459,37.3184578985623],[126.9213273004766,37.3186715983609],[126.92211310013491,37.3170388998489],[126.9212618029498,37.3195518986039],[126.923963200916,37.3212603972167],[126.91811850091541,37.3228611019131],[126.9181542008797,37.3246387001355],[126.9209058014564,37.328684697700794],[126.9241142982479,37.3280532983322],[126.9242964985892,37.3272638989105],[126.9241143006682,37.3280532993571],[126.9247766000059,37.3282635991468],[126.9266649981175,37.3278336995767],[126.9278978986503,37.3252427994207],[126.9265996984793,37.323441698548194],[126.9272009000995,37.3236756990779],[126.92789790067401,37.3252427992665],[126.9291151038221,37.3257729975418],[126.9295332031214,37.3281133007986],[126.9312384014162,37.330186898725],[126.9347791018057,37.3299981998891],[126.9338887010174,37.3300476012817],[126.933178100058,37.331436600672305],[126.9312384019977,37.330186901922],[126.9313804019106,37.334266398479095],[126.9346579004639,37.335422898342095],[126.937023999943,37.3350611993709],[126.9379114018659,37.338719599341395],[126.9390279007494,37.3394547986062],[126.9403829008663,37.339179299647],[126.9406782009374,37.340065001033004],[126.9393882014226,37.339630401212695],[126.93816490264591,37.34170309914],[126.94139010033521,37.3422839989765],[126.94086930040841,37.3432632005211],[126.9402642997966,37.3425285003854],[126.93898900073711,37.3428817002361],[126.9397068011133,37.3450685995523],[126.9409607998593,37.3453012993196],[126.9414838001573,37.346265599204905],[126.9426113999468,37.3434824994738],[126.94453730038079,37.3460475993413],[126.9479289011461,37.3457211999559],[126.9470345003998,37.3475174003956],[126.9474491003837,37.3487192013449],[126.9447168001245,37.3514354005313],[126.9437417006107,37.351466600853605],[126.9440061003463,37.35338929893091],[126.945876400764,37.3549899995034],[126.9476169001983,37.3551639987867],[126.9460653009012,37.3559047000995],[126.9465729004352,37.3565211000425],[126.94539550040591,37.3574873005794],[126.94636970038171,37.3638132000447],[126.9451081009389,37.364107100328695],[126.9461527998942,37.3651114993243],[126.9468409001656,37.3642277997042],[126.9483164001514,37.3645011995565],[126.94684090143309,37.3642278007884],[126.9464365006507,37.3649682007072],[126.9475727995144,37.3665355991398],[126.9506007004492,37.3675845002399],[126.9493792011882,37.367996401095006],[126.9490821014853,37.369026000065396],[126.9518071007643,37.3713359992652],[126.9501794001278,37.3700256013232],[126.948740600791,37.3720552997851],[126.9511989007446,37.3745498006557],[126.949708199856,37.3730226022589],[126.9456074039568,37.375996899284594],[126.9450859004749,37.377811101942804],[126.9420350988656,37.3774420006658],[126.94015470041029,37.3786287011442],[126.9389187988236,37.377824599784695],[126.9407128987056,37.3779926991297],[126.9402167991941,37.3755575006937],[126.938005199409,37.3750475003651],[126.9361297996243,37.371504900606595],[126.936998499449,37.3713172994195],[126.93658629992001,37.3699564999891],[126.9377416995013,37.3701004992214],[126.9383710995305,37.3679954999945],[126.9359041001251,37.368335101007105],[126.93312319980299,37.367624100242104],[126.9309969002539,37.3685256004909],[126.9310890988577,37.367356700702004],[126.9295492998397,37.3662421013244],[126.928045900258,37.3670305002516],[126.92894750044151,37.367509500057],[126.9278893005831,37.3685049002232],[126.9283212002925,37.369334999512],[126.9287874001416,37.36899300050381],[126.92800650013329,37.369517700491],[126.9271441998947,37.368215901664605],[126.92636799971659,37.3699419011891],[126.9255442995405,37.369671100319195],[126.9250129000719,37.3679257020646],[126.9221020978205,37.366360704092],[126.91781280052999,37.3661994044587],[126.9164004955377,37.3644892005945],[126.9114634968081,37.3618839009646],[126.9104854980173,37.3532694013713],[126.9097056962073,37.352248598232805],[126.9114477982669,37.3519421971748],[126.9135729961417,37.3495648995521],[126.9093813948507,37.3453835970533],[126.9149947957643,37.341760796118905],[126.9159335948255,37.3399059979737],[126.9149715957875,37.3339423039374],[126.90813109574701,37.3341061992436],[126.9071614971967,37.3279807991447],[126.9052855985255,37.324181102889796],[126.899644098001,37.3219127020313],[126.8996402992678,37.3190689025696],[126.89772689249409,37.316344399237096],[126.8991049957779,37.313127898553596],[126.8962300986528,37.308863002818505],[126.89463479827951,37.310060200826904],[126.8967901984941,37.3076262008015],[126.89581419947011,37.3064338019939],[126.8930507965583,37.3057645005399]]],[[[126.8000970989517,37.3225079997987],[126.805102696806,37.320339498047204],[126.8078147994577,37.317213199212595],[126.8125777996413,37.318405297780004],[126.8137747993224,37.3160482993774],[126.81542949962599,37.3160601995825],[126.81581199922199,37.315337899974104],[126.81498519862079,37.3148904993071],[126.81697239996039,37.3131505996086],[126.8196270990302,37.3127992999172],[126.8185919987242,37.311563900068904],[126.8202983989704,37.3116262992982],[126.8201992988385,37.3102976989843],[126.82093839967061,37.3100192994183],[126.82240180149539,37.3105721995394],[126.8215899013724,37.3122245000734],[126.8220526009097,37.3135807987171],[126.8254523005316,37.312717799365004],[126.8260195998712,37.314394198959405],[126.826421499965,37.3131424996009],[126.8265136002028,37.3143752987486],[126.82992899906601,37.3153074991404],[126.8298550998834,37.314408398487096],[126.83143889977309,37.314318298164395],[126.832809199853,37.311363998249696],[126.83289550070411,37.3123916993184],[126.8342286993709,37.3128383988717],[126.8363182992169,37.312125498220404],[126.8368978986373,37.3108904994554],[126.8360887984479,37.309443099640504],[126.83762779956321,37.309410297622506],[126.83832739983289,37.307238498106095],[126.8388705004448,37.3087876992776],[126.8399575998248,37.3092113994021],[126.8411874988798,37.3070853985745],[126.8435668992865,37.3069581993202],[126.84407249878089,37.306286299992095],[126.8435656997655,37.3047324995313],[126.84491349893621,37.3046905994268],[126.84486709845021,37.3037534985661],[126.8471104994319,37.3015765983021],[126.8523499999724,37.3014314988691],[126.85430359801879,37.3004659998346],[126.8567815991735,37.297520499022696],[126.8588880000594,37.2966451991725],[126.8606390986873,37.294747100067504],[126.860728501369,37.296062199294504],[126.8623178997796,37.2963123990443],[126.862995999375,37.2946749996312],[126.8624547988853,37.293570199720996],[126.8648343990114,37.2910674000357],[126.8657856990295,37.2910265996666],[126.8657506999919,37.2902159995427],[126.8679091004673,37.2909759996037],[126.86894410051009,37.2925410991868],[126.86997220040631,37.2925136996074],[126.8695351004608,37.293348599631],[126.8712550004481,37.2932967996506],[126.871311800759,37.2945381990863],[126.8726261999654,37.2940462991995],[126.8726691003546,37.2948656991702],[126.87631060032379,37.2959379992437],[126.87475380249069,37.297735099123294],[126.87636410088041,37.2999846968737],[126.8799575057139,37.3024515985718],[126.8758000045167,37.3024135017667],[126.8750015019636,37.303370703610405],[126.87459580012869,37.306892401923704],[126.8732442002815,37.3056892016156],[126.8724790010467,37.3060732012316],[126.8719620010039,37.3096504990275],[126.8727859019801,37.311790203982795],[126.8697544998039,37.310695801961195],[126.86937329975201,37.3125263004648],[126.8674343004758,37.3118587007855],[126.86431680038349,37.3123519010539],[126.8642977989516,37.3113355011644],[126.8626710005784,37.3113625011374],[126.8618178998942,37.3126705006442],[126.8598605995088,37.3098006010555],[126.8588055005639,37.309548501307596],[126.8584024994866,37.310563300746196],[126.85476380253981,37.3093739020985],[126.8542363998725,37.3101499044293],[126.8523299004547,37.3094587010005],[126.8506248021598,37.310890799568405],[126.8515260025829,37.3140677005115],[126.85040030096451,37.3137691013573],[126.8495010018638,37.314467300659096],[126.8493309019612,37.3171537999075],[126.8490992994206,37.3163067006303],[126.84667899958039,37.3159880010266],[126.84517790024509,37.318567099986204],[126.8453500985794,37.317769600951195],[126.84322110070839,37.3179404007804],[126.8434518005167,37.318661300548804],[126.8371559003431,37.320977501243796],[126.8369106987743,37.319077501824395],[126.8325879991668,37.3181719010781],[126.8319323997177,37.3169257009207],[126.8293862001171,37.3179666013981],[126.8287076008024,37.319488499957195],[126.8261825001176,37.3213690013627],[126.8257071998128,37.3196080017871],[126.8247734007466,37.321435299959795],[126.82275500163131,37.321530200317795],[126.82227120274061,37.3230481011748],[126.8209893012516,37.3231100012577],[126.8211004009095,37.3244353005961],[126.8195966006406,37.324663401321],[126.8192141994681,37.3227476014111],[126.8176029989272,37.3217255005844],[126.8165311997293,37.3222278000957],[126.81446459890479,37.3181612014336],[126.8129813999101,37.3185028004515],[126.8096886007149,37.317514801544796],[126.8087169010188,37.3184830009903],[126.80968420180841,37.319734102426196],[126.8089382011813,37.3208139014153],[126.80772909928851,37.320401099841796],[126.807839999118,37.3197400004207],[126.80636600059199,37.3196901004706],[126.8059820993758,37.3205904023667],[126.80310940174509,37.321234799890696],[126.80473090001739,37.3217700015328],[126.8031094007913,37.3212348010863],[126.8034299006748,37.322353401292695],[126.8000970989517,37.3225079997987]]],[[[126.945619297999,37.3928590995594],[126.94566430018091,37.3864927998],[126.948905399878,37.389117299393504],[126.9499843999875,37.385795099728504],[126.9509520003834,37.3856652993004],[126.9516644000814,37.387395898631205],[126.95307509960011,37.3875446991101],[126.95344919969209,37.3862509998257],[126.9526299998328,37.385321999944004],[126.9541877005209,37.3854486987643],[126.955374000716,37.3866222996867],[126.9546119001934,37.388053499921995],[126.9558879000483,37.3879480997735],[126.9574018003702,37.3906673002977],[126.9558112013882,37.391105901513896],[126.9558045011191,37.392743600395704],[126.95307440025391,37.3938951011783],[126.95263519984421,37.392409701287605],[126.9516321003749,37.3942679003646],[126.94786930163839,37.392963001721405],[126.9487120013661,37.395309401971204],[126.94786929923329,37.392963000590804],[126.945619297999,37.3928590995594]]],[[[126.9582608994276,37.392923700276896],[126.9588176003657,37.391899099543906],[126.960540299345,37.3921239991632],[126.96057999944479,37.3912104998423],[126.9625488005686,37.390718199737904],[126.9637074998337,37.3913057994956],[126.9647529001243,37.3904016997596],[126.96445020072301,37.391239199977804],[126.96524980031319,37.3925550993633],[126.96592630320211,37.3923982009972],[126.9652746037,37.3935434011501],[126.96667120212739,37.395992200174504],[126.9652786000854,37.3969645023122],[126.9630281004321,37.3970845015643],[126.9600324995965,37.3960676005415],[126.9590744998034,37.394743399928004],[126.9595962991181,37.3938574003129],[126.9582608994276,37.392923700276896]]],[[[126.93078679926691,37.383734100890095],[126.9315369993904,37.382852497834996],[126.9341733004667,37.3835311982109],[126.9354920992271,37.3820734995878],[126.9351143002839,37.3809562991157],[126.937529901858,37.3813242001682],[126.9354921013893,37.382073500929195],[126.9365546003268,37.3832324997702],[126.9353631004837,37.3833900001367],[126.9351640011898,37.3845913996495],[126.93412130082851,37.3850932999015],[126.9348889001938,37.3853151999785],[126.9335959008544,37.3886402008055],[126.9331255999121,37.386996000894406],[126.93252889969159,37.387614500771996],[126.9321752988286,37.3869660007645],[126.9322649990899,37.385791701076],[126.9311831995428,37.3860123005431],[126.931640199119,37.3854745003184],[126.93078679926691,37.383734100890095]]],[[[126.78566269897371,37.3262569004701],[126.7867318999818,37.3244521994427],[126.78765140008841,37.324248699756495],[126.7883552002087,37.3248468998207],[126.78806540066799,37.3256598000068],[126.78919110028289,37.3257835998762],[126.78778960007689,37.3274188001177],[126.786387000122,37.3273949002844],[126.78566269897371,37.3262569004701]]],[[[126.97380049949099,37.4011992998153],[126.9746174000982,37.399982299125],[126.9758741995319,37.4001159990373],[126.97597020008931,37.3991834991322],[126.97718830081459,37.3993130993899],[126.9767018004389,37.4001815996573],[126.97774920329661,37.401273100748696],[126.9769664001945,37.4028092016888],[126.97447279907121,37.4033632028638],[126.97380049949099,37.4011992998153]]],[[[126.9216726987113,37.4037876022685],[126.9230705987453,37.403286299314395],[126.92279189966811,37.4023903999396],[126.92376989918729,37.4011794994222],[126.9230800006924,37.4016400000398],[126.9247738003662,37.4017406997462],[126.9234068999222,37.4035323011756],[126.9216726987113,37.4037876022685]]],[[[126.7655887987229,37.3387304996447],[126.76667979951061,37.3389927992128],[126.7668379002867,37.3387468995634],[126.7672119036044,37.3389241007518],[126.7655887987229,37.3387304996447]]],[[[126.79471979809189,37.3128160996334],[126.7954219005714,37.3129894994208],[126.7946763998948,37.312925604391],[126.79471979809189,37.3128160996334]]],[[[126.9449857995923,37.3443161009371],[126.9449858009735,37.344316099834],[126.94515970011891,37.3447482002952],[126.9449857995923,37.3443161009371]]],[[[126.9084086985598,37.4192983004453],[126.9084087006254,37.4192982996896],[126.9084086991395,37.4192983012857],[126.9084086985598,37.4192983004453]]],[[[126.9485725994888,37.353613199763295],[126.9488547004163,37.353604499499205],[126.9488546996989,37.353604500360504],[126.9485725994888,37.353613199763295]]],[[[126.91962199951381,37.3131818006523],[126.9196219999782,37.313181799765104],[126.91970310137401,37.3132113005889],[126.91962199951381,37.3131818006523]]],[[[126.9390938992327,37.379798299368595],[126.93909390061191,37.3797982989434],[126.9390938999056,37.3797983004346],[126.9390938992327,37.379798299368595]]],[[[126.990273798029,37.4267101015389],[126.9902738004743,37.4267100990592],[126.9902738005349,37.4267101004477],[126.990273798029,37.4267101015389]]],[[[126.84208189958579,37.3059913007856],[126.8420818989059,37.305991299857006],[126.84208190044049,37.305991299442105],[126.84208189958579,37.3059913007856]]],[[[126.9338988995743,37.3687713000202],[126.9338988997079,37.3687712993543],[126.9339146999668,37.3687969003388],[126.9338988995743,37.3687713000202]]],[[[126.9382870983514,37.3833841000898],[126.9382870989065,37.3833840988894],[126.93828710125099,37.3833841001546],[126.9382870983514,37.3833841000898]]],[[[126.7899339995336,37.3264550997203],[126.7899340000103,37.326455099508095],[126.7899340000764,37.326455100117094],[126.7899339995336,37.3264550997203]]],[[[126.9241563995398,37.4005790999448],[126.9241563998127,37.4005790988962],[126.9241564007365,37.400579099756],[126.9241563995398,37.4005790999448]]],[[[126.9664387995154,37.3909871001546],[126.96643880000411,37.390987099771095],[126.96643880013971,37.3909871000441],[126.9664387995154,37.3909871001546]]]]}},{"type":"Feature","properties":{"interval":60,"stationId":"5347802254"},"geometry":{"type":"MultiPolygon","coordinates":[[[[126.7187282970443,37.3680179016957],[126.720383099345,37.3633685999362],[126.7197878996207,37.363049000260595],[126.7204860993188,37.3625167999007],[126.7193086980696,37.3590926997555],[126.72037399946761,37.3573680998596],[126.72162299908929,37.3573995994864],[126.7207348993838,37.3564831993641],[126.7229438985351,37.355917099458196],[126.7231073988371,37.3550265994728],[126.7215738989239,37.353449200666],[126.72254579885461,37.350377199335696],[126.7249975978139,37.3494842993249],[126.72563299717851,37.348477200332],[126.7259963958272,37.344867801262204],[126.7251973966262,37.3440446020854],[126.72616189758189,37.3434484990984],[126.72607549982709,37.3373267984583],[126.7266882006246,37.3369433992223],[126.728688599637,37.3389740969577],[126.7315123009435,37.337229196296406],[126.73327420106929,37.3390520964275],[126.7372472010528,37.337164298781],[126.7376962003262,37.3389253990819],[126.7386788993435,37.3392324987748],[126.7441366992701,37.338333897996804],[126.7446134987933,37.3367403995903],[126.7493487013113,37.3338199976572],[126.75239179983039,37.3360293970492],[126.7541467980754,37.335855697222904],[126.7545523976698,37.3323824006962],[126.7520561025325,37.3296781984362],[126.75529460114029,37.3327242955443],[126.7586709004386,37.3329247965003],[126.7601168989926,37.331531397893706],[126.7622011998972,37.33294629787591],[126.76400869808971,37.3302233005989],[126.76227389982449,37.329645901176306],[126.7614111994065,37.3304716002554],[126.76099589656239,37.3271953983142],[126.762961597062,37.322573202251704],[126.7594719972046,37.3235799007578],[126.7623905964891,37.3212683009745],[126.7619422989274,37.320243898761504],[126.7704941954358,37.316912899026],[126.7690359958003,37.310419201430996],[126.7667365980997,37.3090867027635],[126.7642387993309,37.3105184984624],[126.7667365968331,37.3090866998942],[126.76577359674181,37.304637300929905],[126.7684028967471,37.3023091009278],[126.7677169982775,37.3007539964402],[126.76997749601699,37.297657399536796],[126.7736890973171,37.294997098486604],[126.7726450144983,37.2928498866483],[126.7751761119672,37.292830486667704],[126.77695890373019,37.296974596378895],[126.7805399001492,37.297045496308],[126.78342499726409,37.2951053982481],[126.7890981000416,37.2932411999209],[126.7910912980484,37.2959072972548],[126.7967749038404,37.2970085983456],[126.7983565022404,37.2983359971189],[126.80071049988639,37.2971391983157],[126.8010500995652,37.2957639995902],[126.80071050077639,37.297139198470894],[126.8023435991433,37.2974561981539],[126.80347669802761,37.2957405998013],[126.80475989986789,37.295432697506],[126.8088175994877,37.2959108920099],[126.8141653005468,37.298045192556195],[126.8177091970029,37.2957215948798],[126.8183077964043,37.2933279972734],[126.8232890004345,37.2929545988302],[126.8261012007581,37.2946981989699],[126.82716309969621,37.2941673995007],[126.82791829962109,37.2917816994207],[126.8296912004878,37.2921000979158],[126.8316204996959,37.2905781948934],[126.8353537018341,37.2914072954891],[126.84133249913239,37.285547997498696],[126.8450308961792,37.2858051976555],[126.8456428955672,37.2841701992905],[126.8427928982542,37.2820104010218],[126.8434742991571,37.2801851987845],[126.8444320014727,37.280785998193096],[126.84719319871151,37.2802149987641],[126.8474907001351,37.276685199351],[126.8495708982405,37.2777886983457],[126.849816194507,37.2746374944731],[126.8518179010893,37.273553297801705],[126.8540948048271,37.272741797133],[126.85805980086211,37.2741491957256],[126.8602456004137,37.2732489964518],[126.8618233999466,37.2745064985705],[126.8625325992374,37.273793399283605],[126.8618825001458,37.2730500994625],[126.8638541017483,37.274464499400004],[126.8662897010512,37.2747682979984],[126.8678498033539,37.2762671977747],[126.87163960169309,37.2756288978908],[126.8744385001303,37.2770577981955],[126.8759602986085,37.2761440991092],[126.8758274000338,37.2748467997669],[126.875960302375,37.276144099816904],[126.87956229877301,37.2799846959763],[126.8823339000689,37.2802308954906],[126.8853115010198,37.2770962986005],[126.88521220188579,37.280551697975994],[126.8859013042352,37.2808826002062],[126.8883163055723,37.2888076920221],[126.8947357090329,37.2949921918494],[126.9038009020519,37.2960891915003],[126.90911870352559,37.2993366937311],[126.91534199730229,37.2948849981828],[126.9141903961032,37.2915930966763],[126.91868170115039,37.290908494898304],[126.9204330008556,37.2895347958537],[126.92627640009631,37.2902299972308],[126.9290766014234,37.2948024957155],[126.93176900092091,37.2947138957505],[126.9339590013388,37.295742700762496],[126.93033370476141,37.298765202957796],[126.92995740302041,37.3029056020504],[126.9319899009879,37.305654499301504],[126.9331160998617,37.3060392989167],[126.9335267015899,37.3051823971551],[126.9365134016384,37.306027096076804],[126.9391089030754,37.3085359972051],[126.94162350056081,37.3096305961105],[126.94319399899031,37.3091836965574],[126.9444627021753,37.3059642947267],[126.9509878968035,37.3046523960028],[126.95107699866409,37.3038638967308],[126.9524208015277,37.305905698253795],[126.95471449951819,37.3058008988698],[126.9559367019007,37.3045031978721],[126.9581120998562,37.3058299965539],[126.96064179935071,37.3030361988379],[126.9630101986156,37.3017510997573],[126.9638679977578,37.300608800899596],[126.9636093980164,37.2987263027821],[126.9605936983223,37.2968245043919],[126.9575799013361,37.2991611020553],[126.9569986990571,37.295003398276],[126.9599670990025,37.29305399906],[126.9596961992734,37.2922266998873],[126.9614453964307,37.2906468959624],[126.96253640041951,37.2903371985493],[126.96413419882171,37.291750697135804],[126.96888489871691,37.291470095044296],[126.96961999798181,37.2886997978146],[126.9696626988745,37.2865710991648],[126.9687363994735,37.285211500121605],[126.9692595999469,37.2850030995831],[126.971520500391,37.2865880993861],[126.96980580184861,37.2886902984522],[126.97194899970539,37.2901188970236],[126.97321199844241,37.2899061972363],[126.9744544986521,37.284761998875],[126.9722073994029,37.28121749973759],[126.9770076996308,37.2807662986391],[126.97852779811069,37.279771099634296],[126.9777791989569,37.2771754990841],[126.97837089964,37.2760239996294],[126.9795474993137,37.2762463993153],[126.9802995986898,37.2747933980595],[126.9893406974154,37.272068400242],[126.98829429602,37.2677879998522],[126.989821299485,37.2682131987105],[126.9908329984733,37.2666806002431],[126.9895237997825,37.2664495004742],[126.9893923994838,37.2640995001791],[126.9887006996845,37.2639666002931],[126.9904577988514,37.2612211995718],[126.99002759596151,37.259905798681196],[126.99138950027509,37.2598087986257],[126.9936865003873,37.2570947995782],[126.99447929959449,37.2578643988086],[126.996628700512,37.257655197317],[126.9976669018065,37.258727298568395],[126.9994131000603,37.2588577984379],[127.0011228983505,37.2585118987838],[127.0009280021952,37.257142597038204],[127.0019889017786,37.2582166995827],[127.00415080141221,37.257937800399],[127.0047344007414,37.260185898315704],[127.00609540055271,37.260022899886806],[127.0043354006617,37.2604677008231],[127.00434710065001,37.261787799503],[127.0067203007851,37.2620741999698],[127.0054630004398,37.261965100556495],[127.00626470117881,37.263789800446396],[127.0036099018454,37.2641888015607],[127.0030333018531,37.2661901004328],[127.0053237003333,37.2680505995201],[127.004879301321,37.2687901004973],[127.0060048009711,37.2695990003807],[127.0060698005967,37.2710006005195],[127.0037766011988,37.272946099940896],[127.0049106010649,37.2733984000775],[127.0036759011659,37.273561700349305],[127.0026839999413,37.2751568011915],[127.0030463987447,37.2742839003911],[127.0017041996311,37.2743265999761],[127.0021329993903,37.2731698010778],[127.00052529969531,37.274301200400295],[127.0008599988078,37.2725463008494],[126.9990634006044,37.2724181009776],[126.9989787003382,37.274914900498],[126.996773999991,37.272620001157506],[126.9951673991778,37.273785401256305],[126.9967739993002,37.27261999956281],[126.997687399293,37.2709766992363],[126.9973211996592,37.2700203001927],[126.9951633009456,37.2704394009246],[126.99463299959929,37.2715983005009],[126.99328559870139,37.271065000597304],[126.9919575000295,37.2687555029068],[126.9905471996964,37.2683957037275],[126.9890909007803,37.2728344014786],[126.9871151014922,37.2727139008645],[126.9870896031927,37.2747734010917],[126.98585010443219,37.2771505987145],[126.9878799024024,37.2798118960532],[126.9888932013891,37.2800731957919],[126.991716999767,37.278496697814596],[126.992418999065,37.2770068993044],[126.9939413989695,37.2778656984544],[126.99494039940481,37.275630999410694],[126.9970431002384,37.275993099832604],[126.9991706005483,37.279750199525104],[126.9986205012372,37.2810551995809],[126.9998722005197,37.2810522991649],[127.00103010091209,37.2822944002739],[127.0002196009945,37.283697400201405],[127.00016910106399,37.288317399910895],[126.9994090004948,37.288316600518904],[126.9992909006129,37.289344999490496],[127.00065840049521,37.2897477001724],[126.9988203998283,37.290288000207994],[126.9988845996987,37.288625500925],[126.99717600056479,37.2887148006057],[126.9952030005406,37.2920345016066],[126.99435659990381,37.2923081001629],[126.99337460033139,37.2913597009042],[126.99132709909591,37.292311201224],[126.9898213996523,37.291161200724],[126.9885944001752,37.2929479009737],[126.9879584993471,37.29209560001431],[126.9885580988296,37.2903262007429],[126.98648949975211,37.2895439015007],[126.9853892008339,37.2910757000326],[126.9869784000502,37.2918787994972],[126.9858186009655,37.2914725008026],[126.9857827010014,37.2925689997061],[126.9874144007651,37.2938156998984],[126.9862567010356,37.2947598014291],[126.9862450010473,37.2961796000093],[126.9878730003812,37.296893500484806],[126.9874903991961,37.297468600201405],[126.9862450004415,37.2961796014904],[126.9846959019906,37.2968155008545],[126.9853626013239,37.298654899015105],[126.98623860044789,37.2994933981766],[126.98733030140839,37.2988861999321],[126.98660020101009,37.2999611007184],[126.9876969999133,37.3022320984474],[126.9887685999126,37.3007023995466],[126.9892760001331,37.3020311992628],[126.9901983005909,37.3004064997313],[126.9915469005434,37.3033325017751],[126.9873719011424,37.3023909029949],[126.98679160088,37.305280100531995],[126.9876698001694,37.3061835003287],[126.9869187004496,37.3071764998779],[126.9859882005774,37.307084500465805],[126.9858201002194,37.3083553008955],[126.98514059989209,37.3078224002206],[126.9828251999453,37.308854300277],[126.98133610001199,37.310329800527995],[126.9821813961897,37.3081142023228],[126.9818571965139,37.3061789042581],[126.97609609957671,37.305632004175706],[126.9731247025481,37.307401302406404],[126.9729423027305,37.3095176002901],[126.97111850182391,37.310381600657],[126.9702144978114,37.312960704262196],[126.9711184967035,37.3103815999083],[126.9703538974681,37.3072060030839],[126.96770200012,37.3075135027764],[126.9661309016911,37.3086535016364],[126.9625247000683,37.3135879028414],[126.9615678010252,37.3163024001269],[126.9617033008897,37.3191409972883],[126.9644415981514,37.3179461984831],[126.96427750042339,37.3167257988722],[126.96520820159391,37.3200224970835],[126.9684389010273,37.320736100042595],[126.9655394992464,37.320708301024396],[126.963286901499,37.3228643988683],[126.9636443019121,37.327124600386696],[126.9644384998698,37.328028802644496],[126.9618776964832,37.3284982011392],[126.9598037985571,37.327148202489205],[126.9591021001592,37.3250981013533],[126.957826800065,37.3254465017182],[126.9566797016812,37.3301080995293],[126.9570905012704,37.331699097938305],[126.9586167042674,37.332035998419705],[126.9592515025704,37.333398700400295],[126.9617105006614,37.3348755003132],[126.9597639015909,37.3378070992628],[126.9600731012972,37.3410290962289],[126.96427700063839,37.3410459952489],[126.967465300808,37.3424407985192],[126.965300802999,37.3457630998978],[126.9660995022003,37.346578099082805],[126.9706420014621,37.3467294985939],[126.9724248001389,37.3497265990465],[126.97344740069519,37.3492818001584],[126.97334530021581,37.3527297000335],[126.9741278004781,37.353212200251605],[126.97202229963281,37.3539732004864],[126.97086179944259,37.353303100140195],[126.9709848993195,37.3524454009979],[126.969024398643,37.3523257017548],[126.9652400020058,37.3553038992962],[126.9676714995743,37.356519598080496],[126.9702240000804,37.353733899709404],[126.9708772008148,37.3545993006425],[126.970329600649,37.3567940993658],[126.97180329989891,37.3568149996826],[126.97288800068449,37.3590345999651],[126.9713077015528,37.3589623002007],[126.9716495020814,37.3621749003059],[126.9705740008355,37.3620032010788],[126.9681204032891,37.364791598290395],[126.97036970471751,37.3654882001916],[126.9675786019936,37.3688849995946],[126.9688570007152,37.373508594971],[126.98084920315249,37.378542897778196],[126.98315060045991,37.3785089995463],[126.9824259009984,37.3792616992355],[126.98627029715401,37.3822372962599],[126.9890324050014,37.3832843944069],[126.9907995043226,37.387586898033504],[126.99376750135461,37.3883070973133],[126.9967413002352,37.385362299798096],[126.9957396016348,37.3858424004968],[126.9970312003432,37.388094198245],[126.9982302992142,37.3861077995554],[126.99753410116129,37.387480699354896],[126.99806730062811,37.388914897920706],[127.00016930082779,37.3886316995012],[127.000274401032,37.3891732014688],[126.9981730012878,37.3892388019691],[126.99830300136331,37.3921150015823],[126.99690250186221,37.393734300949795],[126.9974252013395,37.3945913000928],[126.9967550043227,37.3981025018103],[126.99412260369989,37.398559702818],[126.9949986028239,37.4030710983066],[126.9959122037915,37.403117901569495],[126.9921143020638,37.4021540007636],[126.991257501367,37.4040887014691],[126.98683889830589,37.4060768016416],[126.984386800758,37.404080803637605],[126.9836597007027,37.409297798737896],[126.9845321006127,37.408347899370504],[126.9863965987482,37.4111849965334],[126.9883980990231,37.408333898409104],[126.9904529989597,37.409465698245896],[126.9914482001622,37.408500597997005],[126.9935600995463,37.408527197545105],[126.9970554044283,37.412085399047704],[127.0026190988646,37.4154924956406],[127.0067710017661,37.4138288983908],[127.0059743040907,37.4172914978548],[127.0069169031481,37.419953295193004],[127.0135353005413,37.420449699749796],[127.01293720031579,37.4206145003606],[127.0122910042737,37.4249157983232],[127.01670659985811,37.4251662980727],[127.01705899950571,37.4239775992614],[127.0185630997716,37.424377898223604],[127.01966630035069,37.4231634966852],[127.02194710127681,37.4249805985175],[127.0204681999379,37.427016301722496],[127.01651180170461,37.4285273004591],[127.0171662010502,37.429505499480896],[127.01980640059969,37.42940389933489],[127.0233913023436,37.4335323937841],[127.0263645005639,37.434356393716996],[127.02581540197279,37.4372831982142],[127.0251407006988,37.4377968060478],[127.02307749980879,37.4348230027356],[127.02058260230369,37.435722501836096],[127.0206032022831,37.4383141992444],[127.01866870230671,37.4423885026359],[127.01629850467691,37.444045600978804],[127.0129600027971,37.4441875005584],[127.0115612036692,37.4458157017505],[127.0121255031049,37.449066798499395],[127.0166113989516,37.453421794594504],[127.02138839417461,37.4488495991667],[127.02209570050509,37.4463176001163],[127.0194626026304,37.4543839947588],[127.0198924044895,37.455460300771996],[127.0188115021957,37.4555928028461],[127.0184179019348,37.459235000146],[127.0196595001731,37.4599502002359],[127.016350797793,37.4576899015199],[127.01297720116659,37.4573801018297],[127.0048039033183,37.463449706174295],[126.9999051007432,37.4627378043794],[126.9978308028175,37.467128899988296],[127.000192701808,37.468728901553],[126.9963191018252,37.4667478036534],[126.99270220128889,37.4697960014388],[126.9933764006241,37.4722495999646],[126.99247420091811,37.4736957996044],[126.9941245005555,37.4741352989459],[126.996453301081,37.4734590994451],[126.9948133026313,37.475858397810796],[126.99824240151999,37.4771178972827],[127.0001371996252,37.47532609907449],[127.0012478998937,37.475785498921],[127.00149499964661,37.4748715998349],[127.00211250113969,37.475055098976696],[127.0028942000648,37.478019498273305],[127.004123300305,37.4785487995983],[127.00370200152891,37.4805479993681],[127.00550329972761,37.480637099279],[127.00591120033219,37.482338999371],[127.0066323006893,37.482578399416404],[127.0059474004579,37.483021200704904],[127.0047641004819,37.4821041010681],[127.0039407010848,37.4839892009913],[127.00440590040529,37.484971201078494],[127.0022463992275,37.4852968002006],[127.0010811003928,37.4839777015197],[126.9993164021575,37.4847090007884],[126.9996400003996,37.488391403117],[126.99671860203189,37.4904262002755],[126.9979950018398,37.4922459996939],[126.9960396005341,37.491433200610906],[126.99005410089539,37.4934399003725],[126.9905327000119,37.4942221003297],[126.9858596007331,37.495301500588496],[126.9854671004381,37.496559601071795],[126.9845085007325,37.4964557010422],[126.9830964000752,37.498277600464604],[126.9817353001924,37.4950427018864],[126.9805124988074,37.4971904010564],[126.9792883994318,37.4944873021958],[126.97809549848219,37.4957453006838],[126.9781874983902,37.4945548018743],[126.9770168995608,37.4935056029235],[126.97138559969541,37.4910137003694],[126.97106439929,37.4897476997435],[126.9731123981704,37.4879376002157],[126.9723480989347,37.486442501710805],[126.9708995003833,37.4871444010089],[126.97099949998601,37.48789830059],[126.9704385002922,37.4874108010498],[126.96982250005041,37.4879401014541],[126.9688379996665,37.4868719012618],[126.9672190002251,37.4880243013042],[126.9663991997967,37.487337601158295],[126.96776149912709,37.4868008001555],[126.96629159960331,37.4865681003277],[126.9665410957238,37.481973400449604],[126.9631629991019,37.481084001339],[126.96214490012,37.4817485006745],[126.9604185002298,37.4810487008245],[126.9584837001818,37.481526500621904],[126.9574727009049,37.4823174000031],[126.9576082014212,37.4851848011765],[126.9555750996215,37.4859765006915],[126.9538508988053,37.4860750001988],[126.953030199626,37.4847009015729],[126.9505840998525,37.4853904001637],[126.9509730991603,37.4843322008455],[126.9488189993205,37.4845470007929],[126.94741879977059,37.483376200225],[126.9474930996632,37.4825308008569],[126.9451505005636,37.483583000459305],[126.9452840000148,37.484257400620194],[126.943068600722,37.4843733005181],[126.9428997004361,37.4857466004824],[126.9420351003385,37.4845911004802],[126.9399050000216,37.485450600311204],[126.9393568000213,37.484576800342296],[126.9366885993358,37.484135800179395],[126.93961199974349,37.4788498994223],[126.9431874000755,37.478957199540005],[126.94663729971681,37.4807449994936],[126.9485171988795,37.4796033001094],[126.9484982995838,37.4784503992781],[126.9499879003488,37.4770700983031],[126.95042320055191,37.4779022990206],[126.9513558996192,37.4777402991826],[126.9526327993812,37.4756789986901],[126.9543702004377,37.4773950993003],[126.9565469997947,37.4774084994901],[126.95671439941239,37.4764226999474],[126.9577778998712,37.4763764993116],[126.9590403986087,37.4749007007874],[126.9587491998145,37.4725397994162],[126.96017499907191,37.4736191981681],[126.96344569925179,37.471767797850404],[126.9669453999654,37.4719318991675],[126.9674107000675,37.4712018990191],[126.96727370048161,37.4720678992693],[126.969910900393,37.473373098977106],[126.9720968990917,37.4721839990146],[126.972777998596,37.4691785009623],[126.9712494998072,37.469476699580504],[126.9751209996036,37.4687687989966],[126.9756847992669,37.4675741993538],[126.9769630003339,37.4674271978196],[126.9806033997507,37.4710080979516],[126.9829779973761,37.469993498966204],[126.98522290055689,37.4668220980451],[126.9863224999335,37.4679953995277],[126.98809969983341,37.4673458988961],[126.9884371995754,37.464687501236895],[126.9874359989174,37.4609114995024],[126.9886868988555,37.459392799438305],[126.9878057997366,37.458721900109204],[126.9922611956211,37.4535594021874],[126.98900209346209,37.4490224059982],[126.9903535957674,37.4442588005434],[126.9854727970974,37.4439980017018],[126.9814513009497,37.4405363042097],[126.9785383990753,37.4391118039378],[126.9759974016163,37.441132601917005],[126.97639789883769,37.4372191040446],[126.9719862032494,37.4373633039004],[126.9713117981255,37.4380333051179],[126.97259769834109,37.4344794012161],[126.9719919989468,37.4329068027887],[126.96953479892481,37.4323214007109],[126.9701859987241,37.4312246001394],[126.9681813938851,37.4260085984041],[126.9696375931633,37.4224919003919],[126.963841295308,37.419284601165394],[126.9613301970497,37.4151487019298],[126.9594711989087,37.4142011028774],[126.95012749980789,37.4141965002263],[126.94912169651441,37.412383602108996],[126.9450447005914,37.4103480041446],[126.93936449889969,37.410441802231304],[126.9367070015572,37.4088673038058],[126.9350884031758,37.413286299386805],[126.9273885033722,37.414567804929],[126.9293659004063,37.4200950017493],[126.92749500020649,37.420519301099205],[126.9269553975203,37.4217643027256],[126.9231820012937,37.4219614025285],[126.9234298010842,37.4243139022868],[126.9201761022083,37.4256251018062],[126.9184980018824,37.4315937013277],[126.91730540089921,37.4303531014238],[126.91505550314909,37.4320332997436],[126.9148590030462,37.4333455994051],[126.91688260102259,37.435157997592704],[126.9182497026095,37.4351708996194],[126.9137994006573,37.4352069021106],[126.9112123032444,37.437081500236],[126.9140010008608,37.4398187977593],[126.9190299010542,37.440538401644],[126.9163975010517,37.4424464012365],[126.91220889623169,37.4414685031299],[126.9077401007005,37.4429530016454],[126.9070059014347,37.4451556994427],[126.9085002006699,37.4466765988855],[126.9089975001726,37.4462713992907],[126.9099851013649,37.4479797000081],[126.91136999998001,37.4483062996815],[126.912445200376,37.4499672992435],[126.9129110001105,37.4493685997669],[126.9138016004937,37.450045199992196],[126.9130397004963,37.4499955004354],[126.91296540110801,37.451447699416605],[126.91328920082299,37.4531865987528],[126.9139550014989,37.453128299088604],[126.9121682010038,37.4542569996564],[126.9138995007184,37.4540935007787],[126.9125443018625,37.4552808017124],[126.9131293012775,37.457460199533],[126.9109640009369,37.4588591012312],[126.9115010003644,37.4621607999868],[126.9076495018444,37.4625679016518],[126.90749570201069,37.4649245995502],[126.9095296006029,37.4654477992125],[126.90892600086609,37.4655017002482],[126.908714101078,37.4671326986172],[126.9101582013249,37.467444899811696],[126.9094047990519,37.4679056008174],[126.9078365006202,37.467282001441],[126.9065845014175,37.4690978998295],[126.9067123011554,37.4704884996392],[126.9081575001636,37.4707494019282],[126.90636360195751,37.4719801006975],[126.9042456019488,37.471717400897305],[126.9040418005261,37.473870600670395],[126.89874570028131,37.478249000422295],[126.89786750016971,37.47701630184],[126.8965027015345,37.4785056003507],[126.8939012993017,37.4782293006338],[126.8923940008776,37.4794720997794],[126.8924100007071,37.4814299989443],[126.8939915009898,37.4828802985912],[126.8953279011074,37.4828728989789],[126.89540220065871,37.484560699380005],[126.8962392007782,37.484169799669],[126.8954022008498,37.4845607001599],[126.8953201009899,37.486267999522],[126.8991873000941,37.486700399393094],[126.90181850031341,37.4879370991513],[126.90131650073769,37.4884610999171],[126.901976200078,37.4891415992366],[126.9029680007161,37.4889826000489],[126.9021303007023,37.4892965002143],[126.9022999005327,37.4901731993376],[126.903378300662,37.4906782002619],[126.90236580119979,37.4910936004192],[126.903819700736,37.492623699495304],[126.903240200875,37.4940667995282],[126.903966600405,37.4940518000639],[126.9041314002584,37.4971030002907],[126.9029639995669,37.496733001323896],[126.90156539871239,37.4979746006096],[126.901510799374,37.4969982006224],[126.8999877006074,37.4978849998888],[126.9001984998305,37.4984894005259],[126.8978860002253,37.4978121012039],[126.89731090023389,37.499672900672],[126.8961839006755,37.4990765011171],[126.8951019997208,37.5005497008141],[126.8927494009105,37.500554000779005],[126.8940080017967,37.5045692000884],[126.8957484000563,37.5052043994532],[126.89684179896291,37.504638900018705],[126.8959925995477,37.5039119997622],[126.8982316004608,37.5038043995737],[126.8992444003057,37.507925399392896],[126.9007479003664,37.5086575994897],[126.9004909013414,37.5092637007404],[126.89946210086839,37.509480201520596],[126.89878040107081,37.5107652010229],[126.8961749997771,37.509686701481904],[126.8952073007448,37.5101719009967],[126.89494379897829,37.5087623011713],[126.89343649952231,37.5080689018762],[126.89103820090709,37.5103546996323],[126.8920040003878,37.5110936002863],[126.8908272000717,37.5106392010709],[126.8892961006577,37.511331801222],[126.8881482992249,37.513143901004106],[126.88733859960651,37.5106386008952],[126.8862142007309,37.5110294005044],[126.88620830116491,37.513284900863106],[126.8831510998357,37.5140708005542],[126.8841458998097,37.5119356004286],[126.8830704002214,37.5113509011633],[126.8826117006596,37.5121595004317],[126.879415499828,37.512345101544994],[126.87436939973051,37.507698800614],[126.8729157010142,37.5099525007916],[126.872086698785,37.5098081001952],[126.8738086979844,37.507989899536696],[126.8726803982772,37.503237900925505],[126.8750763978659,37.5027500994046],[126.8751694977728,37.499973402181304],[126.8710508008877,37.500590502382],[126.8700571987556,37.502861101189794],[126.86734239953469,37.5021274005371],[126.8675235989512,37.5013505007012],[126.86500870086131,37.499235801221],[126.86424069974859,37.5005398002977],[126.8650086995743,37.4992357996886],[126.8645900994402,37.497781599550905],[126.8678268978703,37.49581890000481],[126.8661572986819,37.4928939018626],[126.861803099884,37.4937587005854],[126.8596138009151,37.4930528011124],[126.85912830140059,37.4936611005041],[126.8599190006522,37.4950701992393],[126.8605862004094,37.4947857004286],[126.8593410010547,37.496289599994995],[126.8595735011487,37.4970376012437],[126.8557486003208,37.4991076004866],[126.8562099991054,37.4972830005572],[126.8536461991781,37.4974224002836],[126.85508319857469,37.4964787999168],[126.85516369849421,37.4955175008781],[126.8534907001672,37.4942530021426],[126.8524450012129,37.4952793011163],[126.85052639978291,37.495308000883],[126.85077509910461,37.494023199741],[126.85240759962791,37.4932852987902],[126.8525956996257,37.491268498624095],[126.8536529001437,37.4914187984171],[126.85436509965359,37.489876898083295],[126.85539690012911,37.489951298105304],[126.8563930991329,37.4876263004303],[126.8552098998565,37.4868423011887],[126.8552789993941,37.4856879011243],[126.85366239942451,37.486239900465904],[126.8528556002313,37.4852864014194],[126.8522329991634,37.4861519999485],[126.8502855001818,37.4822902020696],[126.8473066002518,37.483358601229405],[126.846175100704,37.4825430020741],[126.8446366000616,37.4832065031782],[126.84456040025711,37.4863514005177],[126.8430800017375,37.486666400202694],[126.8421139011147,37.488340500355],[126.8421512010489,37.4910363987258],[126.84352109967901,37.491136598625594],[126.8434183008438,37.4921919000575],[126.8404895004861,37.4936071004813],[126.8406261996454,37.4925993002767],[126.8380056991311,37.4910043019662],[126.836427900198,37.4889473014141],[126.83410830251759,37.4899020004594],[126.83450980082141,37.4914035009679],[126.832549999469,37.4916651003751],[126.8335442986688,37.490414400268996],[126.8323213994895,37.4900683997101],[126.8352160973928,37.4858273987225],[126.8383041987282,37.4845251992174],[126.837049399983,37.4819125018301],[126.8358860958594,37.4821045974364],[126.8394897001851,37.4818144998061],[126.84168849917201,37.4826900983286],[126.8423844022062,37.4816284988639],[126.8444975000931,37.482902597589806],[126.8463507982398,37.4805488999435],[126.84545039743391,37.4789206003787],[126.8478774982044,37.4771537993736],[126.8490299998113,37.4733091996695],[126.8508058986767,37.4720058989869],[126.8539717004249,37.471834098312605],[126.85439290077,37.472960899019796],[126.8574891999382,37.4745008984099],[126.8631241998983,37.469886598956705],[126.86448309968,37.4717940992014],[126.86514249892811,37.4706699992851],[126.8639759996981,37.4699174004425],[126.8641560997907,37.4689604995193],[126.8648840995967,37.468954599567205],[126.8648084994064,37.467374499821396],[126.8659305005449,37.4692935999575],[126.86717609946159,37.469630799532496],[126.8673129991535,37.4677112003875],[126.8665493991789,37.467219799667],[126.86861709975989,37.4659450998584],[126.869609801939,37.4683834992086],[126.8710770003328,37.4692404990708],[126.8723608990489,37.4695110988002],[126.8729447990135,37.468681699010794],[126.8754965999406,37.470589599306194],[126.8767608986763,37.469729200166604],[126.8756494989824,37.4689984997426],[126.875746398753,37.4676275999508],[126.8746353980066,37.466458500790104],[126.87530059935091,37.4651172993656],[126.87340589889159,37.4608939992832],[126.87476829888939,37.459145999342],[126.8762279992615,37.459885598529],[126.8768574986563,37.4591838992061],[126.877364498021,37.4554400976363],[126.88143559536441,37.4537959986657],[126.8770104982865,37.447902300439104],[126.8796470985596,37.448110998238995],[126.88077609928021,37.4461940977464],[126.88362889870041,37.4466322983207],[126.8884617989941,37.444383697610206],[126.8910898006694,37.4446684968333],[126.8952839973233,37.4415204000598],[126.8944500981572,37.438829702750496],[126.8915681001911,37.4393715021303],[126.8884521990543,37.437326102273],[126.8878785993108,37.4360954004416],[126.8878151999742,37.4354460995452],[126.88845220006941,37.4373260980954],[126.89181759660029,37.4348075995567],[126.8940642955118,37.4292691954657],[126.8972410990438,37.431111598586604],[126.89862949765539,37.429681300016895],[126.8988130974718,37.4283050013932],[126.897411097253,37.4259444990562],[126.898848998589,37.4238380998643],[126.8958958997557,37.4221404005671],[126.8953566997311,37.4197781018186],[126.8943336999677,37.4200117001046],[126.8948605993116,37.419265100553396],[126.8937567982377,37.4180385994513],[126.8947910967034,37.4166464994103],[126.8911236978627,37.4117054005982],[126.8949034986882,37.4072651000094],[126.8954392989505,37.4051210992015],[126.8986134979895,37.4040468990062],[126.89843740126851,37.3979839972838],[126.9035834961224,37.4005470947207],[126.90506399652969,37.3961137972704],[126.9052795972789,37.392578199629604],[126.9032947973239,37.391256297520805],[126.90539630134761,37.3913255947414],[126.908612898131,37.387912798154204],[126.9115400981208,37.3869249977697],[126.91356949642099,37.3835508003638],[126.9132045967859,37.3809700029446],[126.9094316992375,37.3830663000047],[126.9101673959709,37.3766909042579],[126.9056732957861,37.3796980031372],[126.90201279857709,37.3729060055481],[126.8954962003326,37.366207209302296],[126.9011342938326,37.3638644013735],[126.89539048968301,37.36202170303],[126.8942178978774,37.355798997307595],[126.8928233992719,37.3535690995375],[126.8943964988826,37.3531170973954],[126.8971462961328,37.348882201630296],[126.8946386927076,37.3467871996987],[126.89503859459131,37.344042695396006],[126.8912437983861,37.338991300447404],[126.8915832980466,37.3381570012817],[126.8903310918692,37.3349091005805],[126.8844607977395,37.3305619049277],[126.88154850065179,37.3319263035633],[126.87867610134651,37.329263303244],[126.87481549937449,37.3279176021095],[126.8650919985205,37.3203896084829],[126.861529502083,37.324223004649504],[126.8629412004737,37.330233100792604],[126.8611546998858,37.332451301062505],[126.8605464989528,37.3316405015076],[126.8592250002743,37.3317315014166],[126.8589644005349,37.3326577004904],[126.8584535001353,37.3321574007066],[126.8571197011411,37.3344112993868],[126.8579395007578,37.3352065004417],[126.85711970013139,37.3344113018337],[126.85616950101009,37.3373036005312],[126.8539608002926,37.3374679005789],[126.851820600822,37.336254600626695],[126.85212810077161,37.337152000043304],[126.8511263001993,37.338492100376804],[126.84884239786909,37.336431104130895],[126.8456785002638,37.3368490037448],[126.84368740225489,37.3378289027649],[126.8422817994216,37.3398724029203],[126.83492909985199,37.338354101095],[126.83250100216199,37.3354172033367],[126.8310814035816,37.3362720024819],[126.8303377005488,37.3400470004024],[126.8290243009097,37.340551800018],[126.8295319012268,37.3413037998525],[126.8286007008623,37.3416123006035],[126.8300199027947,37.3444524077022],[126.8279203990145,37.342336705871794],[126.8235713033636,37.3459023023062],[126.825040901894,37.3483551998533],[126.82316659965629,37.348567201305094],[126.82246909925391,37.3496545006899],[126.81883190021661,37.3488618017403],[126.8156577999038,37.3491977012511],[126.8145384008276,37.3483656016459],[126.813694001672,37.349477500534],[126.8109812010737,37.3495356008178],[126.8091271029278,37.353670696682705],[126.81439569765921,37.3547277956256],[126.8141960987226,37.3509707992664],[126.8174454000993,37.3539765974322],[126.8201123996565,37.3534013980098],[126.82133889843,37.3522542991569],[126.8211849992323,37.3507898996585],[126.8217772999457,37.3514615988828],[126.82303740172681,37.3503353988052],[126.8230890016752,37.3527684963721],[126.8243014004628,37.3542524948881],[126.8275484052662,37.3557034964511],[126.8262011969712,37.3573728008001],[126.82752119695711,37.355635800682805],[126.824076300402,37.3544154019032],[126.8230890006823,37.3527685016463],[126.8223907013806,37.3539291004857],[126.8225390019393,37.3578136985049],[126.82157390008301,37.357773400636],[126.8184413994572,37.3559285024986],[126.8091271051479,37.3536707063693],[126.80721270706229,37.3624690975709],[126.8109554033196,37.363902696137295],[126.8136678006072,37.363427896612095],[126.8156555022431,37.3611855972415],[126.8165910049417,37.3625791963249],[126.8158493065977,37.3647205044486],[126.816945005502,37.369465099704],[126.8159856013138,37.3717092046682],[126.8129689043305,37.3733822029952],[126.8156507013571,37.378540899037],[126.8159750016625,37.380809500678],[126.8123033008546,37.3779223032939],[126.8092052028041,37.3796007022912],[126.8086737033356,37.3808801010118],[126.8115275008928,37.382396299527],[126.81214470522191,37.3838753026715],[126.8086531021654,37.384765104704904],[126.8061164045612,37.386627602985996],[126.8077742029034,37.3909343986792],[126.807666804207,37.3925751021589],[126.8061816999481,37.3921701011624],[126.805728899553,37.3932288019296],[126.8023463995752,37.392182900853804],[126.80194199930429,37.3926860003482],[126.8032872995352,37.3889867995642],[126.80160289829941,37.3847053028632],[126.79983870006359,37.3845326030359],[126.7970034998149,37.3881911008836],[126.7966044990722,37.390396700459],[126.796509898096,37.3840802037122],[126.7935374988351,37.3847530022974],[126.79331139737299,37.3806668005803],[126.7965098972317,37.3840801963001],[126.79629589976821,37.3773379960326],[126.8018877971562,37.377559494977696],[126.800839998204,37.371460401076796],[126.79978789881059,37.3716406993937],[126.8010623975361,37.3700718009626],[126.7998062970429,37.365419504261205],[126.79700219337829,37.365863506186706],[126.7959780977752,37.3637618985622],[126.8000252013196,37.3623550958182],[126.80439769694709,37.3635008946724],[126.8045384968063,37.3569015012718],[126.8026783993228,37.3544466987086],[126.80544949655169,37.3514364017189],[126.80444280034881,37.3490790017576],[126.8004916000184,37.349923500619404],[126.79921430101041,37.3511502013955],[126.7963553990423,37.3507407049046],[126.795733099843,37.346468700277704],[126.7938395971901,37.3436682010374],[126.79085759905719,37.3431926011545],[126.7893442001431,37.3403017026965],[126.7892133001597,37.3432610001898],[126.78673450250089,37.3446334993136],[126.78589170292929,37.349463203069604],[126.7842224001287,37.3485825008414],[126.78353150081959,37.3495611998627],[126.7837029003195,37.3513958027114],[126.7779452001685,37.3508559029174],[126.7723213020352,37.3541306011873],[126.77374310102451,37.3562133016117],[126.7725014997701,37.355090101768596],[126.7719823999509,37.3566734005572],[126.7703845009766,37.3562490011986],[126.77066109965119,37.3575705015998],[126.7600966998621,37.3574785058388],[126.7583264016324,37.359086304231],[126.75772720182931,37.362347402837194],[126.7544824008577,37.364398900781495],[126.7540036013365,37.365502299678106],[126.7583218008228,37.3668788036448],[126.7528968062478,37.3656357048879],[126.75475060439399,37.378413092110506],[126.75660480253981,37.378589291934304],[126.7574360029224,37.384849097562494],[126.7535240030695,37.3840928011147],[126.753167500971,37.3851705024192],[126.7507267012916,37.3866393007207],[126.7457777036262,37.391928702880904],[126.7457982973979,37.3910737003131],[126.7435180995339,37.389761401539594],[126.7423741006779,37.3902785010225],[126.7397186021155,37.395158197433396],[126.7425722063825,37.395819600746805],[126.7400837004473,37.4003504995706],[126.74013170306101,37.4049547003984],[126.7383440003088,37.4054323001929],[126.738438899646,37.406124000498295],[126.7337962000868,37.4055838009642],[126.7325760992623,37.4066662020187],[126.7318591990246,37.4056264025088],[126.7300545008293,37.405229202906],[126.72870300027229,37.40689630109],[126.7248774001926,37.405347900747],[126.72440930070681,37.4069632999433],[126.72360550067131,37.406800500544],[126.7229322995848,37.4077943006952],[126.7231917993058,37.4068156005891],[126.7222683997988,37.406640400682804],[126.7209741994245,37.4036343006693],[126.7200506980887,37.404041400719294],[126.72048079629771,37.402412098548],[126.71855899821949,37.3999006010595],[126.7170356983562,37.3998336991681],[126.7170532989452,37.3983372998581],[126.7185962993377,37.3996958981599],[126.7216079995452,37.3982811993111],[126.7219338992193,37.397143300449],[126.72131819953199,37.3970402999217],[126.72433479936589,37.3963096000595],[126.72511970006529,37.395267799185],[126.72504840029,37.3960188992711],[126.7258568007108,37.3955848989816],[126.72756150021179,37.396654498347495],[126.7273440009324,37.398209998782995],[126.72958129982601,37.396633199090395],[126.7303156997971,37.3975691985748],[126.7307436989584,37.395803099255005],[126.73309720005301,37.3950770990391],[126.7343604990613,37.3970137980169],[126.7364703969514,37.396584098446596],[126.7360974970527,37.3915328025834],[126.7344027957241,37.389839801129796],[126.7355606978594,37.3879713976843],[126.74033440036169,37.38812209853759],[126.7412426994534,37.3871308995288],[126.740971099862,37.3829775998491],[126.7421806993607,37.3846744978973],[126.7436299987418,37.382346900209605],[126.7456012002713,37.383385397473305],[126.7464446998767,37.380774098363496],[126.74560120192079,37.3833853977687],[126.74747990004211,37.383724397429695],[126.7476129996998,37.3810661995258],[126.74932899798381,37.3794836011084],[126.74959099573779,37.3658534120255],[126.7411951007168,37.372373203190996],[126.7390149010093,37.3754476004275],[126.7397991004661,37.3774931020386],[126.7381864004944,37.376006401219804],[126.7354235002361,37.3749905008339],[126.7349865989769,37.3755340002674],[126.73424899971451,37.3737705020309],[126.73193619954111,37.3751086017042],[126.72902230160929,37.371148504743296],[126.7275935030381,37.372627403264396],[126.7266465997888,37.372515503261496],[126.72713859957891,37.3722271999486],[126.7236595008503,37.3684107012504],[126.7211355003119,37.3693655003322],[126.721245200038,37.3705615009056],[126.7204807999427,37.36975670062991],[126.7199287000251,37.3700987001845],[126.7187282970443,37.3680179016957]]],[[[126.90261479808609,37.5129116992054],[126.904104298224,37.5107090006912],[126.90286330026841,37.509386999128694],[126.9067930990338,37.509103198975396],[126.9085727994878,37.5082489988193],[126.9084948995657,37.507254299814],[126.910477500111,37.507841999087496],[126.9110561006066,37.5069141991519],[126.9115252003191,37.5081892991832],[126.9126082999939,37.5075746993843],[126.9127925000348,37.5097827989833],[126.9134992008836,37.5088874991293],[126.9149692008794,37.5107217005081],[126.9146672011814,37.5115606996691],[126.9158418003867,37.5117743001231],[126.91473690104789,37.5131142007919],[126.9154333006084,37.5144118002141],[126.9126298019423,37.5157248997497],[126.9137923006424,37.517152799473195],[126.9143207005747,37.5168384999216],[126.9142033007137,37.517534599335995],[126.9164906996328,37.517305199601104],[126.9160579998323,37.515556099170496],[126.91734650024749,37.5147208979634],[126.91849930035359,37.5144786996867],[126.9174461008496,37.5158618000395],[126.919526500385,37.5169701991217],[126.9233185992273,37.514057399277895],[126.9237976005111,37.5149324994526],[126.9249360993726,37.5144409999441],[126.92484409960281,37.5110171993846],[126.9259407003165,37.5109087976136],[126.92527480112669,37.5119808999588],[126.9262375003537,37.5136809990246],[126.9282813010789,37.5135815995979],[126.9296322016309,37.5145117004889],[126.9286777003195,37.5171271003053],[126.9273340998074,37.514880500100396],[126.9249360995472,37.514441000592],[126.9238275024633,37.515509201764694],[126.9189885013823,37.5171858005122],[126.9196869010557,37.5196583997991],[126.9172840993872,37.518130902468805],[126.9151808001492,37.5199747001509],[126.9142765000556,37.519931300172104],[126.9147629994482,37.519564100232095],[126.9122308998824,37.5180995000122],[126.9134455994773,37.518175999484896],[126.9125517999043,37.51668390052269],[126.9084875998681,37.5146486009657],[126.9076999992908,37.5152200011135],[126.90294730093359,37.5124200013209],[126.90261479808609,37.5129116992054]]],[[[126.9638774991209,37.5299852000761],[126.96406369955099,37.5285921986545],[126.96514019903739,37.5279968989216],[126.9649806997768,37.5259772997504],[126.9662072003243,37.5271697983364],[126.9677615987699,37.5269800985261],[126.9677472996831,37.5232316993408],[126.9687659994742,37.521339998874005],[126.9697199994248,37.5211999987404],[126.9712625997092,37.5182148997775],[126.97092759993069,37.51753049985],[126.97143850024851,37.5192025995184],[126.97234759874661,37.517932899554],[126.9727228010423,37.5187003993776],[126.9738877009663,37.5183371994141],[126.97437360097321,37.5193494993967],[126.9755453009486,37.518901599189796],[126.9786033998294,37.521279299054406],[126.9807012002341,37.5203219990709],[126.9809289008274,37.5225256008785],[126.9797588005995,37.5222473006385],[126.9800275997903,37.5232807005424],[126.9781305013138,37.5236320003786],[126.9780383002768,37.525162200207795],[126.9769276993522,37.5235162996252],[126.9779168992602,37.5228559998518],[126.977317499565,37.5217209001247],[126.97503810128211,37.520940301083996],[126.97302450124519,37.5216151004475],[126.97442960038589,37.5225548999593],[126.97244580097251,37.5225521997751],[126.9727332010565,37.5237684995393],[126.9695145006487,37.5263996007304],[126.97023179902119,37.5251803009112],[126.9686832005698,37.524266001825495],[126.9678257014273,37.5248718012197],[126.9682900013402,37.528292799526604],[126.9698948997353,37.5288354989839],[126.97024600100221,37.5283307000279],[126.9714153008142,37.5301171996497],[126.97238690039781,37.5300027997652],[126.97163430095141,37.5308122998579],[126.9734705006735,37.5323345000266],[126.9726141009276,37.5325642002212],[126.97258220095951,37.5339092988761],[126.9751148004526,37.534529899031206],[126.9740305000137,37.536829700795195],[126.97284259961901,37.53601540142029],[126.97133189940459,37.536567400452405],[126.97027829880321,37.5335197001758],[126.9674886991725,37.530902901954704],[126.9681784991421,37.5309988992418],[126.9677661995544,37.529823900416794],[126.9665407001733,37.5296072002941],[126.9667300000648,37.5306300000353],[126.9660038000539,37.530816700084806],[126.96602089908511,37.5291716016816],[126.9647861003199,37.529175101678106],[126.96445989958309,37.5304383008836],[126.9638774991209,37.5299852000761]]],[[[126.8672548991875,37.2678709005224],[126.8694763985945,37.2671778971875],[126.8703111977597,37.2636641007013],[126.8697386974851,37.262509998450696],[126.87229429907079,37.257980099022],[126.8736744999951,37.257495496706],[126.87405680180761,37.2584800981983],[126.87794080009921,37.2582938975507],[126.8809872980506,37.2595118980338],[126.8843556996551,37.2567902981556],[126.8861617007728,37.2585759985295],[126.88888760067451,37.2586319987579],[126.89154259997,37.2575898987296],[126.89201440160069,37.256567698949695],[126.8935485000666,37.2578198976975],[126.8946459989691,37.2551325003849],[126.89414739834139,37.2517571983881],[126.8962747985449,37.2512155995215],[126.89490969991,37.24896710177],[126.8926965990362,37.248522999517],[126.8949231978055,37.2489008983903],[126.8965519989538,37.246266997386805],[126.8991828974642,37.245356198406405],[126.89944709937801,37.2441646972815],[126.89918900336541,37.2454967976333],[126.9012900012644,37.2481759949541],[126.9048461977082,37.248491094639],[126.9085506011632,37.2468336985478],[126.9094276002419,37.248141497612906],[126.91083249888129,37.2461322992492],[126.91221000012371,37.2458757985091],[126.91598500135201,37.2474933988977],[126.9137812023919,37.2487336992718],[126.9153400008331,37.2514999965055],[126.92426730085779,37.249835799626396],[126.9223131006636,37.2520253020425],[126.919796800772,37.250939702316806],[126.9153400041638,37.2515000034783],[126.90743119936161,37.2584382030266],[126.9056077995433,37.2582397007836],[126.90106179814309,37.2545805997987],[126.8992804996723,37.2541559001143],[126.89997029837201,37.2531601005986],[126.8982089001334,37.250107303651404],[126.8942526014836,37.252136302598096],[126.8946460010902,37.2551324996019],[126.8968666015343,37.2551362995239],[126.897881406034,37.2589752035546],[126.8964514990308,37.2617452065849],[126.89402889638069,37.2592065989039],[126.89138449902511,37.257788600321895],[126.8890646001024,37.2587897000878],[126.8856222991071,37.258671801995],[126.88353990118951,37.2602913003755],[126.8841352998475,37.2608588002889],[126.8825193007864,37.259293302319705],[126.8809873023184,37.2595119021011],[126.8820557013557,37.262645899080205],[126.8811592010419,37.264260198999004],[126.8836203005811,37.266131099865],[126.8839679002335,37.268042197953896],[126.8854873033654,37.2696206966515],[126.8885219034422,37.2707947962584],[126.8887483992577,37.2720225024107],[126.88640689806459,37.2727309030306],[126.882703800014,37.268912603267],[126.87789040006619,37.268473703306505],[126.8769264010302,37.2685659032143],[126.876629199232,37.2721763024374],[126.8769263976456,37.268565899204],[126.8752506993213,37.267030500739395],[126.8724827999693,37.2690321000999],[126.8697456027065,37.2676839014481],[126.8701088011081,37.271185201272196],[126.8672548991875,37.2678709005224]]],[[[126.9037599981891,37.5005442980511],[126.906126299762,37.4966055998391],[126.90698429973571,37.4967692997936],[126.9071923995076,37.495905999563995],[126.9085106009715,37.4955146993587],[126.9083462015889,37.4964669991056],[126.9103844995506,37.496958598614],[126.9102528999268,37.4954290994688],[126.9118466004832,37.496828399519195],[126.9129846015215,37.4965139992567],[126.9128070015299,37.4981382984964],[126.91492480024269,37.4984706989733],[126.9152461999213,37.4979068995371],[126.9171791999629,37.4981735991079],[126.9176016991244,37.4971185992784],[126.9212877007613,37.4967338994371],[126.9235280006894,37.4977423998406],[126.9240476006364,37.499514399332],[126.9278186007048,37.4968528999173],[126.9288574001021,37.4985760986423],[126.930266400064,37.4976555996481],[126.92908080106959,37.4988885992825],[126.9311960002566,37.4992514993961],[126.9306541009663,37.4998165000882],[126.9315634004046,37.5002719002134],[126.92842540097489,37.500788801267404],[126.9283547000004,37.5023933004435],[126.9276535995041,37.5011186011999],[126.9247714000279,37.5003026006294],[126.9240868000439,37.5012624008485],[126.922957700404,37.501267000169],[126.9220079998953,37.5040865000836],[126.9205351979851,37.5032753000134],[126.9198987986215,37.5017076015811],[126.91728449884589,37.5015703016035],[126.9155250006359,37.5000126011563],[126.9156177005127,37.501478501695296],[126.914642700828,37.5019415013287],[126.9141022003625,37.501336401295],[126.911964800348,37.5025050029765],[126.9105227013686,37.5047270008856],[126.90529789907079,37.5018453014071],[126.9042288001399,37.502469500782894],[126.90479409903391,37.5016300003293],[126.9037599981891,37.5005442980511]]],[[[126.9523672006156,37.24112860221231],[126.9554893002142,37.2409328987588],[126.9565188004909,37.240178197518205],[126.9618001991342,37.2413182970807],[126.9622917986426,37.24019229820669],[126.9609758999585,37.2380333003657],[126.95899659883571,37.236086102103],[126.957251997733,37.236493100148095],[126.9616642041407,37.2345681961244],[126.9622890045049,37.2376038981061],[126.9654850013089,37.2401401955698],[126.9689279026271,37.240083096293],[126.9715300015947,37.2390681989423],[126.9707186013775,37.2404168004012],[126.9720484004909,37.240874000549695],[126.9711386014007,37.2420969993267],[126.9746035004629,37.249075698065],[126.9759454991209,37.2494605976801],[126.9777842972821,37.2475331996075],[126.9778820971843,37.2465366006041],[126.97620999996269,37.2446696974077],[126.9784524995927,37.2453304972854],[126.983184998343,37.2433223987807],[126.9857670014781,37.2446867004245],[126.98550850173659,37.247315197796006],[126.9877828024169,37.2479552004187],[126.9873844028153,37.2493596990142],[126.9891160010837,37.252057396316495],[126.99032700077,37.25220620090111],[126.9891160010808,37.2520574013873],[126.98849370175901,37.2535257015303],[126.9858990002019,37.2547824005523],[126.9852181996316,37.2542761999705],[126.98606069878909,37.253669600577105],[126.98420260064721,37.2525312017155],[126.983908099454,37.2534153013512],[126.98103500163411,37.2527454025762],[126.97987259908459,37.2549118019117],[126.9774947986901,37.2519175006735],[126.9758068003781,37.2515389010521],[126.974997099855,37.253164201644104],[126.97310539837129,37.249782301380996],[126.9705796008971,37.2491068020565],[126.96984669951671,37.2509432019686],[126.9669383995998,37.250101901927394],[126.9661969996364,37.2518962011074],[126.96646029891,37.2499733017821],[126.9643276976948,37.2496421034566],[126.9615984986196,37.246878703172605],[126.95614999608719,37.2467090024411],[126.9550970990829,37.2417288011153],[126.9537667004133,37.240866701977396],[126.9523672006156,37.24112860221231]]],[[[127.0021844978551,37.4901915013169],[127.0043720963632,37.4878106004271],[127.0058717995322,37.4887752993971],[127.0074091992162,37.487144899608296],[127.00962699975979,37.4874731991417],[127.0099484998715,37.486774298951],[127.0123121001864,37.4887709995717],[127.0123279003412,37.4899382994653],[127.0143059002924,37.4901644996448],[127.0148719007459,37.491360199905905],[127.0160455995722,37.4919542993118],[127.0177996998705,37.4911169991471],[127.0177142005117,37.4926266993115],[127.0195290012996,37.4944069003766],[127.0183686002491,37.4962008001621],[127.0164906997871,37.496196900596104],[127.01735349895979,37.4952623005254],[127.0159621003512,37.4949210008667],[127.01543420047891,37.4961811003135],[127.0146039006556,37.496056000454004],[127.012791699988,37.4976257007367],[127.0124528998433,37.4952417017661],[127.0076517000043,37.494190203002],[127.00481180000129,37.4971762004265],[127.0057891990007,37.4946256005778],[127.0047536994872,37.493279201363706],[127.00203549865641,37.4924880001845],[127.0021844978551,37.4901915013169]]],[[[126.7798276986742,37.4378073000058],[126.7808016990406,37.436913600000096],[126.7798510986516,37.4364358000198],[126.7802108996389,37.435884699691],[126.78587929993401,37.4348718973105],[126.7868549989583,37.4336081985742],[126.7886826000946,37.4349184985117],[126.7900031009039,37.4340034997994],[126.79169950301659,37.435217000857804],[126.7910843024478,37.4362963008964],[126.7919938015383,37.4378375993551],[126.79356659979581,37.4381360997386],[126.7935442004291,37.437599999671],[126.7943212004935,37.4387892001791],[126.7918325007446,37.4396280003426],[126.79178090041201,37.4410936003623],[126.790818300236,37.4420011001405],[126.79138310034091,37.4427063998163],[126.7899501004315,37.4450140007137],[126.78871599908709,37.4439195009332],[126.7866995999843,37.4442765010062],[126.78621729998041,37.4434854009868],[126.7851532997996,37.4445594010664],[126.7845849000006,37.4427604017882],[126.7822122998108,37.443599900389906],[126.78107019964081,37.4418960005822],[126.7802699993937,37.4419582004735],[126.7809488991327,37.4411779001725],[126.7805945992614,37.4403401003211],[126.77980909974549,37.4405204000482],[126.7805945992128,37.4403400996898],[126.77981509954259,37.4386912000026],[126.781158398663,37.4382477000008],[126.7798276986742,37.4378073000058]]],[[[127.0008098984942,37.5010613003978],[127.005164299936,37.5025750985023],[127.0065711006956,37.5019369990679],[127.0080223008347,37.5043417994775],[127.009695100299,37.5046902002357],[127.0087487999307,37.5054729008154],[127.0085436991276,37.5046642002748],[127.0055487007389,37.5037437008339],[127.0047470010321,37.506003699637304],[127.0061310003957,37.5063034004056],[127.004180799888,37.5064906009453],[127.0020855997147,37.504507200750496],[127.0011765999475,37.5050863000962],[127.0009930989044,37.503678199378],[127.00186349924469,37.5040194993762],[127.0027093983988,37.503006700389],[127.0008098984942,37.5010613003978]]],[[[126.9732169990236,37.5065228002181],[126.9767786988832,37.5059751990452],[126.9761196001444,37.5042583995225],[126.97677869995749,37.5059751982305],[126.977698999916,37.5042930995284],[126.979858799933,37.5048534994271],[126.9799763002685,37.5042239996152],[126.98159289870159,37.50435229949],[126.9807710995234,37.502933300909],[126.9800009988984,37.50338879997091],[126.9798997995964,37.5018624998532],[126.9795628004174,37.5027095992908],[126.9807711008506,37.502933299001405],[126.98648960021809,37.4989915993217],[126.98922400093149,37.4990305999736],[126.9866888996807,37.4991820017856],[126.9825358038645,37.502137500059604],[126.9822523033453,37.5043262006518],[126.9808113001508,37.5065723082724],[126.9780711013287,37.5054134008368],[126.9732169990236,37.5065228002181]]],[[[126.9255202996588,37.483636100093996],[126.92672269953,37.4837152994616],[126.9275076001344,37.4824962996729],[126.92858629935431,37.4829795989668],[126.92851369940159,37.481518799939906],[126.9299343004048,37.4808451996753],[126.9295206005455,37.4822539993757],[126.9314910000375,37.4821118994339],[126.9320344004482,37.483935599129104],[126.9334725005312,37.4847842999277],[126.93050390009921,37.4866458005718],[126.9284269003577,37.486600700952394],[126.9255202996588,37.483636100093996]]],[[[127.0116415992839,37.2657028998525],[127.01239660014251,37.263889299322805],[127.01359379941229,37.2638051990036],[127.01324529942599,37.2627739989073],[127.0143229992954,37.2626219987303],[127.0146768004177,37.2634543989705],[127.0159010007599,37.2631753987849],[127.0172447994161,37.2647346972256],[127.0193603008949,37.2653055998252],[127.01595170079361,37.2656383006947],[127.0166074001696,37.267508399479595],[127.0182915007034,37.2675453994203],[127.0170425007869,37.2678377002438],[127.017849100068,37.268425799998205],[127.0171836992708,37.269016800216704],[127.0161362997685,37.2678986010339],[127.01548049999249,37.26816790102],[127.014010698972,37.2658210011558],[127.0122020007807,37.2663224006544],[127.0116415992839,37.2657028998525]]],[[[126.7903133991651,37.4504108010785],[126.78987359919341,37.4488270001737],[126.7908800990983,37.44836630012691],[126.7912590000736,37.4467911994305],[126.7916841000899,37.447358999447],[126.7938842999633,37.4468973996639],[126.7931735006586,37.44720009978241],[126.7938479999328,37.4483104994682],[126.79650790077949,37.449706498798996],[126.7975481997392,37.4487325997729],[126.7971202984817,37.4475878997819],[126.79820590091249,37.4480573994338],[126.79675020180501,37.4499471988893],[126.7970591023695,37.452914901451706],[126.7953460010442,37.4542876006567],[126.7935719986346,37.4515447017648],[126.7903133991651,37.4504108010785]]],[[[127.02407239971099,37.4968076998362],[127.02512469955451,37.4970218991469],[127.0288612000866,37.495146899796204],[127.0296411005748,37.4979908988739],[127.0309333003992,37.4988081001208],[127.0295270994623,37.4994644004499],[127.02856510042429,37.498447401466905],[127.0280578008196,37.499879400220195],[127.02631139984659,37.5004030003109],[127.02587059945111,37.497587601332704],[127.02524199996361,37.4988965000758],[127.0250459994219,37.497339200320496],[127.02407239971099,37.4968076998362]]],[[[127.03104809846951,37.2126998984853],[127.0318816990187,37.2098471996414],[127.03395049890321,37.2068413997157],[127.0350051987788,37.2066760991854],[127.0347310993855,37.2050262993496],[127.0368835006131,37.2025725990854],[127.0366342004253,37.203365399809506],[127.0378565009249,37.2040895004546],[127.0370739017075,37.206395898148195],[127.0389176009244,37.207328698719195],[127.0400879018818,37.2092851009158],[127.0386081006723,37.2085978017532],[127.0382166010638,37.2102004001506],[127.0389099993602,37.2108400008876],[127.0372403996432,37.210328000732694],[127.037309999467,37.209520000737],[127.0359067008703,37.2085031017539],[127.0337965005123,37.2114749002681],[127.03248169949711,37.2110436012291],[127.03104809846951,37.2126998984853]]],[[[126.95192319910569,37.495446200060904],[126.95315119973529,37.4950304992256],[126.9532866999682,37.4941686995871],[126.9534695003255,37.4948127992212],[126.95551950089849,37.4941605002444],[126.95559330085881,37.4954732000039],[126.9548359998455,37.4949734005749],[126.9536684003442,37.4961380004345],[126.9531190001054,37.4979872002437],[126.95149819995571,37.4970765000744],[126.95192319910569,37.495446200060904]]],[[[126.7792358955077,37.409290197847504],[126.78129519670671,37.4077525984438],[126.7808939990912,37.4051190889554],[126.7858655957775,37.4029071909995],[126.7878821006735,37.4021476986914],[126.78866740066519,37.4030234997902],[126.7868828019313,37.404951399343105],[126.7872958015183,37.4052792990152],[126.79010649870759,37.4048485994459],[126.7907292997358,37.4023687997851],[126.7906437004208,37.4033660991575],[126.7935376975268,37.4040522984713],[126.7943783006213,37.4030208996105],[126.7947020008159,37.4054274001426],[126.79292030259761,37.4077810977889],[126.79398690497639,37.4095666989521],[126.7915301025959,37.410278001889296],[126.79394480204981,37.4124344009427],[126.7906438029042,37.4105500033812],[126.7896748038732,37.4109725029587],[126.7885403007158,37.415798501255104],[126.7891666982713,37.4111162021479],[126.78849799894,37.4100062032579],[126.7846116028264,37.4088350044291],[126.78100119933171,37.411302503927296],[126.7808742992347,37.4101488013113],[126.7792358955077,37.409290197847504]]],[[[126.6847945987873,37.4138319000442],[126.6861378994833,37.4141190996696],[126.6855042995008,37.4127214005496],[126.68426989954351,37.412573100155505],[126.68469349998229,37.4114927995208],[126.6887217004704,37.412133599048396],[126.6886159000101,37.4133439005226],[126.6878599993933,37.4123600004151],[126.6864988006402,37.4122188004352],[126.6870499997553,37.4142728004654],[126.6847945987873,37.4138319000442]]],[[[126.94005549917149,37.5136289000863],[126.94253380033821,37.5124463986821],[126.9453452010608,37.5138267995457],[126.943239299921,37.513091100578194],[126.9426760001494,37.513797100180795],[126.94005549917149,37.5136289000863]]],[[[126.8212419988237,37.4906402985124],[126.82198490023761,37.4903508998484],[126.8228619998382,37.491172499230096],[126.8239116997642,37.490352299651896],[126.8238419994661,37.488787700983],[126.8230204981732,37.4885766991218],[126.8245979994757,37.4878936993957],[126.8253920004628,37.489289499165395],[126.82699070118629,37.4887739981055],[126.8287523019145,37.4902941996782],[126.8272003011659,37.4933251012608],[126.8253962011189,37.4931559009031],[126.8248159994346,37.494300101978396],[126.8229236983616,37.493087802261996],[126.8212419988237,37.4906402985124]]],[[[126.8934233992458,37.519197498010996],[126.8946446986521,37.517273699566694],[126.89390989981659,37.514568999554804],[126.8945413000211,37.5157919986779],[126.8962071006301,37.5152189991749],[126.8958208020385,37.5166339997511],[126.8972942005651,37.517444798940296],[126.8980893011275,37.5169371999133],[126.8959795007078,37.5171433016841],[126.8953564001511,37.5201779001209],[126.89463089923309,37.5191708012401],[126.8934233992458,37.519197498010996]]],[[[127.0286708999019,37.262281799764],[127.0296369996607,37.2620820998426],[127.0290514996274,37.2616721998287],[127.03009849967559,37.2604615991497],[127.0306557006262,37.261813798489996],[127.0317902994916,37.2609694993343],[127.0322883013783,37.2617730995139],[127.0286708999019,37.262281799764]]],[[[127.0084354994115,37.507296499817706],[127.0091708000281,37.506705599015795],[127.0101800997478,37.5076835985619],[127.00956210043249,37.5076288006952],[127.0095950003996,37.5088801994438],[127.0133163995144,37.508010898501105],[127.01299690106451,37.5086332997296],[127.0150846008349,37.5091278002525],[127.0105993996557,37.510362001970904],[127.0084354994115,37.507296499817706]]],[[[126.89519219911139,37.5259370996889],[126.8962342999289,37.5239066996978],[126.8965644009653,37.524893899472005],[126.89881170075209,37.5253497983141],[126.8978213011101,37.525516200327],[126.8971108000479,37.5275552002467],[126.8962638992127,37.5257927004081],[126.89519219911139,37.5259370996889]]],[[[127.0091461994144,37.2450248000315],[127.0111494002813,37.245922698934905],[127.0119849994457,37.245233599624],[127.0130710007697,37.2411156997245],[127.01198500074389,37.2452335996133],[127.0130366008091,37.2458644004991],[127.0091461994144,37.2450248000315]]],[[[126.6906871989686,37.4089211006161],[126.6934819991919,37.4043758989026],[126.6955301010798,37.4057283987837],[126.6981878019615,37.4053307991011],[126.6952213009038,37.406731900389794],[126.6969931012169,37.4090372015828],[126.6957993989542,37.408870301234096],[126.694454899798,37.4073187009581],[126.6933000008022,37.4093300010873],[126.6925568988016,37.408289001544205],[126.6906871989686,37.4089211006161]]],[[[126.9708344996555,37.5449545003308],[126.9718825995314,37.544894299286106],[126.9725922999639,37.5429025995336],[126.9732891002662,37.5436626989485],[126.97329570007119,37.5453618002074],[126.97195149993941,37.5459453008854],[126.9708344996555,37.5449545003308]]],[[[127.01963429952691,37.5110401994644],[127.0193862996991,37.5104544993914],[127.0214678996012,37.5105546987727],[127.0219434003042,37.5095760993853],[127.0234891005804,37.5116831001736],[127.02066550006391,37.512160000291104],[127.01963429952691,37.5110401994644]]],[[[126.7039898972448,37.4009950997316],[126.7059449982227,37.3970145976254],[126.7073638997773,37.398946797499],[126.7102321007082,37.3989564980117],[126.71150650113749,37.4022651983825],[126.7130007996432,37.4009480996996],[126.7134559009354,37.3991773989396],[126.7129953018875,37.4044483998993],[126.7115064998302,37.4022652021451],[126.70705349850991,37.4042074029757],[126.7039898972448,37.4009950997316]]],[[[127.035361199289,37.5001157000968],[127.0362155006757,37.4993292998487],[127.0371994001903,37.5009910995429],[127.0384737007238,37.501169700226896],[127.0365348991702,37.5010872008828],[127.035361199289,37.5001157000968]]],[[[126.8097505998121,37.5078939001571],[126.8112197996089,37.5072432995907],[126.8113451989707,37.5062400979573],[126.8124921013822,37.5071006983595],[126.8149282014344,37.505344400194396],[126.8125204004209,37.5085719016477],[126.8097505998121,37.5078939001571]]],[[[126.8103180986897,37.4854758995673],[126.8105454998024,37.4850140995432],[126.8129413002125,37.4863191994234],[126.8134537001058,37.4857640007586],[126.8110615009328,37.486977600906805],[126.8103180986897,37.4854758995673]]],[[[126.9121833995149,37.487825100350705],[126.9137499004223,37.4873694994371],[126.9128305007972,37.487618499958],[126.91348530069041,37.488004601787495],[126.9121833995149,37.487825100350705]]],[[[126.94726069957831,37.5037353997803],[126.94730489996641,37.5019249986614],[126.9488511002655,37.501937299699705],[126.9490524003126,37.5028891009858],[126.94726069957831,37.5037353997803]]],[[[126.9214733997151,37.5062322000205],[126.92200060021351,37.5044434996544],[126.9229235013929,37.5063190992517],[126.9214733997151,37.5062322000205]]],[[[126.8460146990323,37.4951476005156],[126.8491378011715,37.4963808998101],[126.8479719993229,37.4964023013451],[126.8460146990323,37.4951476005156]]],[[[126.7969364986621,37.5055623018089],[126.79735760006369,37.5047579994051],[126.7975960004199,37.5063489993243],[126.7993420017028,37.506020400167394],[126.7975960005199,37.5063490026079],[126.7969364986621,37.5055623018089]]],[[[127.01458789939579,37.4846771998866],[127.0152739994234,37.4854554986945],[127.0168358007341,37.48412659882101],[127.0170569005224,37.4856361001263],[127.01613919970289,37.4860641004752],[127.01458789939579,37.4846771998866]]],[[[126.7967263976306,37.4682697014138],[126.7978206002539,37.4676485962693],[126.7989594013182,37.469466200823696],[126.796173099631,37.4702886005781],[126.79568669867031,37.4696688000147],[126.7967263976306,37.4682697014138]]],[[[126.9386369006186,37.504620101365894],[126.9380204994997,37.5048081006347],[126.93930880033031,37.5041533992333],[126.9408649004254,37.5051339007753],[126.93957160033,37.5059479009178],[126.9386369006186,37.504620101365894]]],[[[126.8903728994421,37.4204281990419],[126.89224749898,37.4204551985271],[126.8925236006517,37.4185191998],[126.8930872004692,37.4205719998656],[126.8922352011736,37.4209040000025],[126.8921274004176,37.422136700542104],[126.8916327987654,37.420443400444306],[126.8903728994421,37.4204281990419]]],[[[126.9330028997703,37.4782063996313],[126.9338304001255,37.4779498996283],[126.9340720004502,37.478591099748705],[126.9330028997703,37.4782063996313]]],[[[126.9897302996561,37.520337899816504],[126.9906657006203,37.5201244992942],[126.9907158001012,37.5205523003262],[126.9897302996561,37.520337899816504]]],[[[126.9868698997535,37.534407400460196],[126.98700930013,37.534694700021404],[126.98687299996351,37.5347780000628],[126.9868698997535,37.534407400460196]]],[[[126.8393987994091,37.4799607999941],[126.84049050037,37.4806553003634],[126.840235799439,37.4807262008944],[126.8393987994091,37.4799607999941]]],[[[126.8647324996238,37.5014805998521],[126.86541610000221,37.5013208992071],[126.86549390042461,37.501766000011706],[126.8647324996238,37.5014805998521]]],[[[126.7112670998096,37.404783200215896],[126.71148760007979,37.4054054991433],[126.7118708006519,37.405568003286305],[126.7114875991004,37.4054055030826],[126.7112670998096,37.404783200215896]]],[[[126.7497667982627,37.390650899710394],[126.749574099777,37.389792199595],[126.7510645009425,37.390197899623296],[126.7497667982627,37.390650899710394]]],[[[126.67818649980269,37.4177310000979],[126.6790877006418,37.4174154998801],[126.6783952001036,37.417962100417796],[126.67818649980269,37.4177310000979]]],[[[126.8839212982798,37.262000401258796],[126.88369880000481,37.2617756995604],[126.8841267019576,37.2620016028284],[126.8839212982798,37.262000401258796]]],[[[126.9279384990858,37.4894362000889],[126.9280793995119,37.4891743991823],[126.92777239992799,37.4896546004345],[126.9279384990858,37.4894362000889]]],[[[127.043741699349,37.1885617002889],[127.0441868982996,37.1876605994723],[127.04467580209969,37.1878232008555],[127.043741699349,37.1885617002889]]],[[[126.75094049805409,37.3279198998658],[126.7509814001864,37.328220200797496],[126.7508274981671,37.327974699811],[126.75094049805409,37.3279198998658]]],[[[126.8084468986101,37.5071317996138],[126.80831139900289,37.5064614957094],[126.8089053004481,37.5070736999432],[126.8084468986101,37.5071317996138]]],[[[126.97803249920669,37.3118256993836],[126.9784907998803,37.311805298631704],[126.97842300023251,37.312075500049],[126.97803249920669,37.3118256993836]]],[[[127.00379119870719,37.4999174004098],[127.0042560004364,37.4998100998212],[127.0042158999795,37.4999980007039],[127.00379119870719,37.4999174004098]]],[[[126.92269379992031,37.400835799979305],[126.9227879000354,37.4005827999461],[126.9227357999907,37.4008739001284],[126.92269379992031,37.400835799979305]]],[[[127.049064998219,37.504403799449896],[127.049065000752,37.504403799624995],[127.0489626997432,37.5046312005367],[127.049064998219,37.504403799449896]]],[[[126.9025141996339,37.5348237995225],[126.9025142005838,37.5348238002152],[126.90251419995519,37.5348238006519],[126.9025141996339,37.5348237995225]]],[[[126.7871255991648,37.503761699826],[126.7877414003027,37.5038652000507],[126.7877414001462,37.5038652005888],[126.7871255991648,37.503761699826]]],[[[126.9087811989189,37.4855564992894],[126.90890879989391,37.4852886995553],[126.9087812010664,37.485556500666505],[126.9087811989189,37.4855564992894]]],[[[126.9110300993462,37.4862164003773],[126.9111879003904,37.4859392993352],[126.9110301001965,37.48621640045231],[126.9110300993462,37.4862164003773]]],[[[126.9836603997205,37.255546599988506],[126.9840413003341,37.2555622995341],[126.9836603998763,37.255546601023205],[126.9836603997205,37.255546599988506]]],[[[126.724567099825,37.3737716996934],[126.7245670999191,37.3737717040597],[126.7245670977949,37.373771701977496],[126.724567099825,37.3737716996934]]],[[[126.7471128982847,37.330496401056],[126.7486154020446,37.3321324993447],[126.74861539712971,37.3321324997736],[126.7471128982847,37.330496401056]]],[[[126.7955582995338,37.482987799603094],[126.7955583006459,37.4829877992254],[126.7955583007673,37.482987800016296],[126.7955582995338,37.482987799603094]]],[[[126.9713830995955,37.3561567000032],[126.97158330011581,37.3561055997237],[126.971503200199,37.3562059002917],[126.9713830995955,37.3561567000032]]],[[[126.9726149992338,37.5537124005709],[126.9726150007792,37.553712399497],[126.9726150004158,37.5537124003731],[126.9726149992338,37.5537124005709]]],[[[126.7183899988654,37.3628928994957],[126.7183900014149,37.362892899524596],[126.7183899990675,37.3628929012985],[126.7183899988654,37.3628928994957]]],[[[126.81875719943079,37.489082100511695],[126.81875719931439,37.489082099422795],[126.8187572013085,37.4890821000706],[126.81875719943079,37.489082100511695]]],[[[126.84499649896469,37.4948542004111],[126.8449964992371,37.4948541988147],[126.84499650060559,37.4948541991236],[126.84499649896469,37.4948542004111]]],[[[126.7357053995402,37.3640898998986],[126.735705400372,37.3640898999082],[126.7357053994462,37.36408990023121],[126.7357053995402,37.3640898998986]]],[[[126.7952263996611,37.5052901996433],[126.7952264012795,37.5052902001162],[126.7952264003722,37.505290202081],[126.7952263996611,37.5052901996433]]],[[[126.80116979895129,37.3519081992743],[126.8011698010563,37.3519081994766],[126.8011698008314,37.3519082012471],[126.80116979895129,37.3519081992743]]],[[[127.0316396993335,37.5141667997857],[127.0316397013633,37.514166800576],[127.031639700389,37.5141668010155],[127.0316396993335,37.5141667997857]]],[[[127.0321479997022,37.2623759998482],[127.03214800005621,37.262375999784105],[127.03214800034391,37.2623760008411],[127.0321479997022,37.2623759998482]]],[[[126.7917016993526,37.441930600211],[126.7917017000891,37.4419305999642],[126.7917016999455,37.4419306004737],[126.7917016993526,37.441930600211]]],[[[126.7950055994512,37.4829518998565],[126.7950056000865,37.482951899639005],[126.79500560018519,37.482951900028105],[126.7950055994512,37.4829518998565]]],[[[126.91012169983391,37.4687027002836],[126.9101217008495,37.4687026993709],[126.91012170102191,37.468702700913],[126.91012169983391,37.4687027002836]]],[[[126.9145518001354,37.520250200118],[126.9145517999072,37.5202501999773],[126.9145517999599,37.5202501998481],[126.9145518001354,37.520250200118]]],[[[126.9182696991753,37.4951661000079],[126.9182697012101,37.4951660995941],[126.9182697000919,37.4951661011217],[126.9182696991753,37.4951661000079]]],[[[126.9241703991323,37.4928687001294],[126.9241703998534,37.4928686994173],[126.924170401342,37.4928687012031],[126.9241703991323,37.4928687001294]]],[[[126.944086399575,37.4852825002312],[126.9440863998332,37.4852824997858],[126.9440864004855,37.485282499852794],[126.944086399575,37.4852825002312]]],[[[126.9676897984994,37.5216291000014],[126.9676898002224,37.5216291000389],[126.9676897997406,37.5216291009434],[126.9676897984994,37.5216291000014]]],[[[127.002208499961,37.493177699849596],[127.00220850023369,37.493177700234796],[127.0022084999107,37.4931777000552],[127.002208499961,37.493177699849596]]],[[[127.03050239973311,37.2090954000642],[127.0305024002008,37.2090953993762],[127.030502400398,37.2090954003932],[127.03050239973311,37.2090954000642]]],[[[126.8822595998431,37.501797100028895],[126.882259600132,37.5017970998831],[126.8822596000262,37.501797100092],[126.8822595998431,37.501797100028895]]],[[[126.91187289948091,37.4872880996639],[126.91187290039791,37.4872880997715],[126.91187290001321,37.4872881001234],[126.91187289948091,37.4872880996639]]],[[[126.9652876997811,37.531886300045194],[126.9652876999427,37.5318862998275],[126.96528770009171,37.5318863000429],[126.9652876997811,37.531886300045194]]],[[[126.9546666999131,37.495713700045904],[126.9546667000148,37.4957136998346],[126.9546667000474,37.4957137000257],[126.9546666999131,37.495713700045904]]],[[[127.0140762992705,37.245252799855],[127.014076300288,37.2452527998405],[127.0140762999182,37.2452528007775],[127.0140762992705,37.245252799855]]]]}}]}