{"type":"FeatureCollection","features":[{"type":"Feature","properties":{"interval":15,"stationId":"5347811352"},"geometry":{"type":"MultiPolygon","coordinates":[[[[126.9226922995494,37.358700800103904],[126.9234907996965,37.358955299698195],[126.9243766989184,37.3579094003416],[126.9229263996825,37.3580671001257],[126.9226979998525,37.3569793988783],[126.923108299873,37.357873499586496],[126.9237607998469,37.3570396994179],[126.9252476994711,37.3577045992499],[126.9270455991768,37.3570991993843],[126.92631519990721,37.3551734013101],[126.9257824994621,37.3560245002014],[126.9259305995201,37.354097600177504],[126.9251114003393,37.3540879001872],[126.92523660004811,37.3548878002961],[126.9245958979362,37.3542456010403],[126.92584929980329,37.352566299900296],[126.9255807002144,37.351731999725295],[126.92665200007531,37.351687699629],[126.9265370003326,37.3524481993735],[126.9275639993056,37.3528289989927],[126.9297259993728,37.3528045983402],[126.9308918994963,37.3514059991575],[126.9297260009636,37.3528045999236],[126.9302141006287,37.3540061992304],[126.9323782997855,37.3516705994389],[126.93339109945839,37.351599399537996],[126.93373010028431,37.352600199304895],[126.935566403213,37.3527528977513],[126.9354309038529,37.3542987988854],[126.9376701017145,37.3557554978511],[126.9413997000628,37.355884097944895],[126.9430432995948,37.3548962991921],[126.94373970106629,37.3554715994074],[126.9418525009276,37.3587424989583],[126.9429656006848,37.3593890998199],[126.9425878007503,37.359803799794],[126.94400040104959,37.362079800547995],[126.9433806010748,37.3628222005677],[126.9442897009458,37.363882299934],[126.9432812000411,37.3648583005695],[126.9421867007802,37.3642667009694],[126.94177770118921,37.3651039001322],[126.94266330055011,37.3655938002824],[126.9417777005041,37.3651039009424],[126.9409863999938,37.3660190015839],[126.9386347002245,37.3664325001918],[126.9386322998333,37.3649690007187],[126.93721549969969,37.3655108002117],[126.9368763997952,37.364255301395104],[126.93602370064791,37.3641431015073],[126.93473040165911,37.3655737003712],[126.9371316004487,37.367312699252096],[126.9361268009142,37.3674257007391],[126.9359041001251,37.368335101007105],[126.93312319980299,37.367624100242104],[126.93148590046,37.368524801446405],[126.93127469972221,37.367341201184395],[126.9295492998397,37.3662421013244],[126.9274703006039,37.3671347003051],[126.9271441998947,37.368215901664605],[126.92664069978889,37.3675860998939],[126.9274702994824,37.3671346989736],[126.9276884992642,37.365345300763],[126.9260553998783,37.365201601272496],[126.9250541991062,37.3641028006076],[126.9239890999141,37.3644237000629],[126.92505419955761,37.3641027994625],[126.9251538989729,37.3626515004188],[126.9235240994949,37.361796900488],[126.92320199948101,37.3607116000838],[126.9245683995454,37.3616410986944],[126.9247248993889,37.3606029997325],[126.92432949978429,37.3594228009127],[126.9226922995494,37.358700800103904]]],[[[126.9244097997184,37.3497908996856],[126.9263706005971,37.3491494998727],[126.9258437003588,37.3498017004276],[126.9244097997184,37.3497908996856]]],[[[126.9338988995743,37.3687713000202],[126.9338988997079,37.3687712993543],[126.9339146999668,37.3687969003388],[126.9338988995743,37.3687713000202]]]]}},{"type":"Feature","properties":{"interval":30,"stationId":"5347811352"},"geometry":{"type":"MultiPolygon","coordinates":[[[[126.9114634966292,37.361883900520205],[126.9135857969952,37.3588951988378],[126.91035869814411,37.3546428999978],[126.913442897083,37.3523197008568],[126.9114477982669,37.3519421971748],[126.9137580998149,37.351973197591704],[126.91650079851249,37.3552596956282],[126.9185046965086,37.3524660984218],[126.9169614980518,37.3503851005028],[126.9168577967152,37.347842101722804],[126.9183437966311,37.3436789005561],[126.91733979859379,37.3415713983346],[126.9224761972043,37.342732997333606],[126.9242695981515,37.3402883975751],[126.92729720231699,37.340095397753004],[126.9314099000253,37.3461516980682],[126.9358589002487,37.3486383967643],[126.937803598304,37.3479062974964],[126.9388316998701,37.3450440995893],[126.9399594997473,37.346282698785906],[126.9409607998593,37.3453012993196],[126.9427505999778,37.3468409994343],[126.9442477994737,37.3456554991242],[126.9454417003669,37.345847299443],[126.9456849001822,37.3466186993329],[126.9478956014587,37.3475156991857],[126.9480614012096,37.353376499727204],[126.9496722007642,37.3535897006883],[126.9494343000108,37.354506500342],[126.9491174994361,37.3535957003693],[126.9480614003292,37.353376500238404],[126.94781710167389,37.3576909985601],[126.9495387999522,37.357623998627105],[126.94958630110291,37.359406198196304],[126.95239390264601,37.3601872991879],[126.9531289012397,37.3619386006311],[126.9523938994287,37.3601873014449],[126.9505469012757,37.3606425009897],[126.950095601727,37.3617619998702],[126.9514023009738,37.3630206993087],[126.95073740206139,37.3647725998161],[126.9520374007614,37.3664151981735],[126.9542691012781,37.3655724975728],[126.9555590007852,37.3672754003064],[126.9546389011904,37.3684181002646],[126.9557270004364,37.3688619999007],[126.9547431992948,37.3705282022875],[126.9533478004224,37.3690726012894],[126.953040400857,37.3725105004067],[126.95213429948019,37.371647600859404],[126.9499711001511,37.3723118001426],[126.94970820041401,37.3730225994318],[126.9511988999885,37.3745497989146],[126.9522947022585,37.3746632992408],[126.9507181996425,37.374010701389],[126.9450859004749,37.377811101942804],[126.9426213029395,37.3777950019589],[126.9396439002817,37.380610501027306],[126.9384176009703,37.3804495010429],[126.937529901858,37.3813242001682],[126.93914930044599,37.382479899143696],[126.9382871011407,37.3833840993022],[126.9407279013362,37.384412002055996],[126.94014970052841,37.3848591018531],[126.939538100137,37.3835387015354],[126.9380723004849,37.384644701572405],[126.9382870983514,37.3833841000898],[126.9353631004837,37.3833900001367],[126.9351640011898,37.3845913996495],[126.93412130082851,37.3850932999015],[126.9348889001938,37.3853151999785],[126.9328361995951,37.3901782006255],[126.930129598885,37.3872734994088],[126.9305992990144,37.3859984999731],[126.9291055992717,37.3828472000516],[126.9299418991348,37.382648599411006],[126.92982870019681,37.3819778984504],[126.9320767988506,37.3830100976774],[126.93769709959079,37.378827399773],[126.9373657995025,37.3760144015478],[126.9361138994818,37.3758706005122],[126.9347312988901,37.3743643021547],[126.9320477005396,37.374153801092405],[126.93186820032629,37.3749890009178],[126.92992910024769,37.3752282013792],[126.9251542967216,37.372264604161],[126.92029530158061,37.372069004356604],[126.9197376976679,37.3741531025273],[126.9192518964608,37.3713875009137],[126.915001297091,37.368358101199],[126.9164004955377,37.3644892005945],[126.9114634966292,37.361883900520205]]],[[[126.9438192980331,37.3878888019101],[126.9444836989966,37.385980399336],[126.9470889004932,37.3860538987981],[126.94980710043531,37.3844389986957],[126.9511959000085,37.384917099116805],[126.9516014005677,37.3841705989547],[126.9522956003959,37.3852098990917],[126.9541877000677,37.3854486988974],[126.9547085995468,37.3842130001331],[126.9539576997016,37.3839688999015],[126.9547085995817,37.3842129996152],[126.9549930002387,37.3833902991464],[126.95470860138451,37.384213000304705],[126.95891439997119,37.3909547995201],[126.960770199701,37.389755699538505],[126.9610917008483,37.390347899115],[126.9638181002211,37.3896613993755],[126.966442900038,37.3907581999046],[126.96736490043921,37.3898144990806],[126.96592630118921,37.3923981987396],[126.9678129004336,37.3913636001653],[126.9652746037,37.3935434011501],[126.96671670225791,37.3958339988595],[126.9687986020847,37.396166700045704],[126.96746939885949,37.397334202245105],[126.964953000411,37.396859302417404],[126.96335739973841,37.3988442031552],[126.9601351000212,37.397965400824795],[126.9604910991844,37.3969104010333],[126.9596290000465,37.3966091013346],[126.95892500042889,37.3976843013166],[126.95962899866831,37.3966091008582],[126.95859149920939,37.3956754005777],[126.9588778995281,37.3946714004374],[126.9578811998489,37.3949348003241],[126.9575924994635,37.3936013010599],[126.95580449949959,37.3927436006189],[126.9547408005633,37.3931116002509],[126.9541310003548,37.3946032996615],[126.9554509002786,37.3944884007984],[126.95307440025391,37.3938951011783],[126.9525710007573,37.394820700252694],[126.9514442993232,37.3946090007571],[126.9498675002106,37.3957243015563],[126.9456192993195,37.392859102307504],[126.9436183013205,37.3924185027481],[126.9443364987308,37.3918498995415],[126.943308498564,37.3895973003806],[126.9438192980331,37.3878888019101]]],[[[126.9075128982388,37.3253693001121],[126.9102374966278,37.3227275997164],[126.9105037999722,37.3236299994456],[126.9130374021258,37.3226510975537],[126.9153257000967,37.320280599584194],[126.916110300088,37.3204793997267],[126.91709090100831,37.322488298288704],[126.9197333018926,37.3225452996503],[126.91811850091541,37.3228611019131],[126.9177918012421,37.323749701024504],[126.9209058014564,37.328684697700794],[126.9241142982479,37.3280532983322],[126.92429650062999,37.3272638991213],[126.92529090234979,37.329506599146605],[126.9241864012659,37.331848999441],[126.9271839004122,37.3322089992816],[126.9274563023614,37.3330827011872],[126.9264190994688,37.3335714010373],[126.922994201262,37.3329084014011],[126.92226980198639,37.3349750993344],[126.9227194017897,37.3361328009658],[126.9202303997832,37.336276300704604],[126.91698770162901,37.3334811057581],[126.9149715957875,37.3339423039374],[126.9158825977793,37.3312922024495],[126.91541749824441,37.329963403778294],[126.9116792961937,37.3265813001803],[126.9075128982388,37.3253693001121]]],[[[126.8497186992286,37.3073514996368],[126.8519292005074,37.3070346991721],[126.8533467993926,37.307930799553304],[126.85496399986519,37.306637599156105],[126.8551281027837,37.308749201322],[126.8544708997962,37.3071291006604],[126.8536338006805,37.3083574005408],[126.8542364025116,37.310149902311196],[126.8523299004547,37.3094587010005],[126.85062480031091,37.3108908021824],[126.8500161996672,37.3105591004428],[126.8497186992286,37.3073514996368]]],[[[126.8609655990505,37.3029044003539],[126.8609036990557,37.3018997000267],[126.8619319989579,37.3017937998995],[126.8627401988809,37.300167499406804],[126.8662644984684,37.2979508000378],[126.8662320990183,37.297250699064996],[126.8675891003995,37.2979218994876],[126.86889280053789,37.3002243986936],[126.8715294004744,37.300458799312004],[126.8715810014193,37.301485299862904],[126.8733172008781,37.3017331997084],[126.86692340084291,37.3019476007141],[126.8668011006589,37.3072997007857],[126.8635199984381,37.3056148004653],[126.8628876989938,37.3041752003634],[126.8618638000177,37.304211600327],[126.8609655990505,37.3029044003539]]],[[[126.9021437979686,37.3066830985397],[126.9028358999097,37.3046666996797],[126.90563500022381,37.3057424993502],[126.9086458028136,37.3142488992927],[126.9116271001984,37.314402599968304],[126.9090340022946,37.315365801465305],[126.9084908998972,37.3163906015703],[126.907029598504,37.314986503236604],[126.9049871005465,37.3151277030954],[126.90411279983569,37.316364902776],[126.9037780989154,37.315485800999895],[126.9026018984726,37.3158369016324],[126.90259949929889,37.3142907978617],[126.9037781006661,37.315485797818596],[126.9049870994571,37.315127698176696],[126.9062913982923,37.3131005001284],[126.9048455997381,37.311515901713],[126.9032866997606,37.3115531001011],[126.9021437979686,37.3066830985397]]],[[[126.9726784990927,37.4036040005402],[126.9724487996409,37.400593898836995],[126.9741603998137,37.3981316997624],[126.9760594999657,37.3983156987169],[126.97635540023491,37.3972077996868],[126.978082302012,37.3980223007496],[126.9788654021804,37.4001795018423],[126.9768598004037,37.4020994006492],[126.976311900849,37.403771800726204],[126.97447279907121,37.4033632028638],[126.9726313001147,37.404434801219296],[126.9726784990927,37.4036040005402]]],[[[126.9522407972502,37.3549548012963],[126.950748999648,37.3543406989097],[126.953923599701,37.3528270998045],[126.9536239999323,37.3518429994701],[126.95705910010379,37.35254859997],[126.9544967998337,37.3546992015415],[126.9535572997271,37.3542288014383],[126.9522407972502,37.3549548012963]]],[[[126.9216726987113,37.4037876022685],[126.9230705987453,37.403286299314395],[126.92307999965679,37.4016399996151],[126.9241563998127,37.4005790988962],[126.9257811005911,37.4008282000624],[126.92568880035131,37.4024178002919],[126.9216727012888,37.4037876005326],[126.9223893992737,37.4045720016635],[126.9216726987113,37.4037876022685]]],[[[126.9894955997782,37.4256246998981],[126.9919278005332,37.4257754997019],[126.9912272001061,37.4278022003567],[126.9894955997782,37.4256246998981]]],[[[126.90691809741399,37.418957901416704],[126.9090164007005,37.4185602001335],[126.9084086991395,37.4192983012857],[126.90691809741399,37.418957901416704]]],[[[126.9491397995386,37.3505122993624],[126.9503340993357,37.350178399078494],[126.9516591005903,37.3511881997861],[126.951008600455,37.3509789007632],[126.9508865002441,37.3518240008194],[126.9502910988036,37.350358500346296],[126.9491397995386,37.3505122993624]]],[[[126.8210158997325,37.3173415002154],[126.8217489001731,37.317312699636105],[126.82177880075841,37.3177521999576],[126.8210158997325,37.3173415002154]]],[[[126.83900699845199,37.3157884006998],[126.8385994991845,37.313922900037504],[126.83926269992371,37.3138626991644],[126.83900699845199,37.3157884006998]]],[[[126.93160599942921,37.3402732012243],[126.93198800166401,37.3406745998071],[126.93170839971721,37.3404887008562],[126.93160599942921,37.3402732012243]]],[[[126.9785039997141,37.4046012009484],[126.9785039987595,37.404601198147404],[126.9785040025418,37.404601197420604],[126.9785039997141,37.4046012009484]]],[[[126.9247860990272,37.3375976006079],[126.9250227999184,37.337424999748],[126.92502280459139,37.3374250004234],[126.9247860990272,37.3375976006079]]],[[[126.92510709957081,37.399259799870904],[126.92510710032501,37.3992598000589],[126.9251070997858,37.3992598010753],[126.92510709957081,37.399259799870904]]],[[[126.9480706997395,37.3439464001379],[126.94807069973331,37.3439463997623],[126.94807070051971,37.343946399831204],[126.9480706997395,37.3439464001379]]],[[[126.965404198635,37.3891402998966],[126.96540420072269,37.3891403001054],[126.9654042001326,37.389140301200705],[126.965404198635,37.3891402998966]]],[[[126.99543749968059,37.4319843993474],[126.9954375005523,37.431984400062795],[126.9954375001187,37.431984400435596],[126.99543749968059,37.4319843993474]]],[[[126.95624959941931,37.3697583997657],[126.9562496007492,37.3697584002183],[126.95624960002151,37.3697584006372],[126.95624959941931,37.3697583997657]]],[[[126.92535699988831,37.3994030999878],[126.92535700034651,37.399403099887],[126.92535700025951,37.3994031005157],[126.92535699988831,37.3994030999878]]],[[[126.95092819938381,37.3956825997154],[126.9509281999901,37.3956825997325],[126.9509282004694,37.3956826005827],[126.95092819938381,37.3956825997154]]]]}},{"type":"Feature","properties":{"interval":60,"stationId":"5347811352"},"geometry":{"type":"MultiPolygon","coordinates":[[[[126.72595699814019,37.3619772011852],[126.72729790020709,37.3626082988755],[126.7280403994646,37.3612465002373],[126.72686749974639,37.360276999725706],[126.72881669979479,37.3591889992599],[126.7291611005731,37.360207698937096],[126.7301147996194,37.359255599889195],[126.7295529997938,37.357796701183204],[126.72868910054589,37.3583884005409],[126.7279204992595,37.3574353995292],[126.72849479943571,37.3562881985293],[126.729976299841,37.3561629990947],[126.7299288998884,37.3548686003891],[126.7289717994782,37.3541413000085],[126.7314075990779,37.3530539993673],[126.7308646992903,37.3481799997777],[126.7301152997248,37.3470968005179],[126.7317002993736,37.3469313999437],[126.7304187991186,37.3455170978058],[126.7361444991022,37.341969597424196],[126.7392863003263,37.345217398955505],[126.7415308992743,37.344474498729994],[126.74147160017,37.3428045993351],[126.74344889919621,37.343750098544405],[126.74527700004231,37.34263459950839],[126.745928299675,37.3433420990933],[126.7469278996446,37.342728199115804],[126.7477848998366,37.3441042988337],[126.74930519954759,37.343164499014],[126.74998789962699,37.3436019993709],[126.75107509922559,37.3420701992],[126.7514103989692,37.3383943006344],[126.7524960990705,37.3377260990719],[126.7514168998714,37.3366404998648],[126.7543242011896,37.3359219992565],[126.7545287004124,37.338070199555496],[126.7556712994902,37.339228498527596],[126.7586279968858,37.3381706970078],[126.75727819801641,37.3333271993971],[126.7622011998972,37.33294629787591],[126.76304760096109,37.331574298649],[126.76454280141701,37.3343500960236],[126.76985410163181,37.3347599964625],[126.7728632989775,37.332411298575394],[126.77374949809129,37.3285514024353],[126.7708161010247,37.3286996022871],[126.77079350069239,37.3304564007661],[126.77044509936191,37.329017901082494],[126.76885969977609,37.3289796999723],[126.7691914994443,37.3276773012747],[126.7673608985989,37.3271940031797],[126.76919149887961,37.3276772978518],[126.76990329816779,37.3260246995044],[126.7687644983783,37.323755999482906],[126.77265589869991,37.3237402981342],[126.7751310986143,37.3201866973609],[126.7764476003071,37.316041096805],[126.77797410001169,37.3193681962232],[126.7796368983489,37.3193982961931],[126.7832882946975,37.317161898429504],[126.7820556972864,37.3144132958965],[126.78688559626511,37.3143067966671],[126.7844870986636,37.308863802110096],[126.7825462967958,37.3094263008835],[126.78145449733009,37.3069817022383],[126.7782071972341,37.3079175020001],[126.7767537967369,37.304636800930695],[126.7794250967778,37.3024677009211],[126.7787341967872,37.300938100917],[126.78126229684149,37.2986416009009],[126.7805399001492,37.297045496308],[126.7854523963756,37.2943315986389],[126.7839565019476,37.2960684988406],[126.78466040124371,37.2976368972722],[126.7874300016995,37.2962276971119],[126.7910912980484,37.2959072972548],[126.7908009028736,37.2968782005546],[126.79452780154159,37.3010123985866],[126.7941340014454,37.3023427988734],[126.795014400565,37.3036356975805],[126.796461699139,37.303196097949],[126.801888400954,37.30425609877901],[126.80292510072789,37.3068867958363],[126.8073581962948,37.3041693985537],[126.8067680982109,37.3028271978483],[126.8094688002966,37.3029412980954],[126.81128839847699,37.303895797140896],[126.8141652988208,37.2980451922258],[126.82272190021611,37.2979917986997],[126.8254511999212,37.3004302992285],[126.8274967988809,37.2980393996804],[126.827183900228,37.29684509762],[126.8287085987033,37.297590896874205],[126.83103889834979,37.295638797548],[126.833746799066,37.296755496599005],[126.83465859815419,37.295351198003296],[126.8354830000046,37.2958485982261],[126.83718759829999,37.2947621993125],[126.8393755977523,37.2948510988504],[126.8420356952317,37.2921337000407],[126.840463396804,37.2879638042106],[126.8382457971079,37.2878852035221],[126.84133249592789,37.2855480013526],[126.8405070981424,37.2822109988292],[126.84202309860211,37.2815245986856],[126.84201309860251,37.280195798775104],[126.8441726017321,37.2801815987975],[126.8444320014727,37.280785998193096],[126.84719319871151,37.2802149987641],[126.8476257953842,37.2760361940192],[126.849816194507,37.2746374944731],[126.8509036982437,37.272435593831105],[126.8518179010893,37.273553297801705],[126.8540948048271,37.272741797133],[126.85805980086211,37.2741491957256],[126.862028298631,37.2725125971882],[126.85987410112399,37.2763652995813],[126.86340200124339,37.2774972988135],[126.8665068997828,37.2774931972751],[126.867987799862,37.279068697198504],[126.8696879019517,37.277476498152396],[126.882543002153,37.286088098],[126.88352640111219,37.288085602017304],[126.8821201025185,37.289460800642104],[126.8839595006791,37.2907527993501],[126.88646469817391,37.291244398858495],[126.8862220984165,37.28943920066369],[126.88663509944601,37.28827839851321],[126.8875117995804,37.288277798349704],[126.8947357090329,37.2949921918494],[126.9038009020519,37.2960891915003],[126.90911870352559,37.2993366937311],[126.91375749888681,37.295732997334795],[126.9180630006455,37.293794597515095],[126.91913770788649,37.2923893996672],[126.922403204621,37.2975411945154],[126.92638360122439,37.2974058973236],[126.9257295012228,37.2993389005384],[126.9234734023387,37.300200099674996],[126.9240024018097,37.302418297456796],[126.9264659993461,37.3039086959664],[126.9299574051377,37.302905598817404],[126.92699210499781,37.3063471993073],[126.92845440355181,37.3084181986009],[126.9301130018932,37.3090604979586],[126.932882403631,37.3075419984851],[126.93500700150639,37.309339196687894],[126.9370279994854,37.3076486983784],[126.94162350056081,37.3096305961105],[126.94319399899031,37.3091836965574],[126.9444626977216,37.3059642997768],[126.9430358991484,37.304687201053895],[126.9423189997387,37.3050958992246],[126.9430358999785,37.304687198675495],[126.9444626985517,37.3059642973984],[126.9509878968035,37.3046523960028],[126.9517258980152,37.3025592980354],[126.9510770007059,37.303863898694004],[126.9553914988371,37.3050821987135],[126.9561442985903,37.302436497725],[126.9559367019007,37.3045031978721],[126.9581120998562,37.3058299965539],[126.96064179935071,37.3030361988379],[126.9630101986156,37.3017510997573],[126.9638679977578,37.300608800899596],[126.9636093980164,37.2987263027821],[126.9605936983223,37.2968245043919],[126.9578612010548,37.2985345026819],[126.9574752989846,37.299716402274],[126.955477998497,37.2980824006005],[126.9560557981146,37.293279401339205],[126.9541646987374,37.2942672995679],[126.9560338007594,37.293050199706606],[126.9569986997945,37.2950033977534],[126.9587775980156,37.293818698938104],[126.9583349988838,37.2925537996687],[126.9629558962331,37.2888864958575],[126.9641341997323,37.2917506953571],[126.96888489871691,37.291470095044296],[126.9696626979391,37.2865710999433],[126.9680450970444,37.2851716981201],[126.96917289886521,37.2843357994901],[126.9691872997117,37.283334598295404],[126.9694259003794,37.2840260994872],[126.9699773006284,37.283564299755504],[126.97168819934011,37.2844591991773],[126.9728411989457,37.283310899882494],[126.97059469936501,37.2807099999953],[126.9726382994338,37.2801158991275],[126.9728577996489,37.2792470995973],[126.97436649991201,37.2804519992881],[126.9749813999539,37.2799857994187],[126.9770076991238,37.2807662987367],[126.97852779811069,37.279771099634296],[126.9784778981606,37.278875900529506],[126.97612789899469,37.276851300071094],[126.9777791989569,37.2771754990841],[126.9768748990545,37.2757511992993],[126.9787593002301,37.2738423990105],[126.9802995986898,37.2747933980595],[126.9819555999629,37.2718984990912],[126.9839200006339,37.2736599981283],[126.9857497988041,37.271741400046906],[126.98528859957341,37.2709284986543],[126.9861132002556,37.2709116995067],[126.98675609961269,37.272310398108004],[126.9893406976269,37.272068397661705],[126.98829429602,37.2677879998522],[126.98960049902189,37.2659581996144],[126.9893923994838,37.2640995001791],[126.9887006996885,37.2639665997091],[126.9904577988514,37.2612211995718],[126.9902526959468,37.255056001267],[126.9884936977058,37.2535257027973],[126.9857680001946,37.256040100463],[126.9843753999508,37.25509640039],[126.9835367003906,37.2565698013033],[126.9825683001008,37.2531029022187],[126.98103500163411,37.2527454025762],[126.97987259908459,37.2549118019117],[126.9767901993947,37.251708700882304],[126.9758068003781,37.2515389010521],[126.9748520991359,37.2548083008628],[126.9741298991946,37.254705100325204],[126.97487849853971,37.2530913015246],[126.9714766978867,37.2511633017485],[126.9669383995998,37.250101901927394],[126.9658333999322,37.2530036011667],[126.9643018959162,37.2494698005815],[126.9615984986196,37.246878703172605],[126.95614999656969,37.2467090028041],[126.954113597493,37.2434710006739],[126.95298279862381,37.243340900804],[126.9523671993327,37.2411286023382],[126.95146439595081,37.2408795001765],[126.9523683997899,37.2397502998681],[126.9526757007501,37.240921999479795],[126.9545550992587,37.2408202996587],[126.9570096980321,37.2376964001951],[126.9574874990639,37.2353569973441],[126.96095219866939,37.233883498552196],[126.9622377035672,37.235386595306],[126.966793899011,37.2357099949826],[126.9689279026271,37.240083096293],[126.9732730990485,37.2379278974486],[126.97241610035691,37.2395122017443],[126.9715300005661,37.239068201749795],[126.9707186013775,37.2404168004012],[126.9736080007119,37.2420674010229],[126.9713472029727,37.2426658004245],[126.97293850138139,37.2462825968077],[126.9750891992307,37.2439469991433],[126.97620999996269,37.2446696974077],[126.9780451987298,37.2426158981108],[126.9804813010467,37.2445831975199],[126.982930998597,37.2438723982307],[126.983479700516,37.242684498882],[126.98318500270831,37.2433223997664],[126.9859725012258,37.244026999656306],[126.99019970185,37.248373897894794],[126.99032700132709,37.2522061968884],[126.9915017027656,37.2526438998108],[126.991109500699,37.2537226002184],[126.99019680081041,37.2534447008623],[126.99033420069041,37.257836399537105],[126.9916882993363,37.2582141991593],[126.99189560024561,37.2563271977177],[126.9935808002315,37.256992198165996],[126.9944846993276,37.2564068987513],[126.99418850065321,37.254980899453],[126.9944847013739,37.2564068983902],[126.9966286994126,37.257655197232104],[127.0009279997554,37.2571425965556],[127.0070471995823,37.2582744987044],[127.0086393003352,37.2611926994808],[127.0073167011664,37.2616546000692],[127.0079606013784,37.2641321998878],[127.0058947002658,37.266003199959],[127.0066602004392,37.2674485002884],[127.0060625008525,37.2684410995999],[127.0078211009801,37.270707200389694],[127.00640650107489,37.270910900318796],[127.0071581006543,37.2717372003317],[127.0061540006446,37.2739243999588],[127.00493990014189,37.274819700434605],[127.0034909011659,37.274690300564906],[127.0031840002275,37.2765500009043],[127.0026839992788,37.2751568006195],[127.0017401998015,37.2748159005677],[127.0002670995087,37.2758033006928],[127.0002205995661,37.2747015006781],[126.99932460046209,37.27446960091],[126.9991789002039,37.2755678003622],[126.99799470010471,37.275381500626104],[126.99679480074451,37.2763553999076],[126.9996058007638,37.277462899999804],[127.0003906011425,37.2797511999929],[127.0015421006279,37.2802132999979],[127.00193320042689,37.281470000000496],[127.00103010091209,37.2822944002739],[127.00121410249619,37.2838988004641],[127.0000642016325,37.286978599137996],[127.00207610106699,37.288382899290504],[127.00167930123841,37.2895216004227],[127.0025999002848,37.2904032007556],[127.0015929996862,37.2900676010653],[127.00007839960871,37.2912366004748],[127.0004804993265,37.2907230000146],[126.99864870105951,37.2904960003712],[126.99736999972481,37.2920326009206],[126.99570210056831,37.2911907010133],[126.99455070098661,37.2931136013854],[126.9921448004094,37.292191600654604],[126.9914041993201,37.293432900949796],[126.99132709909591,37.292311201224],[126.98947370031101,37.291885201485],[126.98807400069559,37.294337999583604],[126.9890110995522,37.2947092011915],[126.9872866003807,37.29402710154],[126.9862567010356,37.2947598014291],[126.9862450010473,37.2961796000093],[126.9878730003298,37.296893499631906],[126.98749120143579,37.299364099984395],[126.9908324999567,37.3006299995078],[126.9910648003211,37.2993365998841],[126.9914869006262,37.3008661996599],[126.992402400231,37.3011956995246],[126.9925385002275,37.3045195003472],[126.9905478012018,37.302915002596],[126.9886093017569,37.3054694016402],[126.98850160158091,37.3071053003597],[126.9876277004206,37.3074409999768],[126.98813730057711,37.3077502012792],[126.985076299865,37.3081582007996],[126.9839721999859,37.309952300685396],[126.981561000235,37.3099872005837],[126.981945100028,37.311894600208504],[126.98123669713439,37.3101092003278],[126.9821813961897,37.3081142023228],[126.9818571965139,37.3061789042581],[126.97609609957671,37.305632004175706],[126.9731247025481,37.307401302406404],[126.9729423027305,37.3095176002901],[126.97111850182391,37.310381600657],[126.9702144978114,37.312960704262196],[126.9678219987903,37.310289906101],[126.9647009015627,37.315598000758804],[126.964441601822,37.3179461984106],[126.96520820159391,37.3200224970835],[126.9694662047622,37.320778706865],[126.9655394992464,37.320708301024396],[126.963286901499,37.3228643988683],[126.9636443019121,37.327124600386696],[126.9644384998698,37.328028802644496],[126.9618776964832,37.3284982011392],[126.9598037985571,37.327148202489205],[126.9591021001592,37.3250981013533],[126.9578268002984,37.3254465015091],[126.9568495010423,37.3274725996921],[126.9570905012704,37.331699097938305],[126.9618728010113,37.3337138967418],[126.962866801694,37.3352272997883],[126.9617695995964,37.3360572011397],[126.9611839001709,37.3348308022391],[126.9597639015909,37.3378070992628],[126.9600731012972,37.3410290962289],[126.96427700063839,37.3410459952489],[126.9663999991287,37.3372733985525],[126.97028590305699,37.3401386980023],[126.97535570074109,37.3422534989539],[126.976132800771,37.3434577984874],[126.9778063004573,37.3420450994006],[126.978216301484,37.3445513982795],[126.9798193004052,37.3451299982171],[126.9799102007497,37.3460912984783],[126.9817134007571,37.3460161998697],[126.98071690106181,37.3477338998397],[126.981826902176,37.348110900612305],[126.98047940310009,37.3511235013225],[126.9781533008187,37.3513109047634],[126.975719003253,37.353635502438806],[126.9753664036056,37.354880101194205],[126.9784114062559,37.357519800244496],[126.9783068018077,37.359472702165995],[126.9763166037979,37.360436301202405],[126.9733498055867,37.3749679954249],[126.9809695030322,37.378583297737805],[126.9836105003912,37.3780552982658],[126.9862702990636,37.382237296174],[126.9890324050014,37.3832843944069],[126.9907995043226,37.387586898033504],[126.99376750135461,37.3883070973133],[126.99573959938249,37.385842399778],[126.9987125000858,37.3846475993888],[126.999140800936,37.384972700572],[126.9969765012962,37.3851604003861],[126.9982621004455,37.3860466993332],[126.99753410116129,37.387480699354896],[126.99806730062811,37.388914897920706],[127.00144190165071,37.387537100202],[126.99964320166319,37.3910543995876],[127.00014760188441,37.3935922007361],[126.9983030004617,37.3921150025691],[126.99690250186221,37.393734300949795],[126.9974252013395,37.3945913000928],[126.99675500173139,37.3981024981836],[126.9978225032552,37.4013776985351],[126.9959122028719,37.403117899067695],[126.9994492023636,37.4036695987121],[126.9959122037915,37.403117901569495],[126.9959804037233,37.4080186966687],[126.9950767030248,37.4098596986592],[126.9970554044283,37.412085399047704],[127.0026190988646,37.4154924956406],[127.0067709947127,37.4138288973042],[127.0134468042428,37.4164985986695],[127.0143363010089,37.420007598877895],[127.0152104010231,37.419624801039504],[127.01325300270861,37.4209750997342],[127.0170590012757,37.4239775986239],[127.0185630997716,37.424377898223604],[127.01966630035069,37.4231634966852],[127.02121460021229,37.4233633985573],[127.02194710221451,37.424980600080396],[127.0241140016209,37.4252594020571],[127.0165118017939,37.4285273000164],[127.0171662010502,37.429505499480896],[127.01980640059969,37.42940389933489],[127.0233913023436,37.4335323937841],[127.027788205623,37.4354973991177],[127.0259856998538,37.4380428058018],[127.02307749980879,37.4348230027356],[127.02058260230369,37.435722501836096],[127.0206032022831,37.4383141992444],[127.01866870230671,37.4423885026359],[127.01629850467691,37.444045600978804],[127.0129600027971,37.4441875005584],[127.0115612036692,37.4458157017505],[127.0121255031049,37.449066798499395],[127.0166113989516,37.453421794594504],[127.02138839417461,37.4488495991667],[127.02209570050509,37.4463176001163],[127.0218952007431,37.4481168990026],[127.0225966006078,37.448023800018404],[127.02138840072901,37.448849600222104],[127.0220930029846,37.4491428013655],[127.0194626048914,37.454383996984696],[127.0198924044895,37.455460300771996],[127.0188115021957,37.4555928028461],[127.0184179025893,37.4592349992039],[127.0203527006545,37.4593809990579],[127.0201474005571,37.4602830997572],[127.0214409011554,37.4603334995617],[127.02079040086369,37.461044300670196],[127.018237200745,37.4594208032485],[127.011209401088,37.4588851032465],[127.0058475064104,37.4623663998264],[127.001013502186,37.467223100042],[127.0019492000515,37.469263901018],[126.9963191018252,37.4667478036534],[126.99270220128889,37.4697960014388],[126.9933764006241,37.4722495999646],[126.9924179009744,37.4735787997214],[126.9941245005555,37.4741352989459],[126.99668700032349,37.4722799992025],[126.99565360102049,37.4725377998407],[126.9964533002208,37.4734590989194],[126.997534300052,37.472904199562805],[126.9974446007206,37.473669199382805],[126.9997623984028,37.4744005986514],[127.0015529008134,37.4748253969183],[127.0032521991141,37.4740317977119],[127.0028892011208,37.475950098474996],[127.00455600182259,37.4764987994698],[127.0044283015471,37.478147098768204],[127.00572860055449,37.478705398354904],[127.00581610027581,37.4797444994702],[127.0061927005024,37.4792474991166],[127.0073587009874,37.4826737996485],[127.0089235007726,37.4835923001475],[127.0047641004819,37.4821041010681],[127.0041288011172,37.483494199678006],[127.0050255011282,37.4849804995471],[127.00586110053,37.4850309005237],[127.00481120033241,37.486049700568906],[127.0053315998103,37.487470099348606],[127.0071819992233,37.485269098456996],[127.0083517000385,37.4860384987888],[127.0099996004019,37.48535639917],[127.0119258004109,37.4863261991267],[127.0133122006461,37.488874199293],[127.0138554001029,37.488749299417904],[127.015164899,37.4868200000609],[127.01272319892189,37.4843231997976],[127.0139836992379,37.4845637992893],[127.01487830009481,37.4831574994955],[127.0163522998451,37.4839436984483],[127.0178123998319,37.4823366997503],[127.0168358014646,37.4841265992493],[127.018447399853,37.4850893982865],[127.018851300273,37.484379599497494],[127.0196050007678,37.4858535010969],[127.019043499986,37.485208901213404],[127.0175793002035,37.4857624013567],[127.01756670042771,37.487060200716805],[127.0151649003914,37.4868200007702],[127.0137381008602,37.4895104002989],[127.0148718995747,37.4913601987256],[127.0158361008109,37.490663898875404],[127.0177996995388,37.4911169998406],[127.0188872000882,37.4897602999241],[127.01832330060981,37.4906746990993],[127.019308900634,37.4910466995837],[127.0194855004122,37.4936246994273],[127.0234001005571,37.4967308992017],[127.02423349972369,37.4966958992367],[127.0248978998812,37.495312999930405],[127.0296681994553,37.4939342990065],[127.02935910105009,37.4944578000566],[127.0311708004761,37.4967804998063],[127.031332501102,37.4989288993972],[127.03312599997959,37.4995567993638],[127.0357634994421,37.4979437994081],[127.0368911997537,37.4991779987225],[127.0381140997049,37.4983412993664],[127.0380882007845,37.4995417995024],[127.0400408006215,37.501280600251704],[127.03590370026491,37.5030402005828],[127.0339113997125,37.49998180065],[127.0311772008408,37.499241900659904],[127.0255615999641,37.5019597002845],[127.02436569944311,37.4987250012606],[127.0234132997417,37.4983918995703],[127.0239896998119,37.4969758003339],[127.0225748995308,37.49634340112],[127.02101160037459,37.4959779004346],[127.0196007000116,37.4970406002549],[127.01772060024611,37.496041201626504],[127.0140832013812,37.497448100637],[127.0138743014261,37.498416900151504],[127.0123253999807,37.4990285000623],[127.0095636995584,37.4945976024634],[127.0076517000043,37.494190203002],[127.0061025015535,37.4955046016876],[127.00592280173319,37.496922900269304],[127.00507720082581,37.4970479004391],[127.0044873008153,37.4992890993627],[127.0054914998111,37.500006798645],[127.00755550025889,37.4998920996812],[127.00802230051829,37.504341799142296],[127.0093391998642,37.503713099157196],[127.0113944001183,37.504908099562904],[127.0099279004145,37.5062455015235],[127.0099946003478,37.508323999445004],[127.0133163995144,37.508010898501105],[127.01299690106451,37.5086332997296],[127.01653020074201,37.5095706994653],[127.015350099675,37.50990680150041],[127.01477660024851,37.5091799022273],[127.0125570024681,37.5100354013718],[127.010228700732,37.5131991011856],[127.009639298271,37.5120375993934],[127.0105993976222,37.5103619995566],[127.00999359822801,37.5093180006006],[127.0081178996126,37.509017200739805],[127.0078685994468,37.507635401120396],[127.00559079898379,37.506290300753705],[127.0026535014153,37.506453200982705],[127.00327619939951,37.5083426012275],[127.0026534985184,37.5064532001536],[127.0010810000909,37.5055640010428],[127.00055449963621,37.506424700977796],[127.0009617994746,37.5055294008266],[126.9999810991541,37.505386200211895],[127.0006441988045,37.504755500486],[126.9992561994121,37.503433299524296],[126.9998775001737,37.502862299487795],[127.0011081992058,37.503395699035096],[127.00241369790031,37.5022164002144],[126.9996333996707,37.5005953008638],[127.0003012998217,37.5000942996864],[126.9997984007903,37.50066059979601],[127.0036366988617,37.5015266988005],[127.004195398303,37.500701899625305],[127.0040182995356,37.498938600419706],[127.0033238997198,37.498818399951396],[127.00399459936939,37.4983809995312],[127.0034906991226,37.4962184001382],[127.0057891984517,37.4946256000173],[127.0035760999444,37.4929230017083],[127.00244220107831,37.4934125012188],[127.00223620135999,37.4945422006247],[127.0014668994214,37.494173300218],[127.0002255999452,37.491709800178],[127.0044237963115,37.4881455000922],[127.0014738992614,37.4854974027403],[126.9998061009292,37.4869876012501],[126.9996400003996,37.488391403117],[126.99671860203189,37.4904262002755],[126.99799500075551,37.4922459984557],[126.9998347997246,37.4919399018382],[126.9979153012305,37.4927841014591],[126.99581669976631,37.492487000960296],[126.993965900928,37.4937803006138],[126.9905446005437,37.4945518009806],[126.9876055003092,37.497261300305],[126.98677170033851,37.4969234005407],[126.9856701010376,37.498928499384796],[126.9891097994575,37.4992292992126],[126.99013720042461,37.4983667998158],[126.9916216017244,37.4998901011557],[126.9866888996807,37.4991820017856],[126.9825358038645,37.502137500059604],[126.9822523033453,37.5043262006518],[126.9808113001508,37.5065723082724],[126.9780711013287,37.5054134008368],[126.97224059759591,37.5067409006587],[126.9767786988832,37.5059751990452],[126.97649829916361,37.5042702007502],[126.9750783994128,37.5045585011096],[126.9753994991106,37.5037855997732],[126.9747210989673,37.5031935997997],[126.97533649978129,37.5029932990474],[126.97588879985311,37.503699599013395],[126.97638620038599,37.5032620998939],[126.97649830035161,37.5042002997699],[126.98159289870159,37.50435229949],[126.9807710995234,37.502933300909],[126.9800010002935,37.5033888004535],[126.97956279933659,37.5027096006501],[126.9800486997751,37.5007714977664],[126.98253580015779,37.5021374993441],[126.986688898808,37.499182000413796],[126.98495650021269,37.499105200287204],[126.98484229923,37.4997134006033],[126.9787201985032,37.4966831018927],[126.9781874983902,37.4945548018743],[126.9740279991321,37.4916450018181],[126.97157339995209,37.490786300381906],[126.9702725994203,37.4921002000452],[126.9696445996167,37.4896099000403],[126.972264999162,37.4891398992665],[126.9731123981704,37.4879376002157],[126.9723480989347,37.486442501710805],[126.9708995003833,37.4871444010089],[126.97099949998601,37.48789830059],[126.9704385002922,37.4874108010498],[126.96982250005041,37.4879401014541],[126.9688379996665,37.4868719012618],[126.9667752006071,37.488918000393],[126.9649278995203,37.487884301071794],[126.9664532980644,37.4857974001605],[126.9668119977057,37.482864203093705],[126.9599622001311,37.4822909007082],[126.9588499006464,37.4829679006193],[126.9591925008159,37.4843029015813],[126.9576082014212,37.4851848011765],[126.9582137002325,37.4864187005122],[126.9568146010152,37.487341000265104],[126.9557976001301,37.4866426006888],[126.9554426007901,37.4876355008044],[126.95462840049251,37.4871411003098],[126.9538960999041,37.487906900431796],[126.9539999989089,37.486834000498405],[126.9520833998677,37.4871311004783],[126.9515231998495,37.4864203005947],[126.9510140001687,37.4868827005466],[126.94896419989081,37.4861711005462],[126.94968119845831,37.4854850998548],[126.9480728998808,37.484078701010496],[126.94747150008611,37.485418700554895],[126.9445719003809,37.4851353013875],[126.9440995008533,37.4860902004326],[126.9418231001082,37.4861237004901],[126.9407707001841,37.4872567003056],[126.938732399336,37.485810000444204],[126.9347762004872,37.4847737006681],[126.93488960038431,37.485444400583496],[126.9317285004777,37.4870130003331],[126.932007899975,37.4874354007664],[126.9307719007373,37.4871456005151],[126.9290766006786,37.4903870003373],[126.928247199905,37.490093300781396],[126.92702889897619,37.4913007001648],[126.9263387996663,37.490634800830705],[126.9268631994263,37.489863200596204],[126.9260449993966,37.4899120991621],[126.9280532991626,37.4874260003685],[126.9252739999139,37.4853345006078],[126.9246898991572,37.485705599846305],[126.92517909866869,37.4837301004568],[126.924632099688,37.4826987999377],[126.927089099692,37.4825792997343],[126.927908000163,37.4801714992215],[126.9277368003882,37.480926799279096],[126.9309254998524,37.4799144994104],[126.931791899539,37.4791120997287],[126.93141299956241,37.4783456001811],[126.9325482988599,37.4779616002789],[126.9325496984861,37.476675900156295],[126.9327523010179,37.477450899421804],[126.9348086999335,37.4769504997453],[126.9362214004985,37.4776070998774],[126.9353606008543,37.477668900037195],[126.9358316006465,37.479356801245096],[126.93289939991419,37.479150000518196],[126.9311251007274,37.4800520996554],[126.93285350051559,37.4815011998871],[126.9325361012168,37.482467300024005],[126.9348138000221,37.484214199676494],[126.9358785996279,37.482415699097494],[126.93659219968161,37.482609699047096],[126.9363742001039,37.481227699374195],[126.93782159972321,37.4820898990993],[126.9388666988256,37.4795553998487],[126.937515698785,37.4790305999253],[126.9386029991708,37.4784557999182],[126.9384127003661,37.477789199478394],[126.9400078997395,37.4777219991888],[126.9423765000832,37.4791508997799],[126.9442592997635,37.4783227995111],[126.94407200006121,37.477784299667604],[126.9446335003038,37.4779495998592],[126.9444649003007,37.4794567992941],[126.94576070036979,37.478784899615],[126.94653100008229,37.4797972988955],[126.94811030005799,37.4770646985284],[126.9513558996192,37.4777402991826],[126.9517807989099,37.4755635997032],[126.9526327993812,37.4756789986901],[126.95287140017581,37.4744912989906],[126.9548079002472,37.476695398801496],[126.95572239896259,37.475322299243004],[126.957649098913,37.4756880996767],[126.9585636995612,37.471955998838396],[126.96096799907559,37.4733340977805],[126.9645911992082,37.4706913982947],[126.9664880997152,37.4709190987906],[126.9670528998321,37.470055099430404],[126.9690684000546,37.4708803996162],[126.9693669003201,37.4720896990263],[126.97092379958039,37.4721396988388],[126.9708907993197,37.468592599945],[126.9728053981677,37.468936298997306],[126.9749516986065,37.466927998971705],[126.9769630003339,37.4674271978196],[126.9779311000163,37.4660721988455],[126.97951790097251,37.4662680985531],[126.9800453003088,37.466756702203],[126.97891290144119,37.466915702044],[126.97829110206301,37.4690709998887],[126.9806033997507,37.4710080979516],[126.9829779973761,37.469993498966204],[126.98522290055689,37.4668220980451],[126.9863224999335,37.4679953995277],[126.98809969983341,37.4673458988961],[126.9884371995754,37.464687501236895],[126.9874359989174,37.4609114995024],[126.9886868988555,37.459392799438305],[126.9878057997366,37.458721900109204],[126.9922611956211,37.4535594021874],[126.98547279692819,37.443998000748],[126.9814513009497,37.4405363042097],[126.97761369659301,37.443049604643704],[126.97415030005641,37.441665306028],[126.9713117981255,37.4380333051179],[126.9725524983863,37.435361100334404],[126.9719919989468,37.4329068027887],[126.96953480140401,37.4323214033741],[126.9684595977324,37.4330323025888],[126.9689100982273,37.4313639997227],[126.9681813938851,37.4260085984041],[126.9696375931633,37.4224919003919],[126.95791659910681,37.417064001271804],[126.9565340004894,37.414459903875894],[126.9548576021658,37.4141671041687],[126.9494478019143,37.41569780481289],[126.9501274989559,37.4141964995518],[126.94912169651441,37.412383602108996],[126.9450446947519,37.410348002302],[126.93936450043209,37.410441802208204],[126.93722869795741,37.4140865050483],[126.9293837028811,37.4139054043161],[126.9307607022198,37.4194968009677],[126.9297722044494,37.4218443048825],[126.9277014968125,37.4216185049822],[126.9244757000383,37.4244899021108],[126.9234298010842,37.4243139022868],[126.9223844024995,37.4274313048711],[126.9179052018366,37.432750700018296],[126.9189287049703,37.4359466016034],[126.91902990486909,37.4405383970116],[126.9202262036961,37.442565799889294],[126.9170185004497,37.4443995009104],[126.9174491986949,37.4436828990883],[126.91639749974661,37.442446400324805],[126.9122088985706,37.4414685042469],[126.9084406007295,37.4445984009637],[126.9085002006699,37.4466765988855],[126.9096664011131,37.4463989993164],[126.9113499997739,37.4479877989365],[126.9112139995655,37.4469034988119],[126.9120183995228,37.4493961987638],[126.91458630038309,37.4491533999763],[126.9152366004636,37.4502242002809],[126.91436670100751,37.45072560032],[126.9143770009972,37.4519786990669],[126.91551960094999,37.452230799971304],[126.91461790136229,37.4548722003859],[126.9125443021275,37.455280801316],[126.91457390073789,37.4580622996424],[126.9122903006658,37.4601809999387],[126.91289280050509,37.4607141997915],[126.9125727011461,37.461981700861],[126.9110055009468,37.4651812999296],[126.9114488012217,37.4696978996286],[126.91012169983391,37.4687027002836],[126.9109711991647,37.4680736005287],[126.9101581999777,37.4674449011574],[126.9094047990519,37.4679056008174],[126.9078365006202,37.467282001441],[126.9065845014175,37.4690978998295],[126.9067123011554,37.4704884996392],[126.9081575013278,37.4707493998608],[126.9065069018142,37.471473601204],[126.9050372000645,37.4749679005397],[126.9043197002743,37.4755644001913],[126.90345760063319,37.4749513006271],[126.9028209000862,37.4765285009861],[126.89992959965569,37.4778173012016],[126.89888940044911,37.4791814006553],[126.89786750016971,37.47701630184],[126.8965027015345,37.4785056003507],[126.89430540043729,37.4785415009074],[126.8939539007888,37.4793467001022],[126.895254400868,37.480618100918804],[126.89415840082289,37.4805418009297],[126.8934877014936,37.4823217991497],[126.89701739941789,37.483838798013004],[126.8973600004756,37.4817599995741],[126.8974911009384,37.4837401000835],[126.89625200123021,37.4847205995014],[126.8976014003277,37.485553200159096],[126.89712010080899,37.4863364993758],[126.8987524991766,37.4869584987538],[126.9001176003256,37.4855902997264],[126.9007927002272,37.485851199997896],[126.9004324005875,37.4871961986529],[126.9045011004811,37.4880556989641],[126.90545660101489,37.4921661996837],[126.9046328011445,37.4926598999779],[126.9047880009893,37.4937615988762],[126.9066578998049,37.4954323978015],[126.90872259872691,37.494840798060295],[126.9089393985101,37.494106698794404],[126.909482099895,37.494873398971606],[126.9109454000037,37.494319599665694],[126.910179700736,37.494897899620696],[126.9123298004557,37.4963475993888],[126.9118466007848,37.496828399551],[126.9158012998395,37.496864599538604],[126.9185648994263,37.494349498449196],[126.91836160111819,37.496287798472395],[126.9235750001383,37.496291799362],[126.9248556000921,37.4973818994497],[126.9256832008972,37.4967306995287],[126.9262391003413,37.497889698369704],[126.9277111988692,37.4970945991648],[126.9267975997828,37.496045900213495],[126.9274709999112,37.495292399638096],[126.9300691002901,37.4968839992163],[126.9310658003884,37.4962635996613],[126.9317080009239,37.4986792993431],[126.9326345001338,37.4989322998378],[126.9316711005145,37.49891670029],[126.9317708004148,37.4995337996729],[126.93299770015061,37.499447599850306],[126.9331507005324,37.5015950005102],[126.93187370006049,37.501359100622004],[126.9318723991617,37.5019419005709],[126.93065889998219,37.5011777013179],[126.9294003012408,37.5020562004394],[126.9301504001923,37.502840400042096],[126.9291015002026,37.5030094015559],[126.927672100683,37.502147300689494],[126.92596109951319,37.5028095008023],[126.9248495005874,37.5021025007243],[126.9242249012307,37.5032189999998],[126.9234752005222,37.5028727008228],[126.9234538008197,37.5048197995385],[126.9247992007228,37.5050309999921],[126.9233147019499,37.5075935011946],[126.924306200114,37.5097107006294],[126.92331469931881,37.5075935014615],[126.9216557997777,37.5079708007704],[126.9214378999136,37.5066439012537],[126.92086540022899,37.5077655005466],[126.92039529952609,37.507444900596504],[126.9208594986501,37.504967200310105],[126.91852030076609,37.5032887012939],[126.91825319957789,37.5040834000211],[126.9174536986767,37.5015815015923],[126.914642700828,37.5019415013287],[126.9141022003625,37.501336401295],[126.9127780016867,37.502112800518596],[126.9141549005416,37.5048073998601],[126.91196480085401,37.5025050027412],[126.9105227017901,37.5047270007545],[126.9130112999201,37.50662389954],[126.914327200282,37.506710899348505],[126.915002200852,37.510188399273595],[126.9164511005,37.510162899472896],[126.9158486011256,37.511229799339006],[126.9172072010924,37.5119119990579],[126.916622000972,37.513411399272904],[126.91734650024749,37.5147208979634],[126.9198257006815,37.513859199839295],[126.91933010058139,37.5169246991672],[126.9217397996419,37.515824598803704],[126.9233185992273,37.514057399277895],[126.92341859872731,37.5124334003295],[126.9243601992783,37.5121922993212],[126.924722899724,37.5110338993679],[126.9259407003165,37.5109087976136],[126.9266165023349,37.5109960986446],[126.926591200446,37.5127055994245],[126.9295099011698,37.5140636991421],[126.9292820997389,37.5176141016462],[126.9275469997259,37.5183604015122],[126.9281070981837,37.516973200300704],[126.9274250988657,37.515163402110495],[126.92448330180751,37.515033002240905],[126.9189885013823,37.5171858005122],[126.9193731009977,37.5187733989246],[126.9209798003434,37.5194849026793],[126.919052899558,37.519719100783405],[126.9172840993872,37.518130902468805],[126.91533000007969,37.5201256007147],[126.91476299979189,37.51956410053219],[126.91255099993049,37.5204527002787],[126.9114636992889,37.517604800292],[126.9104898988721,37.517601800674804],[126.9101669991676,37.5157501014262],[126.9084875998681,37.5146486009657],[126.9076999992908,37.5152200011135],[126.90294730093359,37.5124200013209],[126.90261480036199,37.512911701265196],[126.8998511980728,37.5117881002285],[126.8981695986634,37.510137901377696],[126.8952072992324,37.5101719003896],[126.89494379897829,37.5087623011713],[126.8934365004856,37.508068901864696],[126.89281390074159,37.510100400369],[126.89373430009161,37.5117955002769],[126.89161770009619,37.5117727014366],[126.8908272000717,37.5106392010709],[126.8892961006577,37.511331801222],[126.8881483016197,37.5131438999464],[126.88670170067151,37.5125383016097],[126.88203520005571,37.515249000698695],[126.8815059990805,37.5148369993013],[126.8821552002938,37.5151707994645],[126.8831510997863,37.5140708003207],[126.8824375004422,37.5127708015522],[126.8809525996339,37.5134031007352],[126.8781908986559,37.512409701831],[126.8774153981365,37.5099030026502],[126.876105198392,37.5092578026596],[126.8740480992019,37.5115121017838],[126.871361699758,37.5109138013341],[126.8709944996966,37.511497100617],[126.87047599921179,37.5110838000404],[126.8711812996856,37.511117299508506],[126.8721983986733,37.5093544006489],[126.8716892981262,37.507550600258],[126.8731830982138,37.5064493003023],[126.8728440990944,37.502170500801995],[126.8718238001147,37.500506902465595],[126.86993860199989,37.5020254009471],[126.8706826993526,37.5042255007011],[126.8700571987556,37.502861101189794],[126.86829080052199,37.5019721020788],[126.8643359994464,37.502913700567504],[126.8632259991424,37.502286400537706],[126.8637804990022,37.5013346007754],[126.8623342991102,37.5008282004533],[126.86280159860179,37.4999996988445],[126.8638173994962,37.5003120988413],[126.8645829987306,37.498924400229],[126.8633580995295,37.497867899739504],[126.86410560022141,37.4967851989519],[126.86508820060901,37.4962269995967],[126.8649489006456,37.4969420993485],[126.86651469984099,37.4971922994947],[126.8678268978703,37.49581890000481],[126.8661572986819,37.4928939018626],[126.8627292006161,37.4932242012642],[126.8616870996031,37.4943441008148],[126.8613856991432,37.4933259008393],[126.8596138009151,37.4930528011124],[126.85912830140059,37.4936611005041],[126.8599190006522,37.4950701992393],[126.860586199985,37.4947856995238],[126.8599190010766,37.4950702001441],[126.861277300836,37.4967287005005],[126.8595734999593,37.4970376019034],[126.85640239955639,37.5010087008457],[126.8555640992074,37.4992833007095],[126.8540755994441,37.4989470002197],[126.8545971989935,37.4973214009721],[126.8528243003084,37.4977060007457],[126.85263789994451,37.4986226006915],[126.8524007997674,37.497952000807],[126.851683200485,37.498186600572396],[126.8520010994412,37.4987933003255],[126.8516831999429,37.4981865980742],[126.8536578979682,37.4963955998652],[126.8515453000808,37.4948544014064],[126.8495443013784,37.497266100945694],[126.8491377998532,37.4963809013648],[126.84837100062,37.496415401330296],[126.8479997003343,37.497804000333105],[126.8462355998817,37.497120200875194],[126.8460146993634,37.495147599881],[126.8484767001579,37.4957469990715],[126.8497410988935,37.4950051998133],[126.84965119864769,37.4940667998315],[126.85150229911191,37.4920334995913],[126.8508103995166,37.4911286995947],[126.85209119925831,37.4912301993947],[126.8522214003395,37.489892599216695],[126.8537965990418,37.4898358992934],[126.8535837999174,37.4867420011832],[126.8510028997347,37.486384701689204],[126.85046729835051,37.4843598007343],[126.8488218999959,37.4829929021012],[126.8477384998051,37.484823300425504],[126.8446366014038,37.4832065029788],[126.8450190021386,37.486955700982904],[126.84369000043709,37.4891107019838],[126.84341830070879,37.492191898902604],[126.8448481992789,37.4917572993372],[126.84426210078989,37.492249400016],[126.844708900539,37.493005500240805],[126.8439122994343,37.493586200428005],[126.8417984991771,37.4924822016062],[126.8405474004282,37.4932693008191],[126.8401256005873,37.494399599982],[126.84072719984961,37.4947133007146],[126.8380056991311,37.4910043019662],[126.8345098002692,37.491403500983296],[126.8341774994429,37.492100001063],[126.8315774004382,37.4914116004919],[126.8313020998754,37.492241400190295],[126.8306667999079,37.4899724021315],[126.8287523010696,37.490294201992704],[126.8291863001756,37.4932009003348],[126.8272002998567,37.493325101529],[126.8251945004695,37.4957374007729],[126.8246086996419,37.493965502313],[126.8209305983138,37.4928295000759],[126.82047419877021,37.492146400759005],[126.8239834990126,37.4873090996835],[126.82364989966571,37.4864759994569],[126.8287523011039,37.4902941992915],[126.8306667991894,37.4899723996133],[126.8304530998151,37.4879685990524],[126.8332433993655,37.488281896268],[126.83430079830809,37.4878391967107],[126.8352160973928,37.4858273987225],[126.83770609932631,37.4851823985602],[126.8382960987363,37.483403600339],[126.837049399983,37.4819125018301],[126.8358860958594,37.4821045974364],[126.8383210993442,37.4819193989983],[126.8385784998103,37.4796243977807],[126.8415578998912,37.4805147992407],[126.8418551997546,37.479298399661396],[126.8453449972111,37.4778115997538],[126.8460154988897,37.475898798519005],[126.8476110983231,37.4746843005177],[126.8472459990945,37.4738782990646],[126.84840969979311,37.4744228987779],[126.8494825989247,37.4709928005819],[126.8487875993428,37.4701387993227],[126.8494825996857,37.4709927990421],[126.8518197000857,37.4705817982804],[126.8533851010115,37.471982698164],[126.8553168001643,37.471646099045],[126.8558302002187,37.4738189979871],[126.8603933984578,37.469276999131196],[126.8616275982574,37.4688782981738],[126.8631241998983,37.469886598956705],[126.8638086993819,37.4688854998022],[126.86348439953801,37.4671958991443],[126.8669836997914,37.4653905991467],[126.8693513017582,37.4654046989681],[126.8715488010932,37.4675920996565],[126.8744122996674,37.468002399723005],[126.8746353994443,37.4664585012669],[126.8733810992609,37.4654509017977],[126.87380399943801,37.464942299994696],[126.8722696990001,37.4619022000468],[126.8731595988873,37.4611362995163],[126.87204009920231,37.460432299488],[126.87282229921999,37.4596571994903],[126.8722958995976,37.4589023998526],[126.8755137998717,37.4583899946864],[126.877364498021,37.4554400976363],[126.88143559536441,37.4537959986657],[126.87737299942701,37.448515303946394],[126.874847297362,37.4480997996641],[126.8796470985596,37.448110998238995],[126.88077609743061,37.4461941001559],[126.8800562992844,37.443940497323396],[126.88077610155321,37.4461940987589],[126.88362889870041,37.4466322983207],[126.8852400997437,37.4453950966594],[126.8861049988604,37.4422625994521],[126.8876179998379,37.444626197367704],[126.8884617989941,37.444383697610206],[126.8917591956967,37.4415018004921],[126.8915680959384,37.4393715002276],[126.8884521990543,37.437326102273],[126.88596199871601,37.437487300620504],[126.8871893986899,37.4365370000859],[126.88597349959251,37.4357833991642],[126.88778939944561,37.4349912990587],[126.8940642955118,37.4292691954657],[126.8962044000805,37.431060098638106],[126.8972410990438,37.431111598586604],[126.89862949765539,37.429681300016895],[126.89881309716179,37.428305000006304],[126.897411097253,37.4259444990562],[126.898848998589,37.4238380998643],[126.8958958999274,37.4221404007627],[126.8953566997311,37.4197781018186],[126.8943336999677,37.4200117001046],[126.8948605993116,37.419265100553396],[126.8937567996376,37.4180386002308],[126.8920254011499,37.4175909007283],[126.8930872004692,37.4205719998656],[126.8922352011736,37.4209040000025],[126.8918348009703,37.4231627006888],[126.8903991012096,37.4214863016958],[126.8882883983937,37.4206806999552],[126.8907487988282,37.4180549975786],[126.8947910967034,37.4166464994103],[126.89200649948799,37.4120759039809],[126.8889863966929,37.4123035976444],[126.8911236987567,37.411705399363804],[126.8949034986882,37.4072651000094],[126.89558999486499,37.4031313005147],[126.8966030000208,37.4030530958117],[126.8982154984083,37.4004794983853],[126.89780019727651,37.397709898783205],[126.9035834961224,37.4005470947207],[126.90506399652969,37.3961137972704],[126.9052795963141,37.392578200806],[126.9020689985497,37.3922323965447],[126.9036501969685,37.3910889976881],[126.90357309704561,37.3858029029742],[126.9008615992099,37.3841178009459],[126.9014593987549,37.3828351985493],[126.905673294541,37.3796980016865],[126.90201279857709,37.3729060055481],[126.8954962003326,37.366207209302296],[126.9011342942562,37.3638643981573],[126.8981772972132,37.3584862035355],[126.896169499221,37.3592235027982],[126.8969850972328,37.358074997723996],[126.8971203969549,37.3535558002073],[126.8943964984269,37.353117100451996],[126.8971462961328,37.348882201630296],[126.8946386927076,37.3467871996987],[126.89528609624281,37.341404297726804],[126.8991192925427,37.3393751955025],[126.902725098614,37.3393818940009],[126.9038780975826,37.3333497950672],[126.9071649971932,37.3280827990427],[126.9052855985255,37.324181102889796],[126.9027903010208,37.322988704082206],[126.8976451030249,37.3239440040377],[126.8905542101158,37.327694800286906],[126.88972970193231,37.3295231053546],[126.8855039048272,37.3301983047108],[126.88414919974099,37.3259799041994],[126.88195809704101,37.3244867016743],[126.8835615963948,37.323935899408404],[126.88494739500901,37.3219056014387],[126.8810853980767,37.3179447046545],[126.87416989882689,37.3208693048052],[126.8663581066387,37.319828405846096],[126.8642616971798,37.320624103152504],[126.8591534004328,37.324707700430196],[126.85814810099919,37.3247060004346],[126.8577234004017,37.326082000861696],[126.85679089991079,37.324816901050404],[126.85608620022819,37.3260862004134],[126.85456100092941,37.3257253003848],[126.852285403205,37.3284948976152],[126.8524920047855,37.330082798609],[126.8503245006329,37.3304454002389],[126.8502847005426,37.331357500013404],[126.8482480995527,37.3306391011145],[126.84763479958579,37.331555200483194],[126.8464867005909,37.331126500718305],[126.8466220001835,37.3319780013696],[126.84488810055551,37.3331514001417],[126.8441373005618,37.331999701256095],[126.843501300716,37.3333742001347],[126.8429107003808,37.332663601331994],[126.8428228006774,37.334657500457],[126.84192470068531,37.334731900063204],[126.8425469003654,37.3356146012828],[126.8399017984543,37.3329588042672],[126.83847179988429,37.3329681042579],[126.83587999893,37.334516701119405],[126.8362113983206,37.3328815018996],[126.8337010992738,37.3315141028564],[126.8317078012671,37.3320746022959],[126.8321218003792,37.334354501062705],[126.8309012000723,37.3337788016131],[126.8297250000642,37.3349978009486],[126.8264305011022,37.3329619016384],[126.82484410370321,37.3349380015532],[126.8231064002514,37.335710301591604],[126.8220694998828,37.3344884032664],[126.8187261005136,37.3395022005792],[126.81729130042379,37.3392372011131],[126.815203500422,37.3402731002303],[126.8150666003543,37.3417635994112],[126.8158341000284,37.341727300391],[126.81403630052739,37.3422799003528],[126.8141481004156,37.3435884990442],[126.8151855007001,37.343391499063],[126.8166611009472,37.3444991995806],[126.8167280014585,37.3453802007758],[126.81568300054971,37.3445447008591],[126.8153189009138,37.3450136003902],[126.8159203003913,37.3474214988411],[126.8168272013695,37.346557199769],[126.82008840135,37.3487793991865],[126.8192263004178,37.348836300133],[126.8197643992841,37.3493675012346],[126.8156577999038,37.3491977012511],[126.8145384008276,37.3483656016459],[126.8136940001244,37.3494775009549],[126.8091441989561,37.3495190010943],[126.8104020972719,37.3475585991971],[126.81059939754721,37.344119799390604],[126.812600300623,37.3446949979903],[126.8140637991595,37.3426508000345],[126.8127942004114,37.3415682007566],[126.81068759943129,37.3423158001668],[126.81150149874351,37.3406918013898],[126.81032189992311,37.339234802846796],[126.8083057019393,37.3406715014101],[126.80783660031,37.3421557013547],[126.80564219982769,37.3417787006307],[126.8058607989366,37.340023401140996],[126.8038518000567,37.3392745017354],[126.8028474001896,37.340047801571004],[126.8018924992675,37.339208300687304],[126.80053529880101,37.3393939023635],[126.8007033984836,37.3363535017298],[126.79457429837639,37.3374428019452],[126.79355579863959,37.3366026017082],[126.7916732998104,37.3366927004676],[126.7907900006937,37.335652101508195],[126.7897462017375,37.336672800487506],[126.7920167988408,37.340393202799405],[126.7892406000702,37.3366887011044],[126.7883745009363,37.337268700524405],[126.78837250091489,37.3385210997056],[126.7892760003939,37.338511100601295],[126.78807660077959,37.339054300216404],[126.7869648004565,37.3375836018552],[126.7849832004853,37.3392936004523],[126.7841004001156,37.3386674004558],[126.7838201005024,37.339866500047],[126.7823705008313,37.3394086009051],[126.7819988014947,37.3413329998968],[126.7834096003234,37.3414747002521],[126.7819988004851,37.3413330014507],[126.7815660006163,37.342917900678906],[126.78057129990451,37.3413295022011],[126.7781965979032,37.3426225021547],[126.77379640029359,37.3421254003889],[126.7722286996859,37.343249101752],[126.768035603879,37.3427332022679],[126.7672169006374,37.3477605015929],[126.7658364020179,37.347009402344],[126.7626050007178,37.3482529039524],[126.7628517004711,37.3521632000421],[126.76077839742581,37.348240003691494],[126.75703750116669,37.349449502481995],[126.7559655013877,37.3547752003968],[126.7541600016244,37.355813301649604],[126.7544171003275,37.3580203004213],[126.75288550140671,37.3583158004162],[126.7507966021002,37.3635959020398],[126.7486083006862,37.36051720275459],[126.747567701847,37.3633963024348],[126.7443341050806,37.3642732015579],[126.7410486004672,37.3668534055797],[126.73572080131629,37.3675597028738],[126.7350412002229,37.3685654031395],[126.7330887021754,37.3686040031009],[126.7311773026239,37.3698083027579],[126.733592197906,37.3679528972728],[126.7323889991092,37.3646184006073],[126.7283647004288,37.3648969022912],[126.72778459938071,37.3660729020794],[126.7259400998294,37.3655545000992],[126.7267207003277,37.3658427995192],[126.7284432981011,37.3641207005088],[126.72595699814019,37.3619772011852]]],[[[126.9630731993005,37.5275253992168],[126.9640645989802,37.525293699845996],[126.963603999784,37.5248212994901],[126.96520790031289,37.5254492991574],[126.96782569816911,37.5248717994402],[126.96745819853659,37.5234024009096],[126.9684857989446,37.522426800145695],[126.9679121995182,37.5216680009045],[126.965413999306,37.521731700508],[126.9691447997795,37.5199403991898],[126.96966499955231,37.5171203001913],[126.9708780965121,37.516393191570906],[126.9727200008124,37.5170698999593],[126.97247920032119,37.518179099082296],[126.9747373004106,37.5175299989271],[126.97508520128639,37.5182180992445],[126.9764939006129,37.518091399614605],[126.97964680065189,37.520756498750096],[126.9807012002341,37.5203219990709],[126.98062500052541,37.521299599523],[126.9815932995571,37.5218808989417],[126.9832259002331,37.5197869997696],[126.9817563008056,37.523404100434604],[126.98045020005021,37.5232663010212],[126.9794682005892,37.5250980011176],[126.9794491989921,37.5245509007392],[126.97764599967509,37.5252147011641],[126.9769276993522,37.5235162996252],[126.9779168992602,37.5228559998518],[126.977317499565,37.5217209001247],[126.97503809923161,37.5209403011223],[126.97302450124519,37.5216151004475],[126.97442960038589,37.5225548999593],[126.97244580097251,37.5225521997751],[126.9727332010565,37.5237684995393],[126.9679798012762,37.5271948998531],[126.9687768008534,37.5287904990289],[126.97024600100221,37.5283307000279],[126.9714153008142,37.5301171996497],[126.97238690039781,37.5300027997652],[126.97191700066871,37.5311147995554],[126.9733185003313,37.5312840996307],[126.9734705005178,37.5323344993683],[126.9740763003839,37.531999599878],[126.9746278007969,37.533194399635896],[126.9775000005344,37.534536000021504],[126.9769137997673,37.535268600769804],[126.97452350061991,37.5355586005684],[126.9743691998313,37.5377882003264],[126.97133189940459,37.536567400452405],[126.97027829880321,37.5335197001758],[126.9674886991725,37.530902901954704],[126.9681784991421,37.5309988992418],[126.9677661995544,37.529823900416794],[126.9665407001733,37.5296072002941],[126.9667300000648,37.5306300000353],[126.9640430001283,37.5313219003782],[126.9635372005891,37.532264599771196],[126.9649831011958,37.5323029005859],[126.9639912006904,37.533369800980104],[126.96296409899959,37.533237499771396],[126.9644598993969,37.5304382995648],[126.963614699942,37.5272467011616],[126.9630731993005,37.5275253992168]]],[[[126.86490069948151,37.26834629895],[126.8694763967596,37.2671778987466],[126.8680269972995,37.2642775989304],[126.8697386974851,37.262509998450696],[126.86892949829429,37.2609837999769],[126.8710843978451,37.2600109008856],[126.8703330978198,37.2574531008697],[126.8709419004232,37.258517598484495],[126.873292098073,37.257620599381504],[126.8719099995446,37.254973299179504],[126.8732920987989,37.2576205972331],[126.875864401407,37.2566783978766],[126.876886001154,37.258348297496305],[126.8790379011482,37.2575456974764],[126.8809873003805,37.2595118975486],[126.8843556996551,37.2567902981556],[126.8849735008243,37.2576604988317],[126.886887601426,37.2570237982845],[126.888087600226,37.2581169971913],[126.89154259997,37.2575898987296],[126.8920143994982,37.2565676997518],[126.8946459974505,37.255132497728],[126.89414739834139,37.2517571983881],[126.8962747985449,37.2512155995215],[126.89490969991,37.24896710177],[126.8911893995589,37.2476342995251],[126.8949231978055,37.2489008983903],[126.89376539779191,37.246317699707596],[126.8991828974642,37.245356198406405],[126.90123949966811,37.2425750985576],[126.8991829033715,37.2453561977739],[126.9012900012644,37.2481759949541],[126.9048461977082,37.248491094639],[126.9097137972459,37.2453814954232],[126.91598500135201,37.2474933988977],[126.9197967975402,37.2509396954514],[126.9223685996836,37.2466862990241],[126.9240242001548,37.2488716970496],[126.92571650167869,37.2493061970101],[126.92488500047361,37.250828500761095],[126.9233007010239,37.2502846016487],[126.9223131020115,37.252025299908],[126.92414169934541,37.2524770016477],[126.919796800772,37.250939702316806],[126.91962120094759,37.253356199900296],[126.92063879994791,37.2536710008796],[126.916667802836,37.2514841034942],[126.9153400041638,37.2515000034783],[126.91716599717199,37.2599015015361],[126.9161336982043,37.2599300015076],[126.9166536978474,37.258774401994],[126.9112703012463,37.255152805315],[126.9074312011185,37.258438202792],[126.90515109876429,37.2590233035065],[126.9056077950777,37.2582396983132],[126.901061799444,37.254580601521894],[126.8992049013009,37.2543793017232],[126.8984009021049,37.2546602014423],[126.897881406034,37.2589752035546],[126.8964514990308,37.2617452065849],[126.89040959946409,37.2581105055742],[126.8891670007067,37.258877504807195],[126.8856222991071,37.258671801995],[126.88353990118951,37.2602913003755],[126.8841352998475,37.2608588002889],[126.8825193007864,37.259293302319705],[126.8809873023184,37.2595119021011],[126.8820557013557,37.262645899080205],[126.8811592010419,37.264260198999004],[126.8836203005811,37.266131099865],[126.8839679002335,37.268042197953896],[126.8854873033654,37.2696206966515],[126.8910329020548,37.2718585022988],[126.8864069015992,37.272730901702296],[126.886648001643,37.275277101597695],[126.88640689806459,37.2727309030306],[126.8827178003144,37.2721796029484],[126.8814611989637,37.2692268035092],[126.8799483004766,37.2686356041004],[126.8779566024683,37.2717802009558],[126.87121689998679,37.272457401584504],[126.8672560000849,37.2707149020518],[126.8671107995908,37.272810500388196],[126.8681801982366,37.269053900391704],[126.8664561997788,37.2686493003622],[126.8655075000435,37.269251000575],[126.86490069948151,37.26834629895]]],[[[127.0302939997266,37.2133836004646],[127.0316896989049,37.2116095991094],[127.0320642988361,37.2096082998803],[127.03122669961161,37.207177199980194],[127.0330118998629,37.2084257991935],[127.03395049890321,37.2068413997157],[127.0350051987788,37.2066760991854],[127.0347310993855,37.2050262993496],[127.0360955987363,37.202903899354204],[127.0377509012719,37.2016854005128],[127.0366342004253,37.203365399809506],[127.03878139973301,37.204544099415],[127.03925700041951,37.203821700172696],[127.0387814004485,37.2045440998728],[127.0398419997532,37.2060478985207],[127.0402960004881,37.205246499874],[127.03932330222351,37.207764999569505],[127.04196970086039,37.2102008998658],[127.0400879016952,37.2092851011623],[127.040437101346,37.2108808995665],[127.0391112010509,37.211651000917506],[127.0343088012265,37.2117430006294],[127.0325574002275,37.213089601946905],[127.03146649983039,37.2126303012683],[127.0302939997266,37.2133836004646]]],[[[127.0100881994023,37.2669822998744],[127.01220199916091,37.2663223999244],[127.010925499461,37.2655554001708],[127.01186289976529,37.2619620995045],[127.0143813994994,37.2611032990786],[127.01666090261891,37.2619602998058],[127.0172448026175,37.2647346981463],[127.0193062005561,37.2648287980522],[127.0209453998017,37.263916698732906],[127.02140540058001,37.2648770001574],[127.02042650065479,37.2650906018046],[127.02009610088,37.266706800244904],[127.0179974009975,37.2672253997403],[127.0192290005633,37.2686230001134],[127.01835440018601,37.2688058005076],[127.0175877001449,37.2704873000122],[127.0159048000238,37.2689325008593],[127.0145627991918,37.2690636004535],[127.01298269869099,37.2669768017478],[127.0097577999019,37.267447400379304],[127.0100881994023,37.2669822998744]]],[[[126.8919832982656,37.519384199482396],[126.8937229995738,37.519154497685896],[126.8946446986521,37.517273699566694],[126.8938553993395,37.514963400987696],[126.89175539890769,37.515921600556],[126.8921175990968,37.5141133008866],[126.8936676994844,37.5133685992467],[126.89682120053641,37.5139726995593],[126.89575340108381,37.5142905001034],[126.8962071006301,37.5152189991749],[126.89792240049199,37.5151684987828],[126.8992168013234,37.5168504985882],[126.895693000059,37.5216076002508],[126.8951862989559,37.520348901185],[126.8919832982656,37.519384199482396]]],[[[126.9386836995868,37.5135322998321],[126.93970079977049,37.513434098687696],[126.9401627999918,37.511844699200495],[126.9432962994967,37.5110081989107],[126.9440416997432,37.5120991990156],[126.94414280007659,37.5112207995482],[126.9453143012944,37.511663698936],[126.94717480042709,37.5134810012366],[126.9459162988435,37.5143340011961],[126.943239299921,37.513091100578194],[126.9426760001494,37.513797100180795],[126.9386836995868,37.5135322998321]]],[[[126.9499415995392,37.4974045000047],[126.9522233988055,37.4961224993846],[126.9518190992098,37.495358700148394],[126.9533970984056,37.4930214993243],[126.956177400333,37.493348499217106],[126.9576633005471,37.4946950997569],[126.9568797004047,37.496175800159506],[126.956498099954,37.494870100607],[126.95531600003889,37.495829400420995],[126.9548359998455,37.4949734005749],[126.9533337006789,37.4965239000486],[126.9545095010051,37.4971449008339],[126.9520156997318,37.4990297009882],[126.9511073995906,37.4991017001898],[126.9499415995392,37.4974045000047]]],[[[126.9692765992218,37.5453407998028],[126.9706832990018,37.5434407990526],[126.971414000777,37.5441803988892],[126.97220809998291,37.543685599384006],[126.9725561996348,37.5424362006334],[126.9718181989188,37.541870700599794],[126.97300409992489,37.5414450996441],[126.9735553003975,37.542611199550606],[126.9741516004895,37.5423798994216],[126.9735553006348,37.5426112003339],[126.9733818003362,37.5452646995546],[126.97510770065209,37.5454798996495],[126.9720655999944,37.5468532007821],[126.971845599996,37.5476277005785],[126.9718908983761,37.5468306996999],[126.9692765992218,37.5453407998028]]],[[[127.01856579924241,37.5118019004074],[127.0189488988795,37.510978699657905],[127.0181906997232,37.5096547997959],[127.0222475995891,37.508961399444196],[127.0218988999354,37.508364099653704],[127.0225743995392,37.5082921991265],[127.02472330063371,37.5104456995958],[127.02522120038721,37.512209500074],[127.0240127002458,37.5119823008763],[127.0227101002784,37.513557000709795],[127.0213447998034,37.513025300844],[127.02109850025809,37.513859400714104],[127.0200014002498,37.5139436006427],[127.01856579924241,37.5118019004074]]],[[[126.94563679955691,37.5019599998735],[126.94982420023389,37.50081299951],[126.95025650051339,37.5029587000158],[126.9493650002781,37.503874900105],[126.9498815003752,37.504383400186605],[126.9477460993274,37.5039862011889],[126.9463313998681,37.5048636008207],[126.94563679955691,37.5019599998735]]],[[[126.89376519874361,37.5261552000645],[126.8935813992244,37.5253661992362],[126.8960138998833,37.5225830994922],[126.8974071009506,37.5238728996254],[126.89840800077761,37.5236895000436],[126.8990748002329,37.52703549968739],[126.897716500563,37.5276062006864],[126.8975839999048,37.5286777003838],[126.8949114002819,37.5276942008763],[126.89376519874361,37.5261552000645]]],[[[126.80786489944249,37.484133499379496],[126.8129413002125,37.4863191994234],[126.8144191994584,37.4854138989607],[126.81451240123779,37.48634799964],[126.8125315009146,37.487451800902406],[126.8110615009328,37.486977600906805],[126.8105050997263,37.4880631005396],[126.8110614988438,37.4869776000382],[126.8096617993686,37.4867424999809],[126.80786489944249,37.484133499379496]]],[[[127.0268280996308,37.2627965000824],[127.0286312000004,37.2613209992192],[127.029591700329,37.2591244992458],[127.03338120038079,37.2603649992993],[127.0339141006213,37.2619503998416],[127.0326541996033,37.263646200877396],[127.0305772999821,37.2630893006371],[127.0297626986237,37.2639363009602],[127.0285381996592,37.2628503005757],[127.0268280996308,37.2627965000824]]],[[[126.80562789901491,37.5068160999788],[126.8108286994872,37.5068339973634],[126.8148758987694,37.5050417966558],[126.8170635026686,37.5057288014684],[126.8149947992532,37.505742504331295],[126.81252040101829,37.5085719012561],[126.8129413005974,37.5102195996084],[126.8123380008739,37.510286901470295],[126.8129412987939,37.5102195995123],[126.812368499185,37.5082613006091],[126.8103552001514,37.507728400835],[126.8074954987656,37.5082012015904],[126.8070569999732,37.506745601373304],[126.80562789901491,37.5068160999788]]],[[[126.91005059910721,37.4871007997077],[126.9111878996772,37.4859392991388],[126.9126023995447,37.4866428991055],[126.91376340009549,37.4857962995329],[126.914985500398,37.486960099595194],[126.9147111994645,37.48781850197361],[126.9115634003533,37.489176400540195],[126.91005059910721,37.4871007997077]]],[[[126.93650219913431,37.5045120001723],[126.9368041000655,37.5034969988994],[126.939149199444,37.5036245975637],[126.9402916003382,37.5027370992281],[126.9400777013804,37.503503500007604],[126.94202590074471,37.504106099388004],[126.9427216006787,37.505207900006305],[126.9414268012359,37.5051666009817],[126.9400547988096,37.5074971006689],[126.9393995998559,37.5051786008074],[126.9386369006186,37.504620101365894],[126.9375201997155,37.5054428012883],[126.93650219913431,37.5045120001723]]],[[[127.0091461994144,37.2450248000315],[127.0111494002813,37.245922698934905],[127.0119849994457,37.245233599624],[127.0130710007697,37.2411156997245],[127.01198500074389,37.2452335996133],[127.0130366008091,37.2458644004991],[127.0091461994144,37.2450248000315]]],[[[126.9009831987124,37.5342586989403],[126.9027599999603,37.5334499999159],[126.9031725003472,37.535723500446004],[126.901719299954,37.535983000336],[126.9023234991751,37.5355618999106],[126.9009831987124,37.5342586989403]]],[[[126.97157449983601,37.554806300132],[126.9726150007792,37.553712399497],[126.9725999001984,37.555499000309794],[126.9720999991571,37.5558700007339],[126.9725998994073,37.5554989998667],[126.97157449983601,37.554806300132]]],[[[126.9880341990798,37.5202887992068],[126.9925598008507,37.5199000000334],[126.9908769002844,37.5204124004594],[126.990767000128,37.521660800601296],[126.9903145996893,37.520428000648],[126.9880341990798,37.5202887992068]]],[[[127.0187916999129,37.515873000076596],[127.0199440002817,37.5155702991096],[127.0213683008165,37.5166584996206],[127.0194812996519,37.5169866007651],[127.0187916999129,37.515873000076596]]],[[[126.8032808994412,37.3823938002363],[126.80454689943511,37.3825011970694],[126.80459970039989,37.3794008990203],[126.80693049806911,37.3797859986352],[126.8077894005052,37.3782000987439],[126.80863790041059,37.3794781990209],[126.8089468005908,37.383445800958],[126.80752960013,37.3831266009153],[126.8052531994899,37.384991900288306],[126.8045468981242,37.3825012004792],[126.8032808994412,37.3823938002363]]],[[[126.9856943989829,37.5349345000755],[126.98803799948901,37.5336526995425],[126.98887730056519,37.534158700038],[126.9856943989829,37.5349345000755]]],[[[127.02995769943709,37.5136351000906],[127.0324996002268,37.5123696994772],[127.03368120076081,37.5149693002441],[127.031639700389,37.5141668010155],[127.03127980045839,37.5149551007989],[127.0304460997422,37.514689800530796],[127.02995769943709,37.5136351000906]]],[[[126.9335694996825,37.472240199736],[126.934246000749,37.4713756996166],[126.9344977004333,37.4722511006389],[126.9335694996825,37.472240199736]]],[[[126.7969364986621,37.5055623018089],[126.79735760006369,37.5047579994051],[126.7975960004199,37.5063489993243],[126.8010448038028,37.5061877977054],[126.7975960005199,37.5063490026079],[126.7969364986621,37.5055623018089]]],[[[126.79442779920609,37.4829540999712],[126.79518830033531,37.4822325987474],[126.79555829983019,37.482987799240995],[126.797025000651,37.483017600359],[126.7963816000374,37.483803800327394],[126.79442779920609,37.4829540999712]]],[[[127.0471883984378,37.5040791995182],[127.0490649985291,37.5044037987844],[127.0497407002964,37.5029597993446],[127.0508740011036,37.5049572003416],[127.0489627015279,37.504631201108296],[127.048306899636,37.5059928004342],[127.0471883984378,37.5040791995182]]],[[[126.7395091965883,37.390601800931],[126.7430684011126,37.3891821974127],[126.7435181031726,37.3897613987063],[126.7412093985092,37.3922575029007],[126.7395091965883,37.390601800931]]],[[[126.785906398519,37.5041337990653],[126.7869549991594,37.5027958995216],[126.78673939974391,37.5018361988856],[126.7869550016009,37.502795899351206],[126.7883134015928,37.503008600288],[126.78745330123789,37.5050605008648],[126.785906398519,37.5041337990653]]],[[[126.9014661997838,37.5179956002438],[126.9018805986596,37.5165375989011],[126.90231850056861,37.5164104999647],[126.9014661997838,37.5179956002438]]],[[[127.0241030995072,37.504490699698295],[127.0250653998702,37.503965199539806],[127.02588270060859,37.504829900184696],[127.0243010999212,37.5051009001629],[127.0241030995072,37.504490699698295]]],[[[126.8067488997733,37.3647253991737],[126.80761610326111,37.3664236989843],[126.8077282021637,37.3675194008136],[126.8067488997733,37.3647253991737]]],[[[126.7322719985102,37.4008761996642],[126.73413140135729,37.4001179995495],[126.733052901313,37.4009201001977],[126.7331626000971,37.401758200798106],[126.7322719985102,37.4008761996642]]],[[[127.04309069898979,37.1888505989739],[127.0451929008319,37.1867905980698],[127.043948101474,37.18939310020539],[127.04309069898979,37.1888505989739]]],[[[126.7475161990711,37.3849194003121],[126.7476129996998,37.3810661995258],[126.74932900026201,37.3794835863698],[126.7480305020793,37.380841102888795],[126.7475161990711,37.3849194003121]]],[[[126.9157102998364,37.4884481008462],[126.9162515002167,37.4888784003988],[126.9161047000691,37.4886956001536],[126.9159407996059,37.4887499005444],[126.9157102998364,37.4884481008462]]],[[[126.96110229982149,37.539335800001005],[126.9614077000756,37.538852599464896],[126.96141590017791,37.539310200009105],[126.96110229982149,37.539335800001005]]],[[[126.9937883995735,37.53450630047],[126.9944907005191,37.5344927994914],[126.9944347008838,37.5350060000841],[126.9937883995735,37.53450630047]]],[[[127.04146989873959,37.251476700761295],[127.0423563008055,37.2513016999406],[127.04164829956791,37.2519173007449],[127.04146989873959,37.251476700761295]]],[[[126.9231696991082,37.4924266007282],[126.9238856006384,37.4917368992132],[126.9258064004468,37.4926245999395],[126.92330270020399,37.4929981009103],[126.9231696991082,37.4924266007282]]],[[[126.7757164987153,37.5029571993939],[126.77633990025059,37.5024626990739],[126.7768518009083,37.503105499739796],[126.7757164987153,37.5029571993939]]],[[[127.0132321998275,37.2389633990798],[127.0143043002713,37.239641899569],[127.0150281007563,37.240078601228994],[127.0143042995364,37.239641901198304],[127.0132321998275,37.2389633990798]]],[[[126.8052783969477,37.3512724001124],[126.8044427995061,37.3490789973049],[126.8059009021994,37.350218500394796],[126.8052783969477,37.3512724001124]]],[[[126.7935460997217,37.5049339998158],[126.7946400000024,37.5038269985198],[126.7952264012795,37.5052902001162],[126.7935460997217,37.5049339998158]]],[[[127.0409819993493,37.5172040000747],[127.04155430079871,37.516500399491],[127.0413670007691,37.5173054001488],[127.0409819993493,37.5172040000747]]],[[[126.9891426994288,37.296983600389],[126.9895828999223,37.298166400229],[126.988857999633,37.2974094000795],[126.9891426994288,37.296983600389]]],[[[126.98695929837409,37.507210999262],[126.9858383997592,37.5064364985415],[126.9865956009233,37.5060699998525],[126.98695929837409,37.507210999262]]],[[[126.7388298995584,37.342201599541404],[126.73915820053631,37.3425422994882],[126.73939520031351,37.3428789003375],[126.7388298995584,37.342201599541404]]],[[[126.8839212982798,37.262000401258796],[126.88369880000481,37.2617756995604],[126.8841267019576,37.2620016028284],[126.8839212982798,37.262000401258796]]],[[[126.7292292993513,37.3527338998289],[126.72978890005881,37.3523552994014],[126.7295699998939,37.3525292009125],[126.7292292993513,37.3527338998289]]],[[[126.97803249920669,37.3118256993836],[126.9784907998803,37.311805298631704],[126.97842300023251,37.312075500049],[126.97803249920669,37.3118256993836]]],[[[126.8180715998123,37.4885048999871],[126.8187572013085,37.4890821000706],[126.81875719943079,37.489082100511695],[126.8180715998123,37.4885048999871]]],[[[126.92269379992031,37.400835799979305],[126.9227879000354,37.4005827999461],[126.9227357999907,37.4008739001284],[126.92269379992031,37.400835799979305]]],[[[126.7743414998216,37.346643900497],[126.77416619897059,37.346756099341],[126.7744922016076,37.346504198272996],[126.7743414998216,37.346643900497]]],[[[126.8085921993694,37.369590400714],[126.80859219912121,37.3695903992348],[126.80859220142841,37.3695903990792],[126.8085921993694,37.369590400714]]],[[[127.06264899932219,37.1689625992439],[127.062898300264,37.16845669997],[127.06278720056021,37.1689608004381],[127.06264899932219,37.1689625992439]]],[[[126.74644469949689,37.38077410005219],[126.7464446998767,37.380774098363496],[126.7464446991565,37.3807741026113],[126.74644469949689,37.38077410005219]]],[[[126.77843949752831,37.348014199720005],[126.77843950269761,37.348014197424504],[126.7784395003501,37.3480142022917],[126.77843949752831,37.348014199720005]]],[[[126.787749596862,37.4095447992902],[126.78774960074679,37.409544798938796],[126.7877495996884,37.4095448037193],[126.787749596862,37.4095447992902]]],[[[126.808740599221,37.3705644997399],[126.80874060110659,37.3705644997874],[126.8087406001979,37.3705645021524],[126.808740599221,37.3705644997399]]],[[[126.8303278994801,37.4867115998777],[126.8303385005337,37.485770699224005],[126.8303279008181,37.4867116008236],[126.8303278994801,37.4867115998777]]],[[[126.9087811989189,37.4855564992894],[126.90890879989391,37.4852886995553],[126.9087812010664,37.485556500666505],[126.9087811989189,37.4855564992894]]],[[[126.9778853995884,37.501975599704004],[126.97788540049781,37.5019755994072],[126.97801170087719,37.502066500625595],[126.9778853995884,37.501975599704004]]],[[[127.03790519963219,37.2031071999914],[127.0379052011176,37.203107199091],[127.0378658996715,37.203161799936794],[127.03790519963219,37.2031071999914]]],[[[126.7320445991833,37.342380000467095],[126.7320654004164,37.3423621988949],[126.73206540085539,37.3423622004197],[126.7320445991833,37.342380000467095]]],[[[126.78263509957219,37.4835589009495],[126.78263509967249,37.4835588995405],[126.78263510101459,37.4835588999144],[126.78263509957219,37.4835589009495]]],[[[126.80875659892409,37.3744782992536],[126.8087566019555,37.3744782997341],[126.8087308998003,37.3747229010431],[126.80875659892409,37.3744782992536]]],[[[126.81419609860221,37.3509707992723],[126.8141961032493,37.3509708030058],[126.81419610019961,37.350970803757],[126.81419609860221,37.3509707992723]]],[[[126.8671924997671,37.4893001002364],[126.8671925000482,37.4893000994016],[126.8671925004549,37.4893000996891],[126.8671924997671,37.4893001002364]]],[[[126.84499649896469,37.4948542004111],[126.8449964992371,37.4948541988147],[126.84499650060559,37.4948541991236],[126.84499649896469,37.4948542004111]]],[[[126.9145518001354,37.520250200118],[126.9145517999599,37.5202501998481],[126.9146188001929,37.520285899966],[126.9145518001354,37.520250200118]]],[[[126.97061959958731,37.5368594000624],[126.9706047000319,37.5367913997772],[126.9706196001169,37.536859400160395],[126.97061959958731,37.5368594000624]]],[[[126.7357053995402,37.3640898998986],[126.735705400372,37.3640898999082],[126.7357053994462,37.36408990023121],[126.7357053995402,37.3640898998986]]],[[[126.7684782974815,37.329221501152205],[126.7684782999858,37.329221499747604],[126.7684783008806,37.329221500573205],[126.7684782974815,37.329221501152205]]],[[[126.797235298769,37.503065599737],[126.7972353007077,37.503065600655],[126.7972352988931,37.5030656015963],[126.797235298769,37.503065599737]]],[[[126.8101915971227,37.502963899206996],[126.8101915991424,37.502963896660596],[126.81019160132959,37.502963899586796],[126.8101915971227,37.502963899206996]]],[[[126.86564589984161,37.5124798999989],[126.8656458999494,37.5124798996555],[126.8656459002924,37.512479900114904],[126.86564589984161,37.5124798999989]]],[[[126.9569724999188,37.4966070999253],[126.9569725001747,37.4966071002415],[126.9569724992,37.4966071002043],[126.9569724999188,37.4966070999253]]],[[[126.986751799381,37.5361177009611],[126.9867517985939,37.536117699963896],[126.9867518003813,37.5361176996093],[126.986751799381,37.5361177009611]]],[[[126.7244432992495,37.400909499895995],[126.72444330090751,37.4009094986916],[126.7244433009124,37.4009095004028],[126.7244432992495,37.400909499895995]]],[[[126.86147609958451,37.495604799870804],[126.8614761001659,37.495604799793306],[126.8614761001821,37.495604800109504],[126.86147609958451,37.495604799870804]]],[[[126.9780025993008,37.558184399522],[126.9780026000968,37.5581843991768],[126.9780026000882,37.5581844001723],[126.9780025993008,37.558184399522]]],[[[126.9782108998799,37.558401099955596],[126.9782109007208,37.558401100259296],[126.97821089978619,37.5584011004935],[126.9782108998799,37.558401099955596]]],[[[127.0111852997501,37.5306123001003],[127.01118530033219,37.530612299357],[127.0111853015295,37.5306123007107],[127.0111852997501,37.5306123001003]]],[[[127.03050239973311,37.2090954000642],[127.0305024002008,37.2090953993762],[127.030502400398,37.2090954003932],[127.03050239973311,37.2090954000642]]],[[[127.0630862993955,37.5087250998351],[127.063086300246,37.5087250995862],[127.0630863002899,37.5087251000743],[127.0630862993955,37.5087250998351]]],[[[126.8822595998431,37.501797100028895],[126.882259600132,37.5017970998831],[126.8822596000262,37.501797100092],[126.8822595998431,37.501797100028895]]],[[[126.9445294995545,37.4867981006011],[126.9445294998126,37.4867980999486],[126.9445295004233,37.4867980997247],[126.9445294995545,37.4867981006011]]],[[[126.9652876997811,37.531886300045194],[126.9652876999427,37.5318862998275],[126.96528770009171,37.5318863000429],[126.9652876997811,37.531886300045194]]],[[[126.97719089988449,37.5352940000775],[126.97719090000389,37.5352939999588],[126.9771909003576,37.5352940000113],[126.97719089988449,37.5352940000775]]],[[[127.0281528995217,37.2082259998187],[127.02815290032389,37.208225998658705],[127.02815290202149,37.2082260000603],[127.0281528995217,37.2082259998187]]],[[[127.0333497998591,37.4843928995327],[127.0333497999825,37.4843929000671],[127.0333497996692,37.4843928998976],[127.0333497998591,37.4843928995327]]],[[[126.76846399939029,37.3513631979902],[126.76846400070359,37.351363199992804],[126.76846399947439,37.351363200693704],[126.76846399939029,37.3513631979902]]],[[[126.9210685962684,37.244352102039],[126.921068600028,37.244352099916],[126.9210686009836,37.2443521013583],[126.9210685962684,37.244352102039]]],[[[126.93809159965261,37.513465199871796],[126.93809160005921,37.5134651999806],[126.9380915997544,37.5134652008239],[126.93809159965261,37.513465199871796]]],[[[126.9546666999131,37.495713700045904],[126.9546667000148,37.4957136998346],[126.9546667000474,37.4957137000257],[126.9546666999131,37.495713700045904]]],[[[127.0140762992705,37.245252799855],[127.014076300288,37.2452527998405],[127.0140762999182,37.2452528007775],[127.0140762992705,37.245252799855]]]]}}]}