{"type":"FeatureCollection","features":[{"type":"Feature","properties":{"interval":15,"stationId":"5349743239"},"geometry":{"type":"MultiPolygon","coordinates":[[[[126.82532909884661,37.3171283997019],[126.82574359994159,37.3161415993982],[126.8289949998623,37.314447898161994],[126.83044819994481,37.3120693994384],[126.8317450994007,37.312497798965204],[126.8321320998772,37.3114041982439],[126.83404900000129,37.311202799095796],[126.8335996009339,37.311710099946],[126.83422870030479,37.312838398817696],[126.8363182992169,37.312125498220404],[126.8368978986373,37.3108904994554],[126.8361838993513,37.309439600906295],[126.8338328988293,37.3091371004766],[126.8359228986464,37.307366299410596],[126.8376278012427,37.309410299377404],[126.8384922003783,37.3092918994958],[126.839451700117,37.3113595986759],[126.84006090055979,37.310359599472],[126.83945170105619,37.311359600011805],[126.8404453000626,37.3119837993876],[126.8413221991857,37.3121886991827],[126.8415122999546,37.3109023994552],[126.844293399932,37.313329899168],[126.8453942990555,37.3130223991006],[126.8446333995721,37.311668599539495],[126.8461677002308,37.311578298609504],[126.8519071022018,37.3148788997003],[126.84929770167699,37.3165202000981],[126.8494000025538,37.3184518006903],[126.8479042010868,37.317638202817896],[126.846536200763,37.3206700007019],[126.84089600083131,37.3244147006086],[126.8384971002786,37.324932000591794],[126.83820110057461,37.3258083997154],[126.838803300197,37.3258500999902],[126.8380812000135,37.326505300206804],[126.8371219997959,37.326440502184795],[126.837689099577,37.3256200004313],[126.83661699960841,37.3249699005667],[126.8357093996094,37.325562200511904],[126.8348953963903,37.3228388999597],[126.83297389831179,37.3214233013753],[126.8296571991668,37.3212056006438],[126.8295099993038,37.3194457014266],[126.8278633991562,37.319533501359295],[126.827734599162,37.318054301224],[126.8259343994165,37.3181498006656],[126.82532909884661,37.3171283997019]]],[[[126.8197175989566,37.3186710018241],[126.8207483984253,37.3175568982107],[126.82026429889231,37.315451500057804],[126.8214017996232,37.3151792993987],[126.82128589971751,37.3145246997134],[126.8221482003713,37.3147455991827],[126.8212199006964,37.317329899527394],[126.8225372016385,37.3177097991205],[126.8227016998097,37.3192754017422],[126.8212726010022,37.3198611013994],[126.8204019000488,37.318361500837405],[126.8200346003286,37.319238000192],[126.8197175989566,37.3186710018241]]],[[[126.8521965996909,37.3090247003663],[126.85333489985099,37.30896099962909],[126.8542364046213,37.3101499034464],[126.8521965996909,37.3090247003663]]],[[[126.80507499798371,37.3205295006627],[126.8060993008587,37.3198273003334],[126.8059820993758,37.3205904023667],[126.80507499798371,37.3205295006627]]],[[[126.8346693993809,37.3102688000298],[126.8346694003143,37.310268799985],[126.8346694000045,37.3102688003774],[126.8346693993809,37.3102688000298]]]]}},{"type":"Feature","properties":{"interval":30,"stationId":"5349743239"},"geometry":{"type":"MultiPolygon","coordinates":[[[[126.7784720985229,37.3265610003536],[126.78023439968099,37.324294299304896],[126.7816666998138,37.3266150971577],[126.7844433970371,37.3268316969411],[126.7857801965016,37.325935896984895],[126.7881765992374,37.3194160979987],[126.789923801472,37.3198304961199],[126.7906886020333,37.323827996661],[126.7947563987936,37.3239271985074],[126.7978778956721,37.32237460006],[126.7971054974657,37.3192158981007],[126.8015189994714,37.318084598793696],[126.8015095995653,37.3155831005871],[126.80105619909901,37.3160716993982],[126.8017152970172,37.3146817976181],[126.803969699305,37.3134505971762],[126.8051422998324,37.3118179991542],[126.8051800008072,37.313510198734505],[126.8073997986438,37.3126681995103],[126.8070867006688,37.3118894990649],[126.80902439988459,37.313550599405396],[126.8151758983437,37.3132386991506],[126.8152371982824,37.3119570004323],[126.8137302997893,37.3117130006763],[126.8132424995368,37.3101470009609],[126.8124632998169,37.3112831002698],[126.8122931000894,37.3101248994847],[126.81644199985719,37.3079305983215],[126.8167988005654,37.3062251985547],[126.8176867001188,37.306550699251005],[126.8179693997744,37.3055032992553],[126.8197769991603,37.305042300246896],[126.82000819960561,37.3037166996698],[126.823555600541,37.3052711992645],[126.8244388002807,37.306820899201],[126.8255405991789,37.306758599263304],[126.8254907987432,37.3046759991155],[126.82654379925229,37.3033551983637],[126.8292868998636,37.3023559990906],[126.8299317992187,37.3012620001846],[126.8294974003661,37.3004681978591],[126.8348477005067,37.3038467986635],[126.8367429986114,37.3017757007346],[126.8339604986725,37.298716199764804],[126.83588989933939,37.298671199210204],[126.83642000019681,37.2978577986375],[126.8377476001666,37.298212299004106],[126.8384862998397,37.2971197997447],[126.8395268006238,37.2988605978124],[126.8425098018706,37.3000838983634],[126.8446697008563,37.2999923999484],[126.84344080103169,37.3004528003383],[126.84331730116959,37.3023195986122],[126.85232239910141,37.3003005975694],[126.8523500019536,37.3014314990345],[126.8533704009332,37.3022686981973],[126.85526229950511,37.3013595990922],[126.8552174995161,37.300441199416305],[126.8578305988202,37.299965200044205],[126.8586611999943,37.299075399847396],[126.858973400457,37.3005869995061],[126.86000799935469,37.2998872996356],[126.8627401988809,37.300167499406804],[126.86268389974359,37.2981218993514],[126.8664223999869,37.2944269997748],[126.8681501010814,37.2961944995946],[126.8697046004918,37.2965856994845],[126.8702964999595,37.298209199124805],[126.8734309002731,37.298960299158594],[126.8758000041575,37.3024135000381],[126.8750015019636,37.303370703610405],[126.8738118000506,37.3033472015256],[126.8733171998209,37.3017332022122],[126.86692340084291,37.3019476007141],[126.86692210085809,37.303410999382294],[126.8694299008003,37.305920700948604],[126.8650615997826,37.3090464015374],[126.8656484987993,37.308482900459104],[126.8651279993198,37.3067442021978],[126.8635526008952,37.3061621027799],[126.86133960140589,37.3074084024118],[126.8614056013399,37.3102357995844],[126.8605683007409,37.310495200232495],[126.8606473006838,37.3113390006656],[126.8575958012337,37.3153044999191],[126.85778940104011,37.3170620981615],[126.85975930060049,37.3166523989182],[126.8590753009461,37.3169425006634],[126.8608086003912,37.3183590003092],[126.85770740046739,37.3200391011079],[126.8576992004669,37.3211479008801],[126.8555540005181,37.3195041012041],[126.8534474011136,37.3237224020029],[126.8522854049921,37.3284949001969],[126.8513116006678,37.3285442018075],[126.8509049003879,37.3304203003076],[126.84934820064359,37.3295689004457],[126.8478581995793,37.3318222003839],[126.8464867005909,37.331126500718305],[126.84680550063901,37.3333475998932],[126.8461192001901,37.3325047011007],[126.8437785007071,37.3337397008432],[126.8434491004087,37.3366650004517],[126.8399017984543,37.3329588042672],[126.8371446012115,37.3335348036912],[126.8360396023165,37.335187002039],[126.8362113983206,37.3328815018996],[126.8337011008309,37.331514103267],[126.8312477008741,37.3324413019132],[126.828615399989,37.3323545006183],[126.8282365994215,37.331112400720706],[126.8263491997234,37.3310261001426],[126.8276902983974,37.3304590996931],[126.8265833995043,37.327528202624],[126.8224610996841,37.3272424041005],[126.8191729008343,37.329045102407704],[126.817814000323,37.3309013011233],[126.8169096978577,37.329132900449],[126.8178325972485,37.32847489955731],[126.8178238972572,37.326555201477],[126.8145097001855,37.3265441010033],[126.8144217993637,37.3251077009729],[126.81368910009641,37.3249869010937],[126.8102752003178,37.3253522011927],[126.8092519000196,37.3273214002088],[126.8085836989121,37.325109501850704],[126.8069885005073,37.3259677009925],[126.8063163993589,37.3251682015138],[126.8032032006338,37.3279939023084],[126.8024915005153,37.3269174011838],[126.8000025971316,37.3269886007014],[126.798113199021,37.324653003037],[126.7956737996049,37.32500340123],[126.79498189902439,37.3258170009972],[126.7932573996298,37.3239720023321],[126.7911760012059,37.3245387020269],[126.7899443018123,37.3259632011729],[126.7910238007328,37.3272349999011],[126.7899973009452,37.3289882004851],[126.7882236005846,37.3289716008135],[126.7878481009601,37.3299725998125],[126.78928300131639,37.3321845019887],[126.7867245994751,37.3292549012067],[126.783981298579,37.331004300511395],[126.78166669925,37.326615103479696],[126.7784720985229,37.3265610003536]]],[[[126.847638798764,37.2884439993247],[126.84892669924871,37.289167598758596],[126.8497155984598,37.2885857993404],[126.849196799106,37.2870075006308],[126.8500383989225,37.286807399122104],[126.84998199897889,37.285436700492795],[126.85449509997059,37.2812395994479],[126.8545821003365,37.2819370995785],[126.85547509995081,37.281398799730795],[126.8560499004209,37.2827179988706],[126.8576278999979,37.2826636995386],[126.8586914004272,37.28386299956539],[126.8595802003436,37.2832892999906],[126.8613097008463,37.2854974995401],[126.8638138011273,37.2862172996034],[126.86387930055879,37.287453900764305],[126.86272510058741,37.2878987007794],[126.86223630073731,37.289127599977],[126.86278850058649,37.290299301196],[126.8580686000948,37.2947376004105],[126.8565856991679,37.2942124004242],[126.855135299317,37.291562900838706],[126.85361899963429,37.291790300570405],[126.8530363001599,37.2908098009033],[126.8511253999397,37.2912847004564],[126.847638798764,37.2884439993247]]],[[[126.7592278979477,37.3398476009048],[126.7596405001979,37.340783098637004],[126.7622945010001,37.3409090979725],[126.7645992986953,37.342156596725005],[126.7655887980673,37.3387304999724],[126.76667979951061,37.3389927992128],[126.7671794997827,37.3378500995167],[126.7694155987178,37.3369907001818],[126.7690132990198,37.335355301693305],[126.7679745995636,37.3350681997709],[126.7701085003374,37.336640498836104],[126.77297709894971,37.3350931004467],[126.7717454011179,37.3352303971809],[126.7729770998862,37.3350930973182],[126.77339070049379,37.3357875995715],[126.7722286996859,37.343249101752],[126.7705150975205,37.3405025022307],[126.76721190082371,37.3389241038091],[126.7640140002101,37.3433870014348],[126.7622945009947,37.340909102801895],[126.7593491994177,37.3432769008416],[126.7586176997755,37.3423759001235],[126.7596404986801,37.340783101186005],[126.7592278979477,37.3398476009048]]],[[[126.73861939846661,37.3504537985869],[126.7411350998171,37.3493193996025],[126.74285689949471,37.3502856995613],[126.7431825995626,37.349226599552104],[126.7440390000633,37.3490878995528],[126.7474891013709,37.3530254983038],[126.7471415998464,37.3524455007363],[126.7460607009273,37.352820900360896],[126.7449581016521,37.355328100947304],[126.7431996992846,37.356625300480395],[126.74144479932019,37.354063002625395],[126.7401446006204,37.3541071025813],[126.73917729909279,37.3554546008233],[126.73795989887361,37.3529913991463],[126.73861939846661,37.3504537985869]]],[[[126.9029422950303,37.3098614972727],[126.90308839973291,37.3070884995987],[126.9037287005905,37.3081831994174],[126.9069071042585,37.3088816975811],[126.9058401006491,37.309064400385196],[126.90571440117719,37.3108047995664],[126.9075402002957,37.311228299567304],[126.9066883016987,37.3134047986264],[126.9086458018843,37.314248900579],[126.9071269999026,37.3138437011428],[126.9049871005465,37.3151277030954],[126.9062913982923,37.3131005001284],[126.9048455997381,37.311515901713],[126.9037935006507,37.3116370016674],[126.9042547990319,37.3104679010852],[126.9029422950303,37.3098614972727]]],[[[126.7345792992642,37.3637231997277],[126.7364720989507,37.3613268993463],[126.7355994994686,37.3603688983331],[126.7382228007134,37.3617872001658],[126.7378939016277,37.3638083024437],[126.73628449965359,37.363905300601296],[126.7361851998641,37.3631352005574],[126.7345792992642,37.3637231997277]]],[[[126.9161954972188,37.3280387981356],[126.91685999845,37.3264196993714],[126.9182232002341,37.325739299398904],[126.91975480253251,37.3264180999375],[126.91952120079941,37.3285546990439],[126.9209058014564,37.328684697700794],[126.9181578011579,37.329708702354],[126.9171677999302,37.3312838005258],[126.9161954972188,37.3280387981356]]],[[[126.90676259892649,37.2488528000656],[126.9085719999786,37.2471784996552],[126.91071720028789,37.249365696828896],[126.9129991009509,37.2501452006748],[126.9115056010844,37.2494994011337],[126.9098997004282,37.2507398017513],[126.9083510994505,37.2490703009946],[126.90676259892649,37.2488528000656]]],[[[126.8777032989041,37.2652831006882],[126.8804923993191,37.2634170993502],[126.8812111008446,37.2637271989187],[126.8802075004179,37.2657984018678],[126.8777032989041,37.2652831006882]]],[[[126.9248609996731,37.349693000328],[126.9259727003979,37.3492330999164],[126.9258437003588,37.3498017004276],[126.9248609996731,37.349693000328]]],[[[126.9634525998016,37.2432070997677],[126.96414269948579,37.2436572993605],[126.9643966003208,37.243386698808905],[126.9646784004576,37.2437919001706],[126.9634525998016,37.2432070997677]]],[[[126.9046577988328,37.2486588016105],[126.9048461977082,37.248491094639],[126.9051567007273,37.248708899831996],[126.9046577988328,37.2486588016105]]],[[[126.8839212982798,37.262000401258796],[126.88369880000481,37.2617756995604],[126.8841267019576,37.2620016028284],[126.8839212982798,37.262000401258796]]],[[[126.85166149969541,37.2918353001137],[126.85180030019609,37.291753199671405],[126.8519661001545,37.291903200169],[126.85166149969541,37.2918353001137]]],[[[126.8618178995132,37.312670499334104],[126.8622841996918,37.3125156988566],[126.8622842009652,37.312515699984196],[126.8618178995132,37.312670499334104]]],[[[126.88998209890549,37.2580465005855],[126.8900732008025,37.2580775997079],[126.8900731990938,37.2580776007999],[126.88998209890549,37.2580465005855]]],[[[126.81025069973799,37.311439799421],[126.81025070176679,37.311439800304505],[126.8102506999989,37.3114398011837],[126.81025069973799,37.311439799421]]],[[[126.86822809910059,37.3088202996236],[126.86822810099859,37.308820299027204],[126.8682281010717,37.3088203001113],[126.86822809910059,37.3088202996236]]],[[[126.7357053995402,37.3640898998986],[126.735705400372,37.3640898999082],[126.7357053994462,37.36408990023121],[126.7357053995402,37.3640898998986]]]]}},{"type":"Feature","properties":{"interval":60,"stationId":"5349743239"},"geometry":{"type":"MultiPolygon","coordinates":[[[[126.6721686993378,37.4228686012535],[126.67681109889,37.419570399756196],[126.6761018992474,37.4181754987657],[126.6774306989369,37.4171342991307],[126.67689399896571,37.4154707996541],[126.6779105984816,37.414774899613],[126.6767769989162,37.4136976999968],[126.6765140998434,37.411711499767904],[126.67744140040331,37.4111668997298],[126.6781541996905,37.411836699060004],[126.6797022993628,37.4102356996758],[126.6773203997456,37.40959320058241],[126.67845959935559,37.4090627999594],[126.6773925998142,37.408004899482805],[126.6786481000028,37.40790659968],[126.6782336006371,37.4083580999083],[126.6790194998512,37.4095911986752],[126.6799931997782,37.4078552996884],[126.6810382006737,37.407883599938295],[126.6811322005797,37.4086679991539],[126.6829647994547,37.4086238994415],[126.68271729911439,37.4072492000166],[126.6789218995611,37.403883000833],[126.6791751998538,37.4032911999808],[126.6803455005998,37.4027804999949],[126.6821658014847,37.4040181987459],[126.6825946002725,37.4053517995959],[126.686257497393,37.4047231980409],[126.6857663973449,37.4017944997],[126.6863608975964,37.399959599519406],[126.6872276996552,37.4011247969928],[126.6902201991262,37.3981441988203],[126.691055701107,37.3992645978962],[126.6966580991643,37.3997598988496],[126.6986485971738,37.3972181013914],[126.6978004971337,37.3960675013535],[126.7005430964375,37.3932740016811],[126.69926769685269,37.391515002272996],[126.70123939872461,37.390595298252],[126.70284820266461,37.390636397116495],[126.70450480232529,37.3928790974154],[126.7074585030559,37.3915006981248],[126.7081221028119,37.3927741980821],[126.7113924995415,37.3922010986552],[126.71299469948259,37.3929560980514],[126.7152315015807,37.3916541985689],[126.7170251028564,37.3922960995041],[126.7179990021105,37.3936710989663],[126.7197003004092,37.3939542986831],[126.7208305992789,37.392041300596105],[126.720193499688,37.3917747000255],[126.7216976996432,37.3914201996292],[126.7217945995463,37.3904153006341],[126.7200605980124,37.3898072987687],[126.7283919977563,37.3891638976648],[126.7334200960057,37.3856556986019],[126.7344592980814,37.3800194011313],[126.73538449922209,37.380072898570305],[126.73554539955481,37.3787151992369],[126.735384501237,37.3800728980355],[126.73834409827741,37.3794137986946],[126.73791539870611,37.377603400504995],[126.73558349951671,37.3763953015568],[126.73147730131859,37.3768128015621],[126.73111470168121,37.377913100461804],[126.72867020157399,37.3793700021995],[126.7261203999665,37.3786074005253],[126.7264353980508,37.3757770020544],[126.7245670999191,37.3737717040597],[126.7223620006438,37.3757492018723],[126.7162675938515,37.370791511918206],[126.71872829726419,37.3680179018543],[126.7169872995652,37.3637421998753],[126.7174575003519,37.364191398700605],[126.7183899994194,37.362892899999096],[126.7173559998994,37.3611273012613],[126.7164205000426,37.3617012006381],[126.7150386011758,37.3608198009292],[126.7152758005373,37.361896500109204],[126.7144934002048,37.362028200676995],[126.7123511975657,37.3615780015259],[126.7126540989779,37.3593618995937],[126.71417089815179,37.3570998011522],[126.7131063990338,37.356720000514706],[126.712986899968,37.3554833999078],[126.7141546994794,37.3550207997611],[126.71359219890199,37.3537970995389],[126.71410229997649,37.3548416996454],[126.7168460992936,37.3556764989557],[126.717571198898,37.3532183996365],[126.7186878986964,37.353359598956494],[126.72007269797311,37.3519050985342],[126.7172324982339,37.3489660981739],[126.7184159970504,37.3482372989027],[126.7179082980884,37.345633298044206],[126.72005149897869,37.3442990978367],[126.72085959817059,37.3422090999267],[126.71990629656361,37.3412601993384],[126.7198386966334,37.338523198567096],[126.7221739981689,37.337084398109404],[126.72249979811889,37.3338638980638],[126.72127859906911,37.3315368990416],[126.726080600028,37.3348412967972],[126.7270941990144,37.3326582989802],[126.7279173020067,37.333509897404404],[126.7307512019949,37.3317671974079],[126.7343435009378,37.335479596309696],[126.74230589806831,37.3305849980438],[126.7434189969552,37.326749801879004],[126.74172869819199,37.324977498128],[126.74333460085549,37.3266648967958],[126.74658100034621,37.3244885977266],[126.75140280011519,37.3238528990588],[126.7528445988316,37.3225372974171],[126.755557198845,37.3217716973984],[126.760161096629,37.311758499084405],[126.7613059028584,37.3143258963378],[126.7648362994945,37.311850198877],[126.766736597687,37.3090867014931],[126.7664280967516,37.306109900925804],[126.76902109675251,37.303710500926805],[126.7684028967471,37.3023091009278],[126.770924996792,37.2998415009125],[126.7704946994828,37.298819198838196],[126.7741872957902,37.298870198787206],[126.7736890956557,37.294997101239204],[126.7749636121797,37.292831986666194],[126.77695890373019,37.296974596378895],[126.7805399001492,37.297045496308],[126.78342499726409,37.2951053982481],[126.7890981000416,37.2932411999209],[126.7910912980484,37.2959072972548],[126.79677489236481,37.297008596153496],[126.8006153040229,37.2953541932567],[126.8047577021116,37.291411996257104],[126.8088175994877,37.2959108920099],[126.8141653005468,37.298045192556195],[126.8177091970029,37.2957215948798],[126.8183077964043,37.2933279972734],[126.8150242981898,37.288327999596596],[126.8168676989272,37.286088100277304],[126.81524239945921,37.2846909986391],[126.8178235001945,37.285920498700904],[126.8189266990913,37.2850805995408],[126.8202251003385,37.2856811991976],[126.8222496000577,37.2847570998007],[126.82147020048389,37.2854525000585],[126.8221067009548,37.2862510996435],[126.8203464006785,37.287589600005894],[126.82097380008291,37.2886226991893],[126.8240919981688,37.2886722983001],[126.8232279990931,37.2862013004206],[126.8264967967962,37.2857623997315],[126.82815989844781,37.2801456987039],[126.8289118013884,37.2831248977798],[126.83196869833151,37.2826059982987],[126.8347162955839,37.2806288002759],[126.8340428983199,37.2782905974547],[126.83864410086899,37.2802306956035],[126.8406141998565,37.278796296601705],[126.8425495004605,37.2753130947423],[126.8476257953842,37.2760361940192],[126.849816194507,37.2746374944731],[126.8509036982437,37.272435593831105],[126.8518179010893,37.273553297801705],[126.8540948048271,37.272741797133],[126.85805980086211,37.2741491957256],[126.8602455991038,37.2732489964513],[126.86062989871951,37.2695566001437],[126.8565508964939,37.2673052011408],[126.8589984003932,37.2685945973782],[126.86071099845809,37.2638138018908],[126.8590819963959,37.2611318964025],[126.8627383970684,37.258420398846496],[126.86246659528291,37.2533704995517],[126.8647108998894,37.2476310992771],[126.8658584006099,37.2473624989843],[126.8669174995508,37.2499302964165],[126.87103999542829,37.2480508982959],[126.8709947960488,37.246549598838904],[126.873509399311,37.2447201983281],[126.87711670062261,37.2464254983617],[126.8821568955824,37.2457689990182],[126.8832532988948,37.2448510985649],[126.8870205979733,37.24587819817],[126.8836136977737,37.240343199189],[126.8860085996884,37.240184196777605],[126.8913951982244,37.236457798661],[126.89223580247939,37.236993199256],[126.8948191025309,37.2363945997296],[126.8973705999794,37.2381727979514],[126.898364998985,37.2356247004995],[126.9002080994732,37.234146296561796],[126.90488770053621,37.238084995293],[126.9073330992193,37.234276694369],[126.9069597049717,37.2408046942386],[126.91082510146529,37.2426817924267],[126.9202163986209,37.2408851954661],[126.9243162972726,37.2363643975059],[126.9271268979153,37.2364549975532],[126.9281621025511,37.243337796759],[126.9348971007853,37.2430717993274],[126.9354112997481,37.245581297985595],[126.9363260007585,37.2449096984499],[126.9365971015501,37.2459688978481],[126.9395736985735,37.244396599420405],[126.9385232996155,37.2436707997654],[126.9417799963025,37.239758696318404],[126.9417116963708,37.237134098942995],[126.9404220984067,37.2344688965818],[126.9420673004397,37.2353997993875],[126.9454281975641,37.2334500011744],[126.9453666003506,37.2305975973251],[126.9481387999347,37.2360379976705],[126.9490221990759,37.234304299375296],[126.9484142996206,37.233370796947504],[126.9536201983628,37.23080989792199],[126.95247549928851,37.2279100998487],[126.95413239801721,37.225897101032],[126.9521035988393,37.2235682002495],[126.9543121002089,37.223757799956005],[126.95544410246349,37.2246837989194],[126.9558201017975,37.2266949995744],[126.9537726015263,37.2309122994733],[126.9543984009005,37.231825298560295],[126.9562030005538,37.2302890993767],[126.9573913996012,37.2312550984077],[126.95713429985831,37.2295784000844],[126.9559301990488,37.2282543013469],[126.9570164006012,37.227340398929],[126.9571343007005,37.2295783985736],[126.9596216014955,37.23243569588681],[126.96387700109139,37.228933897405405],[126.9716759986921,37.2274203978088],[126.9719520006201,37.2254318986969],[126.9782610010744,37.232891495388],[126.9827253011681,37.2324719960968],[126.9868059989514,37.2352420993334],[126.9884664986595,37.2342984000833],[126.9881945020864,37.2335682990346],[126.9890448013038,37.2381642014187],[126.9880591022895,37.2389717006112],[126.9927027014342,37.2441257009042],[126.99233320204141,37.248705696975],[126.99426730010731,37.252454693226],[126.9982742032052,37.2536207970523],[126.99947340121,37.2572956964025],[127.0009279997554,37.2571425965556],[127.00312319781321,37.2541807990908],[127.00499859936369,37.2530685995109],[127.0054656997932,37.2515964996675],[127.00609639957831,37.251908099263],[127.0093785994797,37.2500285993519],[127.0105586992194,37.2511995986737],[127.01186099983289,37.2511550989736],[127.0122112001804,37.2502863995686],[127.0155787001851,37.2515895996752],[127.0162252999266,37.2529128988844],[127.0171001998258,37.2526248987471],[127.0177817997396,37.253956298525395],[127.0193302997556,37.253436398491395],[127.0200296005262,37.2547763989892],[127.02070549949991,37.2537296993812],[127.0225099976954,37.253208299902596],[127.023037297816,37.25152839987],[127.0230436005579,37.2524954988975],[127.0240318995696,37.2526932986997],[127.0259800986212,37.250428600353],[127.0257406988158,37.249820899885904],[127.0277366997975,37.2508499992269],[127.02885380018539,37.2501494996339],[127.0294908998607,37.2516270991906],[127.0311271994133,37.251820298682595],[127.0321412998464,37.2486437996288],[127.0319605005468,37.2502005994211],[127.0331989993083,37.2504323991893],[127.0337566987506,37.249705999915705],[127.03378359852921,37.2478518998935],[127.0320704998531,37.2465379992155],[127.0337836001166,37.2478518978716],[127.0350810992231,37.246330799289105],[127.03507399923019,37.2448453007746],[127.03336689906091,37.244639899881804],[127.0341714995618,37.244377199140104],[127.03409640092319,37.2434125983503],[127.03450960051,37.2442690974938],[127.0367552982643,37.2443695973933],[127.03683599942839,37.241009798163],[127.03751270026079,37.241406599985],[127.0370367005973,37.2421395992792],[127.0379307004595,37.241482099881],[127.03866069972699,37.2433953979871],[127.0389106990338,37.2413543975521],[127.0401827005309,37.2431757994146],[127.04266819863139,37.2433907990775],[127.04380859992341,37.2425705995635],[127.0435937006372,37.244738499248896],[127.0466339999733,37.245190899695196],[127.0495327969574,37.2424217012053],[127.0498349988866,37.2406521987782],[127.0500748011724,37.2414732987605],[127.05174699950021,37.2416154986183],[127.054057598459,37.240075499204906],[127.0540064993562,37.2392296994403],[127.0560299988023,37.2392331988931],[127.0563788989648,37.2368419006811],[127.0542833991183,37.2375861003991],[127.056378899988,37.236841899335104],[127.0582589000439,37.2376991992893],[127.0596254001931,37.2371063998621],[127.06050000067131,37.238511800465],[127.0596740004871,37.2380437007424],[127.05895910119659,37.2392550997159],[127.0604601002357,37.2408155997723],[127.06198039920939,37.2406029999703],[127.06231609996911,37.2397192995644],[127.0632809013177,37.2411069988428],[127.0651944002218,37.241097399074604],[127.0636676016117,37.2412110003176],[127.0644446008568,37.2429178987435],[127.0660022009031,37.241741599653395],[127.0677362010091,37.2433786005069],[127.0676285011168,37.2449636989218],[127.0693288998679,37.246417299313194],[127.07265289911449,37.2470234992378],[127.073597900008,37.2456311994272],[127.07319320105381,37.2464697993244],[127.0739926002544,37.2470666987275],[127.0757593012648,37.245945398393395],[127.0777455006412,37.246561999739],[127.07803030034209,37.2476408994241],[127.079174699336,37.247664799644106],[127.0788790010166,37.2470395000247],[127.08026780112971,37.2495919004798],[127.07897880029431,37.250378700717796],[127.07852750047141,37.2543679995079],[127.0810555991763,37.255981898905404],[127.0806809001515,37.254355699299495],[127.0810556023964,37.2559818995082],[127.0831557004854,37.2559981994513],[127.0839898025784,37.2602667996132],[127.0814897008406,37.2608410019529],[127.0809576013727,37.262321500472396],[127.0831487000746,37.265068800170404],[127.0820277995261,37.2653804006685],[127.0822181992892,37.263935300237],[127.0814592000482,37.26361700055531],[127.08075549925529,37.265002200145595],[127.0801823996452,37.2629252010278],[127.0796409001867,37.2638867000663],[127.0766505987324,37.2650500006657],[127.0758281968865,37.2637930001856],[127.076438799746,37.2612440006683],[127.07358139933079,37.2605671003865],[127.0726053998878,37.259254399947906],[127.0729461990487,37.257583601292296],[127.0691600993821,37.257057601989004],[127.06554210022121,37.2577347009086],[127.0637712994933,37.255144699500605],[127.0647237985408,37.2537676008777],[127.0629872989893,37.254341100061595],[127.0622967999872,37.2519878007132],[127.0601894000218,37.2546671006863],[127.0592772984568,37.252006099093904],[127.0596349980991,37.2510176000824],[127.0587972989368,37.250119500980496],[127.0576880991229,37.2504471011498],[127.0583395984654,37.249648800261205],[127.0574835993214,37.2488148010952],[127.05669590010909,37.2492735006365],[127.05467539798009,37.247591801451],[127.04910600134089,37.2481742011795],[127.0473523030946,37.2512834980702],[127.0515888998421,37.2504935987853],[127.0520618001741,37.2510826999754],[127.0513409014331,37.250995500993405],[127.0522026007246,37.2577171008758],[127.05138979946629,37.259138700484],[127.0499235998951,37.2576022013533],[127.0490382007805,37.2581484008071],[127.0485579003334,37.261309600828696],[127.04750110027301,37.2607432007349],[127.0463652002336,37.2617902008374],[127.0448781009718,37.261735901033],[127.0447798010701,37.2629913997775],[127.0437101009977,37.263260000939205],[127.04394140021779,37.2651211004575],[127.0425611006512,37.2643334006055],[127.0430619001943,37.265804800386995],[127.0419582008564,37.267305400286595],[127.0414425982824,37.2674558012452],[127.04235919903091,37.2664549002891],[127.0419382994518,37.265602201141796],[127.03749670222831,37.2660517026493],[127.03683840288659,37.2693117993892],[127.0379988017262,37.2697765989244],[127.0377033004636,37.2707280994396],[127.0392833004906,37.2726565993068],[127.0383342001699,37.2722259008446],[127.0379477007606,37.2738110004305],[127.0369003002418,37.274536300402204],[127.03521169878931,37.2724234012715],[127.03187949986071,37.2725231010433],[127.0322892986343,37.2716432010251],[127.0311814997421,37.270389302279],[127.0298691009488,37.2716189010688],[127.0300151004229,37.272737601048696],[127.0272301003578,37.2727848011129],[127.0271075010749,37.2753429996927],[127.0284570006775,37.2761582003059],[127.0276254001951,37.2760241005574],[127.0238678000649,37.279074600777804],[127.01959410081601,37.2800381003661],[127.0199357000841,37.2806932002564],[127.0188347998984,37.2809618005775],[127.0154430008489,37.279890901340195],[127.01478969997399,37.2805745005452],[127.0144680991275,37.2789728006074],[127.0128074998742,37.2792947999552],[127.0139427983237,37.2755072999419],[127.0138728983936,37.274578200871],[127.0125098997566,37.2742030012462],[127.01096700129949,37.275956799492405],[127.011639400153,37.2772574998983],[127.0105944010598,37.2779302994863],[127.01214810053361,37.2792201000299],[127.0104825996827,37.277848001676496],[127.0070319009815,37.279890100958006],[127.0065717006034,37.281707501018005],[127.0043333000677,37.2825465009436],[127.0040564992788,37.2819128011027],[127.00273999962,37.2825729999978],[127.0023600994662,37.2814705001858],[126.9989421009156,37.2799482006879],[126.9986202002545,37.281493300225904],[126.9967068996556,37.2813909009594],[126.995984100161,37.282207600758],[126.9947581002632,37.281711700859006],[126.9943912996207,37.2823414010987],[126.993786199723,37.281347700358594],[126.9944394995821,37.280891000064194],[126.9922369990003,37.2803610996172],[126.9944995984113,37.2769142994058],[126.9921540007569,37.2752843010358],[126.991484000233,37.276311302185405],[126.9902823014347,37.2758651026316],[126.9888932026966,37.280073198817696],[126.99086660072321,37.2800921987987],[126.991033600251,37.2809500998159],[126.990210800865,37.2813168997329],[126.9931572004455,37.2813703997983],[126.99267430053341,37.283950499991306],[126.99352900023129,37.2837560997697],[126.993190201111,37.284780400014704],[126.9939692004257,37.2853519000318],[126.993249100197,37.2862869010661],[126.9923902002978,37.285973100696],[126.99187950002789,37.2870569010797],[126.99102659992249,37.2856609007012],[126.9901025000359,37.287363300706104],[126.9894972995977,37.2860884011551],[126.9888241986762,37.2865153999513],[126.9895472989175,37.2858345995921],[126.9884256000012,37.2842712006685],[126.98421769966521,37.2863864020225],[126.9837950997064,37.2850182013844],[126.9814321991679,37.2835613004042],[126.98607659869971,37.283219699562096],[126.986571397869,37.2800994963072],[126.9878798979702,37.279811897338696],[126.99028229680731,37.2758650989083],[126.9871150999745,37.2727139020595],[126.984974701377,37.2732692015676],[126.9843231001173,37.2754190009877],[126.9822842990266,37.2744298004409],[126.9830778994815,37.2727070982565],[126.9845538980055,37.2717882991753],[126.98357059898879,37.270412500551096],[126.9840385986965,37.2688114007079],[126.9828896991537,37.268529899853995],[126.9829842990591,37.2667931015908],[126.9811378000547,37.266427801885804],[126.9804030988557,37.2682613989813],[126.9818324950089,37.264252600423],[126.978558398283,37.2619618027138],[126.9765643002771,37.262991901683705],[126.9762673993049,37.264482801138705],[126.97084479892979,37.2637029017529],[126.9685658989043,37.260943602160694],[126.9670650989889,37.2620038008463],[126.9670641994892,37.2611091001935],[126.9659071998845,37.2613010014468],[126.9646173000651,37.2598574008373],[126.9639023007801,37.2598395008552],[126.9641967001353,37.2612426004155],[126.9602058014888,37.2614352028706],[126.9625534977019,37.2611700000378],[126.96002730022809,37.2587111024967],[126.9553776000872,37.2588664014187],[126.9532007013095,37.2536689050555],[126.94997999872899,37.255733503910996],[126.9482267958504,37.2556941012805],[126.9491195970776,37.251456797617],[126.94776079843639,37.2494382996355],[126.9480062981909,37.247999801074],[126.9442883014902,37.2472725016459],[126.9375723049404,37.2524913044548],[126.9332792021377,37.2539894014013],[126.93199799949289,37.255770004868296],[126.9275849029056,37.256046104819596],[126.92000150777619,37.266061805309405],[126.9119902996808,37.264000105372794],[126.9104290997935,37.2693163006154],[126.9094567994099,37.2680595012346],[126.90270940064521,37.266465505648],[126.9006880026666,37.2679332041803],[126.9001327032219,37.2714207006928],[126.8977476986485,37.2719713036077],[126.8936033027929,37.2774877980912],[126.8955587029957,37.279001702059304],[126.8883163112276,37.288807693584296],[126.8947357090329,37.2949921918494],[126.9038009020519,37.2960891915003],[126.90911870352559,37.2993366937311],[126.9135608990834,37.2958876971801],[126.9146588006832,37.2980180968669],[126.917347997994,37.2960007988842],[126.91939859870489,37.2961022991721],[126.9191377999999,37.294830497558905],[126.922403204621,37.2975411945154],[126.9204582013591,37.299356599877],[126.9212785006819,37.3011567010534],[126.9198574006939,37.300094201440196],[126.9168774016902,37.300195202294695],[126.91597730259029,37.3016874008025],[126.9163412022264,37.3031844993054],[126.9146805019496,37.305493898589305],[126.9185555980745,37.30502889905431],[126.9195037990638,37.3038987985911],[126.9215780995017,37.304474498534795],[126.9240024018097,37.302418297456796],[126.9264660004863,37.3039086959686],[126.9269921029653,37.3063471965584],[126.92845440355181,37.3084181986009],[126.9301130023819,37.3090605011185],[126.9266024058925,37.312863897315104],[126.9323886001063,37.3176503925286],[126.9337003003366,37.321310898418304],[126.936057599614,37.3222371995307],[126.9430156988812,37.3212189997499],[126.9439566979402,37.3189937019752],[126.9407194992338,37.3193447003124],[126.9423526966563,37.315931399613994],[126.94050319798579,37.3145896997496],[126.9437305002417,37.314534897544796],[126.9452769998152,37.3130790995365],[126.9504778005317,37.3117953980248],[126.951349200106,37.313373499079496],[126.9523724004759,37.312139399470496],[126.954449899457,37.3144964986845],[126.9552155999598,37.3148440983677],[126.9559810002157,37.313888699348],[126.9569716004622,37.3150963989523],[126.95782730059541,37.3149108998709],[126.9578050016211,37.3165843007539],[126.95907610035,37.318086799251404],[126.9605023010655,37.318163498138894],[126.9578268002984,37.3254465015091],[126.9541668011843,37.325552102708905],[126.9534937018574,37.3275273007337],[126.9551658007767,37.3296922010695],[126.9516705023494,37.3301027007994],[126.94997669984349,37.3286317012101],[126.9472522018059,37.3286769017567],[126.944100602549,37.33161370134],[126.94040300317431,37.3334817016351],[126.9397773038,37.338060997055806],[126.9414531021242,37.3389393961774],[126.94067820167999,37.3400649994999],[126.9446526004657,37.3438753983021],[126.9465070000288,37.3440379981817],[126.9487162983761,37.3411398968814],[126.95306720049051,37.3424006986485],[126.9530345008078,37.3439309990109],[126.9543080014173,37.3456801978951],[126.9579957035285,37.3461406984517],[126.9606155002489,37.350262297368594],[126.9625765024601,37.3490070978889],[126.9648973015088,37.3517037954155],[126.9626220027718,37.3527981014658],[126.96454830084551,37.3551221991417],[126.9632300011084,37.3552454000015],[126.96408760085279,37.3563743991661],[126.96406660054079,37.358127200348896],[126.96277860025069,37.357578401123],[126.9614266984704,37.359361600026],[126.9605983993928,37.3566205015642],[126.95855020060411,37.3572366009182],[126.957906200591,37.358409301646496],[126.9565755003639,37.3583022013071],[126.9558438010956,37.3603550992542],[126.9561923027382,37.3629370002132],[126.95823210069841,37.3645206986295],[126.9600480006426,37.363368799597005],[126.9603579009414,37.364834100175905],[126.958815001215,37.3649535013305],[126.9583438016862,37.3663684999155],[126.961262801752,37.3673387981371],[126.95956010137401,37.3707977997878],[126.96186800352919,37.3713091988396],[126.9602752007023,37.37187260290921],[126.9582681007599,37.3742241011581],[126.9574548002735,37.3735581007226],[126.9568608996692,37.3746329011537],[126.95471450181559,37.3740473017393],[126.9549236016065,37.376638699147904],[126.9595296995777,37.3774866992098],[126.95981670001821,37.376958199966495],[126.96072320045701,37.3800264991293],[126.96166260048649,37.3802483994506],[126.9615482007783,37.381554099661905],[126.96314619977069,37.3830670993002],[126.964249999564,37.3825600989327],[126.9649140997616,37.383253899074],[126.965699800091,37.3824000994782],[126.9668429997253,37.3837365983499],[126.9689499016054,37.3824337983952],[126.9713220001022,37.385301399417706],[126.9752413002056,37.3875119994008],[126.9749318010292,37.388413899559005],[126.9765830007795,37.3904589992039],[126.97539450131879,37.3909503006421],[126.9760934006199,37.3925746990177],[126.9779900987232,37.393253398339],[126.9796047977577,37.3918471978157],[126.982909299648,37.3930923986278],[126.98419580035879,37.3923516997686],[126.9835210012288,37.3930886992525],[126.9859256014811,37.3942128990995],[126.9856948021489,37.3963641006468],[126.9865659001298,37.3971595015293],[126.9846118000196,37.3971836013556],[126.9835532002244,37.3992036011109],[126.9809268028508,37.3991004012141],[126.9810458027318,37.4020217982927],[126.9843868031083,37.4040808014809],[126.98415650098829,37.4077648999535],[126.9825500011097,37.409381799916],[126.9822171017507,37.4111113003769],[126.9800969018505,37.410645701323304],[126.9816460009208,37.4127154017577],[126.98009690046261,37.4106457024766],[126.9792831985929,37.4110874024645],[126.9788539955556,37.4103054007046],[126.9746079998016,37.4092433017667],[126.97217359923461,37.4106716008774],[126.9695435000664,37.410344801388796],[126.9690993989177,37.4094239011512],[126.96726990074721,37.4097950007801],[126.96604859806149,37.406756202501796],[126.9642618998482,37.4070024022556],[126.96407859863449,37.4058993002076],[126.9625646001485,37.4051823009246],[126.961916500309,37.4061898002639],[126.95800849826341,37.4059752011003],[126.9578451996991,37.4044530004826],[126.9549653985954,37.402576099733494],[126.9551931986893,37.4017788995566],[126.95385680002569,37.4003987009368],[126.9507755006889,37.4019796011577],[126.94925410043341,37.4015506012623],[126.9469846990706,37.4034262003859],[126.943747496713,37.3988656015421],[126.9391536994439,37.399000101552204],[126.93852749890851,37.3977214011193],[126.9374314984265,37.3981448998944],[126.93544529922539,37.3953339008594],[126.9363298985326,37.3945464989851],[126.93633099853149,37.3925607009709],[126.9339825001063,37.3914793017629],[126.9317080023808,37.391809101433104],[126.9310604011077,37.3927520019185],[126.9294583995915,37.3911962005103],[126.9273994965979,37.385439299196705],[126.9279020984547,37.3834935003734],[126.92596249849059,37.381894600731904],[126.9269869999975,37.3824599984352],[126.92738159960291,37.3811152997799],[126.92991289870581,37.3797450995748],[126.931013799163,37.377611798995595],[126.9322586013628,37.3778413986776],[126.9324792011422,37.3789484975705],[126.93646989912581,37.3780608983219],[126.9366369989587,37.3760021003807],[126.9347312988901,37.3743643021547],[126.9320477005396,37.374153801092405],[126.93186820032629,37.3749890009178],[126.92992910024769,37.3752282013792],[126.9251542967216,37.372264604161],[126.92029530158061,37.372069004356604],[126.9192518964608,37.3713875009137],[126.9199225984202,37.3704527002054],[126.9164004986008,37.3644892038689],[126.9114634968081,37.3618839009646],[126.9104854980173,37.3532694013713],[126.9097056962073,37.352248598232805],[126.9093813948507,37.3453835970533],[126.90581469891089,37.3403318008791],[126.90272509639419,37.3393818999933],[126.9038780975826,37.3333497950672],[126.9071614971967,37.3279807991447],[126.9052855985255,37.324181102889796],[126.9014329023782,37.322842104228805],[126.8976451030249,37.3239440040377],[126.89055420110779,37.3276948071829],[126.890120398703,37.3248891004678],[126.88813589882949,37.3247333007248],[126.8880022977428,37.3239055995393],[126.89154980022,37.324439199299704],[126.8976450961386,37.3239439984185],[126.8966359971477,37.3225862997762],[126.8989150992868,37.3219887991113],[126.89964029856161,37.3190689020312],[126.89772689290649,37.3163444016069],[126.8902210004124,37.3155815023698],[126.8877525005909,37.3180217053836],[126.88108540595991,37.317944700435895],[126.8799563990427,37.3233443028167],[126.8789241977924,37.323443401081704],[126.8777499989666,37.3197900047351],[126.8741699025467,37.3208693036558],[126.87288170130829,37.326299903727204],[126.8680389061511,37.3304786995484],[126.8681904049845,37.3341777012578],[126.8697135034614,37.3367352987002],[126.8691838008137,37.340714600521096],[126.86601310288151,37.343253899435],[126.8678495003778,37.34450850038],[126.8671553991183,37.345012000546895],[126.8647250988623,37.3415870010238],[126.866013098732,37.3432538976791],[126.8679713967737,37.3395961013369],[126.8671398976052,37.3392516016814],[126.86543639930869,37.339111001822005],[126.8642662998391,37.340655300343904],[126.8627800013254,37.3399405010587],[126.858913803028,37.3405426012157],[126.8584866009744,37.343834000876],[126.8567451017683,37.344856700009004],[126.8545345021755,37.3432601019897],[126.8524627042844,37.346132399303904],[126.85786589888119,37.3490631963731],[126.8590631003048,37.3468764000177],[126.8583383013954,37.3484218004741],[126.8615824000273,37.351513700972596],[126.8572260895007,37.350499803501],[126.8511763955504,37.346679007321804],[126.8480445986822,37.3474475065533],[126.8474048001389,37.3463975005537],[126.8456152989584,37.3479402019994],[126.8416709015318,37.342946405872304],[126.8364148018092,37.343449904096005],[126.83593120149861,37.3442628034525],[126.8300199027947,37.3444524077022],[126.8279203990145,37.342336705871794],[126.8235713033636,37.3459023023062],[126.825040901894,37.3483551998533],[126.82316659965629,37.348567201305094],[126.82246909925391,37.3496545006899],[126.81883190021661,37.3488618017403],[126.8156577999038,37.3491977012511],[126.8145384008276,37.3483656016459],[126.813694001672,37.349477500534],[126.8109812010737,37.3495356008178],[126.8091271029278,37.353670696682705],[126.81439569765921,37.3547277956256],[126.8141960987226,37.3509707992664],[126.8174454000993,37.3539765974322],[126.8201123996565,37.3534013980098],[126.82133889843,37.3522542991569],[126.8211849992323,37.3507898996585],[126.8217772999457,37.3514615988828],[126.82303740172681,37.3503353988052],[126.8230890016752,37.3527684963721],[126.82430140321979,37.3542525013833],[126.8230890006823,37.3527685016463],[126.8223906996629,37.3539291031595],[126.8199012014587,37.3550628024872],[126.8198114986299,37.354215701712796],[126.8143956998793,37.3547278053122],[126.8091271051479,37.3536707063693],[126.80721270706229,37.3624690975709],[126.8132882003796,37.3647895986383],[126.815603098999,37.362903099311595],[126.8156554986195,37.3611855988544],[126.8165910049417,37.3625791963249],[126.81411500173431,37.3645868001337],[126.81556610028319,37.3655839991365],[126.81493040109929,37.3686956006552],[126.8157862003797,37.3697019001224],[126.81435480116761,37.371342499970396],[126.81392290001209,37.370647801094],[126.81191400328031,37.375490502148295],[126.812303302891,37.3779222997165],[126.8144887007056,37.378517699121105],[126.8150463009287,37.3797844010251],[126.8123033008546,37.3779223032939],[126.8092052028041,37.3796007022912],[126.8086737033356,37.3808801010118],[126.8115275008928,37.382396299527],[126.81214470522191,37.3838753026715],[126.8086531021654,37.384765104704904],[126.8061164045612,37.386627602985996],[126.8077742029034,37.3909343986792],[126.8068265002033,37.3917207006806],[126.8061785000032,37.39119320097689],[126.8057997999291,37.3920659011629],[126.8025030014935,37.3919709008691],[126.80194199930429,37.3926860003482],[126.8032872995352,37.3889867995642],[126.80160289829941,37.3847053028632],[126.79983870006359,37.3845326030359],[126.7970034976024,37.3881910996013],[126.79650989680151,37.3840801965866],[126.7987759971798,37.381021499149504],[126.798287898008,37.37809389924411],[126.8018877971562,37.377559494977696],[126.7998062971959,37.365419500444],[126.79680659917149,37.364494699267205],[126.7998062976308,37.365419497507105],[126.8000252013196,37.3623550958182],[126.80356759777719,37.363644794528504],[126.8072126973258,37.3624690944324],[126.8091270954114,37.353670703230804],[126.80633559820289,37.353097603803896],[126.8039112974335,37.3566870014863],[126.8026783993228,37.3544466987086],[126.80544949655169,37.3514364017189],[126.80444280034881,37.3490790017576],[126.8004916000184,37.349923500619404],[126.79921430101041,37.3511502013955],[126.7963553990423,37.3507407049046],[126.7957330998764,37.346468700358706],[126.7938395971901,37.3436682010374],[126.7882465009889,37.3432307007164],[126.78673450250089,37.3446334993136],[126.7862566036582,37.347915096432004],[126.7888210064126,37.3525328033991],[126.7864137019659,37.355564900876296],[126.7868631015165,37.356413200028],[126.7862818005655,37.357689502314],[126.785189898103,37.3577737001578],[126.7850602991556,37.355950401125796],[126.78230619775759,37.356206001145],[126.7797341003297,37.354532302818704],[126.7788575016183,37.3574921005789],[126.77753440027159,37.357065301515306],[126.7754458023602,37.3593427992378],[126.7766261041319,37.3613819045827],[126.7732269991054,37.3633008024882],[126.7703122996427,37.3591703041185],[126.7658479003621,37.361027404632594],[126.7642343018835,37.3653995006975],[126.7583218020125,37.3668788014265],[126.7591446011897,37.3705235977817],[126.760936299398,37.3688480994572],[126.76219690392091,37.3701825959144],[126.7591446050374,37.370523602747696],[126.76036360410451,37.3790250957133],[126.7629113015214,37.378133497440096],[126.7661564003195,37.374361698966],[126.7667198002384,37.3750365002008],[126.7657768010769,37.375046401826204],[126.7648933019604,37.3779951988774],[126.76535280167771,37.3793839976312],[126.7673282050469,37.379879497825],[126.7677775046362,37.3808802992377],[126.7664542000278,37.3798897014099],[126.7650307014513,37.381025000274605],[126.7651305013601,37.3820748996202],[126.764035801053,37.3825936997957],[126.763816306031,37.3857245020316],[126.7624594965734,37.3858141023459],[126.76198049846461,37.383481600235],[126.7603584000867,37.382411601304995],[126.7574360022449,37.384849099373696],[126.7579153034844,37.388775802146995],[126.7518913012915,37.3954985038321],[126.7514022014137,37.3975407024272],[126.74413720589929,37.4010779995282],[126.7436530064139,37.4043027975894],[126.7443583060504,37.4054858972459],[126.749025099531,37.4080060050553],[126.741738798191,37.4093231054357],[126.73877980115,37.4120650026938],[126.7365027014654,37.4128817016998],[126.7348015005354,37.411178202154304],[126.7325842003775,37.41231050155319],[126.7283450008784,37.410359303754205],[126.72597210325131,37.4133554007581],[126.7271045004951,37.4147526021205],[126.7255448953895,37.4142229003783],[126.7237600967574,37.4102663027391],[126.7216462988712,37.4094096035958],[126.71867430184321,37.4109905020149],[126.7158845018117,37.410612302416595],[126.71370369972949,37.4127343012705],[126.7137675994198,37.4109812012112],[126.7116223001115,37.4123468005388],[126.7091027991149,37.4102182016088],[126.7075717982187,37.41094630203],[126.7062450981638,37.4091573019512],[126.7013545023364,37.4123124004082],[126.7022168008575,37.4134428011833],[126.69640850280831,37.416524199906995],[126.69678190209811,37.418396299943694],[126.6979412009388,37.4195807987592],[126.69696020094541,37.4206634006554],[126.69360110046479,37.4203128004161],[126.69368869920059,37.4212888004391],[126.6932259994384,37.4193402006613],[126.6921999000515,37.418939401241],[126.6907409005449,37.4204035000496],[126.6911036001897,37.4208121002137],[126.6893950997262,37.4205653017633],[126.6903529981074,37.4183956002007],[126.6885149999454,37.416960301636],[126.68411690157221,37.419069801320504],[126.68323340245571,37.420600799789504],[126.6851820012985,37.422130899950396],[126.68380400023699,37.4216202003842],[126.6835555004855,37.4224581995462],[126.6845438006554,37.4228451004126],[126.6827894005803,37.424209100366596],[126.6824477998386,37.423546300950996],[126.6800699998284,37.4237706010805],[126.67827060034111,37.4229673014673],[126.6786697995086,37.4223038001186],[126.67797940019899,37.4218621005603],[126.6769729003702,37.4219591011416],[126.6764593001557,37.423237201348904],[126.67347240013109,37.421531600456504],[126.6733861003816,37.422768699889],[126.6721686993378,37.4228686012535]]],[[[126.9805179993458,37.4232450016797],[126.9835799989593,37.424710298994],[126.983129998995,37.423368696862],[126.9845770975479,37.4229187973119],[126.9874648993445,37.417565898318],[126.99203369999559,37.4190485998441],[126.991340401377,37.4201424994102],[126.99248170046229,37.4208076996202],[126.9937120992319,37.420678299749596],[126.99341010035741,37.4198127992814],[126.9948068999102,37.420344899032706],[126.9951459007429,37.4225922990342],[126.99655010014659,37.4223930995095],[126.996835499902,37.4233268990275],[126.9987562998567,37.4230539995498],[126.99893000041111,37.4220598975756],[126.9993190011982,37.423183001847505],[126.9978627007002,37.4241854001203],[126.9986748010285,37.4258411995855],[126.9998430006742,37.4255865994439],[126.9993613010547,37.4268778002094],[127.0005990005204,37.427285400421],[127.0004309006885,37.4289063988],[127.00140559971379,37.429237798468606],[127.0038010004353,37.4281679996189],[127.0039005003749,37.430102600186295],[127.00314879979061,37.4297462009474],[127.0025495003899,37.430527600165995],[127.0024591004803,37.4331829975106],[127.00976470099201,37.4316980983673],[127.01043600127319,37.4342396961498],[127.0128309002925,37.4359683940701],[127.0095741059188,37.4389228010555],[127.0100487054442,37.441041898936405],[127.0129600027971,37.4441875005584],[127.01068480021391,37.446238700955],[127.0081093008886,37.4457923025001],[127.00611650035131,37.446571501848],[127.0055184009494,37.448447099972405],[127.00621870098601,37.4486493012024],[127.0047964010697,37.4482924008676],[127.0030952006398,37.450584099734],[127.0031709007864,37.452899999939596],[127.0010952006012,37.4551689000563],[127.0004378998826,37.4548303006862],[126.9994272986305,37.454076401359295],[127.0008695977803,37.452823199122896],[126.9999446990903,37.4506715995621],[127.0005610000571,37.4513624975026],[127.0030952000874,37.450584099543],[127.0047963989352,37.4482923995745],[127.0044304993011,37.4478844999824],[127.00582969868641,37.4471807001152],[127.0062385988498,37.4418628012381],[127.0048364994279,37.4410336991374],[127.0075685000555,37.4399979993223],[127.00816499945901,37.438201001119296],[127.0066002997952,37.4358147006241],[127.0035912025067,37.437498299832804],[127.00448439978,37.4387614014097],[127.0034375008269,37.4385025016686],[127.0018473000643,37.439685400893104],[127.0002641993277,37.4387227997598],[127.0015178984531,37.4376842998087],[126.9995173005206,37.4362201005032],[126.9985674000949,37.4380248002902],[126.9944684995828,37.4388038007435],[126.9957237989551,37.4366459002289],[126.9947827998961,37.43558870128609],[126.9939575001182,37.437091200698696],[126.9907078979991,37.4346008004802],[126.9869227987372,37.4333432007389],[126.9846609955661,37.4311341038935],[126.98504219641619,37.4281900004641],[126.98432599671439,37.4267266005386],[126.9823410982761,37.4242342012026],[126.9805179993458,37.4232450016797]]],[[[126.913308098883,37.4041631999055],[126.91335309950479,37.4031161995023],[126.9170627992576,37.4027270991736],[126.91708379961631,37.4015623996505],[126.9187523996542,37.402009499241],[126.91925619915041,37.4014072998432],[126.9187030994624,37.4008984993081],[126.9203616996008,37.4000675998087],[126.9213008002039,37.401576999060204],[126.92223589932351,37.400440700130495],[126.9210474999419,37.3992233000353],[126.92211339894381,37.3990521001235],[126.9217872998787,37.398345800084],[126.9210444006216,37.398018100411704],[126.9197185990634,37.3995967006084],[126.91843229911541,37.3977117002399],[126.91808859960021,37.396501999787695],[126.9197005002582,37.3953503988988],[126.9259031001167,37.3944918987958],[126.92736100058201,37.3952801985183],[126.9298088004228,37.394129299594105],[126.93333750035549,37.3984204991675],[126.9331049003359,37.3998980991776],[126.93374590133881,37.3994175994001],[126.9318446016919,37.4017631985161],[126.932760404272,37.4035293997502],[126.9317099000153,37.4044687001721],[126.9307688005492,37.4047208044425],[126.9261869972991,37.4028232037828],[126.9228456006405,37.4051099014961],[126.9223574985598,37.408229702320696],[126.9211746997426,37.406684003866395],[126.9184791000552,37.407484402848404],[126.9174970999269,37.409979702521504],[126.9153727008843,37.409443401435404],[126.9147250992897,37.410210400207596],[126.9150136990031,37.4089930997009],[126.914355999588,37.408289399513905],[126.91496359898039,37.407558500244804],[126.9129024993482,37.4047751999586],[126.913308098883,37.4041631999055]]],[[[126.9636093969843,37.298726298098195],[126.96368070106949,37.2997290995748],[126.9649833997668,37.2996519996519],[126.96483780000399,37.2988578996842],[126.9649381002021,37.2993945992703],[126.9670065991932,37.2978785001998],[126.9658582984917,37.2967514990985],[126.96609289804131,37.2956122961384],[126.96891429521989,37.292991798758905],[126.97014900050891,37.2925815995215],[126.9700040006996,37.2933714994239],[126.9714627992408,37.2936318991635],[126.9712700005187,37.2927462998033],[126.971879100102,37.2936454991927],[126.9758453005083,37.2947214996758],[126.9774009999492,37.2962743992033],[126.9792639005213,37.2950794994234],[126.98017750106689,37.296666499652304],[126.9789328007679,37.298478700134694],[126.980974800539,37.2991839997922],[126.981796300515,37.3016077999659],[126.9811323004423,37.301357700491195],[126.97928760256961,37.3034834026955],[126.9731247025481,37.307401302406404],[126.9703538974681,37.3072060030839],[126.968837999534,37.3052101010029],[126.96689519987639,37.3059765020437],[126.9640791994295,37.3042177005402],[126.9647686981006,37.3033658999152],[126.9626427983526,37.3020301008692],[126.9638679977578,37.300608800899596],[126.9636093969843,37.298726298098195]]],[[[126.7820931990865,37.4368017997541],[126.7837828990598,37.435236696352],[126.7886826000946,37.4349184985117],[126.78916100081459,37.4363542995302],[126.7919938015383,37.4378375993551],[126.7923708006798,37.4388201003385],[126.7905579012746,37.4390143006137],[126.7906062006848,37.440737300434],[126.7894715007051,37.4409525000716],[126.7902239003399,37.4417660005488],[126.78966920024351,37.4432432004215],[126.78781619949419,37.4435063005281],[126.7864104998068,37.4425552009302],[126.7850654000674,37.4430629006878],[126.78340299949481,37.4417592004976],[126.7817328993373,37.441649400246604],[126.7829093990586,37.4406419008488],[126.7824984986599,37.4382708999768],[126.78144229971609,37.4378012004465],[126.7820931990865,37.4368017997541]]],[[[126.90665249568801,37.415990497993796],[126.90834889976179,37.4159764991164],[126.9092180001459,37.4166147001013],[126.90844700034559,37.4172604000872],[126.9095353998285,37.4179341987818],[126.9096184997112,37.4166399998615],[126.91030359946191,37.4169890992106],[126.9102920991004,37.4158305988879],[126.9111231005308,37.4159673000326],[126.90840870018269,37.4192983008278],[126.90696850057971,37.4197436008404],[126.9058141002802,37.422926700691],[126.906295199444,37.4221163999959],[126.9054168991197,37.4217576005731],[126.9070284983827,37.420976000160806],[126.90665249568801,37.415990497993796]]],[[[126.7808939958016,37.405119098108],[126.7858655957775,37.4029071909995],[126.78866740066519,37.4030234997902],[126.7868828019313,37.404951399343105],[126.7895213992927,37.4051791991153],[126.7907292997358,37.4023687997851],[126.7906437004208,37.4033660991575],[126.7938232998611,37.4036620978213],[126.79315790086589,37.4055720997346],[126.79422910047289,37.4054310999963],[126.7915301024147,37.410278002156396],[126.7896748038732,37.4109725029587],[126.78840090149009,37.4148584012853],[126.7891666982713,37.4111162021479],[126.78849799894,37.4100062032579],[126.7846116028264,37.4088350044291],[126.78178310121059,37.410954903589],[126.7808742992347,37.4101488013113],[126.7827830991056,37.4098078980175],[126.783543698345,37.408292499532905],[126.7808939958016,37.405119098108]]],[[[126.69652959938871,37.4265217001266],[126.6982961999184,37.4242730995874],[126.6979235011588,37.4253566996996],[126.6986694005626,37.4259942992502],[126.7001101002923,37.4251907997591],[126.7008598002147,37.4261926999888],[126.6997603999221,37.4254922009832],[126.69904960063289,37.4259883004871],[126.6990846992168,37.4295878016037],[126.6981068992567,37.428415700822804],[126.6971161995894,37.429030000260894],[126.6978539989261,37.4280663006803],[126.69638599938641,37.4284612003976],[126.69707859897879,37.4271452004733],[126.69652959938871,37.4265217001266]]],[[[126.87839959974829,37.4812207010143],[126.8806753993403,37.4821214982428],[126.8814232985924,37.4805767997875],[126.87935179985169,37.4792833999591],[126.8808686988443,37.4797882989058],[126.8826382018844,37.4783305996858],[126.8826300007602,37.4803400002666],[126.8809178011445,37.4818877006415],[126.88142930028319,37.4837047004676],[126.879979799791,37.4839912002726],[126.88052659770679,37.4826014995021],[126.87839959974829,37.4812207010143]]],[[[126.6458975981241,37.449370800686],[126.64667610102249,37.4466095977368],[126.64872510063469,37.4484715987099],[126.6500184993413,37.448013499168],[126.6494893989556,37.4470163979558],[126.6503878997732,37.444744299217106],[126.6515225001742,37.4463159001031],[126.65037270127101,37.4464912000353],[126.6505577014388,37.4483994985722],[126.6544119001938,37.4468508999283],[126.6532344014142,37.447324199970694],[126.65280560049759,37.4488638007238],[126.6521953994009,37.4481004007067],[126.65014930110209,37.4487235002463],[126.6480813998609,37.4524009005281],[126.6468556996212,37.4511055010639],[126.6456617987412,37.4511342010155],[126.64654039873311,37.4499011007541],[126.6458975981241,37.449370800686]]],[[[126.7919003975781,37.450679400809896],[126.7912792992717,37.449575600387206],[126.7923747999439,37.4476066998364],[126.7926882000929,37.448810099389306],[126.7938480006716,37.448310499102],[126.7962848010026,37.4494487990567],[126.7967259003332,37.452098900816004],[126.7951374010105,37.451235501348705],[126.79508100071409,37.4527789009178],[126.7943664001217,37.453039101586896],[126.7935719986346,37.4515447017648],[126.7919003975781,37.450679400809896]]],[[[127.1133713998267,37.274775900387404],[127.1135433988937,37.2737386975188],[127.1157939991755,37.2726824992287],[127.1158614012732,37.2751848987724],[127.1180033010659,37.2760359994896],[127.1159395995934,37.2774551005802],[127.1166003989697,37.2764798001324],[127.1143970005117,37.275918000841095],[127.1133713998267,37.274775900387404]]],[[[127.03160869870571,37.2103932996875],[127.03395049890321,37.2068413997157],[127.0350051987788,37.2066760991854],[127.0351163997155,37.2045615976965],[127.03700660024799,37.2053192996233],[127.0373192015984,37.2074430998856],[127.0385075008158,37.207839899925105],[127.0376493002992,37.2096549009338],[127.0359067008703,37.2085031017539],[127.0341473001688,37.2088305018844],[127.0336968000997,37.210453001021904],[127.03160869870571,37.2103932996875]]],[[[127.0091461994144,37.2450248000315],[127.0111494002813,37.245922698934905],[127.0119849994457,37.245233599624],[127.0130710007697,37.2411156997245],[127.01198500074389,37.2452335996133],[127.0130366008091,37.2458644004991],[127.0091461994144,37.2450248000315]]],[[[126.65720809830661,37.4272056007534],[126.65845200010419,37.425372999627],[126.6609178994661,37.425367999016196],[126.6633849007038,37.426998500629004],[126.6611326983457,37.4285329010437],[126.6573669982069,37.4278354003012],[126.65720809830661,37.4272056007534]]],[[[126.6372699968703,37.4590225022201],[126.63781460220879,37.4599858988194],[126.6395346004888,37.4604846983206],[126.6404892998428,37.459293099364096],[126.6414148995812,37.4599171990085],[126.6407600005886,37.460105901015204],[126.6404333997969,37.461956701063905],[126.6394471998128,37.4627367006095],[126.63711959957351,37.4626690006172],[126.6379857983689,37.4613940003078],[126.6372699968703,37.4590225022201]]],[[[126.90070169965949,37.4347864990962],[126.9023700001435,37.4329958992055],[126.90194890084389,37.435259900594296],[126.9010960008813,37.4355551008682],[126.90070169965949,37.4347864990962]]],[[[126.98788369826529,37.4627706003607],[126.98928590052469,37.4624498000546],[126.988185500785,37.4628410010873],[126.98843720053331,37.464687499240796],[126.9894440002197,37.4649807004822],[126.9883619991403,37.4646618009142],[126.98788369826529,37.4627706003607]]],[[[127.1088683972148,37.261788498796],[127.10955400125991,37.2591313988799],[127.1095822012317,37.2605559974553],[127.11141710348069,37.2618934989952],[127.1087257010251,37.2655281007645],[127.1088683972148,37.261788498796]]],[[[126.6966289997484,37.4337895999805],[126.69786930329829,37.4341731990327],[126.6985918010201,37.436225102726304],[126.697057299715,37.4356376007646],[126.6978692993733,37.434173200432895],[126.6966289997484,37.4337895999805]]],[[[126.6735646997497,37.4232903998112],[126.67394060008729,37.422881499561505],[126.6747929002419,37.423540499966904],[126.6735646997497,37.4232903998112]]],[[[126.858804097943,37.3453699000664],[126.8602870001715,37.3459442986904],[126.86164340286001,37.345003300368205],[126.8612096019331,37.347836701770206],[126.8601835996349,37.347835300979],[126.8602869995532,37.345944301152],[126.858804097943,37.3453699000664]]],[[[126.90294689989571,37.4345967999943],[126.9031298999029,37.4342303998196],[126.9034211005966,37.434226299855396],[126.90294689989571,37.4345967999943]]],[[[127.10426189864519,37.2615067005018],[127.1049293999949,37.2602279991913],[127.10574290034029,37.260823899760595],[127.1055897009757,37.2630279007078],[127.1055484988312,37.2618733009447],[127.10426189864519,37.2615067005018]]],[[[126.6613508995754,37.3879728997306],[126.661968100393,37.3879873994778],[126.66193130011541,37.388384000110804],[126.6613508995754,37.3879728997306]]],[[[126.67408759877219,37.3963837004682],[126.67525450183149,37.397606798857595],[126.6745465999853,37.3981017021234],[126.67408759877219,37.3963837004682]]],[[[126.7967263976306,37.4682697014138],[126.7978206002539,37.4676485962693],[126.7970550004867,37.4689199011572],[126.7967263976306,37.4682697014138]]],[[[126.89320549980039,37.4558412001427],[126.89342050000961,37.4559052994293],[126.8934491003866,37.455913899839196],[126.8935179003178,37.455934399818695],[126.89320549980039,37.4558412001427]]],[[[126.9033317997314,37.4337444001828],[126.9033034000612,37.433863600109305],[126.90328440005071,37.4339438001384],[126.90330339987379,37.433863600080905],[126.9033317997314,37.4337444001828]]],[[[126.677610099208,37.404503299835504],[126.6777324003357,37.404611798807395],[126.6780945003127,37.4049331004823],[126.677610099208,37.404503299835504]]],[[[126.891466899119,37.4665454001143],[126.8918559999975,37.4659475996171],[126.8925098008557,37.4665381999881],[126.891466899119,37.4665454001143]]],[[[126.6239100985826,37.4688200998589],[126.6246206009956,37.4683815974403],[126.6244177994669,37.4693022008773],[126.6239100985826,37.4688200998589]]],[[[126.699087499526,37.442698099544],[126.6997075002737,37.4425320990675],[126.6997281004558,37.442654600397894],[126.699087499526,37.442698099544]]],[[[126.72403489897091,37.3779475996739],[126.7240349004513,37.3779475998838],[126.72470870035009,37.3788329995411],[126.7247087004877,37.3788330014675],[126.72403489897091,37.3779475996739]]],[[[126.92269379992031,37.400835799979305],[126.9227879000354,37.4005827999461],[126.9227357999907,37.4008739001284],[126.92269379992031,37.400835799979305]]],[[[127.05123279886209,37.239058799939805],[127.0519142006024,37.2391733001071],[127.0512278000194,37.2391624010714],[127.05123279886209,37.239058799939805]]],[[[127.1120817985657,37.285527299958396],[127.1120818013305,37.285527299291495],[127.1122041999477,37.2856490008102],[127.1120817985657,37.285527299958396]]],[[[126.6721879006719,37.3969849998669],[126.6726305002293,37.396998099853796],[126.67235830020199,37.3971462007338],[126.6721879006719,37.3969849998669]]],[[[127.02665429939141,37.2490582004282],[127.0266542996315,37.2490581990736],[127.0266543005988,37.2490581993842],[127.02665429939141,37.2490582004282]]],[[[126.6565840991051,37.4293094001131],[126.6565841026465,37.4293094006913],[126.6565841003441,37.4293094013972],[126.6565840991051,37.4293094001131]]],[[[126.7123820993517,37.4133639995216],[126.7123821004803,37.4133640002122],[126.7123820985088,37.413364000677404],[126.7123820993517,37.4133639995216]]],[[[126.7161151988097,37.351715899803104],[126.7161152002848,37.351715899821905],[126.7164138009705,37.3520240002921],[126.7161151988097,37.351715899803104]]],[[[126.8813225991378,37.5039419993835],[126.8813225998792,37.503941998814305],[126.8813226008186,37.5039419996962],[126.8813225991378,37.5039419993835]]],[[[126.9820942994195,37.299505799470396],[126.9820943012318,37.299505799268196],[126.9820943016972,37.2995058006278],[126.9820942994195,37.299505799470396]]],[[[126.98453209912759,37.408347900949906],[126.9845321006127,37.408347899370504],[126.9845321018645,37.4083479028371],[126.98453209912759,37.408347900949906]]],[[[126.9999239994408,37.439560298820794],[126.99992400175269,37.439560301140396],[126.99992399924909,37.43956030056199],[126.9999239994408,37.439560298820794]]],[[[127.0441868982996,37.1876605994723],[127.044186901006,37.18766059913],[127.0441868995548,37.187660600901104],[127.0441868982996,37.1876605994723]]],[[[126.67355479989371,37.423668199736404],[126.6735547999847,37.423668200488],[126.6735547993923,37.423668200131104],[126.67355479989371,37.423668199736404]]],[[[126.7357053995402,37.3640898998986],[126.735705400372,37.3640898999082],[126.7357053994462,37.36408990023121],[126.7357053995402,37.3640898998986]]],[[[126.9011849998395,37.436778900175604],[126.9011850009517,37.436778899667],[126.9011850006509,37.4367789015365],[126.9011849998395,37.436778900175604]]],[[[126.9356062998539,37.397893299722696],[126.93560630054961,37.3978932991263],[126.9356062991886,37.3978933001859],[126.9356062998539,37.397893299722696]]],[[[126.9629781987164,37.2641652001406],[126.96297820044609,37.2641651996145],[126.9629782001101,37.2641652003888],[126.9629781987164,37.2641652001406]]],[[[126.9989876992352,37.4494980004517],[126.9989876996953,37.4494979986238],[126.9989877011198,37.4494979996591],[126.9989876992352,37.4494980004517]]],[[[127.02894949921149,37.2492923998318],[127.02894950063039,37.2492923995881],[127.0289495000897,37.249292400491],[127.02894949921149,37.2492923998318]]],[[[127.03998899942711,37.2718074000491],[127.0399890000193,37.2718073994961],[127.039989000659,37.2718073997368],[127.03998899942711,37.2718074000491]]],[[[126.6753513997862,37.423489600012005],[126.67535140041059,37.4234895998338],[126.67535140028829,37.42348960033431],[126.6753513997862,37.423489600012005]]],[[[126.9087807995062,37.4154486994304],[126.9087808001348,37.4154487003096],[126.9087807997096,37.4154487002332],[126.9087807995062,37.4154486994304]]],[[[126.9358175992674,37.3968145001748],[126.9358175999093,37.3968144997285],[126.9358176000072,37.396814499874495],[126.9358175992674,37.3968145001748]]],[[[126.97212549947041,37.3840893004039],[126.9721255001829,37.38408929982],[126.97212550019691,37.3840893001061],[126.97212549947041,37.3840893004039]]],[[[126.9815947999673,37.4769551000007],[126.9815948002062,37.476955100225396],[126.9815947999677,37.4769551002871],[126.9815947999673,37.4769551000007]]],[[[127.0527885994473,37.250712100346],[127.0527885994501,37.2507120993207],[127.0527886002609,37.250712099920804],[127.0527885994473,37.250712100346]]],[[[127.0140762992705,37.245252799855],[127.014076300288,37.2452527998405],[127.0140762999182,37.2452528007775],[127.0140762992705,37.245252799855]]],[[[127.0532353999602,37.2414439000229],[127.0532353999917,37.2414438999589],[127.05323540003171,37.2414439000446],[127.0532353999602,37.2414439000229]]]]}}]}