{"type":"FeatureCollection","features":[{"type":"Feature","properties":{"interval":15,"stationId":"5448542683"},"geometry":{"type":"MultiPolygon","coordinates":[[[[127.18137749881,37.5625597990046],[127.1824344998794,37.5639390978862],[127.1835605987533,37.5629433988819],[127.1829902000468,37.5589011998497],[127.1846586997853,37.5592691988516],[127.1848013001141,37.5577847993809],[127.1848704005612,37.559324798662296],[127.1860989993326,37.5597999981871],[127.1872954985111,37.5564239002667],[127.1868129995902,37.5559016991612],[127.1874965003901,37.5555778997966],[127.1879780000343,37.556280999045995],[127.1890747989375,37.555791199535804],[127.1890656995116,37.5548983996265],[127.1922760996697,37.5543652992525],[127.1928855998778,37.553520399838],[127.19259350079611,37.5551422988242],[127.1938042995853,37.5555808983856],[127.19425219933149,37.554230199463696],[127.1967087998254,37.554115198976895],[127.1981222001708,37.555332298951306],[127.20010760008759,37.5538597999238],[127.2004661000257,37.5544435000293],[127.19998359991699,37.5540491007382],[127.19807550048151,37.5556020998784],[127.2028529007098,37.5593336006251],[127.2029927001218,37.5608297001507],[127.20017210098041,37.5636189000974],[127.2016301000948,37.563952900016595],[127.1983076002935,37.566262299885196],[127.1997298013965,37.5684857997791],[127.1994405001185,37.5698630001277],[127.19915190003701,37.569173300792606],[127.1977360999223,37.5693439004755],[127.19429789972419,37.5711948006717],[127.1929231999162,37.569792300851105],[127.19137240008911,37.572651800303404],[127.1903815002797,37.5729788005976],[127.1886722998617,37.5720084002567],[127.1879009000322,37.5728210004129],[127.1869018002895,37.572355400666396],[127.1866275996144,37.57027210025829],[127.1836568994963,37.567834500130395],[127.1834254993062,37.5670599998259],[127.1852587995316,37.5659867995689],[127.18597459941759,37.5634401005127],[127.1847328991876,37.5620665010685],[127.18317630018029,37.5641298005806],[127.18137749881,37.5625597990046]]],[[[127.1744392988118,37.5572031989962],[127.1766340004649,37.5570014977883],[127.1768086007903,37.5576060001653],[127.1744392988118,37.5572031989962]]]]}},{"type":"Feature","properties":{"interval":30,"stationId":"5448542683"},"geometry":{"type":"MultiPolygon","coordinates":[[[[127.1286184997477,37.5357707000253],[127.1312036999783,37.5325753989691],[127.1325423002177,37.5325787994812],[127.1348078004011,37.534340499222],[127.1377043994869,37.5342863999313],[127.1383466999508,37.5333964992521],[127.13985190025619,37.5336387999861],[127.1401984999096,37.5344373991875],[127.14079030031121,37.53361949957],[127.1418239999811,37.5350898988846],[127.144728700634,37.5357684995579],[127.1453051007157,37.5375920998537],[127.1437275010552,37.5392071000609],[127.1440417010018,37.5402348999428],[127.14295610115221,37.5414458993739],[127.1448884003129,37.5413642993938],[127.1460068002191,37.542311199459704],[127.1470441001759,37.5420830993269],[127.1473141000896,37.5429623990519],[127.1484227012104,37.542745099809196],[127.1482032014299,37.5445864979678],[127.1525299003776,37.5465792937057],[127.1545183999531,37.5487833989083],[127.1553355999758,37.5487903988829],[127.1560518005123,37.547318999529104],[127.15649760031589,37.549149597875],[127.1593954002328,37.5493557991707],[127.1602852009928,37.5501407988635],[127.15939540009349,37.5493558009419],[127.1586271008618,37.5499793003184],[127.1601623002215,37.5518418988356],[127.16506309895979,37.5505865990593],[127.166994099918,37.5468301990982],[127.1696805013049,37.5498954989521],[127.17125999972541,37.5497721990754],[127.1714421995114,37.548889199593],[127.17359290050611,37.548051599392004],[127.1749858007323,37.5494271001395],[127.1741041003416,37.5493414006673],[127.17374340032981,37.5510762995862],[127.17492369969689,37.551744398877695],[127.176081700734,37.5507716991605],[127.1771192003719,37.5517864991089],[127.1732511021145,37.556199399994],[127.1760519993136,37.5574421987512],[127.17709889965161,37.554789799702],[127.17799479990829,37.553917998754],[127.1782297007836,37.5546664990402],[127.17934889966439,37.5546617990449],[127.1806180991388,37.55222650063531],[127.1785586991979,37.5522603997929],[127.1807498994031,37.5496408994877],[127.1799855993006,37.5488855994318],[127.1816872000298,37.5500856994262],[127.183449499351,37.5472434994292],[127.1838482999376,37.5478058994283],[127.189586899056,37.5466460985694],[127.1919063967365,37.5448128004027],[127.1910411964429,37.5435551974638],[127.19244139885451,37.5439351993652],[127.1926803997584,37.5425599992181],[127.1924414007378,37.5439351997511],[127.1935490996301,37.544898098788195],[127.194959301131,37.5447550994386],[127.1975490997447,37.5465144992194],[127.1979894993043,37.5451953005386],[127.1970189998865,37.5424968000135],[127.1984922995323,37.540781099775295],[127.1976389990745,37.540165400553896],[127.1977719998148,37.5392049995381],[127.19918469963311,37.538597799573296],[127.1992367991499,37.5371468994567],[127.2010338995996,37.5371643995475],[127.2011252995082,37.5365315001804],[127.2000661995463,37.5362273001121],[127.20118909937479,37.5360048993236],[127.2009477993493,37.5350949996961],[127.20229469942859,37.534048699444],[127.2033942007784,37.5339366988381],[127.2043506005853,37.535074699564206],[127.2071727024974,37.536031096954204],[127.21035090031259,37.535482798785495],[127.20972330064949,37.5362348998491],[127.2107175009303,37.5370031992553],[127.21496050083991,37.537615099841695],[127.21557650029399,37.5387737001474],[127.2145225005802,37.5386223006991],[127.2143881007146,37.539507399814],[127.2159833000464,37.5392107999624],[127.2155567006753,37.5395927998261],[127.2164577001064,37.5402111995707],[127.21591290057741,37.5406958999309],[127.21710739980891,37.541518499492405],[127.2175843997462,37.540347500223],[127.21620879886041,37.5371146988797],[127.2202960999194,37.538487996991904],[127.22278449907941,37.5355040989219],[127.2243117000154,37.5365277989376],[127.2253289005231,37.5354355995576],[127.2268660999527,37.5365219985517],[127.2267221011396,37.5377740989892],[127.227506700676,37.5384319987729],[127.2298676010203,37.537478699263104],[127.2290622002061,37.5388495999605],[127.22985940082279,37.539767499727304],[127.2293800995576,37.540988901336306],[127.2281310999048,37.5403483010937],[127.2253693005061,37.541737100918496],[127.2256606001091,37.5436718002588],[127.22398149999499,37.5444653016293],[127.22330389891721,37.5437502009033],[127.2218555003656,37.5440420006115],[127.2221062004688,37.5449070999498],[127.2210034003853,37.545236000402205],[127.21918099939451,37.5442883006212],[127.22019639923961,37.542999200263296],[127.2192031999854,37.5423086001323],[127.2171664997129,37.5429555003305],[127.2170837992105,37.5420814006578],[127.2148685004848,37.5424599003969],[127.21487090045629,37.5434027997939],[127.2164279001807,37.543649600079],[127.21546410036271,37.5434309005871],[127.2133983008158,37.5453854004636],[127.21398390045721,37.5466790001935],[127.212900701289,37.5470657999523],[127.2125865015451,37.5484875995389],[127.2141964999351,37.550429797596706],[127.215044501245,37.5503303991983],[127.2147777007955,37.550996100896896],[127.212992500599,37.551300301028704],[127.2124659012148,37.554697101079],[127.2081765017349,37.5586671009438],[127.2081094026774,37.560970500364405],[127.20610450147,37.560584801982],[127.2049793025952,37.5616262009406],[127.20699790057661,37.5642384983283],[127.20747650242839,37.5639856994527],[127.2059692028213,37.5656640995655],[127.2085218002687,37.5666738985557],[127.2094899012906,37.566178899048],[127.20770950237501,37.568391298778],[127.2083560021642,37.5697107996764],[127.20665770517249,37.5750571050053],[127.2030416060693,37.578526004641],[127.1996509997029,37.5776155018352],[127.1981944995193,37.5782180013734],[127.1975510973697,37.577532899009604],[127.1982166980725,37.5754220986101],[127.2006499984919,37.5704586999487],[127.19918889898099,37.569965900329],[127.19915189881631,37.5691733009862],[127.1972951003633,37.5694697003497],[127.19621740082009,37.5701840010455],[127.1936484012094,37.57932310043],[127.1928805011328,37.580232700950305],[127.1914288996756,37.580339801230494],[127.1798332998697,37.5782447002198],[127.1790684998525,37.5792749002214],[127.17922689959781,37.5775018006676],[127.1754496997646,37.5755482003789],[127.1753170987216,37.5724850014572],[127.17422239842321,37.5723487008816],[127.176367398666,37.570418999861104],[127.1752843997562,37.5691966007145],[127.1721006992915,37.569777800468096],[127.1720355995222,37.5683812006779],[127.1711808993616,37.5682966994803],[127.1723972989867,37.5655441994511],[127.1694480010275,37.563786201366206],[127.1671069994803,37.5650481020214],[127.1673056984224,37.5636266015889],[127.16631149941661,37.5626990025165],[127.1643077014204,37.5626762025393],[127.16241499920879,37.5630097026675],[127.1603200005586,37.5645910014664],[127.1586376988393,37.5605549019268],[127.15658090089609,37.5613814011003],[127.156936900003,37.563048000133904],[127.1542385997791,37.5606905011108],[127.1509213988391,37.5620872011705],[127.1489863003175,37.558843603535905],[127.1449019000186,37.5578682014257],[127.14364369801329,37.5588727024192],[127.1437730962193,37.556836699192296],[127.1427388972535,37.5547295012995],[127.14001999997241,37.5557764002526],[127.1400162999499,37.5548342009576],[127.13745729990289,37.554004300647506],[127.1369346991126,37.5524187002736],[127.1359769994007,37.551966400588995],[127.1365741995099,37.5492715000249],[127.1360536993626,37.5486865999066],[127.1366199997845,37.5492399992674],[127.1369588992106,37.5481497999289],[127.1377178999546,37.548639699225305],[127.1381850994874,37.5480335998314],[127.1361710999187,37.5462675995633],[127.137226899419,37.5461629997591],[127.1375004991454,37.545361500560595],[127.13658839910629,37.545301300159295],[127.1371548997245,37.543828499316795],[127.13880919964,37.542969299276905],[127.13917169927751,37.5416698005764],[127.13803489925759,37.5403250007322],[127.1342086000456,37.539650200481596],[127.13522849923079,37.538051600022904],[127.134390499637,37.5354302018142],[127.1324119986479,37.536026301397],[127.1314999999188,37.535083401152],[127.13112190029689,37.536153500081895],[127.1299833996261,37.5365301011044],[127.1304405992512,37.535960300326096],[127.1298412997773,37.535425500509504],[127.1286184997477,37.5357707000253]]],[[[127.12190389925121,37.5392941002439],[127.1219866993885,37.538218399032296],[127.1230811995711,37.537468899173604],[127.12276009975109,37.5365802996839],[127.1243927998044,37.5382720993447],[127.1264108008493,37.537568999813196],[127.1248551006433,37.5383177009921],[127.1250731004253,37.5392907000191],[127.1239191001668,37.5401022004669],[127.12190389925121,37.5392941002439]]],[[[127.21354159917689,37.536369199691705],[127.2141084006039,37.5361664994865],[127.21394790005819,37.5369190001894],[127.21354159917689,37.536369199691705]]],[[[127.1033065994736,37.545467200326094],[127.1036877999734,37.545335899337395],[127.1041075002766,37.5452100999265],[127.1036877999923,37.545335900165796],[127.1033065994736,37.545467200326094]]],[[[127.1285665994745,37.5371414999471],[127.1287937008981,37.5368441994422],[127.1287486005472,37.5370890004121],[127.1285665994745,37.5371414999471]]],[[[127.12047129879011,37.5302834006648],[127.1204713004919,37.5302833996549],[127.1204713006081,37.530283400312804],[127.12047129879011,37.5302834006648]]],[[[127.1685584998684,37.5632462998997],[127.1685585001691,37.563246299861],[127.16855850021031,37.5632463001251],[127.1685584998684,37.5632462998997]]],[[[127.1918782998081,37.5812046000629],[127.1918782999718,37.5812045997789],[127.1918783004099,37.5812046000456],[127.1918782998081,37.5812046000629]]],[[[127.21648560011,37.5388021000816],[127.2164855998514,37.5388020999933],[127.2164856000143,37.538802099916296],[127.21648560011,37.5388021000816]]],[[[127.2282793998431,37.5370621998383],[127.22827940026481,37.5370621998928],[127.2282793999033,37.5370622001427],[127.2282793998431,37.5370621998383]]]]}},{"type":"Feature","properties":{"interval":60,"stationId":"5448542683"},"geometry":{"type":"MultiPolygon","coordinates":[[[[126.9843989986605,37.5722487993965],[126.98651729916381,37.5711310996164],[126.98761779997399,37.5691645996511],[126.9913187992215,37.5688178000402],[126.990930799675,37.5680767003199],[126.9890235994468,37.567963900078006],[126.98734589981339,37.566053100071095],[126.9877442998378,37.565235199433495],[126.9884164994922,37.5662391989756],[126.9891295987791,37.5653433998714],[126.98859179934439,37.564609499686206],[126.9902682987892,37.563161999787596],[126.9912897000236,37.5629838998803],[126.99225720049209,37.5638818990156],[126.99351029923899,37.563096099801406],[126.9910606997781,37.5611252000858],[126.991857699836,37.560138399981],[126.99346629997919,37.559260199426795],[126.9949304003077,37.5604491998628],[126.99420890042751,37.5612977999283],[126.9947066004694,37.561815999496304],[126.9990450998137,37.5602903992371],[127.0003654999433,37.5591025994649],[127.0008237003774,37.5597881994586],[127.0021538994518,37.5585370991163],[127.0028913995337,37.559077298940196],[127.00436779988149,37.5561105997458],[127.00525619999621,37.5568516996791],[127.0056502996046,37.5548458016521],[127.0048832996581,37.553649699899104],[127.0063761989192,37.5536416993091],[127.0046509991474,37.5520757009143],[127.0051114993348,37.5497689000634],[127.0044302000161,37.5486669011654],[127.0025662002409,37.547684001941796],[127.0018499952113,37.5480673000837],[127.0025742990952,37.5457645993898],[127.0029286001122,37.5467344992207],[127.0044679013194,37.5465673985447],[127.0053244999072,37.5483018989759],[127.0069513990753,37.5472824997917],[127.005988499759,37.5469116997714],[127.00762860022391,37.5464056993956],[127.0104744010904,37.5497732998322],[127.0135739994524,37.548699299080404],[127.0140805989458,37.5471438006359],[127.01313709899709,37.546401600494605],[127.0142555983918,37.5461967997637],[127.0136242980662,37.543410500182404],[127.0120566996338,37.5430202005727],[127.0112414995468,37.5416006006839],[127.01011730011831,37.541668800779796],[127.0096331979121,37.5405226006129],[127.011178699525,37.5403246991847],[127.0119897997909,37.5389160992954],[127.0125554003274,37.5404468996078],[127.0144639003241,37.5407589992641],[127.01609599930251,37.5399613992547],[127.0160407989743,37.538019999670105],[127.0201215007675,37.537420792302896],[127.0206221034719,37.542003201439],[127.0258971002792,37.5452711999052],[127.02580320035099,37.5462360990024],[127.0305022996369,37.545818497576406],[127.0317915007323,37.548093197124295],[127.0335195001862,37.5489359000175],[127.0332286016217,37.5508161995524],[127.0354248998633,37.5512989998202],[127.03594730079641,37.5506829981169],[127.0392708993932,37.552960497118995],[127.0419446967194,37.5512665988129],[127.03802040064369,37.549168200911296],[127.0335610997109,37.5450943999708],[127.0348921985112,37.542314599316796],[127.0358394993458,37.5425401995128],[127.0391954009451,37.5405782985269],[127.0395417005988,37.5411808979243],[127.0422705993292,37.538783699317406],[127.0425241990756,37.538165299935805],[127.0414266997779,37.5379019000011],[127.0428564992157,37.5313979997789],[127.0423174997547,37.5306994004775],[127.0384558999047,37.5305957014618],[127.03621529982499,37.53199530024],[127.0361757998645,37.5314164008189],[127.03490619943149,37.531754800379105],[127.0338995987227,37.5304377009387],[127.0321261996609,37.5301659003369],[127.0323494988145,37.5288721000543],[127.0313001991549,37.528560499487995],[127.0315968991511,37.527649999475],[127.03358919903539,37.5271682992406],[127.0341460998294,37.5210873004082],[127.033105600224,37.5204124008816],[127.0304339002318,37.5205064009871],[127.02935920089931,37.519614201001296],[127.0283289006247,37.5213909007065],[127.0279873000637,37.520675500978406],[127.0271823002962,37.5209193008814],[127.02750319963239,37.5204217000916],[127.0259972993425,37.519038300350395],[127.0257897996635,37.517791100591694],[127.0254129999419,37.5183646000884],[127.0254118999448,37.5173656009736],[127.0245739007828,37.5174600008792],[127.0240010008685,37.5186963005516],[127.0185584982675,37.520388800263596],[127.016019799709,37.515162700461694],[127.0145813989891,37.5150127996298],[127.0155236978247,37.5135055003109],[127.0111996013221,37.512295001124905],[127.0101341005018,37.5134396011252],[127.00970530010359,37.512674700976696],[127.0084294999189,37.5133828000907],[127.0096392997315,37.5120376001095],[127.0082215996887,37.509918601512396],[127.0071351993237,37.5108213996693],[127.0076216992334,37.5075597007781],[127.00559079898379,37.506290300753705],[127.00277429987919,37.5061987002545],[127.0020855997147,37.504507200750496],[127.00117659988709,37.505086299965],[127.0009930989044,37.503678199378],[127.00186349924469,37.5040194993762],[127.0027093983988,37.503006700389],[127.00080989898849,37.5010612995993],[127.005164299936,37.5025750985023],[127.0065711006956,37.5019369990679],[127.0080223008347,37.5043417994775],[127.0106934001927,37.5040777993946],[127.012055601595,37.505407299820604],[127.0099279004145,37.5062455015235],[127.0099946003478,37.508323999445004],[127.0133163995144,37.508010898501105],[127.01299690106451,37.5086332997296],[127.0159195008212,37.509380299147196],[127.0171153996253,37.5085968999306],[127.0156113995665,37.5069285980194],[127.0193425998249,37.5068162989896],[127.0193840999485,37.505722399643304],[127.0210618993285,37.5056572996408],[127.0214384993032,37.5042389004455],[127.0204900986876,37.504446799704496],[127.0215473990376,37.5022709995025],[127.0239769995402,37.5014946995284],[127.02459759891961,37.5002326007905],[127.0228860003072,37.499885000857],[127.0224240998016,37.5006509002032],[127.0216823996531,37.4979765012812],[127.0208629988447,37.4985523000104],[127.0213245993558,37.4971261996352],[127.019051800168,37.4953126006141],[127.01896499986839,37.496515100411806],[127.01543420047891,37.4961811003135],[127.0150157004487,37.497094100991],[127.012791699988,37.4976257007367],[127.0121778990651,37.49753050029361],[127.0129930993031,37.496759000248794],[127.0124528998433,37.4952417017661],[127.010207500332,37.4946706016274],[127.0091007002638,37.4933739011094],[127.0061024998203,37.4955046014183],[127.0057891984517,37.4946256000173],[127.00672439802929,37.492802600476594],[127.00577479885139,37.491701401323795],[127.0044418991342,37.4919937009293],[127.004273497911,37.4905607996307],[127.0057047995826,37.4910411986287],[127.00681509942869,37.4893444994348],[127.007992399349,37.4895121992946],[127.0091350999184,37.4884657988335],[127.00990450072071,37.490179999329904],[127.0135558990214,37.490538799423504],[127.0145164001042,37.489003399370205],[127.0137381008602,37.4895104002989],[127.0160455995722,37.4919542993118],[127.01832330060981,37.4906746990993],[127.0177142008423,37.492626699627905],[127.0199639012495,37.4939067994103],[127.0195290012996,37.4944069003766],[127.02064920017939,37.4952175995659],[127.02374429963561,37.4938671997084],[127.02496450020439,37.4951678993486],[127.0260542000516,37.4930527998884],[127.0280193995472,37.4943001986613],[127.0279954994844,37.4923563999157],[127.0303659997513,37.492933099792204],[127.0305852999296,37.4915298998499],[127.03097100069829,37.4933387985191],[127.0317745007126,37.493576298529604],[127.0312155011864,37.494753499461],[127.0351462993968,37.4945982993024],[127.036519400191,37.4937806996148],[127.0369713000608,37.495160499249195],[127.0380286997502,37.494240099714496],[127.03763530068791,37.494584599745004],[127.0387514995717,37.4949304993991],[127.0391152001795,37.494142599638],[127.0399403004316,37.4944071990991],[127.0422206011386,37.498187499686104],[127.04412839945671,37.4995875992646],[127.044626999841,37.4984921990962],[127.0453870995399,37.499448798362906],[127.04711970004199,37.499314698009],[127.0485745990224,37.497772998695005],[127.0506584988191,37.4970602989641],[127.0510449983001,37.4951071980253],[127.0538817006998,37.4942089993249],[127.0542357005076,37.4953299001949],[127.0525550003826,37.4970347993313],[127.0533183996192,37.4975945987715],[127.05497580086359,37.4963578992761],[127.0543912005361,37.4976150001741],[127.0562057002615,37.5015389994391],[127.05744489986469,37.5022653989892],[127.0588760005888,37.5011199988398],[127.0605522998293,37.501447499554395],[127.0607763995624,37.500535199669905],[127.0605523011913,37.5014474995765],[127.0615357002079,37.5023427986812],[127.0627282992582,37.5016540994024],[127.0621773993274,37.5002162996715],[127.0635529993176,37.499744999116395],[127.0676453990179,37.5003977995268],[127.0674304992328,37.4991111008135],[127.068485397991,37.4977307989133],[127.0690368997415,37.498471098863],[127.0698608989175,37.496908500425604],[127.0693724998074,37.4964156991625],[127.0702863998076,37.4961181994562],[127.0724699000592,37.4912396994941],[127.0757501997402,37.490893399078594],[127.0763693000922,37.4920876995457],[127.0770282000739,37.4904216985573],[127.0793877985606,37.4906752987406],[127.0807321981601,37.4883846995227],[127.0834213988176,37.489306999325294],[127.0837151991224,37.4870847998616],[127.0827449979369,37.486810100559],[127.082235898446,37.4853369020322],[127.07774139864429,37.483990102519996],[127.07723339905449,37.482636099874604],[127.0784874993784,37.482814599261594],[127.0791653987005,37.481525500550696],[127.07845239941351,37.4806569014193],[127.076862099771,37.4811974997346],[127.080474000162,37.479691997564],[127.0819478993531,37.4804137968582],[127.0862732988695,37.4790287962641],[127.08698850113511,37.4794715003077],[127.0842864028462,37.481388799151496],[127.08527640185619,37.4834877970525],[127.08815990403,37.4836291977071],[127.0861706012731,37.4858303024666],[127.0862008008747,37.4878569018698],[127.08520010018829,37.4874510023167],[127.0827554004247,37.4896993001273],[127.0850636003924,37.4950704992132],[127.0860272000032,37.4955612002059],[127.08415560090451,37.4952599021313],[127.0823950996161,37.496759001913595],[127.0831326988765,37.495259100058],[127.0805930995977,37.4944495012508],[127.0784617008393,37.494853300718404],[127.07709939987849,37.4969796016846],[127.0756702996805,37.4965426000395],[127.07607319901399,37.4937587012907],[127.0723705005136,37.4935092006714],[127.0715828008005,37.4940831004416],[127.0730830009982,37.497526200920305],[127.0721039006265,37.4970948016229],[127.07062540164189,37.4989341013938],[127.0686082006868,37.498610200426704],[127.06764540211431,37.500397799550605],[127.0717563004636,37.505398995189196],[127.0745257994246,37.5032230971795],[127.078188199148,37.5038906967104],[127.0808434979064,37.501934898548505],[127.0800271987227,37.499845400638],[127.08128900037539,37.4990128992295],[127.08125160035401,37.499691499838896],[127.0837004001281,37.5005416983787],[127.0863932983001,37.5006900972678],[127.0973634975215,37.4969399977402],[127.09695879933669,37.4923539001815],[127.09615789974089,37.4921232998632],[127.09687369902511,37.4908747011118],[127.09599469990411,37.4907072012793],[127.09510809918551,37.4919747001743],[127.09599469694241,37.490707201065604],[127.0961589967099,37.4875566978469],[127.0954001974687,37.4847840006196],[127.0925676976269,37.4849531005534],[127.09456830058231,37.4824105977062],[127.0931659017097,37.484424698409],[127.0955399997254,37.4843799986907],[127.10127179959301,37.4807742971058],[127.1030282994549,37.481564098891],[127.1029462993338,37.480251699932296],[127.1056737002706,37.4795444996408],[127.10566490078779,37.482456397356295],[127.1078431012033,37.483521298228396],[127.1077086006096,37.4886707975346],[127.1096109987072,37.4884197977856],[127.1090856001051,37.4859173987716],[127.1112923978983,37.4856160990729],[127.1140604981195,37.4823174988578],[127.11390279950591,37.4783519000009],[127.1146850994194,37.4772250998724],[127.1176505976364,37.477624398233004],[127.1199958973128,37.4758475985713],[127.1178974991186,37.4706798999698],[127.1181924983271,37.467274000880806],[127.116969299484,37.465795498964],[127.1177911994652,37.4664731996586],[127.1183519989675,37.4652634982086],[127.1208411010712,37.465342198152904],[127.119712301296,37.4655901000678],[127.1205771005317,37.467020299938405],[127.1232439012182,37.4661010982129],[127.1249976994644,37.466956197357796],[127.127031498002,37.4635682000864],[127.1260938986987,37.462042001142294],[127.1268634004671,37.461573598858],[127.1299141009648,37.4636470981308],[127.12969340384899,37.4646595007053],[127.1312411023013,37.467115798249004],[127.1330217005207,37.467423797941],[127.1338216997207,37.466253899110896],[127.137385699202,37.464895597959895],[127.13780899877871,37.4632788995766],[127.1364531975295,37.4611129983567],[127.13847289917649,37.4600866955247],[127.13834409951309,37.4556163992868],[127.1470460999297,37.4561676949545],[127.1493471976286,37.4540059971162],[127.1481471988286,37.4512588998633],[127.1488388985239,37.450724696936405],[127.1494507007307,37.4513137985137],[127.1513558004509,37.450821700418295],[127.1499952018115,37.451803499436494],[127.1526124008423,37.455311497201],[127.1544463990083,37.45467249784],[127.1559834988341,37.4518077993567],[127.15682579799179,37.451581699582796],[127.15688269867239,37.448739400129504],[127.153694199166,37.447335000597405],[127.1547323991335,37.44715329995859],[127.1541397977437,37.443704102203895],[127.15252249829351,37.442873502095495],[127.1544235001345,37.4419574998328],[127.15479479976321,37.442646699143594],[127.1575243999472,37.4419076994389],[127.1590515000889,37.4428519987283],[127.1598870000321,37.44149029967],[127.15942970099941,37.4424033994688],[127.1605032009641,37.4428006994661],[127.1614642000316,37.445461498686804],[127.1621131005129,37.4447995990772],[127.1615250006238,37.4458951004284],[127.16008960117,37.4462843001303],[127.1601973009804,37.447397499738],[127.1641079997744,37.4488404992221],[127.16538290059,37.4507293998523],[127.1642916007229,37.4524740008242],[127.16475440050321,37.453973400014],[127.16300550053819,37.454995600642896],[127.1633175008215,37.4557670009658],[127.1607846997476,37.456816800490095],[127.1594056999052,37.4564609006292],[127.15850329874701,37.4536912012528],[127.1565759000683,37.453173401757795],[127.1548412007274,37.4555364004253],[127.1551763012146,37.457822899923194],[127.1561857002052,37.4582378995082],[127.15482470110581,37.4602844012642],[127.15520760018799,37.4625914006093],[127.14827150073911,37.4612367031268],[127.1486055009022,37.465209801056496],[127.1455758008837,37.4657128029603],[127.1446804017791,37.4679900006831],[127.1460667006237,37.4693829008945],[127.1446617001145,37.4683411001425],[127.1414552001302,37.4698048001784],[127.1399192002784,37.468807800725],[127.13931199994501,37.4694338006522],[127.137587199739,37.4685691002433],[127.1368100991334,37.468967602227096],[127.13524689881879,37.4678098008449],[127.1334353006304,37.468093100561596],[127.13001389958809,37.4707242030047],[127.1272182003307,37.471195200986294],[127.1267486003409,37.472802900690496],[127.1257667993489,37.4703150002191],[127.1245464005693,37.4700854004487],[127.12439330072239,37.4711212994128],[127.1257756003489,37.4743382989176],[127.1270543013455,37.4740976998526],[127.1257756008892,37.4743383003094],[127.1263787002861,37.4754187992289],[127.1285729998268,37.4752508986994],[127.12961650063039,37.477099599062505],[127.13095629960189,37.475479800019805],[127.1302142993877,37.474826198902704],[127.1324919989847,37.4746124982464],[127.1325462993089,37.471329999012205],[127.13405160189191,37.4712663999283],[127.13401489997929,37.4735666988676],[127.13605630052011,37.4724507998923],[127.1376161000252,37.4746552999976],[127.1367766003551,37.4771555001263],[127.1355992008004,37.4782006000812],[127.1364284005391,37.4784702999724],[127.1363415014042,37.480448699807894],[127.1378802001349,37.4804461000002],[127.1363415009977,37.480448701598796],[127.1366057004323,37.483167699709504],[127.137489699818,37.483329399515405],[127.139739399937,37.4809033996233],[127.1394195005946,37.4814435996139],[127.1404134001124,37.482178399384104],[127.142114600026,37.4819487996346],[127.1426662000046,37.4833290987333],[127.1489987001253,37.4839328997261],[127.150103800395,37.485679699369],[127.15177199959709,37.4852916998194],[127.1518790993987,37.4845456972596],[127.1542895994585,37.4845197969008],[127.1542482005306,37.4864923002922],[127.152815100612,37.4861058003377],[127.1527099007172,37.4870942993492],[127.1537658003575,37.4871126997433],[127.1550888001079,37.4892445982811],[127.15595330032339,37.486852899573805],[127.15910809997939,37.486540299714605],[127.1612376005021,37.4885422988745],[127.16226360110811,37.487732599535704],[127.161890702497,37.489992799975106],[127.1602121024107,37.4921089996828],[127.1624565001663,37.4923705994212],[127.1630248027373,37.493546801741],[127.16111810464399,37.4964304988573],[127.1616827040794,37.4975238977639],[127.16103440005851,37.5009160009734],[127.15894580053539,37.5018604001532],[127.15987770043789,37.503630700137904],[127.1593161004356,37.5031069009978],[127.1565087012866,37.5037037012555],[127.1546918002227,37.5018166011143],[127.153893399797,37.5025971007545],[127.1532828004076,37.5019859013657],[127.15100270134491,37.5044321009114],[127.1489927991834,37.504373300260596],[127.1493246979761,37.5028366011552],[127.1484228988779,37.5019430020488],[127.1470601992578,37.5019754016981],[127.1458587004593,37.502726000947504],[127.14553200170221,37.5045683003988],[127.14393870231841,37.5061942016557],[127.14420730204981,37.5077522000977],[127.146749202067,37.5110168988216],[127.1488456004513,37.510816799326],[127.14674920160411,37.5110169006473],[127.1465313020133,37.513308299797096],[127.14810960043499,37.5150688980365],[127.1495453989992,37.5151867979186],[127.1500999012153,37.5139621980628],[127.15055750069581,37.5152799001034],[127.15174610057589,37.5156135995952],[127.1511046007949,37.515974599794],[127.1519444001257,37.516555800113196],[127.1511046004353,37.5159746009998],[127.1509385006014,37.517384299590105],[127.1554307032517,37.5196605988444],[127.1557973999263,37.522129000999996],[127.15211680362751,37.5217339033891],[127.1510777040553,37.526560100746394],[127.1536101015229,37.5301216971848],[127.1555938995391,37.5300975972089],[127.1575665988235,37.5312798976106],[127.1602527002785,37.529942097079],[127.1593668017382,37.5328886983121],[127.1637048001743,37.5318569997957],[127.16261870190439,37.5321434006174],[127.1635629009602,37.5350179977428],[127.1655529014903,37.5367605961733],[127.1681627988804,37.534064398869496],[127.1670085999952,37.5322600006325],[127.16417889970019,37.5317465999061],[127.1652499988319,37.5314027001587],[127.16547839828469,37.530014900899296],[127.16438649866451,37.528816198891604],[127.1653059006024,37.528413298858695],[127.1659570999512,37.5291914980805],[127.1688164018329,37.528890100878996],[127.16869180195751,37.5307722989968],[127.17075089989841,37.5329907967783],[127.1727896981663,37.531083498705],[127.1736966995731,37.5287633000237],[127.17212049665521,37.528397999969805],[127.17292139922591,37.5270747997443],[127.1740804997865,37.5276007987579],[127.1744022008187,37.526756898152605],[127.1742243027152,37.5283557000458],[127.17608350085601,37.5292089991925],[127.1780301003158,37.5324201965436],[127.18178019656571,37.53111379785],[127.1824729958729,37.5279181010457],[127.18570229578191,37.5253397998521],[127.18572229672469,37.5211322990481],[127.1924579960223,37.5201727978083],[127.1930875977701,37.515793998731496],[127.1967685984846,37.5164335985011],[127.1970506982025,37.513201001733705],[127.1964056978913,37.513202798216604],[127.1976946999558,37.5131664981069],[127.2010304017453,37.5135168995535],[127.2015441012316,37.5149310981393],[127.2059603982474,37.5185538946538],[127.21309119564019,37.519746497961194],[127.2163641983671,37.518878397422995],[127.2176119006251,37.5221127966997],[127.2187008999542,37.5189740999368],[127.2196963994931,37.5191916996357],[127.2227745011386,37.516765397955595],[127.2277911983343,37.5189275952639],[127.2295344006785,37.518261797230195],[127.2388141052882,37.5258627964125],[127.2450900002902,37.5230650959655],[127.2476690000528,37.527155696385805],[127.2487966036399,37.5258148923619],[127.2483301085682,37.5266505080341],[127.254474203184,37.5361762028098],[127.2513365013912,37.538130203857996],[127.24341180184831,37.5410271038138],[127.2425419027182,37.5461816986592],[127.2467280012258,37.5448305000682],[127.243581800742,37.5468189001733],[127.2439789009244,37.547653700739],[127.2425691005682,37.547870101294194],[127.2421422009951,37.5500658990984],[127.2436999005448,37.550835300248],[127.2421228995842,37.550763503877704],[127.2397759005305,37.554117000717],[127.2388480991086,37.5544848002902],[127.2373601990742,37.55213850043],[127.2388750000864,37.5509304989274],[127.2421228970136,37.550763499661805],[127.24132649781,37.5493751010502],[127.2395116994497,37.5486425012154],[127.2387903001711,37.5468575030004],[127.2338532051082,37.544725905132005],[127.2285072079272,37.5473879051806],[127.2204854122869,37.5554117052233],[127.2053602049595,37.5766483053933],[127.1987552016434,37.581843408115],[127.1924012003808,37.5821966004424],[127.1913924038939,37.583200008336696],[127.1847640923303,37.580886806288],[127.1787877964955,37.5805075060844],[127.178395796946,37.5788018988642],[127.17438029979249,37.576688500711306],[127.1729292011698,37.5764434011123],[127.1695160010703,37.5782133069128],[127.1662802950753,37.576732604991],[127.1644602002648,37.574787798390005],[127.1662802997453,37.5767325969037],[127.1670649989606,37.576335297301],[127.1682642001837,37.5771679981277],[127.1717333993777,37.5715640005659],[127.1720355995222,37.5683812006779],[127.17054249773929,37.5677769994806],[127.17190139936599,37.567064898549],[127.1723972989867,37.5655441994511],[127.1694480010275,37.563786201366206],[127.1615194008121,37.5675019003681],[127.1598017025298,37.5696473982226],[127.1610240013075,37.5711337967362],[127.1625003009143,37.5711477015713],[127.1610239995694,37.5711338002444],[127.1598017007917,37.5696474017308],[127.1569199011667,37.571781608007],[127.1549973979668,37.568858899638805],[127.1531729991934,37.5683413987432],[127.153424600314,37.5667832984468],[127.1531730009919,37.5683413994509],[127.1542491999553,37.567934899814],[127.1565685993065,37.5697160989805],[127.15697109895191,37.5674213011868],[127.15482039949211,37.5675464998859],[127.1569710985636,37.5674212991112],[127.1569408995552,37.5632284009056],[127.15644050005561,37.562913301220696],[127.15571299806071,37.5639192011354],[127.1547888989848,37.5627120023426],[127.1511847002546,37.5621201029535],[127.1485801006775,37.5640752011092],[127.1484019000982,37.565606200279795],[127.1473169983379,37.5663045002911],[127.1430426026123,37.5628965036991],[127.1416350045008,37.5667664067728],[127.1330543004463,37.5679201053498],[127.1305230029776,37.570850902419004],[127.131205101738,37.5741015002495],[127.12871040017231,37.5730028014412],[127.1254322008897,37.5758819017694],[127.12656839913559,37.5732163994869],[127.1275831999892,37.5743788985313],[127.1281718994005,37.573265899644305],[127.1271827993728,37.5719680994907],[127.12897079855601,37.5720798986064],[127.1305229970038,37.570850899835406],[127.1318110955519,37.5650700050749],[127.12767809306139,37.5615666047691],[127.12390139518689,37.556838308906705],[127.11510870397959,37.5613228044222],[127.11531860010359,37.5642979004628],[127.1136911991551,37.562496699596],[127.1147360981102,37.5609999010928],[127.1111489998144,37.5591852017169],[127.1103824003101,37.5610084004933],[127.1086192001204,37.5598771010215],[127.10520480353479,37.561066599831996],[127.1044226010335,37.5635660005583],[127.1035777982965,37.562017201451496],[127.0969278049465,37.5635443999243],[127.0962442023181,37.5710887984036],[127.0979740014211,37.5720057004279],[127.0963982021252,37.5731109993759],[127.0959913025321,37.5768064956804],[127.097433003962,37.5789490972558],[127.1003506010444,37.579637296567604],[127.1032374006531,37.5789151003189],[127.1012169014236,37.5792462004744],[127.09948220351039,37.5816944001519],[127.0982042009844,37.5822567010592],[127.0980281017461,37.5864171991951],[127.10143640033749,37.5877434998745],[127.10027570029679,37.5882482000622],[127.1017502006008,37.5891054004141],[127.1005141006527,37.5895182011734],[127.1005191003187,37.591534300583696],[127.0993562008786,37.5913062003292],[127.09994120098321,37.5924256005749],[127.0986729002625,37.594335300481994],[127.09800930019,37.5931167015491],[127.0971939002265,37.5949726001807],[127.0956458009472,37.5946331010434],[127.0988627005187,37.5998672004335],[127.09762120075021,37.6008645000277],[127.0981859005014,37.6014525001967],[127.0972537998657,37.6010773005754],[127.0953940000244,37.602440300619],[127.0927592998976,37.6023103007788],[127.0914209996525,37.6034785007464],[127.0893932002794,37.602229800736104],[127.0885200004076,37.6033800015293],[127.0857427012446,37.6038274007126],[127.0856569012022,37.6062527024871],[127.0817245013871,37.6072791008584],[127.0831651015483,37.608993800105],[127.0827788020444,37.611190900607],[127.0841844019789,37.6126760006969],[127.0818117016484,37.614807200879],[127.0821258013343,37.6155903000959],[127.0809666002792,37.6158681009364],[127.08166420030281,37.6207291003637],[127.0788120007672,37.621189000753404],[127.0792014001089,37.6222115006023],[127.0767119003453,37.6219020006915],[127.0769881004662,37.6227221001601],[127.0762890005784,37.6232000998321],[127.0777407002534,37.6258368000684],[127.0768029005023,37.626975100036105],[127.0784393001997,37.6273322994521],[127.07844460038329,37.6279625004907],[127.0735244005932,37.6284031009254],[127.0738941002274,37.6293755001794],[127.0711199993654,37.629303701443],[127.0691805965493,37.6275704993581],[127.06986649883311,37.6248491999029],[127.0709408981493,37.623726300503805],[127.0681507995731,37.6244654012977],[127.0671032996429,37.6232200002035],[127.07094089892189,37.623726298331505],[127.0721055998565,37.6202526998238],[127.0721315979934,37.6166111010762],[127.069974000151,37.6165934010939],[127.06883109976769,37.6155418000855],[127.0707260998697,37.6160093985576],[127.0720561985396,37.6153766991903],[127.0729482997695,37.6115295999809],[127.07242879953209,37.6082673997804],[127.0743168992781,37.6027681002795],[127.07285439899779,37.6009268005602],[127.07109200076019,37.6011591003279],[127.0711392996539,37.602615302246896],[127.0711503991646,37.6017119004233],[127.0698741985131,37.6016467998331],[127.0702159004958,37.6002544992972],[127.0710919996197,37.6011590983926],[127.0726305989031,37.5993757997054],[127.0720385995754,37.5985742995069],[127.0729577996854,37.598422199367604],[127.0732184998687,37.5969703998575],[127.0736265003132,37.5973907995987],[127.0739158997505,37.596319999825496],[127.0749060997079,37.5962568996689],[127.0735128992333,37.593266999688495],[127.0750290993998,37.5932619998456],[127.075451199822,37.5909056994527],[127.0773198983456,37.5914492990424],[127.0756620996891,37.5895280998846],[127.07727149912739,37.5867363001366],[127.075338300091,37.5860713003619],[127.0742288002233,37.5870855003945],[127.07415859964661,37.5862851007498],[127.0777052988174,37.5827090006144],[127.0753799993875,37.5814307012078],[127.0760014999334,37.5805492000276],[127.0750074000905,37.579730800185],[127.07510480001501,37.5812261000445],[127.07341009986611,37.5813268003774],[127.0746426990542,37.579891599525304],[127.0731080998849,37.5793399001826],[127.0761854000402,37.577716199496194],[127.0757779004832,37.5787876997338],[127.0763895997722,37.579620499198],[127.0786206997945,37.581012099481],[127.07944529902541,37.579428099984604],[127.0792535993708,37.5775384001999],[127.07656279980701,37.5773320005857],[127.0784768988801,37.5771166991858],[127.077500999856,37.5749844013181],[127.0758767998887,37.5754634002598],[127.0756809000696,37.574466300418294],[127.0739489000663,37.5741214000249],[127.07218089972261,37.5760526002231],[127.0711121994459,37.5742639010967],[127.0692202996576,37.5744745004745],[127.0675751001084,37.5735148006804],[127.0671911998701,37.5743656000256],[127.0633523013163,37.572931003094695],[127.0616494001726,37.574904900295],[127.0620065008026,37.5760811005481],[127.0608393997407,37.5762127007392],[127.0600218000779,37.5777073002592],[127.05816950030601,37.5773632002617],[127.05833730067211,37.578635500091295],[127.05388650028361,37.579376400357404],[127.0524490006725,37.5811176006336],[127.0527724001895,37.5826118002439],[127.051304700646,37.582676500587695],[127.0513354000039,37.5832682002384],[127.0502344000858,37.582700900186296],[127.0500020004098,37.5837850992641],[127.0518467006038,37.5857184999235],[127.0492587999112,37.5858924002317],[127.0485836000075,37.585191000343904],[127.04674079962,37.586010100373706],[127.04699839943571,37.5853545999504],[127.0460609003732,37.5847438005612],[127.0436049999253,37.585135900238996],[127.04027789955771,37.5812599004174],[127.04021419977839,37.5797087004173],[127.0385952000442,37.5798836009157],[127.03849309991669,37.5807989000694],[127.0384472999571,37.5798908009087],[127.0378807000257,37.5803538004512],[127.035161099569,37.5782953000554],[127.03426050009091,37.5780382003193],[127.03417090016,37.5786168013888],[127.03169609959531,37.5751413004022],[127.02992329933359,37.5754986008291],[127.0286205004187,37.5772561996945],[127.0292950004459,37.5773371002512],[127.0283980009683,37.577773200676205],[127.0262254002194,37.5772052005037],[127.02558540045679,37.5777724000405],[127.0263178000034,37.5782032006245],[127.02497529943889,37.5771145018624],[127.02361549978461,37.578661401184505],[127.0222819999466,37.5786590002077],[127.0193364991998,37.5746727999971],[127.0205890997119,37.5733721001183],[127.0201682997913,37.5727864003784],[127.0186585996933,37.573107900535994],[127.01857030000899,37.572175000427],[127.0156857999778,37.5743089006453],[127.0141450002343,37.5725117011113],[127.0135334992236,37.5728775004726],[127.0140896996953,37.5710601996685],[127.0144632000288,37.5720007990182],[127.0156640988279,37.5713195996994],[127.01334040059811,37.569264701064],[127.0111018003536,37.5701233005711],[127.0103079004361,37.571051000476],[127.01084780009009,37.571658300199005],[127.00820709991481,37.572185200307],[127.0083677995846,37.5710889005161],[127.0077271993468,37.571187999992],[127.0092786992871,37.5701277002752],[127.0084091996278,37.5698033002043],[127.00767380005591,37.567859900369],[127.0066452006605,37.5680707006213],[127.006946000128,37.570340300839696],[127.006606299663,37.56927290032],[127.0058293998423,37.5692543998279],[127.0066190990526,37.56885660022569],[127.005358700313,37.5683199007624],[127.0045322005229,37.5697876005988],[127.00275380035559,37.5704278005596],[127.0029876001008,37.5709826001059],[126.99980220009671,37.5717919005254],[126.99753709995831,37.5739440003657],[126.995842198897,37.572014700725],[126.9938401004853,37.572091700561],[126.9899039997552,37.5770195003618],[126.9885176982491,37.5753914005625],[126.9865805998881,37.575568700304],[126.9862944993039,37.5744430002307],[126.9845999998481,37.5741832001031],[126.98526469909031,37.5731024004407],[126.9843989986605,37.5722487993965]]],[[[127.1198977998455,37.440277600381],[127.1207704994665,37.4388661988207],[127.12336309941931,37.4394174984129],[127.1251292994258,37.4353601988052],[127.1235897996186,37.4326475002777],[127.1255507999698,37.432754899267096],[127.12619679975191,37.4291789986775],[127.12909409973021,37.428184699280905],[127.1294035998995,37.42669449935671],[127.1294912004757,37.427849799642395],[127.1313125999724,37.4282955990411],[127.131485200985,37.4291282990377],[127.1329797007137,37.4288757993204],[127.1341735002462,37.431031699311596],[127.1350878001889,37.430709799375],[127.1341735007606,37.4310317000826],[127.1357237006556,37.4326175999149],[127.1344623000788,37.4345177004839],[127.13249590056749,37.4342435012884],[127.1312513015023,37.4363928997396],[127.1326775002837,37.436815799379396],[127.135281800182,37.4411102996111],[127.1349716008118,37.4423875005641],[127.13285310053611,37.443006700819],[127.1327410006482,37.444786899038796],[127.13583080069809,37.4501776002061],[127.1352230994582,37.450571402517404],[127.1337753999109,37.4495786028339],[127.13233530135099,37.450349002063504],[127.1322151009886,37.4524815004231],[127.1305538998857,37.4527910011105],[127.12904000004811,37.4550033009793],[127.12791640046261,37.4547776003645],[127.12733210040341,37.4563314005088],[127.1244673996823,37.4555636035743],[127.12430429831561,37.4524706009787],[127.12359169902821,37.451786301663],[127.1223629995423,37.4533254020449],[127.1210428994371,37.451835200522],[127.1235580973512,37.449251500245005],[127.1247182960467,37.4442588001372],[127.1239716958476,37.4417974005287],[127.121583298236,37.4402999020262],[127.12000499981431,37.441007301318805],[127.1198977998455,37.440277600381]]],[[[126.98456419956969,37.5199403002947],[126.9908769004091,37.5204123990063],[126.9927000000967,37.5192799995274],[126.9954412009365,37.520528600351795],[126.9941042004577,37.521494600507296],[126.9932865003952,37.5209882008186],[126.9934402995471,37.5221012002444],[126.9932864997009,37.5209882013574],[126.9911613018261,37.5208718014738],[126.9909044996075,37.5235023005175],[126.9903145996893,37.520428000648],[126.9869598993771,37.5208153010916],[126.9859574004286,37.5197745006181],[126.98456419956969,37.5199403002947]]],[[[126.97961289961,37.5660111002342],[126.9814761993907,37.565694498666],[126.9819916000185,37.563496899787594],[126.9843182004778,37.5646281000471],[126.98448190091581,37.5668047991563],[126.98589220063519,37.566038099688],[126.9827463998397,37.5687620002584],[126.9827379998051,37.5679812003363],[126.97961289961,37.5660111002342]]],[[[127.0549304994594,37.5891667001897],[127.0552856999584,37.587693399485296],[127.0570003003888,37.5874138996219],[127.056812200279,37.5884250996209],[127.05993960032411,37.5883157997884],[127.06051500047839,37.5902588994554],[127.0610711004486,37.589808399719004],[127.05810489918811,37.591271600583596],[127.05526490010679,37.590307700724296],[127.0549304994594,37.5891667001897]]],[[[126.9726152994871,37.572134399584705],[126.9738669997,37.5711157993315],[126.97386210040841,37.570197399239795],[126.9755108998106,37.5701105998654],[126.9770423001891,37.5684058996081],[126.9795423003743,37.570054399509694],[126.97858910072789,37.5703733008282],[126.978545400734,37.5716014001648],[126.97731980122471,37.5715987001048],[126.977279901126,37.57258620012951],[126.976686499189,37.5716109003284],[126.9753750005005,37.5716164003229],[126.9747235011502,37.5721410001008],[126.9756689000049,37.5729868002901],[126.97385989957739,37.5732189008511],[126.9737617988755,37.5720476006385],[126.9726152994871,37.572134399584705]]],[[[126.9988141993681,37.537967599933005],[127.0013920012464,37.5363062986705],[127.0040160998971,37.53755489756951],[127.0024524007025,37.5382009001941],[127.00351570061389,37.540021199615296],[127.0027585000333,37.5419016002101],[127.0019249997104,37.5425507007598],[127.0013052989321,37.5419919003847],[127.0014687994684,37.5383335005125],[126.9988141993681,37.537967599933005]]],[[[127.06044039858,37.4941623996173],[127.0600948006734,37.4929515986598],[127.06351519866969,37.4937255985219],[127.0647651010234,37.491627299178695],[127.0635409009167,37.4937372994856],[127.0638301006275,37.4947577984651],[127.0668699012759,37.4948977003784],[127.0665640999123,37.4955686010755],[127.0648996014463,37.4950614006164],[127.0642431008363,37.4964057010734],[127.0624518000839,37.4958417005353],[127.0618734995124,37.4971977006523],[127.0621001985281,37.494654400681505],[127.06044039858,37.4941623996173]]],[[[127.1249898989888,37.412337899803894],[127.1271334998454,37.4113481985997],[127.1271013998775,37.4099705999773],[127.1286280996226,37.4096730996483],[127.12860550036571,37.4089027996542],[127.13047690076891,37.410371599763295],[127.1294492010229,37.40987240091],[127.1293394009192,37.4115743001423],[127.1309089002892,37.4138155999916],[127.12661750034569,37.4139234008264],[127.12598409994429,37.4123546012715],[127.1249898989888,37.412337899803894]]],[[[127.0661157986177,37.6346263002622],[127.0666113985393,37.6334485985922],[127.0665693002905,37.6348285999797],[127.0678626993655,37.6359311989694],[127.0707134014595,37.636374000067704],[127.071075601005,37.6376580002645],[127.0699370996968,37.6380274006762],[127.07031449861769,37.6372055998675],[127.06809960066249,37.636349001331105],[127.0672257015364,37.6379197997603],[127.0683602012737,37.6390169996866],[127.0670338999074,37.6395207000882],[127.06545729914271,37.6383027997472],[127.066992898335,37.6378586985791],[127.06785069751929,37.6362831000669],[127.06586559950439,37.635204601145404],[127.0661157986177,37.6346263002622]]],[[[127.1388833994252,37.438357499908605],[127.1394056992266,37.4367867991807],[127.1410112995625,37.4375347994524],[127.1416994996419,37.4360082994748],[127.143074100646,37.4372340003388],[127.1424863009075,37.4375457004693],[127.1428295011937,37.4387375006981],[127.142028800152,37.4380976005534],[127.1411741006914,37.4390737],[127.1396046000892,37.439057500499196],[127.1388833994252,37.438357499908605]]],[[[126.9919186993007,37.534428299959],[126.9938115996114,37.534394699262],[126.9944068002293,37.5330545993766],[126.99410470095799,37.5339579993941],[126.9956198013801,37.5335592000001],[126.99617280083,37.5351772990721],[126.9955447998109,37.5358096005036],[126.9939425996556,37.5345159008479],[126.9919186993007,37.534428299959]]],[[[126.9645086991125,37.565491899291096],[126.96550270079351,37.5641214996187],[126.9681133003204,37.5644867993391],[126.96846010251271,37.5658950006713],[126.9678592994564,37.5671053009713],[126.9656305002422,37.566777700638205],[126.9650236003651,37.567478601085],[126.9651525993821,37.5654508003524],[126.9645086991125,37.565491899291096]]],[[[127.026481899606,37.5291542001401],[127.0278152993974,37.528931099272704],[127.02737849959959,37.5268154000825],[127.02862450005681,37.5264106998335],[127.0297377001059,37.5286129002607],[127.0283874011662,37.528248300864],[127.02807060114091,37.529276100763894],[127.026481899606,37.5291542001401]]],[[[127.06137269960551,37.644780200066],[127.0636556983353,37.645362498832],[127.06380099819,37.6433434008511],[127.0650910999791,37.6434902984979],[127.0650821008324,37.6456956982509],[127.06630000372,37.646190001549996],[127.0650820996884,37.645695701751094],[127.0637266989752,37.6472122005833],[127.0629374995615,37.6466506010316],[127.0635591988615,37.6455747005379],[127.06137269960551,37.644780200066]]],[[[126.9847618992786,37.5607120000298],[126.985500499613,37.560216299433],[126.98630349997701,37.5609757997873],[126.98658249989249,37.5602170994054],[126.9882813004037,37.561197999939495],[126.98670920080761,37.5611056007415],[126.985634899788,37.5620978007132],[126.9847618992786,37.5607120000298]]],[[[126.9740761992944,37.563052199413704],[126.9755024000211,37.562735699250396],[126.9767097000595,37.5638454999927],[126.9753047997318,37.5645003000715],[126.9740761992944,37.563052199413704]]],[[[127.03301899917949,37.4842904989884],[127.03350179983049,37.484718199741806],[127.03462119949221,37.4837778991839],[127.03440619882491,37.4827728987212],[127.0351274002889,37.4832848998468],[127.0343579003365,37.484784700525196],[127.0336534000134,37.4850779004207],[127.03301899917949,37.4842904989884]]],[[[126.96848579942639,37.522426799241195],[126.9697124999739,37.522881398744204],[126.97060739960911,37.5209648991735],[126.9720945002379,37.5219143994148],[126.97283250056229,37.5211683989061],[126.97340360086609,37.5222641997984],[126.97244580097251,37.5225521997751],[126.9722336001463,37.5240852003922],[126.97124729898451,37.523370301810004],[126.9686832005698,37.524266001825495],[126.9696233988251,37.523567399988394],[126.96848579942639,37.522426799241195]]],[[[126.9921505994013,37.4885914997527],[126.9922650998001,37.4872406991123],[126.99468829962741,37.4860008992288],[126.9936017006552,37.4891761987355],[126.9948125994443,37.4885430993686],[126.99433329998149,37.487896899924905],[126.9962137008001,37.488469199767295],[126.9951131003436,37.488135400610695],[126.9936016998952,37.4891762014052],[126.9921505994013,37.4885914997527]]],[[[127.10565079800041,37.606815602034494],[127.1055075999458,37.6055150999723],[127.1070450007798,37.6060240994174],[127.10565079800041,37.606815602034494]]],[[[127.0840773992019,37.6206884003039],[127.08442609981971,37.6197654999673],[127.08565810079071,37.6198469999742],[127.0840773992019,37.6206884003039]]],[[[127.06005299924139,37.655578800274604],[127.0599631995678,37.654156399357],[127.06068960025361,37.6537838997547],[127.0612299006479,37.6544393999717],[127.06005299924139,37.655578800274604]]],[[[127.0533089996198,37.4902167002644],[127.0559966002986,37.4890865990414],[127.0570529018469,37.4917452996772],[127.0551147998643,37.491585400615],[127.0545666987033,37.492756700760204],[127.0551147981486,37.491585398693],[127.0533089996198,37.4902167002644]]],[[[127.14453439965679,37.4397164998077],[127.1447367998813,37.439377298675296],[127.14823010077231,37.4409408991196],[127.14453439965679,37.4397164998077]]],[[[126.9956283993052,37.480810500529294],[126.99881700008041,37.479693598652396],[126.998679601027,37.481111899432904],[126.9997651023725,37.481688500961994],[126.996164400316,37.4823227009561],[126.9956283993052,37.480810500529294]]],[[[126.9862651989777,37.535203500381904],[126.9868699000365,37.534407398174096],[126.98752999999701,37.5342999988952],[126.9862651989777,37.535203500381904]]],[[[127.12740999935029,37.3946499995562],[127.1285409002555,37.3945166998073],[127.12882330093649,37.3972609999887],[127.12740999935029,37.3946499995562]]],[[[127.004538398701,37.5270260991726],[127.0073117001036,37.5283227996171],[127.0079894001341,37.5308644009862],[127.00634029935871,37.5306946010004],[127.0057677975839,37.5278787993415],[127.004538398701,37.5270260991726]]],[[[127.0657162970426,37.4895863985594],[127.06663909804661,37.488103098794795],[127.0677949009237,37.4890513999874],[127.0657162970426,37.4895863985594]]],[[[126.9808375997501,37.4849812005511],[126.98154340046831,37.4852298995916],[126.98223440077679,37.4853952001196],[126.9815433999849,37.4852299009246],[126.9808375997501,37.4849812005511]]],[[[127.0560948994913,37.6105288005924],[127.0572247009826,37.6107634007351],[127.05581149959471,37.6111597006519],[127.0560948994913,37.6105288005924]]],[[[126.9767523996125,37.574881799899],[126.97702360005529,37.5750629998266],[126.9767856000045,37.5752536000543],[126.9767523996125,37.574881799899]]],[[[127.0669229997024,37.6151026998234],[127.0677746991929,37.615338598927],[127.0683258004526,37.6154035998655],[127.0677746995346,37.6153386003271],[127.0669229997024,37.6151026998234]]],[[[126.9624996995608,37.560923698752894],[126.9631508002975,37.5608161999074],[126.9636077001689,37.5613435007407],[126.9624996995608,37.560923698752894]]],[[[127.0150990988084,37.5797147999906],[127.01574000083579,37.579810000582704],[127.0152899002001,37.5804936001164],[127.0150990988084,37.5797147999906]]],[[[127.07021859916661,37.490004699366],[127.0704229999981,37.490108599813496],[127.0708246000898,37.4902151020308],[127.0704230004914,37.4901086021373],[127.07021859916661,37.490004699366]]],[[[127.1250937986962,37.570686000442805],[127.1257859008696,37.571012498748104],[127.1259411006678,37.5711635002439],[127.12578589943939,37.5710125001358],[127.1250937986962,37.570686000442805]]],[[[127.0449993999244,37.4860924001228],[127.0457670001509,37.485938899692904],[127.0454330000836,37.486423000867],[127.0449993999244,37.4860924001228]]],[[[126.9736016998166,37.5226430996842],[126.97456000047809,37.5223099986303],[126.9744296000673,37.5225549001145],[126.9736016998166,37.5226430996842]]],[[[127.00379119870719,37.4999174004098],[127.0042560004364,37.4998100998212],[127.0042158999795,37.4999980007039],[127.00379119870719,37.4999174004098]]],[[[127.0593026973429,37.4862990007544],[127.0593027014351,37.4862989991856],[127.05930269915011,37.4862990031055],[127.0593026973429,37.4862990007544]]],[[[126.9780025993008,37.558184399522],[126.9781910002899,37.5580645994996],[126.9782109007208,37.558401100259296],[126.9781909998998,37.5580646002921],[126.9780025993008,37.558184399522]]],[[[126.9910304993101,37.4868465009974],[126.99103050017959,37.486846498499595],[126.9916383005127,37.4870315001094],[126.9910304993101,37.4868465009974]]],[[[127.0496742994061,37.581413799982],[127.0498107002224,37.5815815001815],[127.0497180996811,37.581468000629],[127.0496742994061,37.581413799982]]],[[[127.1402350999583,37.4701111999847],[127.1404707999477,37.4701169996407],[127.1409252002645,37.470181399724105],[127.1404707999953,37.4701170007734],[127.1402350999583,37.4701111999847]]],[[[127.0694331989165,37.6330802009465],[127.069670999622,37.632981899624895],[127.06969820012121,37.633070600025306],[127.0694331989165,37.6330802009465]]],[[[127.07437159970961,37.4979302005163],[127.07459870075209,37.4977075988745],[127.0744600007484,37.4979558008352],[127.07437159970961,37.4979302005163]]],[[[127.1199702992197,37.3948926991725],[127.12014539938829,37.394592998942],[127.1204312005547,37.394955500870005],[127.1199702992197,37.3948926991725]]],[[[127.13305279875661,37.5749734996635],[127.133052800613,37.5749734996299],[127.1330527999856,37.574973500837096],[127.13305279875661,37.5749734996635]]],[[[127.1386873990261,37.474261299515504],[127.1386874004819,37.474261299542405],[127.13869149982429,37.4743255008301],[127.1386873990261,37.474261299515504]]],[[[127.0520654999708,37.5852157998779],[127.0521090999272,37.5851933999003],[127.0521679001713,37.5851632998586],[127.0521091000457,37.5851934000626],[127.0520654999708,37.5852157998779]]],[[[127.0250437994043,37.530732199355306],[127.02504380024881,37.5307322002581],[127.0250437996403,37.5307322001578],[127.0250437994043,37.530732199355306]]],[[[127.1514835989951,37.4422119998123],[127.1514835987312,37.442211997755194],[127.15148360112201,37.442211999423996],[127.1514835989951,37.4422119998123]]],[[[126.9638774991209,37.5299852000761],[126.96387749939349,37.5299851986659],[126.9638775009086,37.5299851991899],[126.9638774991209,37.5299852000761]]],[[[127.0162808984165,37.4850242991257],[127.0162809008684,37.4850243001632],[127.0162808989931,37.4850243004312],[127.0162808984165,37.4850242991257]]],[[[127.102981199114,37.6128036013206],[127.1029812003574,37.6128035997032],[127.1029812005199,37.6128036006392],[127.102981199114,37.6128036013206]]],[[[127.1046383996078,37.4951138996726],[127.10470529998241,37.494969799885],[127.1046383998398,37.4951139003373],[127.1046383996078,37.4951138996726]]],[[[127.12390409847761,37.3853078996932],[127.1239520003767,37.3853417996188],[127.1239520002656,37.3853418009689],[127.12390409847761,37.3853078996932]]],[[[127.14987499853349,37.4414942998486],[127.1498750006037,37.44149430053],[127.149798500372,37.4416234009518],[127.14987499853349,37.4414942998486]]],[[[126.9950828995535,37.560881100345],[126.9950829003629,37.5608810997423],[126.9950829002033,37.5608811004142],[126.9950828995535,37.560881100345]]],[[[127.0093374006926,37.5297070999938],[127.00933739908331,37.529707099384304],[127.0093374008951,37.5297070994334],[127.0093374006926,37.5297070999938]]],[[[127.1075719995823,37.4987044996655],[127.107572000231,37.4987045004113],[127.1075719995073,37.4987045003514],[127.1075719995823,37.4987044996655]]],[[[127.153238799699,37.446976100166],[127.1532387986447,37.4469760989319],[127.15323880042149,37.446976099913],[127.153238799699,37.446976100166]]],[[[127.0032266999721,37.5417984998821],[127.0032267003585,37.5417984997517],[127.0032267003657,37.541798500338196],[127.0032266999721,37.5417984998821]]],[[[127.0111852997501,37.5306123001003],[127.01118530033219,37.530612299357],[127.0111853015295,37.5306123007107],[127.0111852997501,37.5306123001003]]],[[[127.0712048998902,37.4894713000089],[127.0712049002434,37.4894712994546],[127.0712049007146,37.4894713005954],[127.0712048998902,37.4894713000089]]],[[[127.0976908984185,37.4808393015677],[127.097690898309,37.4808392997397],[127.09769090045451,37.4808392983909],[127.0976908984185,37.4808393015677]]],[[[127.15029249988001,37.5656860998364],[127.15029250022391,37.5656861000777],[127.1502924996453,37.565686100239404],[127.15029249988001,37.5656860998364]]],[[[127.1685584998684,37.5632462998997],[127.1685585001691,37.563246299861],[127.16855850021031,37.5632463001251],[127.1685584998684,37.5632462998997]]],[[[127.0604216001837,37.655660599954494],[127.0604215999325,37.6556606002115],[127.06042159990349,37.6556605999796],[127.0604216001837,37.655660599954494]]]]}}]}