{"type":"FeatureCollection","features":[{"type":"Feature","properties":{"interval":15,"stationId":"5812233466"},"geometry":{"type":"MultiPolygon","coordinates":[[[[127.023482999397,37.6377637999762],[127.0237931998556,37.6359557998964],[127.0243171998774,37.636557099341495],[127.0280509003962,37.636309100045196],[127.0273674998893,37.639833500787304],[127.0239263001272,37.6391122005909],[127.0235320999248,37.639619200705],[127.0240165994008,37.638727300035896],[127.023482999397,37.6377637999762]]],[[[127.0252255995685,37.626003300199],[127.0269272005607,37.6264366001364],[127.0260597999522,37.6264007002928],[127.0252255995685,37.626003300199]]],[[[127.025644399903,37.627475499982204],[127.0258493994765,37.6269348995422],[127.0260289005795,37.627092200138],[127.025644399903,37.627475499982204]]],[[[127.03004779956551,37.6481553001303],[127.0317643995697,37.647942499565],[127.03100459961951,37.647008500007],[127.03222149919611,37.646211600122],[127.0324828005275,37.6445509993882],[127.0344908004829,37.6453481993896],[127.0358185994923,37.6454464993223],[127.0358980007274,37.6448170987671],[127.0357390009275,37.646030399484104],[127.0374726000884,37.6462843993017],[127.0387247998915,37.6476999993811],[127.0401946997429,37.64738199949],[127.0387776000951,37.6464970996271],[127.03977939995801,37.646690499241],[127.04017680007169,37.6460302998814],[127.0406058996426,37.6468375990741],[127.0421132002767,37.6458052986815],[127.0425036004379,37.646567599790394],[127.0416730017518,37.6484497992284],[127.0432700001548,37.6484799991982],[127.0450291984052,37.6452357013158],[127.0445546989538,37.6443085993232],[127.0468721999376,37.6443611995664],[127.0482819006597,37.642695699625996],[127.0489340004982,37.6447202985262],[127.0501623002063,37.6447900983079],[127.05160630057921,37.643665499715894],[127.0503917005371,37.6463535996198],[127.052831403138,37.6460163028821],[127.0518666037855,37.6461100035869],[127.0514284040879,37.6521253982535],[127.0554741031456,37.6518649989537],[127.0562911015839,37.6533128995593],[127.057774500699,37.6535214003092],[127.05733200079,37.6543295004345],[127.0551602000553,37.6546730003068],[127.05457730031131,37.6539608008343],[127.0534961001015,37.6546753000355],[127.05192400118369,37.654113901676],[127.05144590166181,37.655671900118],[127.0533451008644,37.6562566005609],[127.0514459015512,37.6556719005765],[127.04973150241479,37.657044200543204],[127.049801500715,37.6582065008599],[127.04842860008459,37.6570779018044],[127.0458806010762,37.6569754014901],[127.0449306994821,37.659492601091],[127.04486709853981,37.6586857006029],[127.04266649971929,37.657042401492],[127.0416753991124,37.6580568004035],[127.04122019942089,37.655976600997604],[127.0396013994361,37.6572454001722],[127.03788149943679,37.6543094002553],[127.0384250991949,37.6530975006216],[127.03518629992891,37.6522349008831],[127.0350397993172,37.6513553004566],[127.0340558003012,37.6510845007274],[127.0329997000624,37.651739000641996],[127.03089009993069,37.6502719005497],[127.03140829958029,37.6497037003965],[127.0307194996695,37.6499387002836],[127.0310015995881,37.6488947002423],[127.03004779956551,37.6481553001303]]],[[[127.0580146997134,37.6551019000825],[127.0589168992051,37.6553130994509],[127.0608800994906,37.653520399104295],[127.0634388031845,37.654073198564],[127.0644879020539,37.655188599462505],[127.0670719002116,37.6554401993593],[127.0679000006591,37.6577400003187],[127.0642593004204,37.6596299013428],[127.0631098999391,37.658169801043506],[127.06264449949181,37.6596604004728],[127.06204750008881,37.6588630012702],[127.061362099733,37.659295300175195],[127.0613773995571,37.6568623007941],[127.0605897998081,37.657195700357704],[127.0600529990542,37.655578800042],[127.0580146997134,37.6551019000825]]],[[[127.06231239991159,37.6560754999829],[127.06231240002569,37.6560755000033],[127.0623123999816,37.6560755000565],[127.06231239991159,37.6560754999829]]],[[[127.0720773991029,37.6602919996164],[127.0732913993893,37.6592066989284],[127.0769122010523,37.6599923996548],[127.0762614006786,37.6600137002153],[127.07669170207039,37.6611372997565],[127.0759704020423,37.663236900040104],[127.0728670995924,37.6629811007919],[127.0740286987451,37.6620236005771],[127.0731756001216,37.660216400368505],[127.0720773991029,37.6602919996164]]],[[[127.0785405995819,37.670042799483],[127.0795966004369,37.670116799994005],[127.0793243005207,37.670896900301706],[127.0785405995819,37.670042799483]]]]}},{"type":"Feature","properties":{"interval":30,"stationId":"5812233466"},"geometry":{"type":"MultiPolygon","coordinates":[[[[126.99776989905409,37.5818996995244],[126.9990238989039,37.5821932989325],[126.9997290004258,37.5812481989777],[127.0019837986859,37.5817548992183],[127.0010054992758,37.5792343003488],[127.00156889965929,37.579998499107504],[127.00184569940781,37.578894399953306],[127.0044295000224,37.58048299947],[127.0038468007165,37.5817521995804],[127.0048292004549,37.5841550005212],[127.0026938006436,37.5836989006758],[127.0023377002764,37.5851066999479],[127.0033658009036,37.5861688992947],[127.0043328003352,37.5860802999051],[127.0033610003649,37.5867671001631],[127.00380319992269,37.5878925990376],[127.0064568997829,37.5867360994169],[127.0072634000634,37.5840177995934],[127.0080587001636,37.5851560990769],[127.0086488002122,37.5846431994989],[127.01009260036919,37.586348899069094],[127.0109200002538,37.5862299998412],[127.0103985004365,37.5863801003393],[127.0112146002787,37.5881555998394],[127.0139248000306,37.588977298726306],[127.01481959913579,37.588366799336804],[127.0143295997958,37.5875547998018],[127.0204944001749,37.5874084996178],[127.0221762021096,37.5908644006222],[127.02091520060151,37.5913272011595],[127.0210204004963,37.592509699977],[127.0225326007627,37.5945227988528],[127.02053700096431,37.5984345994638],[127.022744199197,37.5977661998786],[127.022695801542,37.597025998705696],[127.0260067013067,37.601686597623804],[127.0291211991705,37.6007575993518],[127.02766099956719,37.5985918999272],[127.0282445998226,37.599324199189496],[127.03042580025671,37.59907109988681],[127.031149000531,37.6009998997046],[127.0345797011554,37.6032832990717],[127.0336379007682,37.6031901002396],[127.0335942003194,37.605441999879595],[127.0346575997896,37.6059970993346],[127.0357927000633,37.6049767993084],[127.0348516012273,37.6061921001144],[127.03534530073361,37.6070159992905],[127.0368153003282,37.6061605988815],[127.0371757997589,37.6085030996007],[127.0374893995687,37.607452199665595],[127.0382784000645,37.6085231995572],[127.0392394999322,37.6084385987196],[127.03827840007679,37.6085232013693],[127.037337301045,37.6109979995407],[127.0397501007214,37.6126850994249],[127.0402371003612,37.6142991006492],[127.0394341998749,37.6139005009525],[127.035472501805,37.616529799572305],[127.03704180163119,37.6179626024015],[127.0334275029909,37.6206708990939],[127.03369390393921,37.6228104993217],[127.0361822020945,37.6246618987356],[127.03524400124401,37.625855499278],[127.0374026004036,37.6270974998409],[127.03721540152459,37.631422998466995],[127.03955700127871,37.6323131991705],[127.039743700542,37.6333646998617],[127.03874210034189,37.6328721008891],[127.03789000102,37.633920000050004],[127.0396900998743,37.6355583997469],[127.0426067998043,37.6346815997194],[127.0450221985226,37.636676998154],[127.0537418986768,37.6332794993494],[127.0523432985173,37.632398099930704],[127.0509259986146,37.6298221012789],[127.0528308986736,37.629334499143596],[127.0511689984702,37.6264980984758],[127.05196859976509,37.6257275989356],[127.05509809956659,37.6263674989801],[127.0575997983114,37.6251719995196],[127.0578475980636,37.6226805020111],[127.05613679886571,37.6227505013626],[127.0564126980222,37.621381601504396],[127.0545038996408,37.620134199762504],[127.0553478996156,37.6195194984568],[127.0552492000608,37.6170544987355],[127.05978609904389,37.6165057982142],[127.0595283004018,37.61709479952469],[127.0612904995453,37.617294998514],[127.061920798915,37.6166184991905],[127.0612280999582,37.615678699715296],[127.0642013992026,37.615463399607805],[127.0635193998846,37.6142038008674],[127.0605202983097,37.614021000699005],[127.06055950004999,37.6126033997052],[127.06477899959481,37.613628599178],[127.0648283997968,37.6128544997072],[127.0658703999098,37.6134026996589],[127.0674370996939,37.6127029981263],[127.0671682004582,37.6136257998618],[127.0687316010768,37.6137528001406],[127.0692071006013,37.6149505989428],[127.0709047000277,37.6143121995945],[127.07204689889511,37.6148951994153],[127.072940899811,37.613430599741804],[127.0738719997911,37.614081499655],[127.0745218992397,37.613030099839904],[127.07329959964869,37.6115720999575],[127.074113699474,37.6116706993222],[127.0744250990764,37.6100492998208],[127.0737137997877,37.6091318007383],[127.07298989953159,37.6093768999132],[127.07839029964599,37.6064305997086],[127.0781381997296,37.6048117004499],[127.0765384995955,37.6037772999549],[127.07684599984431,37.6027152995718],[127.07742779990899,37.603328299560104],[127.078082499397,37.6022318000247],[127.0777699997095,37.6015600006965],[127.0764407996761,37.601548599664504],[127.0797228001408,37.599373199329804],[127.0810182001231,37.600307299580194],[127.0804723008045,37.6009395995102],[127.0827484997504,37.601745398935],[127.0820351004146,37.6040603999766],[127.0802972005243,37.6043166006423],[127.0787635011485,37.606306500174306],[127.08130510073619,37.6087853994307],[127.08193300165571,37.6117535012553],[127.0791904011691,37.6145017000037],[127.0792211004943,37.6156509998876],[127.0827091006411,37.6201651984297],[127.08445180004179,37.6186194996448],[127.0862131000612,37.6185727999503],[127.0871324004965,37.6199312999876],[127.08565810079071,37.6198469999742],[127.0866752000967,37.6209695006302],[127.0838483008793,37.621235601914],[127.081945500183,37.6193705011518],[127.0810726994748,37.620761401076],[127.0774596005148,37.6220304002979],[127.0774748004533,37.6228259999187],[127.0796469005072,37.624394798780294],[127.07903240045191,37.6253401001601],[127.0805630002537,37.626565500038],[127.08047230017479,37.627531499881],[127.079332800439,37.6274784004649],[127.0789559001924,37.6285452007736],[127.07703809968389,37.6290287011476],[127.0766612998407,37.6301494006111],[127.0738941002274,37.6293755001794],[127.0720580026787,37.6336904005126],[127.0754069004825,37.6365596000417],[127.0753637012412,37.6387113985517],[127.0771401057792,37.6381066025793],[127.0731807012847,37.6402557040312],[127.07152470294069,37.6458017984851],[127.0742197014231,37.6462835984239],[127.07429710183379,37.6491754998931],[127.0838180999514,37.6536708977684],[127.0836130036424,37.6559080999872],[127.0880403022836,37.658237899647105],[127.089680900643,37.6618730960119],[127.0891839003161,37.6632868002488],[127.08847010029149,37.6632927004801],[127.0887018004682,37.663997001303],[127.0857238018759,37.6633187014999],[127.0847979028018,37.6663362984823],[127.088844902015,37.6657121011754],[127.08842600243389,37.6713271955603],[127.0899685044806,37.674304299402806],[127.0897647015811,37.6756826026596],[127.0899684993891,37.674304301166806],[127.0881003002158,37.6736132018612],[127.08662250169361,37.675217700256695],[127.0873170018857,37.6767043027442],[127.084152100236,37.6786535026663],[127.0793241985437,37.6801729012947],[127.0783209995469,37.6785368029308],[127.0738878997978,37.6775159059799],[127.0710280978421,37.6759277052427],[127.06889029917531,37.6739725026739],[127.06890109886861,37.6727709014461],[127.06740669936511,37.6722069017002],[127.0675135985895,37.6713783005912],[127.0658905986277,37.6711722994352],[127.0651586993596,37.6693089012986],[127.0637615989731,37.6696116010065],[127.0623849003498,37.668470802147304],[127.0605738013863,37.6705939017607],[127.05901249948589,37.6703794008474],[127.0582113004382,37.671713400089004],[127.05742240065379,37.6714431005099],[127.0571056009706,37.672802599150394],[127.0604148005558,37.6745284990225],[127.0607130021153,37.678955100582506],[127.05841630044131,37.6769191030634],[127.05822390176141,37.6820578003322],[127.05648499914709,37.6823255019836],[127.0549575006746,37.684008400300705],[127.05553410000951,37.6845547002991],[127.0532635011877,37.6851313005327],[127.0522465022047,37.6862977993662],[127.0532431024055,37.6878798989466],[127.0532436001955,37.6908761997472],[127.0539059011739,37.6909384005886],[127.0497168013385,37.690986700961105],[127.0461389022936,37.693173101694605],[127.04797790045461,37.696242998624705],[127.0491892002291,37.6962507011779],[127.0455470020429,37.6976782010665],[127.0455605003706,37.6990496005807],[127.04547759945319,37.6977377020282],[127.0431812017496,37.6962283035376],[127.04013479842851,37.6958834996873],[127.0421686972779,37.6943735996897],[127.0417465977,37.6908346032287],[127.0388368006098,37.6898258042375],[127.036436294647,37.6925146008278],[127.038836796854,37.6898257971977],[127.0380253976654,37.686646500377],[127.03569519966581,37.6864677003799],[127.038840197933,37.679824300027],[127.037284698869,37.6785663995568],[127.0398485990689,37.678393399562694],[127.0429519982023,37.6759680993426],[127.04039689882251,37.6724749996083],[127.0409601988707,37.671235000544705],[127.0365535997908,37.6699258005224],[127.0359552993454,37.6663176002322],[127.0347064992978,37.6661302001833],[127.0349977993072,37.664976700640196],[127.0340386994406,37.6654323005084],[127.03326559907629,37.6636676015022],[127.0317364998207,37.663221901431],[127.0307969002808,37.6641362008586],[127.0291257991537,37.6633910004745],[127.0300894993109,37.6629991000449],[127.0298702994856,37.662007299776796],[127.0283543992022,37.6618635999077],[127.0305937989045,37.661178399471495],[127.03046619906381,37.659701000533396],[127.0277259992146,37.6596530004085],[127.0273031993504,37.6580072011009],[127.0263526995341,37.6584198008245],[127.02534539981241,37.6579829000442],[127.02546639991179,37.6572440005847],[127.0249499998535,37.6575600002818],[127.0233162996781,37.6542832023233],[127.020752099949,37.6539881001571],[127.0208894984481,37.652603901362305],[127.0188298984628,37.651153701451804],[127.0197870989178,37.649952900552705],[127.0187068984591,37.649509601200705],[127.0185771001449,37.647857600464505],[127.0166277002134,37.6479099004303],[127.0160534998949,37.6471715007255],[127.0157647992408,37.6478621007331],[127.0157125996883,37.6449598007229],[127.0136008998773,37.6440916004831],[127.0137547996497,37.642446800409004],[127.0130627996343,37.6426730002997],[127.0110764993502,37.640056599718704],[127.0114442992667,37.6382435997375],[127.01063519954499,37.6373161000458],[127.01065549881059,37.6353797001453],[127.01225389917701,37.6354585991777],[127.01289009854081,37.6345046001317],[127.0113073987126,37.6335197993519],[127.0142556994338,37.6311311996664],[127.0153650994417,37.6291157000029],[127.0136446996032,37.6282180005014],[127.0142693995089,37.6276468001661],[127.0134927002856,37.6267728010401],[127.0121359995931,37.6267257999857],[127.0118088996271,37.6248363999682],[127.01432109949971,37.622581099417296],[127.01442709993671,37.6216235992083],[127.0153677996998,37.622105799454],[127.01591019990339,37.6207864992932],[127.02127919900839,37.6187138994522],[127.0223535982339,37.6169285001956],[127.0197812988649,37.615612000172],[127.0209403993901,37.6141448987048],[127.0221359995213,37.61434649928],[127.0227888988684,37.613483100143405],[127.02204429960611,37.6129289005648],[127.022674999347,37.6114925007739],[127.0185855990286,37.6107831012045],[127.0205687990589,37.6097556995961],[127.02044309918459,37.6089100004418],[127.0193204993959,37.608548300032105],[127.01917689799771,37.605359300728004],[127.016658598946,37.6026527006615],[127.0179920994285,37.6004237998212],[127.0207748994208,37.6005231996636],[127.01972409892781,37.599114500633696],[127.0204302994958,37.5985291002639],[127.0191543999542,37.5966931007512],[127.016212200171,37.5964912006537],[127.0157139013742,37.5979930009016],[127.0141080999189,37.5989785005991],[127.0140547992787,37.5978072008705],[127.01217849873821,37.5972031007429],[127.01263729945279,37.5963598999566],[127.0118445995348,37.5952513006617],[127.01300829966439,37.5957991990629],[127.0139425987301,37.5940586008035],[127.01234820032451,37.592931701930404],[127.0115717995371,37.593354300815804],[127.0089998999432,37.5913136011919],[127.00788630048649,37.5919367011062],[127.0051035007226,37.591463501012505],[127.0054213002922,37.5923844004009],[127.0035936008037,37.5920435005599],[127.0026039001862,37.592685700393396],[127.0005389996658,37.588005599933005],[127.0016510991469,37.586610899976094],[127.0004566994207,37.5838118002986],[126.99941730005861,37.5829679007575],[126.9980813998195,37.5833339003188],[126.9980827996855,37.5824945997396],[126.9990238988687,37.5821932999871],[126.99776989905409,37.5818996995244]]],[[[127.0073065992715,37.5646780008964],[127.0081053004166,37.565776498615],[127.00783800021871,37.566047400064605],[127.0073065992715,37.5646780008964]]],[[[127.0077271993468,37.571187999992],[127.0088565995968,37.5709794995287],[127.0099628000179,37.5693374999217],[127.0105221003373,37.569811800000494],[127.01005750055201,37.570838700046004],[127.0110288006277,37.571614200028],[127.00812189992871,37.5724922002961],[127.0077271993468,37.571187999992]]],[[[127.01274909988709,37.6492251000367],[127.01411659969999,37.6485962995416],[127.01465670055211,37.649227899866],[127.0134931001963,37.6499294005418],[127.01274909988709,37.6492251000367]]],[[[127.0134493996371,37.6026636999162],[127.0134494006407,37.6026637001019],[127.01344940007999,37.6026637005899],[127.0134493996371,37.6026636999162]]],[[[127.0193822992518,37.5853039002152],[127.01938230054701,37.5853038989597],[127.0193822999273,37.5853039012791],[127.0193822992518,37.5853039002152]]],[[[127.0293742991728,37.5980939003274],[127.0293742992228,37.5980938992616],[127.0293743002742,37.5980938996938],[127.0293742991728,37.5980939003274]]],[[[127.0330275995356,37.7390263005141],[127.0330276004923,37.739026299712],[127.0330615003124,37.7392152003332],[127.0330275995356,37.7390263005141]]],[[[127.0337568996264,37.7385963997341],[127.034315299778,37.7375575990511],[127.03565070078011,37.7381126998881],[127.0350421007508,37.740389899999094],[127.0337568996264,37.7385963997341]]],[[[127.0366608995061,37.7425820007714],[127.0374913013705,37.7424537998419],[127.0372558010971,37.743249501497395],[127.0366608995061,37.7425820007714]]],[[[127.03829929952701,37.729675400535],[127.0393933996477,37.7283226998321],[127.0390163998211,37.727652399741594],[127.0407699996139,37.7267785997275],[127.04134139875609,37.725290000202804],[127.0392848994882,37.724347000110704],[127.0417304992977,37.7235411998164],[127.0405197995578,37.7223770993792],[127.0421367998616,37.7230704992715],[127.04336669952971,37.722483699675095],[127.04373229925831,37.7212409000882],[127.0415512988706,37.7210893990842],[127.0439744000193,37.7206216983324],[127.04502170031611,37.7186790996217],[127.0460048000572,37.7190144994226],[127.0471828988791,37.718573499863595],[127.04615559973881,37.7182864994469],[127.0473048999947,37.7182738994547],[127.0475916002141,37.7193602994639],[127.0480853999871,37.718604399525496],[127.0481553006238,37.719527899317],[127.0500221025193,37.720981599237604],[127.05030770127611,37.7227788994848],[127.0511956004302,37.723141399572704],[127.0532980035598,37.721930997786195],[127.0537668012394,37.7241229997391],[127.0528428998916,37.7231607011639],[127.052195500539,37.7253584989661],[127.0533728006683,37.7252740997142],[127.0532875005797,37.7266004986879],[127.0540809008335,37.7265805993088],[127.0537377000212,37.7290006000392],[127.052406900121,37.728928101406794],[127.05271539888389,37.728108300727904],[127.0503188002187,37.7287517003371],[127.0503064012996,37.7297122005632],[127.0488161011598,37.7302218010576],[127.04649860029191,37.7300221003602],[127.0450193006105,37.731171299777],[127.0459794004526,37.731395300579706],[127.0440947008606,37.7318907004311],[127.0432205997645,37.7331122002147],[127.0421775998506,37.732101100492905],[127.0417502997514,37.732580400251],[127.0414424993755,37.731832000742294],[127.0398597998411,37.7317581002102],[127.03829929952701,37.729675400535]]],[[[127.0393625992606,37.6114183004048],[127.039362600256,37.611418299745395],[127.0393626001056,37.61141830030439],[127.0393625992606,37.6114183004048]]],[[[127.039865099821,37.7363643001274],[127.0417011000041,37.7346789998893],[127.04297519873,37.73473039983789],[127.0430528999322,37.733740999585905],[127.0457229001682,37.7352354995788],[127.0477415995764,37.7351665991368],[127.04804579988179,37.7342599994708],[127.0479856006159,37.735169699400004],[127.0527568010359,37.7374150000165],[127.0527601004234,37.7391394995542],[127.0510518005666,37.7398146003716],[127.05041490052261,37.7413481007281],[127.0468280000063,37.7427967006641],[127.0438585999667,37.740064200564],[127.0429488999862,37.7406644005349],[127.0419582996727,37.7400332006602],[127.039865099821,37.7363643001274]]],[[[127.0404752992075,37.7228627995701],[127.0404753001456,37.722862800048205],[127.0404752999542,37.722862800168905],[127.0404752992075,37.7228627995701]]],[[[127.0415300997416,37.60185770025689],[127.04153009981701,37.6018576998357],[127.0415301002288,37.601857700277996],[127.0415300997416,37.60185770025689]]],[[[127.0430081997238,37.7108454000618],[127.0457024007346,37.7112094992205],[127.0474752996239,37.7123413992025],[127.0469532994222,37.7091009008013],[127.0443299998366,37.7091021003295],[127.04531829905551,37.7071496004105],[127.044293699308,37.706966100462004],[127.0452887005819,37.7064825997398],[127.0458378000328,37.707235398987],[127.0482993001577,37.7060326990732],[127.04989570106129,37.707456299532495],[127.04993040190719,37.7093296984707],[127.051070206379,37.7103943005363],[127.0484118006782,37.7111481007925],[127.04739259979709,37.7136422005631],[127.04645639941269,37.712777500870004],[127.0449436995425,37.712779000561895],[127.04468729950571,37.7118219008987],[127.04388389984929,37.712514400269],[127.0430081997238,37.7108454000618]]],[[[127.04448529976571,37.774419000101105],[127.0444873005473,37.7745197999303],[127.0445211002217,37.774937900171196],[127.0444872997637,37.7745198000003],[127.04448529976571,37.774419000101105]]],[[[127.0450074998287,37.580119499999505],[127.0450074999187,37.5801194998282],[127.04500750021529,37.580119500120404],[127.0450074998287,37.580119499999505]]],[[[127.0475610997233,37.606078600118494],[127.049701000041,37.6058095993844],[127.04889900067231,37.6067909001352],[127.0499020007928,37.607173600296306],[127.0493744997026,37.6076441000641],[127.0475610997233,37.606078600118494]]],[[[127.0478903999719,37.7387261000094],[127.0478904000581,37.7387260998865],[127.04791769996,37.7388025000786],[127.0478903999719,37.7387261000094]]],[[[127.0493411996151,37.7125145998373],[127.0493412002986,37.7125145996835],[127.049341200181,37.7125146007211],[127.0493411996151,37.7125145998373]]],[[[127.0497976997676,37.7125655999741],[127.0497976998421,37.7125655996325],[127.0497977011475,37.712565600479095],[127.0497976997676,37.7125655999741]]],[[[127.0523089998423,37.6975986001146],[127.0533123002627,37.698284999093396],[127.0542374001979,37.697640798597405],[127.0573268016461,37.6992798000743],[127.05753770256919,37.7007506991626],[127.05616650092911,37.700758800821504],[127.0554951988654,37.7020980012623],[127.0536623994275,37.700416400752104],[127.053312298839,37.698284999428196],[127.0523089998423,37.6975986001146]]],[[[127.05388939886811,37.6093737001288],[127.0550404000329,37.6104470990033],[127.05581529966791,37.609285999707694],[127.0577612996249,37.6101242995298],[127.05826359990971,37.6096413995148],[127.0587921002467,37.6117477001273],[127.0570388005866,37.6110033010715],[127.0570416997954,37.6121463013475],[127.0563199990224,37.6115100009307],[127.054567400372,37.612067101079695],[127.05388939886811,37.6093737001288]]],[[[127.054717399425,37.689152699824604],[127.0548692005755,37.688963199177],[127.0551920002527,37.688980399159796],[127.054717399425,37.689152699824604]]],[[[127.05504999931789,37.724083400636296],[127.0550499999562,37.7240833997787],[127.05505000035359,37.7240834002775],[127.05504999931789,37.724083400636296]]],[[[127.0553882995422,37.5891335000332],[127.0565863001368,37.588099899580804],[127.05814220013471,37.5895021994802],[127.0583684997886,37.5885276998686],[127.05994340038639,37.5890550001159],[127.05803279969221,37.590477400404396],[127.0553882995422,37.5891335000332]]],[[[127.0600938993048,37.5902198005546],[127.0601068998398,37.590075999990205],[127.06011310019849,37.5900192996683],[127.06010690035,37.590076000237104],[127.0600938993048,37.5902198005546]]],[[[127.0601210997507,37.5896317000393],[127.0601210999102,37.5896316998095],[127.0601211000631,37.5896316999705],[127.0601210997507,37.5896317000393]]],[[[127.06203579889821,37.6008558991511],[127.0637349990988,37.6008638987364],[127.065325699948,37.599590899161],[127.0646276998369,37.5967040005333],[127.0627579996604,37.5944606000963],[127.064891499791,37.5933389994292],[127.067561800015,37.5947543996773],[127.0665338002421,37.5976411995768],[127.06803350006369,37.59726239992],[127.0676158001951,37.5996988997112],[127.0694370997355,37.5995250994293],[127.0702159008761,37.6002545009046],[127.0683873013778,37.6014799003443],[127.067594501557,37.6032155004218],[127.06807460102691,37.6048369011516],[127.0652880998884,37.605561900637596],[127.064891799561,37.6042252999066],[127.06552689955019,37.6048012992076],[127.065773099304,37.6043127996961],[127.0645316999211,37.6032693008626],[127.0636897002871,37.603740600975904],[127.0622774997794,37.6029191000608],[127.0628609996832,37.6025457000006],[127.06203579889821,37.6008558991511]]],[[[127.0622325990663,37.6275152997491],[127.0623057999541,37.6276096998594],[127.0623548002713,37.6276663999161],[127.06230579987991,37.62760970026],[127.0622325990663,37.6275152997491]]],[[[127.06231239991159,37.6560754999829],[127.06231240002569,37.6560755000033],[127.0623123999816,37.6560755000565],[127.06231239991159,37.6560754999829]]],[[[127.06242569986361,37.595471099989595],[127.0624257000274,37.595471099889394],[127.0624257000654,37.595471100053],[127.06242569986361,37.595471099989595]]],[[[127.06275119968839,37.593388000205096],[127.062751199962,37.5933879996172],[127.063094300122,37.5935169003263],[127.06275119968839,37.593388000205096]]],[[[127.0634674998445,37.5928332999301],[127.0634675000725,37.5928332999218],[127.0635258002323,37.5928593001034],[127.0634674998445,37.5928332999301]]],[[[127.0708365993302,37.6131112998349],[127.0708366019371,37.6131112989436],[127.0708853000422,37.6135341002892],[127.0708365993302,37.6131112998349]]],[[[127.0838483995654,37.5952178001469],[127.08484199950489,37.5954811994822],[127.0844752999238,37.594794099980504],[127.08616510008821,37.5943409996428],[127.0854969004331,37.5944620000434],[127.0875526000076,37.595457599650004],[127.087673000278,37.596250600076495],[127.0855113999998,37.5963827005487],[127.0838483995654,37.5952178001469]]],[[[127.08738909962399,37.5884254998225],[127.0876915995767,37.5880054994646],[127.08801370144431,37.588470599816404],[127.08738909962399,37.5884254998225]]],[[[127.11249499841719,37.667155299353794],[127.1137824997296,37.6654179998851],[127.1178986004919,37.6653755988963],[127.1189732008912,37.6658688994754],[127.1198897003358,37.6691160991439],[127.12067330049061,37.6686511997512],[127.1171163993986,37.6707922019551],[127.11604359952099,37.670441901902],[127.1152657000111,37.6687477009947],[127.1150721002047,37.6694308003116],[127.1139156997125,37.668740300673605],[127.1130570998215,37.6694104006452],[127.1139453993355,37.668168500010204],[127.11303679981201,37.668199900077795],[127.11249499841719,37.667155299353794]]],[[[127.1142518994212,37.671020499457896],[127.1146057005793,37.6707259989719],[127.1142538997914,37.671306000324805],[127.1142518994212,37.671020499457896]]],[[[127.115689499713,37.664787999263204],[127.1156895005419,37.664787998982405],[127.11568950009931,37.664788000121],[127.115689499713,37.664787999263204]]]]}},{"type":"Feature","properties":{"interval":60,"stationId":"5812233466"},"geometry":{"type":"MultiPolygon","coordinates":[[[[126.8813225991378,37.5039419993835],[126.8813225998792,37.503941998814305],[126.8813226008186,37.5039419996962],[126.8813225991378,37.5039419993835]]],[[[126.88310009925789,37.544206099327496],[126.8831001002243,37.544206099885294],[126.88310009968029,37.5442061006521],[126.88310009925789,37.544206099327496]]],[[[126.8912614992493,37.508528999228304],[126.89126150057609,37.5085289991096],[126.8912615006919,37.5085290000616],[126.8912614992493,37.508528999228304]]],[[[126.89161059942761,37.509523200831495],[126.892789399164,37.5078041007865],[126.89277510027509,37.5074366996485],[126.8927894006471,37.5078041002648],[126.89161059942761,37.509523200831495]]],[[[126.892307398853,37.5380805001564],[126.8938240004411,37.5380757002094],[126.8929532987766,37.5389388006425],[126.892307398853,37.5380805001564]]],[[[126.8924445998625,37.5263498000214],[126.8936663987101,37.5257309999199],[126.8933705996616,37.5244618000541],[126.8945992986824,37.5242082998719],[126.89575199973851,37.5218583997787],[126.89723080090471,37.5232170994396],[126.8983349010971,37.5230555999221],[126.89860640057921,37.5245038992292],[126.8995553000108,37.5236338999232],[126.89881170049459,37.5253498006081],[126.8997288009146,37.5271962000489],[126.8985934005018,37.5273465005541],[126.8981921998808,37.5294549001602],[126.89503859986701,37.5288168011924],[126.8924445998625,37.5263498000214]]],[[[126.8934233988798,37.5191975001409],[126.8946446986521,37.517273699566694],[126.89390989981659,37.514568999554804],[126.8945413000211,37.5157919986779],[126.8962071006301,37.5152189991749],[126.8958208020385,37.5166339997511],[126.8972942005651,37.517444798940296],[126.8980893011275,37.5169371999133],[126.8959795007078,37.5171433016841],[126.8953564001511,37.5201779001209],[126.89463089923309,37.5191708012401],[126.8934233988798,37.5191975001409]]],[[[126.8946967994662,37.5778490002958],[126.89699190016711,37.5763576994893],[126.8977371997453,37.5773939988355],[126.89869989938009,37.575500999404206],[126.89949760037051,37.5762477990575],[126.9002134005661,37.575777699640604],[126.89773720116179,37.5773940014396],[126.89663210059001,37.577160400748895],[126.89691140090969,37.5784443022297],[126.89471600006111,37.5786327006752],[126.89528129946679,37.5785892999875],[126.8946967994662,37.5778490002958]]],[[[126.8956099990048,37.5808399987848],[126.89561000096961,37.5808400006764],[126.8956099994503,37.5808400010316],[126.8956099990048,37.5808399987848]]],[[[126.8969186992232,37.5363918997915],[126.89804719902,37.5343698003692],[126.8975591995495,37.5333758994741],[126.8991594994471,37.5347936984327],[126.9009831987124,37.5342586989403],[126.9011772985183,37.5332224999765],[126.89898239925999,37.530020199506204],[126.8997520008981,37.5308329994387],[126.9006949018852,37.5303512989187],[126.89975200069881,37.5308330004153],[126.9003059001449,37.5321213991269],[126.902084900557,37.5312243981101],[126.9039314005426,37.5318701985999],[126.9057520999944,37.5311848990448],[126.9066791013698,37.5321714998658],[126.90507740037809,37.5343952007746],[126.90490460055089,37.5358248993449],[126.9057906005418,37.536553000076495],[126.90421000062571,37.5374276004185],[126.9046881001428,37.5350194003718],[126.8999973998139,37.5382833005113],[126.89959239943481,37.537365601202],[126.8987386989009,37.5378202002645],[126.8991218994185,37.536863000302496],[126.8969186992232,37.5363918997915]]],[[[126.9029422994776,37.5634389992181],[126.90294230038681,37.563439000147405],[126.90294229998531,37.563439000041605],[126.9029422994776,37.5634389992181]]],[[[126.904489898573,37.522733100239],[126.905221099901,37.5222159989708],[126.90578550143809,37.522732099651],[126.9050620001063,37.5232399008546],[126.904489898573,37.522733100239]]],[[[126.90490959987359,37.5493540002464],[126.9056852991018,37.5493717995634],[126.90726839643291,37.5462717966961],[126.9084402000129,37.5454098997802],[126.9095846988684,37.5456904994996],[126.9105778999792,37.5443130996203],[126.91262119951091,37.5453036994312],[126.91300989993091,37.5442963999337],[126.91443550044279,37.5440276995051],[126.9147806000977,37.545325998206806],[126.9175266008607,37.5450046987441],[126.9199968995793,37.5461964991346],[126.9222062989462,37.5440377991764],[126.9238464003478,37.5453250992646],[126.92447210069581,37.5450157997515],[126.9243244006215,37.5458959996829],[126.92523770025,37.5456028999632],[126.92662459998989,37.5466949993641],[126.93056249986019,37.543180499273696],[126.9320378999775,37.5443595988787],[126.9345623002391,37.543773099860005],[126.93483330006529,37.5445630993434],[126.93602540030341,37.5445551999168],[126.9359412003876,37.5453900990819],[126.9369759993528,37.5447741996978],[126.93655889949419,37.5439562996638],[126.9372527997877,37.5426185997519],[126.9397801995922,37.5426170997142],[126.9406633000956,37.538566598726305],[126.9419153995482,37.537919799532695],[126.9424605995451,37.5363059004316],[126.9413757998939,37.53715420055261],[126.931900707666,37.5303241087723],[126.9298337995067,37.5307497008366],[126.9287830993124,37.5292089005827],[126.9341870996526,37.5257388987004],[126.93414390027459,37.5241493988262],[126.93736340083879,37.524081699898105],[126.9372389004983,37.5253563998161],[126.93789650016039,37.525307900142],[126.9350130032599,37.5286434970906],[126.9422315960413,37.5353903903437],[126.9470058998822,37.534437699669695],[126.9460360010794,37.535131400194295],[126.94734419977121,37.5364317988939],[126.94876560033511,37.5347328995775],[126.9479703007798,37.5356142998757],[126.9492450999929,37.535592799619906],[126.9497013002896,37.5367610996086],[126.95042550045119,37.536416499577705],[126.9502758003024,37.537390399580296],[126.9514209997087,37.537679299523504],[126.951203599353,37.536731199895],[126.9524036994199,37.5350131999867],[126.9522948995287,37.5343586006413],[126.9515537003132,37.53457779928],[126.9548605984902,37.5351111991883],[126.9547601982634,37.533407000601095],[126.95542899927909,37.532852400174505],[126.9539691991836,37.5315098985682],[126.95468829991191,37.530929399689896],[126.9579426978494,37.5318428947132],[126.95654539924669,37.525794400761704],[126.95795699894079,37.52421970033],[126.9567075993536,37.5235110995401],[126.9579626994491,37.523375498842704],[126.9593586978632,37.5211623005126],[126.95913249937209,37.5182206000366],[126.9597124022141,37.5210462989592],[126.9618906005961,37.5202487994882],[126.965770096754,37.5205427991811],[126.9689243000292,37.5191301979616],[126.96915489979861,37.5172119998798],[126.97311039913019,37.5155713911695],[126.97321699941641,37.506522799652096],[126.9767786988832,37.5059751990452],[126.9761196001444,37.5042583995225],[126.97677869995749,37.5059751982305],[126.977698999916,37.5042930995284],[126.979858799933,37.5048534994271],[126.9799763002685,37.5042239996152],[126.98159289870159,37.50435229949],[126.9795300993464,37.5021861001159],[126.9807711008506,37.502933299001405],[126.98253580062719,37.5021374991352],[126.98450959881549,37.5008868002009],[126.9840722983366,37.5003166997311],[126.9848708000732,37.4988120997403],[126.989224000308,37.499030599169394],[126.9876938016869,37.501443700381905],[126.9879803014004,37.5024319993936],[126.9909292990792,37.5014500980209],[126.9910481016759,37.5023078998775],[126.9928516998723,37.5027502994351],[126.99506460067501,37.5014088983387],[126.9971598005727,37.5019222987782],[126.9967747006621,37.5027244002261],[126.9975395002139,37.5039512992241],[127.0008098984942,37.5010613003978],[126.99863159943,37.5001983995947],[126.99963339908439,37.5005952994513],[127.00059420016609,37.499916799608904],[127.00115349983061,37.5011973991734],[127.00379119937469,37.499917399550604],[127.00281679957641,37.4987304994133],[127.0044371999636,37.497994299589],[127.00665329906559,37.4997686982073],[127.0076350000216,37.498459499458406],[127.0078144003546,37.4995732991169],[127.00933590065479,37.500110299479005],[127.0084521008981,37.501097699781404],[127.0094258006625,37.502274399817],[127.00860660059679,37.5017288011415],[127.00802230051829,37.504341799142296],[127.01044139973361,37.5024928996255],[127.0118276000324,37.5024662991337],[127.01244250017001,37.5032784995517],[127.01069340081929,37.5040778003932],[127.012055601595,37.505407299820604],[127.0099279004145,37.5062455015235],[127.0099946003478,37.508323999445004],[127.0133163995144,37.508010898501105],[127.01299690106451,37.5086332997296],[127.0159195008212,37.509380299147196],[127.0171153996253,37.5085968999306],[127.0156113995665,37.5069285980194],[127.0193425998249,37.5068162989896],[127.0193840999485,37.505722399643304],[127.0210618993285,37.5056572996408],[127.0214384993032,37.5042389004455],[127.0204900986876,37.504446799704496],[127.02166029988709,37.502301799969196],[127.0249291001919,37.501775398613],[127.0267068998748,37.5004434999653],[127.0294633007142,37.5035018001454],[127.02846270134181,37.5045213998605],[127.0297447007053,37.5061090001126],[127.0275352009599,37.5060842007728],[127.0258769012331,37.5075528998414],[127.02988469980879,37.5080292993641],[127.035325100434,37.5068811994508],[127.0374525006297,37.5096432993407],[127.0385975994846,37.5099698990141],[127.03894120057079,37.508848298961695],[127.0401046999997,37.5091872988134],[127.0419012000421,37.5074677992863],[127.04303209985511,37.5078055992753],[127.0445385997672,37.507290699734696],[127.0445692994118,37.5066188992422],[127.0451349005959,37.5073660992203],[127.04619649953429,37.506721499864895],[127.045652299824,37.506210200113195],[127.0462649992461,37.505831900206395],[127.0453207997175,37.5055523990442],[127.0459201989076,37.5029903992797],[127.0500370993886,37.5023043977573],[127.05056949885619,37.5012307988309],[127.0519776010673,37.5052987998619],[127.05290470182639,37.5058282010636],[127.05197760071471,37.5052988009585],[127.05058430070049,37.5067538010272],[127.0488788005284,37.506176000745604],[127.0490121001255,37.5069130003045],[127.04619650044329,37.5067215007358],[127.0442799015413,37.509270299780994],[127.04777569949,37.5109644984939],[127.0501829993825,37.5112238985912],[127.0552493003436,37.5093387991186],[127.0589071003698,37.513998699783905],[127.06016259983309,37.513446298893996],[127.0618239014284,37.5145351993464],[127.0629758008541,37.5160235002905],[127.0629582013523,37.5184517000672],[127.0638143005148,37.5191614000173],[127.06215210064501,37.5181430004175],[127.0622006999875,37.5189829004554],[127.0611253006587,37.5196178002838],[127.0612629005211,37.5203759995256],[127.0621017008052,37.5200124005387],[127.0614257005352,37.5215249001072],[127.0591598028011,37.5231685984635],[127.0641962037041,37.5209762981903],[127.06666320131619,37.5289816994946],[127.0767162999497,37.5268038999657],[127.08016090072529,37.5267911996867],[127.08114140035171,37.5269686001611],[127.0802774008979,37.5273240001048],[127.08063750053779,37.5278218996069],[127.0818997992755,37.528111499317305],[127.081758901417,37.5271616999808],[127.08271740120561,37.5293601997274],[127.0818977000802,37.5286883012346],[127.08200770056031,37.531467399273396],[127.0839858995662,37.5318339990644],[127.084666600096,37.5308996993492],[127.0856794000083,37.5318285988475],[127.0868893000127,37.5305781997612],[127.08797510041799,37.5323061995175],[127.0889509000755,37.531860399447396],[127.0902278987985,37.5324663988414],[127.09190820446831,37.5309909908507],[127.0942459998913,37.5330554993212],[127.1014410926962,37.52441790795881],[127.10029729903499,37.5220019002871],[127.1014843990106,37.5224037990164],[127.1011025996214,37.520428699627296],[127.1014153994651,37.519296499670205],[127.1027309998518,37.5188609991787],[127.1030316995511,37.5178683001714],[127.1023701994084,37.5176228988351],[127.1037220993946,37.518145298647],[127.1054000008562,37.517499998479195],[127.1077665016107,37.5205024996748],[127.107564801264,37.5213737002806],[127.1066875007432,37.5215423004107],[127.1066869005733,37.5233335011805],[127.1034824001596,37.5232721009255],[127.1033416990749,37.5216675016336],[127.10148440034891,37.5224038010593],[127.1022475006464,37.5246812006309],[127.1014411014528,37.5244179008942],[127.0959047069892,37.5334047919073],[127.1001931005963,37.5377502006248],[127.0971096011245,37.5381726003311],[127.0984694021378,37.5393667994148],[127.0994498011574,37.541960596821006],[127.1008130997941,37.5421222966593],[127.1022832983239,37.540150398631205],[127.1032753998624,37.5409481992271],[127.10406910694671,37.5406262944823],[127.1066957048305,37.5429255933665],[127.112399402541,37.545001396356795],[127.1141120010207,37.544412297192196],[127.11732309880949,37.5397976000463],[127.11577389830329,37.5388758001348],[127.1164831999115,37.535698099905595],[127.1173296994167,37.5355137996986],[127.116883199521,37.534959999514],[127.1176890995363,37.5338219994173],[127.1190894990723,37.5337189995961],[127.1184335993891,37.532390898037704],[127.11926139856129,37.5309481994804],[127.11823409934169,37.530258598901305],[127.1201881984208,37.52969560025149],[127.1186883990127,37.5276328004342],[127.1193956014316,37.5273790992609],[127.12147080053819,37.529063598845504],[127.12307099997689,37.5283432985819],[127.1241120000408,37.5322970991854],[127.1280046996453,37.5319908992891],[127.128845699813,37.5296756986376],[127.1304557996763,37.5300169993071],[127.1305626000627,37.5292063992868],[127.1314271998518,37.5302358987746],[127.13437690012931,37.5306681993618],[127.1346446000659,37.531611498965596],[127.1360260003902,37.5312826992329],[127.1363137003601,37.5320953990331],[127.1376218000028,37.5314787994243],[127.13829750057859,37.5326485990837],[127.1394723000757,37.53241579913],[127.1445781007846,37.5352921000343],[127.1460208008564,37.5374458003177],[127.14478270098279,37.5392679998129],[127.14380900109711,37.5394736001985],[127.144108301093,37.5408197999383],[127.142992800246,37.5419717999828],[127.1433603003976,37.5429491993942],[127.1460379005747,37.543770799860596],[127.1456329003245,37.548440199969],[127.1465421009691,37.5501994002028],[127.1460608001136,37.5511345005671],[127.1446117015239,37.5507580009475],[127.1444130001851,37.5546988002194],[127.1437941990817,37.5540003000063],[127.1440375994558,37.5522941007106],[127.14263290086049,37.5523633006414],[127.1426940000303,37.5530430006403],[127.1408065995806,37.5516812008957],[127.14294479853599,37.549848000257896],[127.1419928996672,37.5484021006927],[127.141203699214,37.548478100675],[127.1412448989967,37.547514100467],[127.1394842990787,37.546900799331006],[127.1400593985036,37.5454734007584],[127.1385833993953,37.5457677001381],[127.14011959915321,37.5441966997291],[127.14028539928789,37.5426012001665],[127.1367194004241,37.540224700966],[127.1353521999038,37.540617100346395],[127.134439199815,37.5395817005501],[127.1307107002741,37.5387786005625],[127.1307958006158,37.541447300592104],[127.12937380052159,37.5400507010905],[127.1276343016756,37.5418185995562],[127.1294852006322,37.5425852999425],[127.1283070003208,37.54374700131331],[127.1251001006281,37.5433701004429],[127.1273993001183,37.5464460987736],[127.1287518998759,37.545532899527394],[127.1290027001357,37.546590798903],[127.1313532002711,37.5465937992064],[127.13372320043051,37.5479598998578],[127.13227210083309,37.548120900447],[127.13240160070359,37.549011799556105],[127.1333757002378,37.549094099192494],[127.13329660043769,37.551610000221096],[127.13222330060741,37.5517399005739],[127.1295022000334,37.5555175000967],[127.1294375999184,37.5548590006902],[127.1261554010932,37.5533665013206],[127.1245188999463,37.5538096000106],[127.1229682971596,37.5487584983866],[127.12470879907579,37.546544400114],[127.1222498996815,37.5455147004583],[127.1218746992251,37.5442188004271],[127.120366699458,37.5431808010589],[127.1195490996605,37.5437862004568],[127.12030659928601,37.542798800695],[127.1180616991259,37.543309100300405],[127.11744879901201,37.5418895011816],[127.1155311007613,37.542114600975594],[127.1150347031326,37.5442968016917],[127.1091007011613,37.5460656002431],[127.1092443010177,37.5472335990751],[127.11041209984991,37.5479103983983],[127.10931310132429,37.5483632996918],[127.11116800799611,37.5510544963318],[127.1112615026439,37.553053302087804],[127.1098952000648,37.5519179012252],[127.1081348997178,37.5527891005696],[127.10784360000909,37.5518408015179],[127.10598000187271,37.5509059024528],[127.1012791027665,37.554400600460504],[127.09970369888171,37.5529238025047],[127.09739879971019,37.5535221008995],[127.09504510104719,37.5555421010952],[127.0969278049465,37.5635443999243],[127.0962059041593,37.5686982996006],[127.0985623018029,37.5694923988065],[127.0993951009701,37.5724335958653],[127.1027499004994,37.5717620965895],[127.1038854004526,37.570506299119295],[127.1043154030291,37.5716141015018],[127.1031536041909,37.572205600910294],[127.1020837052608,37.5772690958468],[127.10491160243289,37.578555794560096],[127.1093112030724,37.576406999282504],[127.10933870276929,37.5811040996067],[127.1103753021694,37.581714101102996],[127.11003220216341,37.5869822979501],[127.1131089058369,37.5874921009441],[127.1111729006434,37.588652902287],[127.109095302721,37.591899199040704],[127.1102089009745,37.593934399349],[127.107578503024,37.5971895973113],[127.111933802759,37.598872798616306],[127.1122775019017,37.6002551986143],[127.1151591007123,37.6016398994575],[127.115589402709,37.603859200737205],[127.1136726006584,37.608510601275604],[127.111830200091,37.6091684030296],[127.1102604009563,37.6143521992091],[127.1110508005832,37.6149382004065],[127.110260399712,37.6143522009472],[127.1072384012937,37.6148315012611],[127.1070313007459,37.6171378996031],[127.11022050015819,37.6174565996027],[127.1105776002035,37.6167965990751],[127.11006890083961,37.6184552005385],[127.10682749987,37.6169085006468],[127.1072383993696,37.6148315011219],[127.1044011010148,37.6148672008973],[127.1055367005541,37.6180442993101],[127.1063393003582,37.6180344995208],[127.10553670107561,37.6180443001856],[127.10486590200189,37.619561599717095],[127.10621820064961,37.6205180987606],[127.10709200210829,37.6194634990181],[127.10737850228419,37.6214868007515],[127.106198002094,37.6265472991563],[127.10834980313629,37.6281002018601],[127.1053885060976,37.6348586951016],[127.1065729052713,37.636136701117],[127.1055135000667,37.6356166010707],[127.1051560987557,37.6366451010457],[127.1048701990416,37.6345491031417],[127.1034643004475,37.6338334038574],[127.0972866066252,37.6334250042658],[127.0940393052405,37.6427760979347],[127.0980642050657,37.6450929974588],[127.10057110296769,37.647740898903],[127.10664609941851,37.6493987971698],[127.1079851991729,37.6476310981938],[127.1102952998753,37.6478721998453],[127.11074569929029,37.6455262985885],[127.1118707007402,37.6450207995648],[127.11082330088301,37.6463871998106],[127.11183580102899,37.6467752002179],[127.11082330030851,37.6463872014047],[127.1101926009884,37.648343400566404],[127.1111222000588,37.6499281989816],[127.11260919975089,37.6506413990238],[127.113254099106,37.650174399490794],[127.1126969995523,37.6485797996097],[127.1135924002183,37.6490849991046],[127.1150141990645,37.647410500246096],[127.11428579960331,37.6461894988612],[127.1159716001575,37.6471857983517],[127.1169168999415,37.6462723993588],[127.1175860009011,37.6467135002258],[127.1169353001919,37.646292100870895],[127.1162866008406,37.6473761997868],[127.118507599626,37.6480861996083],[127.11998489918791,37.646086999261804],[127.12064789988,37.6481685987996],[127.1213356991922,37.647195199773],[127.12106079964849,37.645718198613295],[127.1215097006452,37.646052899743204],[127.1207968007587,37.6466771003564],[127.1228901988826,37.6481562990343],[127.1225076993643,37.6460120005734],[127.123318500922,37.6455925980948],[127.1267267999843,37.6478701976258],[127.1287432995633,37.645993399440904],[127.1283176014589,37.6472756999956],[127.13025239952411,37.6486019986693],[127.1301571000171,37.646523099546805],[127.13225960216249,37.649299898345205],[127.13180150412569,37.6535402979599],[127.1337086022186,37.654980096520106],[127.1367764014732,37.6557945994424],[127.1339071038697,37.6578000987594],[127.13489250469951,37.663607999317904],[127.13766460417109,37.6659181977381],[127.1371489022802,37.6691368997692],[127.1385232052041,37.6699545019866],[127.137148899852,37.669136900973896],[127.1363008003705,37.667231201532005],[127.1356084010629,37.667375201388005],[127.1346277020436,37.6685554002078],[127.1354920015089,37.669853500257304],[127.1353072023974,37.6714694999764],[127.1339366007696,37.6720151020125],[127.1339181002712,37.6745759005466],[127.1323251989875,37.673496200265106],[127.1319500993626,37.671014302747004],[127.1281564031563,37.6706925030688],[127.1197745956512,37.6750586058993],[127.1153585000673,37.6790532019047],[127.11509820032761,37.6808036001543],[127.11332060197749,37.6803397006509],[127.1112010040971,37.681043199947396],[127.1082454070527,37.686097494893104],[127.1082531045557,37.6907416056631],[127.1073503958668,37.6900046058631],[127.0999609964144,37.6923615039183],[127.09555850081689,37.6889709073089],[127.0884702032489,37.6901774079611],[127.0844395064465,37.6938147048272],[127.0842178066682,37.6978383008036],[127.08170990036011,37.6977693010043],[127.08110460144711,37.6998164000562],[127.08273320065581,37.7012944001952],[127.0803424020837,37.70237290098],[127.0807918047175,37.7058976089415],[127.0795444975566,37.7071378042399],[127.0751763019248,37.704829706548],[127.07195090421061,37.7126685002448],[127.07538770077379,37.7166038963094],[127.075971708428,37.7161144028086],[127.0814763031576,37.724716696951],[127.0837680008659,37.7243638973038],[127.08923559747,37.7269412939532],[127.0939747983725,37.7265285937222],[127.0974346009438,37.728741999240796],[127.10135220129969,37.728699500628395],[127.1009451013131,37.7298857012021],[127.09945450047549,37.7295945011907],[127.0987282012018,37.7309435998416],[127.0993720034981,37.732689401567896],[127.0969770037013,37.738095599888],[127.1015410004587,37.743176599750996],[127.1004853010663,37.7437175008026],[127.1002553006635,37.747218200279896],[127.0994097008975,37.7483631998011],[127.1001386008219,37.748555100218596],[127.0994621004768,37.7500879005067],[127.0996802990382,37.7495684005172],[127.09821460050391,37.7491715009141],[127.096503302372,37.7507592025134],[127.0934557018884,37.756642806990705],[127.0909902008532,37.7586833996601],[127.0898250020184,37.7611827971607],[127.0911427042014,37.7635210001125],[127.0940978001955,37.7651902004137],[127.0910971025299,37.7636390021175],[127.0891333044937,37.7656802000763],[127.0881702001132,37.7656416014045],[127.0857531999293,37.7632679031622],[127.0838456990516,37.7644189029165],[127.0802106026867,37.763244804090604],[127.0772641016081,37.763973205606305],[127.0733654039853,37.7679469061852],[127.0772640959119,37.763973203839704],[127.0752025979734,37.7623177054952],[127.0698049980257,37.7647864055115],[127.0657623975776,37.7639210052465],[127.0614009019391,37.7676139015536],[127.0591195040697,37.7711094023671],[127.06096690477659,37.780182898355896],[127.0653521001362,37.7836713003932],[127.0604656020961,37.7831046057666],[127.0567314015974,37.784627204758806],[127.05145089943231,37.7875578014731],[127.0507267001565,37.7888860001449],[127.04866100222219,37.7898509991799],[127.0488072020206,37.7906116013834],[127.048273697738,37.789651301813],[127.04566299774261,37.7909732036113],[127.0461350967837,37.7882035001028],[127.0396677990895,37.785084506337405],[127.0399291994643,37.7843238005097],[127.0379459007421,37.7836765010743],[127.03807260061541,37.7842855004653],[127.03693539988241,37.7843362008783],[127.0378639990798,37.7836285001074],[127.0377331992106,37.7798303039056],[127.0346445022993,37.7812884024475],[127.0356834012604,37.783871999863905],[127.0333541009869,37.7843821009127],[127.0324588011952,37.786349900728396],[127.0294888993568,37.785020801436],[127.02767159966521,37.785994800447895],[127.0263472997526,37.785212500308],[127.02666599999691,37.7829935992596],[127.0280460986168,37.7837452985079],[127.027238899424,37.778145804107396],[127.0259319970296,37.777576399127604],[127.02741429682061,37.774223202198],[127.0225434987555,37.7748224021648],[127.0231097995477,37.773223100529805],[127.0204433992511,37.7727230002495],[127.02343070142261,37.7696775939656],[127.0267520981012,37.7709054927377],[127.0331210965622,37.7686026947759],[127.0348895951761,37.7642134983946],[127.03232439774129,37.7613223012858],[127.0272096998186,37.76182070088],[127.0238410988718,37.7606171013421],[127.02267260004031,37.7613314006278],[127.0226746987746,37.7598716004606],[127.02097859879461,37.7593465986132],[127.02207639769681,37.7572029007569],[127.0195014987617,37.754983301709096],[127.0180409983543,37.7551587008533],[127.0187918018888,37.7538925984324],[127.019501501433,37.7549832994978],[127.0222374989447,37.7557043994159],[127.02167830204151,37.754717198678],[127.02276380170301,37.757200497869604],[127.0250531996939,37.7567700984094],[127.02737279993559,37.751261099618404],[127.0263462001176,37.7534716999513],[127.0267584002849,37.7546600000626],[127.0258039010963,37.7549195001371],[127.0255435013567,37.755945599110994],[127.02588730113929,37.7564232988192],[127.02760709961049,37.7554946995712],[127.0293859995753,37.7556544990019],[127.0296085995694,37.7543376996239],[127.0328513996506,37.751555599799005],[127.0328166997781,37.7499273010379],[127.0310778998048,37.748141601096194],[127.0291421991838,37.748977700883295],[127.02861469971131,37.7484441014169],[127.02799569931271,37.7497768011027],[127.0289219994702,37.7476168997731],[127.0270192005126,37.7461502009279],[127.0250460006955,37.7461624021822],[127.0241932972962,37.7474260028856],[127.02042270106679,37.7440975062141],[127.0166562970024,37.7434546075296],[127.01077119454129,37.7369435993895],[127.0143793024712,37.7368932962394],[127.01720469964579,37.7377764953562],[127.0201962920261,37.7292386987545],[127.0198608928487,37.7267763991783],[127.0222179929348,37.7234814963834],[127.020706794446,37.717098402766496],[127.0167212988521,37.715240196834095],[127.0186263982774,37.715962294614],[127.0203714017838,37.7089949957172],[127.0237090984461,37.710651394060804],[127.02483929731589,37.7104358942763],[127.0273482948069,37.7074293972828],[127.02722289505729,37.703765600573],[127.022844199436,37.7031409011977],[127.0190364032438,37.7013272030114],[127.01843630144421,37.702693404627404],[127.016643999263,37.7020192016311],[127.0155555903873,37.7027160080926],[127.01582549927241,37.7009579994664],[127.01679039892511,37.701058899379],[127.0185831971323,37.6996595007784],[127.0179578974335,37.6961153025008],[127.01662779733489,37.6960516998085],[127.0172854953321,37.693909498413795],[127.0160629945111,37.6889214968866],[127.017757094861,37.688755194402106],[127.0210846915334,37.6860467971105],[127.02192239069569,37.676616906540396],[127.0120974993253,37.679200302328795],[127.0114252999975,37.6801310013981],[127.0052181034732,37.674056805785405],[127.0084140002244,37.6800115006101],[127.0033571049636,37.677774902844305],[127.0025080932377,37.6787118050892],[127.0028542919782,37.6754092987267],[127.0005826942498,37.671500002636],[126.9988631951319,37.665643605210704],[126.99950249460251,37.658026303748706],[126.99831739578761,37.6560164057586],[126.9924956991194,37.6568711007184],[126.9973685930284,37.6542273010582],[126.99687689352011,37.650178505107],[127.0011081922179,37.6426454058667],[126.9941274991986,37.6407900077221],[126.991509101817,37.6433396051725],[126.9895939951349,37.6406337960126],[126.9941274980181,37.640789991377304],[127.0004801916654,37.63362729854],[126.99478719395411,37.629852298618204],[126.9944093943319,37.6264522020183],[126.99241979247849,37.6217925037656],[126.99396539439199,37.6202871981451],[126.99101949734789,37.6124990019768],[126.9892722982049,37.6118082008747],[126.9910194994246,37.6124989992399],[126.9928362959096,37.610337799567006],[126.9921616965441,37.607011901328804],[126.99367579704361,37.603237500748],[126.9858843955151,37.5980129037517],[126.9820376947227,37.5979332996705],[126.9797314964402,37.5927854990041],[126.982274297593,37.5905705993065],[126.9801393976868,37.5887750988308],[126.9806608987097,37.585494000115396],[126.9793513987121,37.5849682997766],[126.9792078000166,37.5832898003896],[126.9754166995802,37.5837618006565],[126.9749579990518,37.5830084008759],[126.9732932003652,37.5836735001154],[126.972746600618,37.584556599971],[126.9733440021984,37.5879335017012],[126.9713119985454,37.588460702452196],[126.96935049952751,37.5878905018643],[126.9687721001059,37.588601801153],[126.9685462993607,37.587136200226404],[126.9668177970675,37.5867195000187],[126.9647932979204,37.5838181015647],[126.9611550002016,37.5840366026036],[126.961345498562,37.582162599811994],[126.9589747009328,37.5805263014483],[126.957503500423,37.5825092019724],[126.9549554028687,37.5840884007625],[126.95464080150171,37.5868254012543],[126.9517965017283,37.5865170015453],[126.9491157000484,37.588988501398],[126.94793370103089,37.5923320000647],[126.9485904010447,37.593158699395296],[126.9469257006256,37.5951547008],[126.9445250998132,37.5951321000271],[126.94562959942441,37.5933026006065],[126.9440242998341,37.5938515007455],[126.9431910006674,37.5933529012441],[126.9423486015098,37.5939781006189],[126.9427984010602,37.5950237996165],[126.9437386002287,37.5950929002292],[126.94250750120081,37.5963288995716],[126.94110530140661,37.595879600486604],[126.940889400021,37.5968001006334],[126.93859140041181,37.5967009001914],[126.9376320004523,37.6047138006268],[126.9366270009551,37.605318499919605],[126.9375468021047,37.6060566014208],[126.9363140003665,37.6055643002641],[126.9366132000548,37.6062126004166],[126.9355647000577,37.6065649001903],[126.9356106005583,37.607265899759504],[126.93429120139261,37.607042800677505],[126.9337370010166,37.6118347002284],[126.9347875003514,37.6121439995754],[126.9346507009828,37.6128834001203],[126.9340324003097,37.6127726011457],[126.9326515999044,37.6149491003958],[126.9300305998662,37.6153319001714],[126.9291695000666,37.6141489006401],[126.9275655001516,37.6140495003378],[126.92749230038339,37.6149044004778],[126.92529590015259,37.6152832007432],[126.92495010055211,37.616485500697706],[126.9252940002082,37.617411199772],[126.9260096005997,37.617249199754404],[126.9251240006608,37.6183381997681],[126.9258895004526,37.6191627001082],[126.9254593004761,37.6210033988407],[126.9263352003946,37.6213238000132],[126.9230743002119,37.622374400291896],[126.9216956999613,37.6218429005906],[126.92160090026461,37.622560600605],[126.92046140010889,37.6224566008356],[126.9198076992982,37.6233478000306],[126.9161306996805,37.6201772001441],[126.917341499794,37.6165557000802],[126.91856829930451,37.6160166000013],[126.9181340993198,37.6153574992909],[126.9205020993679,37.6152023994317],[126.9208590998824,37.6158247996451],[126.9242683000481,37.615230799600496],[126.9245864999595,37.615763099303905],[126.9258070991788,37.6151879998688],[126.9243213992004,37.6076580004877],[126.9272981991318,37.6073900989615],[126.9274325995186,37.6059818996912],[126.9280382004504,37.6055011995129],[126.9282993003857,37.60626279946511],[126.9294910994018,37.6061834995106],[126.92975079908649,37.6053240999391],[126.9286864996034,37.603137501637],[126.92712279971691,37.6034124005864],[126.92747559940439,37.6023656006444],[126.92636749964049,37.602381700414604],[126.927146498964,37.6014833005776],[126.9262801997709,37.601300899125796],[126.92785189942359,37.599698799767395],[126.9273611996807,37.5993155993409],[126.9303537014811,37.597585299151696],[126.9325121993226,37.598074998662],[126.9324020997789,37.597095199133],[126.9335458992368,37.5969491991578],[126.93376499920939,37.5958756993598],[126.9345755992717,37.5961207995536],[126.9348399003319,37.5949421988639],[126.9359988991729,37.5948273989787],[126.93648609990029,37.595575698965],[126.9371847992016,37.5945489999917],[126.9363372987067,37.5928566990898],[126.93678749848,37.5916727993517],[126.93573339931541,37.5902376004988],[126.934535099664,37.590426199695706],[126.9356902986798,37.589732999692],[126.9356480995166,37.5863209002434],[126.9383569993443,37.587357799142],[126.9402834993356,37.5859360990549],[126.9382989998444,37.5833563998886],[126.9391524998945,37.583927299479896],[126.9393250001058,37.583185199017805],[126.9407264987043,37.5835262986767],[126.9443099991557,37.581359198533605],[126.9446130021349,37.5830276983347],[126.9459485007994,37.583643797718594],[126.9492116985897,37.5822828981615],[126.9498025973321,37.5773065996156],[126.9475699987684,37.576157498177004],[126.9491221984632,37.5745862986833],[126.9519254990538,37.5736519973158],[126.9537684983261,37.5705623997452],[126.95488969849029,37.5703776991325],[126.9533527997801,37.5672080012203],[126.9488869012913,37.566567301725904],[126.948068299909,37.565130801548996],[126.9465450001267,37.566640500232296],[126.9480682975675,37.5651307998936],[126.94424189942629,37.5640893006222],[126.94327749953669,37.564830900430394],[126.9425050998675,37.5637610010523],[126.9420898999293,37.5647078002184],[126.9399521999402,37.5637412013398],[126.93869210019629,37.5647198001531],[126.9391787003152,37.5656850003741],[126.93776890001989,37.5658684000834],[126.93686800003981,37.564351900233795],[126.934027399485,37.5639753999942],[126.9348614994083,37.563765999765],[126.9338661001251,37.562017000804495],[126.9323339998911,37.563480500408595],[126.9299695002377,37.563012300702596],[126.9285540004881,37.5645280001713],[126.9295837001549,37.565136100204796],[126.9277635001478,37.564268500490996],[126.92739639982021,37.565010700624505],[126.9199908997255,37.5650933002616],[126.9195018991535,37.563955300403904],[126.9178844995623,37.5641442003287],[126.9167375993036,37.5631099999146],[126.917473099336,37.5621506999302],[126.9158415996413,37.560016599727795],[126.9159532995474,37.5587265004364],[126.91529729928021,37.5586675992916],[126.9159532993859,37.5587264995049],[126.91616249917669,37.5576152006162],[126.9153660992114,37.557891200068],[126.9146639998298,37.5563063002116],[126.9118783000895,37.5552798005312],[126.911052199782,37.5563841004276],[126.90956180067961,37.5556561010609],[126.9094529995507,37.5567951005018],[126.9095617994008,37.5556561003097],[126.9087374996068,37.555537799943906],[126.9095617997978,37.5556560996596],[126.9095211997505,37.5545180004913],[126.9083953997256,37.5541829005932],[126.9091503992979,37.5534319004189],[126.9081935002548,37.553122800728],[126.9075500997145,37.5539256006882],[126.90756689957861,37.552921900387304],[126.90587699932941,37.551390399860104],[126.90568529971131,37.5493718002075],[126.90490959987359,37.5493540002464]]],[[[126.90497499797229,37.5133750990449],[126.90587239974441,37.5126329986158],[126.9058494997673,37.511411099837694],[126.9085852996918,37.5113736993972],[126.9105450001031,37.510148799666005],[126.9120810005144,37.5120708001827],[126.9121852001412,37.5139846000803],[126.9113323991575,37.5161393014625],[126.90497499797229,37.5133750990449]]],[[[126.9124340997812,37.5174235999788],[126.9164906996328,37.517305199601104],[126.91632079945799,37.5157576002166],[126.9156195993066,37.515884999761894],[126.91604169974309,37.5146258992802],[126.9189095001446,37.5142425997576],[126.91828150070191,37.516248899697004],[126.919526500385,37.5169701991217],[126.9233185987368,37.5140573999989],[126.92341859872731,37.5124334003295],[126.9243601992783,37.5121922993212],[126.9247228989156,37.5110339004796],[126.9241325991565,37.5096621010283],[126.92297439978461,37.5099492008898],[126.9221157991072,37.5088597007836],[126.9226335001703,37.509054998653795],[126.92331469948911,37.5075935001153],[126.9229234994786,37.5063191005435],[126.92211039973199,37.5061732006842],[126.9220997005504,37.5046957993902],[126.9233147010017,37.5075934979773],[126.92526460094831,37.5087880975532],[126.926257201659,37.5085223982712],[126.926591200446,37.5127055994245],[126.9295099011698,37.5140636991421],[126.92913060213249,37.516966198034396],[126.9310701014741,37.5187224992231],[126.9292820997389,37.5176141016462],[126.9284188995816,37.518889101423206],[126.9275469997259,37.5183604015122],[126.9265691007038,37.519434600438],[126.9261672011057,37.5210097988628],[126.92751740175319,37.5218502992658],[126.9272888000079,37.523773601406596],[126.9230790004834,37.5235045014606],[126.9219520007646,37.524510501345496],[126.9213231996566,37.5221641973207],[126.9227037015942,37.5206997973075],[126.9242141007347,37.5213284970824],[126.92545269949609,37.520575597835304],[126.9263736985751,37.5193044991064],[126.9262907971097,37.5172738991216],[126.92372449967601,37.5154560009395],[126.922543500857,37.5154744009211],[126.9189885013823,37.5171858005122],[126.9193731009977,37.5187733989246],[126.9207425992924,37.519457501909905],[126.919052899558,37.519719100783405],[126.9172840993872,37.518130902468805],[126.91533000007969,37.5201256007147],[126.9134482992029,37.5198720006048],[126.9137123990902,37.518899600122694],[126.91245659987639,37.51836300005],[126.9124340997812,37.5174235999788]]],[[[126.9138391996696,37.6477548998907],[126.91404240006369,37.6479110003908],[126.9138660000612,37.647922800408004],[126.9138391996696,37.6477548998907]]],[[[126.9145517999072,37.5202501999773],[126.9145518000031,37.5202501998461],[126.9145518001354,37.520250200118],[126.9145517999072,37.5202501999773]]],[[[126.9146545992201,37.6126445001064],[126.91593319930699,37.6106589987401],[126.9158386999241,37.609190299561],[126.9189918000894,37.6101787995807],[126.91970910028661,37.6097409997807],[126.91769790007339,37.6138195003822],[126.91645540020001,37.6126408010108],[126.9146545992201,37.6126445001064]]],[[[126.9151758993268,37.5982495999353],[126.91517590016099,37.5982495999909],[126.91517590000379,37.598249600395505],[126.9151758993268,37.5982495999353]]],[[[126.91535659973819,37.599096799944796],[126.9153829998027,37.597781599681895],[126.9159819004855,37.5990156999051],[126.91535659973819,37.599096799944796]]],[[[126.9167197985629,37.637009298956606],[126.91802599921759,37.6344263999381],[126.9211955000618,37.6346840999175],[126.9188865004529,37.6372993011255],[126.91874560047299,37.6391628006582],[126.9180615997297,37.6390232000551],[126.91863209991659,37.6375474003377],[126.9167197985629,37.637009298956606]]],[[[126.91705379920221,37.5286104987359],[126.9175392987167,37.5281275992188],[126.9179806997256,37.5276885982005],[126.91705379920221,37.5286104987359]]],[[[126.9204050994221,37.5004072000267],[126.92040510000639,37.500407199511095],[126.9204051001484,37.500407200003096],[126.9204050994221,37.5004072000267]]],[[[126.9274130996826,37.5500364999073],[126.9274131000979,37.550036499407796],[126.92741310026949,37.5500365004134],[126.9274130996826,37.5500364999073]]],[[[126.9320486998071,37.5133381003529],[126.9322137997195,37.513174699302],[126.9322138006763,37.5131747000522],[126.9320486998071,37.5133381003529]]],[[[126.93297579888,37.5132577004333],[126.93403269885741,37.5121762010507],[126.9334325985162,37.5114727001304],[126.9375556993631,37.5094160989821],[126.9379470000918,37.509931999272496],[126.9390593993576,37.5091086999298],[126.9388643983713,37.508165998565104],[126.94099199991429,37.5074317993518],[126.9407798009839,37.5079935993844],[126.94179729996641,37.5085247988532],[126.9430374005101,37.5077278990126],[126.9467268994253,37.5086624987316],[126.9481420003265,37.5072705995799],[126.947585300478,37.508260299501806],[126.948469100558,37.508001500571496],[126.9473390014296,37.5089914999633],[126.9489034018562,37.509582599649704],[126.94827730177511,37.5105710998652],[126.9520587018112,37.512385099478],[126.95431660084729,37.5125967005126],[126.9524964006076,37.5127724018379],[126.9518031003098,37.514554700226896],[126.9497333998767,37.515315101291705],[126.94717480042709,37.5134810012366],[126.9440776006822,37.5152960002341],[126.94446119873531,37.516397901402],[126.9420184993945,37.515853300028404],[126.94320189930751,37.5160695989724],[126.9440775995676,37.5152959984021],[126.94340889975139,37.5131289005404],[126.9426760001494,37.513797100180795],[126.9392270009524,37.5137152002702],[126.93913020035829,37.5144439002129],[126.9383625999079,37.513099600264795],[126.9376676000766,37.5130788002582],[126.9373216005244,37.514139100150004],[126.9359292994227,37.513223000737604],[126.93297579888,37.5132577004333]]],[[[126.9329983996939,37.6184614004891],[126.9330995000602,37.61818869959],[126.9330995006158,37.618188700232494],[126.9329983996939,37.6184614004891]]],[[[126.9351321996018,37.5618588000138],[126.9352901000984,37.562117900125095],[126.9351977995295,37.5621651002492],[126.9351321996018,37.5618588000138]]],[[[126.9364287999387,37.5616077999214],[126.9364288001296,37.5616078001561],[126.9364288000135,37.561607800206595],[126.9364287999387,37.5616077999214]]],[[[126.9365399999104,37.5619297999108],[126.93654000011189,37.561929800038],[126.93653999999559,37.5619298001047],[126.9365399999104,37.5619297999108]]],[[[126.93809159965261,37.513465199871796],[126.93809160005921,37.5134651999806],[126.9380915997544,37.5134652008239],[126.93809159965261,37.513465199871796]]],[[[126.9398423998435,37.5146865000027],[126.9398424001627,37.5146865000014],[126.9398424000863,37.5146865001796],[126.9398423998435,37.5146865000027]]],[[[126.9485107995595,37.5687488999557],[126.94851080031229,37.5687489002511],[126.9485107997523,37.5687489003337],[126.9485107995595,37.5687488999557]]],[[[126.94886679974941,37.5689472997113],[126.9489822004534,37.5688239996151],[126.94886680044371,37.568947300195],[126.94886679974941,37.5689472997113]]],[[[126.952499399747,37.4812040000515],[126.9528288997662,37.4810174998025],[126.9530925008332,37.4813896003623],[126.952499399747,37.4812040000515]]],[[[126.9616723990839,37.4777059997382],[126.962932000216,37.4756134994008],[126.9647908009583,37.4766284996252],[126.9645481001071,37.478433200306895],[126.9616723990839,37.4777059997382]]],[[[126.963870699203,37.508675099424096],[126.96424890110791,37.5082878992789],[126.9638706993633,37.5086751009134],[126.963870699203,37.508675099424096]]],[[[126.9749990989834,37.4874877994626],[126.9764114976614,37.4863617004968],[126.9770605978693,37.4843260999209],[126.9765217996391,37.4835506991362],[126.9808459995638,37.4817305994754],[126.98039730001251,37.4806041006019],[126.9794507000412,37.4806808005764],[126.9766387002443,37.4782418008524],[126.9759734001437,37.4786101008944],[126.9768864993385,37.4766430005452],[126.97550339947439,37.4765003992884],[126.9773801991095,37.4758855993397],[126.97685269963699,37.4750594001659],[126.97843160016829,37.4736396995055],[126.9809454988636,37.473334799126704],[126.98137319931949,37.4725852992734],[126.98242709974869,37.4730644993752],[126.9830546002174,37.4721765998357],[126.9847799007224,37.4759263979371],[126.9872568012564,37.4754984996722],[126.9863202012551,37.475748700415295],[126.986246301329,37.476552599611395],[126.9873982001499,37.4776442000721],[126.982630500778,37.4813668004465],[126.9840998007161,37.4826848999876],[126.9842397005762,37.483891898780605],[126.9872837006566,37.485969900064504],[126.985334100654,37.4864029008259],[126.9853348006533,37.4875091997196],[126.98599040045451,37.4875291001872],[126.9850479008586,37.4875528007653],[126.9847946011119,37.4899863983317],[126.9863033004396,37.4911732001801],[126.98510070003941,37.4926601009697],[126.9832955004818,37.4926790012855],[126.9828710992463,37.4939988008801],[126.980987298449,37.4921737006471],[126.9790943997716,37.4925213007772],[126.9775773989024,37.4902752012144],[126.9756319997722,37.4907652005371],[126.9763275993057,37.4902381999843],[126.9751735997291,37.489666500519],[126.9749990989834,37.4874877994626]]],[[[126.9776953993665,37.5027632004241],[126.9776954003163,37.502763199303295],[126.9776954011935,37.5027631999289],[126.9776953993665,37.5027632004241]]],[[[126.9824225989788,37.5164339993893],[126.982792300294,37.516556199055195],[126.9829487005795,37.516686899998504],[126.98279229996609,37.5165562001857],[126.9824225989788,37.5164339993893]]],[[[126.9878109996086,37.4661179999576],[126.98846669954591,37.466082499841896],[126.9881783005592,37.4611806987985],[126.9889542997832,37.4622149977642],[126.9905744003638,37.4622448996209],[126.9909467013445,37.4649414996356],[126.9892881993733,37.4665728008295],[126.9878109996086,37.4661179999576]]],[[[126.9913081996621,37.5272595998151],[126.99172930014551,37.527219199914896],[126.9916874002308,37.527538300299504],[126.9913081996621,37.5272595998151]]],[[[126.9915306995041,37.5253334996083],[126.9925149004882,37.5251108998212],[126.9918795004896,37.5256547005491],[126.9915306995041,37.5253334996083]]],[[[126.9916382993922,37.487031499815004],[126.9916383004269,37.4870314993215],[126.9916383005127,37.4870315001094],[126.9916382993922,37.487031499815004]]],[[[126.9921505994013,37.4885914997527],[126.9922650998001,37.4872406991123],[126.9946883007677,37.486000899688],[126.9936017006552,37.4891761987355],[126.9948125994443,37.4885430993686],[126.99433329998149,37.487896899924905],[126.9957368004769,37.4883255001437],[126.9936016998952,37.4891762014052],[126.9921505994013,37.4885914997527]]],[[[126.9956283992492,37.480810499766996],[126.99654250227451,37.480418399275194],[126.9997651023725,37.481688500961994],[126.996164400316,37.4823227009561],[126.9956283992492,37.480810499766996]]],[[[127.00171989914969,37.4524108004124],[127.0030952006398,37.450584099734],[127.0031083007915,37.452071200593],[127.0023797998181,37.451534301096096],[127.00171989914969,37.4524108004124]]],[[[127.004273497911,37.4905607996307],[127.0057047995826,37.4910411986287],[127.00681509942869,37.4893444994348],[127.0089423001928,37.4892644992013],[127.00919520043179,37.4884835989896],[127.00966800017001,37.489507599169904],[127.0100337002753,37.4887501994137],[127.0123120994898,37.488770999363],[127.0129865993341,37.4872730998049],[127.0123366995891,37.4854529008733],[127.01042189927419,37.4838783998614],[127.01149620007449,37.4840927992415],[127.0120073999477,37.482976199895404],[127.0162256988938,37.48141119864199],[127.01799829909861,37.481968099207606],[127.01869540224669,37.481267699155296],[127.0188411014781,37.4828262000933],[127.0216059007542,37.4854838999825],[127.020862200978,37.486915100199],[127.0168944003768,37.4885687005413],[127.0158361015024,37.490663900293704],[127.01703950029899,37.4913691995884],[127.0188139000482,37.4897366999108],[127.0183233005639,37.4906746990856],[127.019308900634,37.4910466995837],[127.0194855004122,37.4936246994273],[127.0213538012814,37.4949270001093],[127.0198663001665,37.4961151001161],[127.019051800168,37.4953126006141],[127.0188214001436,37.4964764000387],[127.01772060024611,37.496041201626504],[127.0140832013812,37.497448100637],[127.0138743014261,37.498416900151504],[127.0124576999245,37.4990466003228],[127.0095636995584,37.4945976024634],[127.0057891984517,37.4946256000173],[127.00672439802929,37.492802600476594],[127.00577479885139,37.491701401323795],[127.0044418991342,37.4919937009293],[127.004273497911,37.4905607996307]]],[[[127.00453839847201,37.5270260987481],[127.0073117001036,37.5283227996171],[127.0076801997282,37.5308125008368],[127.00634029935871,37.5306946010004],[127.0057677975839,37.5278787993415],[127.00453839847201,37.5270260987481]]],[[[127.00933739908331,37.529707099384304],[127.0093374008951,37.5297070994334],[127.0093374000681,37.529707100143106],[127.00933739908331,37.529707099384304]]],[[[127.0102349997413,37.5296649001307],[127.0107072007229,37.5299771991957],[127.0111853015295,37.5306123007107],[127.0107072002282,37.529977200735395],[127.0102349997413,37.5296649001307]]],[[[127.0125910990714,37.5214142994702],[127.0127202015409,37.521530101167],[127.01272019916901,37.5215301005968],[127.0125910990714,37.5214142994702]]],[[[127.01465139887651,37.5255325008403],[127.0146514006625,37.5255324995682],[127.0146514017744,37.525532501173295],[127.01465139887651,37.5255325008403]]],[[[127.0251522999343,37.4971395001166],[127.0258705993962,37.497587599442504],[127.0258544995054,37.4954648991014],[127.0280194002745,37.494300198325796],[127.03018180079799,37.4949817002357],[127.0289539008733,37.4956630000547],[127.029399900816,37.496616200248596],[127.0287924008487,37.4980564999344],[127.029416900204,37.4984367007706],[127.0274514999921,37.498632800240806],[127.0269086995069,37.4976804001046],[127.0251522999343,37.4971395001166]]],[[[127.0267728998784,37.4994695000037],[127.02677290022349,37.4994694992296],[127.02677290039169,37.499469499984194],[127.0267728998784,37.4994695000037]]],[[[127.0297468989681,37.483848299879696],[127.0315203006782,37.4832206000583],[127.0315344006116,37.4840808002887],[127.0297468989681,37.483848299879696]]],[[[127.033018999127,37.484290500079],[127.03462119949221,37.4837778991839],[127.03440619882491,37.4827728987212],[127.0351274002889,37.4832848998468],[127.0350180999807,37.4846236000674],[127.033018999127,37.484290500079]]],[[[127.0355317998294,37.50027569984],[127.03646100043021,37.5003292988487],[127.03699350039619,37.500712099821904],[127.03646100046801,37.5003293003862],[127.0355317998294,37.50027569984]]],[[[127.0364557992821,37.4846468993749],[127.0368151005119,37.4848535001978],[127.0364607998803,37.4848170001004],[127.0364557992821,37.4846468993749]]],[[[127.0415100991674,37.8952484000608],[127.0426575991244,37.8952323966556],[127.044866100054,37.8933930992944],[127.0450262967372,37.8911169981709],[127.0461276957502,37.8894193986988],[127.0421333995189,37.887482999639005],[127.0461276964416,37.8894193974907],[127.0512966999075,37.881261099614605],[127.0524174992742,37.881705598964594],[127.05356089865239,37.8802533995932],[127.0563002002759,37.878923899376595],[127.0582541991938,37.8813362980213],[127.05981630211099,37.8813378981351],[127.0616680002593,37.8853514941215],[127.06547020097929,37.887693395804604],[127.068681100266,37.8843999991044],[127.06660240265269,37.887265497536696],[127.0693036068599,37.8911521010418],[127.0665936022918,37.896302399005705],[127.06961940680179,37.89729289676119],[127.0689462095733,37.9011560015843],[127.0699802085393,37.9037463989939],[127.0687574007459,37.9029732009639],[127.0666448028585,37.906168397768695],[127.06713740242289,37.9069914009348],[127.06513540081521,37.9073196008478],[127.06603340002209,37.9095422006167],[127.0650377010178,37.9086778014811],[127.0619720040835,37.9087308014281],[127.0602011036117,37.9102079032368],[127.06031350082881,37.9131147005766],[127.0577155006048,37.9130564005969],[127.05762059979051,37.9136546012408],[127.0553210991172,37.9130332024222],[127.0554072991386,37.9110364006959],[127.05433979973509,37.9115221001431],[127.0507248988339,37.9087343009317],[127.0480139985223,37.9088766008152],[127.0480403987777,37.9058244010049],[127.045074000969,37.905282301258104],[127.0439999993102,37.9059500000827],[127.04626809760471,37.9043706995675],[127.04567109753381,37.8993195042492],[127.04390929745679,37.8983828044939],[127.0426575984122,37.8952324004692],[127.0415100991674,37.8952484000608]]],[[[127.0442866995026,37.4860493999115],[127.04616610028539,37.4852992996137],[127.0450431001271,37.4870480005362],[127.0442866995026,37.4860493999115]]],[[[127.0447102955502,37.9301438988496],[127.0459479983858,37.927713898360004],[127.04933910078189,37.926616295459496],[127.052172993032,37.9198164010237],[127.0562287987306,37.9205534970382],[127.0565978003455,37.9199712980132],[127.0568217009015,37.9276668005029],[127.0556273000425,37.9272888006025],[127.05500999940409,37.927970000494405],[127.054138100276,37.9270602014042],[127.0532388010684,37.933903199675605],[127.0539890012664,37.9357420013026],[127.0524770977334,37.9364913007957],[127.0506294985105,37.9332045013155],[127.0491307984575,37.933073699833],[127.0494199981683,37.9317300011767],[127.0484590991292,37.9302718026349],[127.0459491995188,37.9295906011428],[127.0447102955502,37.9301438988496]]],[[[127.0476433994849,37.8203108994713],[127.0480420991868,37.8174804995069],[127.04898039961691,37.8166966990417],[127.0516138991079,37.81701059970651],[127.0528324991449,37.8132697999025],[127.0524438984697,37.8125235970447],[127.0540577990452,37.812704999892304],[127.05729549932249,37.8104684995725],[127.0585399007571,37.8135093995893],[127.0594400024408,37.8136112978832],[127.0602153043768,37.8163281014503],[127.0642859005789,37.8182541997164],[127.06311530130581,37.8201145990163],[127.0641367011798,37.821020500702105],[127.0613890999691,37.823865201332],[127.05773929830059,37.822485802128206],[127.0504757999827,37.8219426020246],[127.0486840998274,37.8209730010433],[127.0502457989669,37.8206876997236],[127.0496080996046,37.8187366016747],[127.04773540051649,37.8190800015046],[127.0476433994849,37.8203108994713]]],[[[127.0478903999719,37.7387261000094],[127.0478904000581,37.7387260998865],[127.04791769996,37.7388025000786],[127.0478903999719,37.7387261000094]]],[[[127.0481240978977,37.8488870016259],[127.0500138993415,37.8476217995256],[127.0496153996665,37.8472192992079],[127.05193679734509,37.8463176001096],[127.0533237959551,37.8425012999733],[127.05487459917221,37.8419692999159],[127.0551419998672,37.840665599323],[127.05487460228251,37.841969298906804],[127.0571332000239,37.8438046970714],[127.0592249994431,37.8442506965587],[127.0605272981408,37.8432690975403],[127.0622244993696,37.8435989987276],[127.062886100681,37.8368728988764],[127.0655236022601,37.8375401999218],[127.0667212006249,37.8401991993957],[127.0702154053748,37.842390799300894],[127.0680542043585,37.847116402845394],[127.0657181021088,37.848966403569605],[127.0667853009007,37.8524689016011],[127.0657126019734,37.8528081012619],[127.0646773008438,37.8556282023873],[127.06303580057619,37.8551335023715],[127.0608144013062,37.8557523025108],[127.0556599996755,37.8543313014036],[127.0566885978053,37.851486901498596],[127.054194098923,37.8509886026235],[127.0524375981802,37.8480937014753],[127.0500139006039,37.8476218019472],[127.0481240978977,37.8488870016259]]],[[[127.0507823988671,37.4955844001111],[127.0532938994486,37.4944257988044],[127.05423570060661,37.495329899963004],[127.0525550003826,37.4970347993313],[127.05324990040799,37.4978943001356],[127.052289300312,37.4975743004485],[127.0519343003064,37.4983322006347],[127.0507823988671,37.4955844001111]]],[[[127.0546456986727,37.4969181006765],[127.05497580086359,37.4963578992761],[127.0547350003766,37.4969470009044],[127.0546456986727,37.4969181006765]]],[[[127.0551147981486,37.491585398693],[127.0554153980919,37.490789799158804],[127.0563255007274,37.491208800536505],[127.0553593004189,37.4909623008108],[127.0551147981486,37.491585398693]]],[[[127.0593026973429,37.4862990007544],[127.0593027014351,37.4862989991856],[127.05930269915011,37.4862990031055],[127.0593026973429,37.4862990007544]]],[[[127.0619316994667,37.5086518999455],[127.0633322993684,37.5083112988786],[127.0639065008001,37.5089474002396],[127.06300250025049,37.509452101366996],[127.0619316994667,37.5086518999455]]],[[[127.06231239991159,37.6560754999829],[127.06231240002569,37.6560755000033],[127.0623123999816,37.6560755000565],[127.06231239991159,37.6560754999829]]],[[[127.0709719996853,37.5105498999539],[127.0712826997785,37.5105938993479],[127.0713706010728,37.5106066001546],[127.0709719996853,37.5105498999539]]],[[[127.0843084988317,37.5123950999753],[127.0852554992335,37.5119196997871],[127.08473809984599,37.510780499252704],[127.0857816006676,37.5107508992595],[127.08605840023979,37.5121075996714],[127.087196100856,37.5121003000077],[127.0867316997095,37.5131165002943],[127.0843084988317,37.5123950999753]]],[[[127.0969371993089,37.5129140000709],[127.0990859004394,37.5130058978766],[127.1004582998433,37.5105582998431],[127.10178740057371,37.5107155991966],[127.10033380061161,37.5120566001748],[127.1012784996669,37.512369399861996],[127.1014642001599,37.5118111995737],[127.10139400095309,37.5133883987469],[127.1028294995176,37.5133190988162],[127.1035574004925,37.5149067004814],[127.1015722002064,37.5152352012228],[127.1011559994553,37.5136598012618],[127.0993550007552,37.514454301265594],[127.0991750997278,37.5134865002858],[127.0969371993089,37.5129140000709]]],[[[127.09796149965389,37.515600200162204],[127.0985187003352,37.5151882998591],[127.0986241005861,37.516175600317],[127.09796149965389,37.515600200162204]]],[[[127.1018296997944,37.5113716000133],[127.1021097999997,37.5110502998492],[127.1028055005625,37.5118086001306],[127.1018296997944,37.5113716000133]]],[[[127.1044380993001,37.5146108985817],[127.1044381012853,37.5146109001333],[127.1044380993345,37.5146108999802],[127.1044380993001,37.5146108985817]]],[[[127.1115910985412,37.5171933023554],[127.1124258999133,37.5176825992422],[127.1138924001562,37.516984399341496],[127.1139709004879,37.5179022001396],[127.11341129880529,37.518642201096405],[127.1115910985412,37.5171933023554]]],[[[127.11216749904919,37.6123909011704],[127.1123173012568,37.6124188992017],[127.1132709001091,37.612819200972496],[127.1123172999122,37.612418900964805],[127.11216749904919,37.6123909011704]]],[[[127.11328659882139,37.578686902023904],[127.1132866012937,37.5786868974972],[127.1144081027255,37.5789842016778],[127.11328659882139,37.578686902023904]]],[[[127.1150027993282,37.6104559993302],[127.1150027998156,37.6104559972635],[127.1150028015839,37.610456000134],[127.1150027993282,37.6104559993302]]],[[[127.115689499713,37.664787999263204],[127.1156895005419,37.664787998982405],[127.11568950009931,37.664788000121],[127.115689499713,37.664787999263204]]],[[[127.12234619980869,37.6454427003534],[127.1223462000285,37.645442699852396],[127.1223462000649,37.645442700135995],[127.12234619980869,37.6454427003534]]],[[[127.13476689868081,37.6041430002061],[127.13511339947479,37.6029628993072],[127.1370319986666,37.602560598655494],[127.1371861985124,37.600490100726],[127.1359016994638,37.6005557993956],[127.13785730002279,37.599851198887],[127.1385928996721,37.5980001995959],[127.140200099908,37.598021399366104],[127.1401965998179,37.5973900997761],[127.14123070048909,37.5981088993268],[127.1443022004552,37.5974061988422],[127.1445911006842,37.598324299141],[127.146174699918,37.5989992986024],[127.1459958003687,37.599692899410904],[127.14975359898929,37.599711998004],[127.1509099009349,37.598714099309],[127.1498720005172,37.6014187010456],[127.1488978014914,37.6019699004944],[127.1477194010561,37.6060699003842],[127.1489011004753,37.6084889000403],[127.14836749987701,37.6087904007479],[127.14354159959501,37.6089472005779],[127.1426514001365,37.6096253005479],[127.14302929942059,37.609055400083],[127.14167530077461,37.6082611008773],[127.1396970006769,37.609024300490205],[127.139393899501,37.6098718003452],[127.1381827996584,37.6077291009868],[127.1350723999862,37.606087901349696],[127.13476689868081,37.6041430002061]]],[[[127.1358881995135,37.5277319001251],[127.1361275017406,37.5274734981259],[127.1361946012074,37.527653100897105],[127.1358881995135,37.5277319001251]]],[[[127.1398728994925,37.6102855002744],[127.13991710006441,37.6101489998014],[127.1398729002786,37.6102854999146],[127.14111010033571,37.610571499975],[127.1398728994925,37.6102855002744]]],[[[127.1503678994885,37.604510400468],[127.1524222010311,37.6036916981444],[127.1538678007256,37.6051913004358],[127.1503678994885,37.604510400468]]],[[[127.15307199904359,37.554977699793],[127.1543100009845,37.553813999595],[127.156335600264,37.5551980002061],[127.15553370063111,37.5552423003869],[127.1553555992533,37.5561909004568],[127.15498629962451,37.5552112007621],[127.15307199904359,37.554977699793]]],[[[127.1553652990527,37.6097911001688],[127.1559561994143,37.6099956997419],[127.15588869953861,37.6091572000022],[127.15736499916589,37.608334899948005],[127.1562716993083,37.607459000439995],[127.1565190991837,37.6068784000361],[127.1576766999176,37.6076336998539],[127.1580771999536,37.6067112996621],[127.1571891001839,37.6086461997994],[127.15908209981741,37.609436199615],[127.1601534999897,37.6087630996745],[127.1632179006305,37.610091399202304],[127.1652347000699,37.6093976996974],[127.16642400033791,37.612027099928596],[127.1647680999427,37.6136392005375],[127.1630669000658,37.6134513003292],[127.16241889953521,37.6143918002203],[127.1607520995146,37.6126960005473],[127.1590433991502,37.6131993016814],[127.1579075996753,37.6118418009618],[127.156399298864,37.6118597013012],[127.1566441991299,37.6105365000481],[127.1553652990527,37.6097911001688]]],[[[127.15887959947531,37.6083610004628],[127.15887960012181,37.6083610000067],[127.1588795998697,37.6083610006358],[127.15887959947531,37.6083610004628]]],[[[127.16564959982719,37.556614099984195],[127.1656496000236,37.556614099932],[127.1656496004791,37.556614100890094],[127.16564959982719,37.556614099984195]]],[[[127.1721372966012,37.705709900860704],[127.1723207000826,37.7055595988698],[127.1735879015597,37.7066447007696],[127.1721372966012,37.705709900860704]]],[[[127.1753522981216,37.717108901417],[127.17605879929361,37.716076799667604],[127.17540019994429,37.713738899930405],[127.1761203001701,37.7141580994868],[127.17834229794809,37.712775300869595],[127.1755146992152,37.7103655008247],[127.1763389988086,37.7089096985046],[127.1778714004306,37.7089682987341],[127.1782016006969,37.7103258979814],[127.1814724986688,37.708725898850794],[127.1810235984871,37.7056764012942],[127.1795062984466,37.7041681005178],[127.1806998981585,37.7021597003041],[127.1792662995921,37.7018561006077],[127.17769199874189,37.6985530002047],[127.1791166003066,37.699838894664204],[127.18395669546649,37.698191996311095],[127.1831041964263,37.6933967008573],[127.1803159951346,37.692666293117],[127.1829602995837,37.691828798453905],[127.18546319708081,37.693074197208496],[127.1898493941001,37.6901171965125],[127.19338159935499,37.6903911949218],[127.19747979949939,37.6893591957832],[127.1952570027355,37.692776797906],[127.1969429010496,37.6931319975508],[127.2006110994685,37.6905882992689],[127.20360669998139,37.6895795961679],[127.20425050104,37.6901714992375],[127.2055688006539,37.689740199645804],[127.20659640001459,37.6927081985339],[127.2086179001432,37.6943414992238],[127.21158000037279,37.6936605993911],[127.21216480135139,37.6945610007277],[127.2087112036559,37.6963589011533],[127.2069923060014,37.702048398890504],[127.2078281071827,37.7040503015225],[127.2076134046535,37.7060434026673],[127.2099072023597,37.708774999935706],[127.2121837994037,37.713829496662],[127.2143593006515,37.7100119955608],[127.2180011005369,37.7088873991645],[127.2164739051965,37.713049401125204],[127.2195445021259,37.715669398505206],[127.22144810099691,37.7155296993166],[127.2202784020577,37.7176240002954],[127.2184822019575,37.7169856020904],[127.2162775041622,37.7196577994182],[127.2174298030099,37.7218078972681],[127.22009180444981,37.722158901428394],[127.2161126040141,37.7256808007689],[127.21347610137799,37.734269400742],[127.21262729997339,37.734189800265305],[127.21077560010171,37.736093600170996],[127.2086711007655,37.7331708020286],[127.2065218966319,37.7357830020977],[127.20628339431241,37.7342312993243],[127.2006214979627,37.725226505793195],[127.1967606018236,37.7290903019294],[127.1970454013312,37.731190899794],[127.19640350113801,37.7317393007996],[127.19511709960861,37.7308442008702],[127.19392609984669,37.7319076008953],[127.1934519998767,37.7304643003929],[127.1920183006868,37.7300223009327],[127.19230970010699,37.7310924002478],[127.1920182999965,37.7300223011487],[127.1891114966239,37.7301371002345],[127.1895434961909,37.727338902786],[127.1887712961574,37.7254839989639],[127.18533549925249,37.7241259001039],[127.1855722990157,37.7231840010458],[127.18425949911989,37.720646199826895],[127.1810332013463,37.7188414013103],[127.1766511995734,37.7190268008222],[127.1753522981216,37.717108901417]]],[[[127.1905899993349,37.6068999999992],[127.1913131998197,37.606626499075],[127.1916698991287,37.6049333993184],[127.1929787985192,37.6048757992912],[127.1938950998979,37.6035211997857],[127.1938060997841,37.602094299463296],[127.1938512017941,37.6031247001782],[127.1960734023132,37.604874699259604],[127.1954587011986,37.6067048995457],[127.1961922027503,37.6071072027962],[127.19190880246629,37.607832805558296],[127.1905899993349,37.6068999999992]]],[[[127.2084084995347,37.5867052998599],[127.2091791011141,37.5862803994354],[127.2091455004419,37.5869729002489],[127.2084084995347,37.5867052998599]]]]}}]}