{"type":"FeatureCollection","features":[{"type":"Feature","properties":{"interval":15,"stationId":"5889532187"},"geometry":{"type":"MultiPolygon","coordinates":[[[[127.5847468966004,37.478174697183896],[127.5936148014644,37.476996695340304],[127.5960610999561,37.477948998833305],[127.5986759019662,37.4812005964162],[127.60198480261289,37.4814306985151],[127.5991176011264,37.484415199536],[127.60134270116531,37.4860024994087],[127.60457599856879,37.4869056987657],[127.60580870099639,37.4859069960081],[127.6060918002983,37.486936203310904],[127.6049500006462,37.4878657027668],[127.6022976996167,37.487692604041],[127.5983300024704,37.4907179018945],[127.5975294007378,37.4903460018416],[127.5960216949149,37.491219300986394],[127.5916635994072,37.490172201698],[127.590809999285,37.4911137007191],[127.588410398938,37.4852378019128],[127.5854298957009,37.484504300279795],[127.5863800984294,37.4833673981576],[127.5847468966004,37.478174697183896]]],[[[127.59042579908811,37.4921945017162],[127.5904257998817,37.4921944999302],[127.59042580064501,37.4921944996757],[127.59042579908811,37.4921945017162]]]]}},{"type":"Feature","properties":{"interval":30,"stationId":"5889532187"},"geometry":{"type":"Polygon","coordinates":[[[127.569759982373,37.4830006188309],[127.5772819993958,37.479065296026604],[127.5813880999592,37.4790471963114],[127.59140029626731,37.4772034958017],[127.5925230968185,37.470649094756304],[127.59685340067941,37.4707227885339],[127.5997900020097,37.4748155969835],[127.6042351055558,37.474547291461995],[127.60854710392539,37.47805779229],[127.6097690036159,37.4813194967779],[127.6136273997575,37.4801529979444],[127.61378410043861,37.4777229969516],[127.61923110093879,37.4833875003633],[127.6183646009042,37.482886201071004],[127.6172066015071,37.4847667003379],[127.6175277002031,37.485690600250095],[127.6164596003205,37.4851199008999],[127.6128748989073,37.487568108783094],[127.6097421020401,37.487648908702305],[127.6063901053921,37.4902471061041],[127.6053445064377,37.494040502310696],[127.6077599020966,37.5015384994009],[127.6067236988252,37.5005314018976],[127.6051916999433,37.5023933001661],[127.60512849979051,37.501619300699105],[127.60223899969,37.501155000202694],[127.60081940114381,37.498920102367],[127.5998322996862,37.499047002952196],[127.5999845980195,37.4952339042048],[127.595483698503,37.4972398016818],[127.5967082979943,37.4925448023522],[127.5960216986809,37.491219303677696],[127.5882167972226,37.4961828057917],[127.58080149927541,37.4953119016292],[127.5834890978332,37.4944583989987],[127.5831583981639,37.490743302713796],[127.5764979981061,37.484695806498095],[127.5766999986938,37.483431000688206],[127.5751242002696,37.4818505022687],[127.57487730028059,37.4839506005342],[127.5712298034656,37.4825017020617],[127.569759982373,37.4830006188309]]]}},{"type":"Feature","properties":{"interval":60,"stationId":"5889532187"},"geometry":{"type":"MultiPolygon","coordinates":[[[[127.1938780994257,37.604870400162106],[127.1944745011269,37.6048951002301],[127.1939819013564,37.605270301466604],[127.1938780994257,37.604870400162106]]],[[[127.2018122990889,37.590561399921],[127.2039283000824,37.5892401996582],[127.2043359998292,37.5881442005616],[127.2036452984869,37.5881987008158],[127.2103196950405,37.5820415946067],[127.2123385004206,37.5820441996978],[127.2128065003396,37.5832487995962],[127.2141550998927,37.5823613991512],[127.2129679019821,37.584046299973096],[127.2156606001714,37.5859223995426],[127.2160867005048,37.5854401996191],[127.2167192003447,37.586219300109],[127.2154414011936,37.586866099869404],[127.21725020050269,37.5874836997459],[127.2146316999532,37.5908892019688],[127.2123419987233,37.5902173009138],[127.21093999956969,37.5906714006823],[127.2104733000364,37.5894924018613],[127.2074504030593,37.5903822009715],[127.2077381027848,37.5917491997063],[127.2067236020961,37.5932263020311],[127.2077380977927,37.591749199229504],[127.207396798134,37.590256800721896],[127.2054655000653,37.5893753016034],[127.2030254025054,37.589463801514896],[127.2018122990889,37.590561399921]]],[[[127.2133693992867,37.582263999900604],[127.2133694006784,37.5822639992486],[127.2133693998505,37.582264000451104],[127.2133693992867,37.582263999900604]]],[[[127.3720945992125,37.5247258006386],[127.3721175014766,37.5246627976664],[127.3727008028946,37.5257486991408],[127.3720945992125,37.5247258006386]]],[[[127.3933571991624,37.5146204003647],[127.3951983001636,37.5149023974072],[127.3959634016635,37.5139288985511],[127.3975831000438,37.515263997216],[127.4005755970513,37.512892899587094],[127.4005500991347,37.5113222970175],[127.40342700161,37.514044999937305],[127.40125740190531,37.5144653003926],[127.4014621996418,37.519076601957295],[127.401208499139,37.5173560014224],[127.3993681989433,37.5170411033329],[127.3989573992082,37.515580500241995],[127.39642460038671,37.5151516016447],[127.3949373000778,37.516435201285596],[127.3951982984555,37.514902400807095],[127.3933571991624,37.5146204003647]]],[[[127.4055381990156,37.5174406001863],[127.4055382007759,37.5174405973062],[127.40553820148989,37.5174406007216],[127.4055381990156,37.5174406001863]]],[[[127.4332799978594,37.5152122998576],[127.4356162000806,37.515124699459705],[127.4360850999167,37.5141230998781],[127.4359244003021,37.5147031995314],[127.4375635986629,37.5143920998425],[127.4368877985737,37.5112376015701],[127.4353713981495,37.5105962952016],[127.4385789014698,37.512274697965296],[127.4431254005239,37.511613698379996],[127.44381509992529,37.5132969986586],[127.44548879819271,37.5117144982792],[127.4482295005904,37.5116941978316],[127.4497801014052,37.5096757977092],[127.4510283006889,37.51017350025],[127.4499103017415,37.5112497999026],[127.4507796009627,37.5136240027027],[127.448463800789,37.5129153012643],[127.44734030191249,37.5137430004366],[127.44735220267489,37.515966502968],[127.4434879001834,37.5167428028383],[127.44221520135471,37.518745100854694],[127.4424417988663,37.5159855018472],[127.4392020941726,37.5165448031867],[127.4398297984052,37.5146215007913],[127.4383133999216,37.5139741014387],[127.4332799978594,37.5152122998576]]],[[[127.4663705992077,37.5040887998286],[127.4677415990983,37.5043452995265],[127.4707970998597,37.503039799921304],[127.4770641956251,37.4971482971082],[127.48499339549049,37.4938863957095],[127.4867806955278,37.492041696419705],[127.4874869948215,37.4908369976244],[127.483387498921,37.486981501479896],[127.481010899477,37.4863453005739],[127.4796296986666,37.4808163999449],[127.4803664010432,37.4800061994159],[127.4811492002604,37.4815118979102],[127.4834895998009,37.4825830973392],[127.4845332987572,37.4820817978405],[127.4863762008428,37.4774277985427],[127.4854601017901,37.4799767985807],[127.4879720009092,37.481166598932205],[127.488983701069,37.480290899789],[127.48862250208691,37.4808517999272],[127.4896647010447,37.4825237982552],[127.4939165967928,37.484636996142],[127.4965369941724,37.4824930982859],[127.4979968945571,37.4772081971908],[127.50085480081489,37.4798155957412],[127.5049538006783,37.4815542987143],[127.5059012003976,37.4826842981713],[127.5078338018529,37.4810695996936],[127.50709400113739,37.4812345003268],[127.5064253017495,37.4832802990167],[127.51016390014769,37.4834493998896],[127.5089661013685,37.4836181001259],[127.5083545019801,37.4857810979629],[127.5116672989459,37.4886723978566],[127.512530801583,37.4878487978903],[127.51404940104031,37.4914864992873],[127.5122594010738,37.4910515022699],[127.5111418021914,37.4936387996826],[127.5128623006419,37.4943075990634],[127.5125347001003,37.4959364009204],[127.5105850004639,37.4943848021351],[127.5089816020673,37.4950321014878],[127.5089525020964,37.4970246994952],[127.51041910093879,37.4975509001463],[127.5094864998446,37.4992303008087],[127.50857119979811,37.4989932001563],[127.5088873991598,37.4979244006645],[127.50713380091341,37.4972736013153],[127.5057296011466,37.499690200145004],[127.5089244006639,37.5007600010289],[127.5066737994698,37.501161601393704],[127.505581699774,37.5000944003501],[127.5032016000083,37.500671700689296],[127.501686901523,37.500047801313194],[127.5003213028886,37.5026200987409],[127.50099470170201,37.5067277994506],[127.4992811998966,37.5072931017995],[127.49910149827109,37.5053909025101],[127.49638440098819,37.5053292025718],[127.4944744976221,37.5062892038385],[127.49121649491909,37.504562800221905],[127.4917240989004,37.501415802778396],[127.4898987978231,37.4976444055714],[127.4857299989743,37.4978822050169],[127.4834804012239,37.4992839036152],[127.48286380184051,37.5024166004825],[127.48342800126801,37.5045559000827],[127.4846872014484,37.5047086000761],[127.4825925028143,37.5099829007497],[127.48036910141721,37.5109539004228],[127.48101999984141,37.5119096029769],[127.4803690979042,37.510953903038995],[127.47545980281349,37.5104013035916],[127.473949295773,37.5111165023369],[127.4722327972256,37.5078557018689],[127.4710676981212,37.5072178989799],[127.4746588979057,37.5081810983876],[127.4751171974474,37.507283999284695],[127.47437309819149,37.505816600752105],[127.47079709858829,37.5030398021593],[127.4682463000622,37.5050399017167],[127.4663705992077,37.5040887998286]]],[[[127.4787558991052,37.4898937007774],[127.47875590114009,37.4898936983972],[127.47875590125889,37.4898936999041],[127.4787558991052,37.4898937007774]]],[[[127.5239136981042,37.4633007071852],[127.52656410067961,37.4671006967164],[127.5280472991964,37.4652975985195],[127.52733259991109,37.463831199985904],[127.5305218934427,37.4601755944215],[127.53601450228709,37.462462996699],[127.538352599949,37.4657564934055],[127.5430868009778,37.4653327943439],[127.54546979859481,37.4635398961368],[127.5502528938117,37.463938995737706],[127.5539927900718,37.458760700916],[127.5532737907908,37.4563632033135],[127.55585880327189,37.4540314968401],[127.5577192087396,37.4553497984483],[127.555778006038,37.4602370004408],[127.5590658027502,37.4639102967675],[127.5609467033937,37.4674487979991],[127.56297550136489,37.469333896114],[127.56406840027199,37.4691333963145],[127.5663437979966,37.466036899411],[127.565863995952,37.465135395542404],[127.5677291004286,37.4657054990511],[127.5704375046544,37.473508698992994],[127.57432230076961,37.473750198751496],[127.5751281005065,37.472532591184404],[127.5755267001079,37.4729542907627],[127.58774218789239,37.4678161959008],[127.58934159342209,37.4654053923042],[127.5883478944158,37.4572110004986],[127.5863069987577,37.4556531943992],[127.596166401399,37.4519848860308],[127.6019556956097,37.4520595859561],[127.6010400053018,37.4566480991626],[127.6020561042857,37.4581229976877],[127.607403798938,37.4597197960909],[127.6099087029868,37.457675693952105],[127.6147019011776,37.4568238955801],[127.6174811055389,37.457570394618905],[127.6178230017946,37.4586779017859],[127.6159923036253,37.459668900794895],[127.6138983011032,37.4635223052657],[127.60979090521059,37.4660093027787],[127.612472502529,37.4703477984402],[127.6134160015855,37.4703350984529],[127.6142131007884,37.4745387942492],[127.6260058005759,37.4765196905381],[127.62918339739831,37.473271693786096],[127.6289092005986,37.4684051971598],[127.6366138074199,37.469440095057],[127.6393918032646,37.473808697223],[127.642025400631,37.4746720963596],[127.64434200775129,37.474219114106],[127.6378693020312,37.480573411530294],[127.6341214057791,37.487974104129606],[127.634233505667,37.4890140030897],[127.6395325957449,37.4922662046541],[127.6364100988674,37.4937865031338],[127.6330655996165,37.4936979028346],[127.62893789855589,37.4890735072084],[127.6251062023876,37.487642908638996],[127.62044400704981,37.4872198090621],[127.6185823089115,37.4999762963056],[127.6257193032961,37.5028960938026],[127.6276288049486,37.5050897943685],[127.63289079968659,37.506237593220696],[127.6324309019255,37.507095200687104],[127.63348210174729,37.508567402165696],[127.6263239015535,37.509965302308096],[127.6118143037976,37.5169638045779],[127.6119492036627,37.5183655031762],[127.6088882004124,37.5184590021981],[127.59966210039461,37.5221553013912],[127.6004221980923,37.518557902167096],[127.5998300980527,37.517531103128],[127.5941600034332,37.5162394043879],[127.5864813994373,37.5181890050797],[127.58725679794331,37.5109632078008],[127.58476549394571,37.5095614023661],[127.58468819983341,37.508287599725804],[127.58551759971951,37.507910299455],[127.58696489821119,37.508616598548606],[127.5854393997367,37.5019745051907],[127.5837654003699,37.5024491050355],[127.5785480055873,37.4998487076359],[127.5751156035956,37.5014159105116],[127.5731449000538,37.511044310856605],[127.56897020024199,37.507519305272396],[127.565746803578,37.5114470026808],[127.5640997988682,37.50957360235],[127.5625544004136,37.5096784022452],[127.5619003991584,37.5108571014254],[127.5611101949902,37.5099613993808],[127.562115796804,37.505365001235695],[127.5588303933026,37.486980514851],[127.5551614913981,37.4769977057509],[127.54655789961349,37.4745801071415],[127.5426390035324,37.4767210050006],[127.5434517000226,37.4819151016046],[127.5414589019106,37.4797273037699],[127.5359728968983,37.481127810223605],[127.5361565979179,37.4800258963821],[127.5384082956662,37.478687797720205],[127.5344897968554,37.4724042035222],[127.5334595962532,37.4688619030748],[127.5263063957115,37.4673536031323],[127.5239136981042,37.4633007071852]]]]}}]}