{"type":"FeatureCollection","features":[{"type":"Feature","properties":{"interval":15,"stationId":"5889529470"},"geometry":{"type":"MultiPolygon","coordinates":[[[[127.4739492955091,37.5111164986081],[127.4722327972256,37.5078557018689],[127.47106769763461,37.5072179018635],[127.4722328003318,37.507855698713],[127.4736559988515,37.5054548009795],[127.4707068999499,37.5029631999979],[127.4770671002753,37.4986721986581],[127.4786258998397,37.499499399559895],[127.4795492988152,37.4988719985208],[127.4797648027746,37.5001485025021],[127.48216380088759,37.5028478999939],[127.4802251016629,37.503907400608405],[127.4806111012769,37.506966697549096],[127.4813723010504,37.5075638969691],[127.4833950012922,37.5048037999048],[127.4829224024844,37.5094572012754],[127.4803690979042,37.510953903038995],[127.47545980281349,37.5104013035916],[127.4739492955091,37.5111164986081]]],[[[127.4677416014234,37.504345299592394],[127.4675387997918,37.5047036003513],[127.46707619941739,37.5042294000411],[127.4677416014234,37.504345299592394]]]]}},{"type":"Feature","properties":{"interval":30,"stationId":"5889529470"},"geometry":{"type":"MultiPolygon","coordinates":[[[[127.4569193940911,37.5053563044017],[127.4583433984954,37.5045558945605],[127.460473698754,37.5061227978939],[127.4613844978432,37.504862199154495],[127.4628953002042,37.5058613988704],[127.46497700005891,37.5046277986559],[127.4663283998042,37.50559349859321],[127.4663705992077,37.5040887998286],[127.46916499767491,37.5039376999341],[127.4740155986737,37.5006658935906],[127.4770641956251,37.4971482971082],[127.48499339549049,37.4938863957095],[127.48760969917099,37.4924934995482],[127.4874869929969,37.4908369987589],[127.4891432001134,37.4907369992557],[127.4896737004234,37.491850000207],[127.4889623007162,37.4920868002389],[127.4887959007685,37.4934447997532],[127.4905736005921,37.493266100246],[127.48754410103449,37.495319699954],[127.4895923002653,37.4974349988913],[127.4904815996523,37.4962302997168],[127.4915858011038,37.4963784999799],[127.4898988018253,37.497644403771396],[127.4877219040022,37.5032157982],[127.4944744986102,37.506289198027396],[127.4951811994937,37.505086599118],[127.4963844027171,37.5053292000617],[127.49447450213009,37.506289202179],[127.4920966041278,37.5101277001935],[127.4940737021507,37.5127915975296],[127.4959683015913,37.5130311989381],[127.494789602908,37.5149172049934],[127.4937753000755,37.5135792022307],[127.4926997011511,37.514038301771606],[127.49264600018489,37.5159834008724],[127.49095319914541,37.5152079024655],[127.4878600990757,37.515825501402695],[127.4866769985308,37.5139833028823],[127.4837650007809,37.5149509019653],[127.4813216021116,37.5166203003864],[127.48170019767471,37.5198374016948],[127.4813215980533,37.516620304911896],[127.4798588951923,37.515091404849805],[127.4759997972182,37.5141286048152],[127.4736509960713,37.5108211026323],[127.46945840026389,37.5097246037288],[127.4646194947958,37.5103844020588],[127.45939149811319,37.5082825036729],[127.4569193940911,37.5053563044017]]],[[[127.49465979842489,37.503399000917604],[127.4946598006561,37.5033989999468],[127.4948531002267,37.5040214001611],[127.49465979842489,37.503399000917604]]]]}},{"type":"Feature","properties":{"interval":60,"stationId":"5889529470"},"geometry":{"type":"MultiPolygon","coordinates":[[[[127.4286299966946,37.5118403001073],[127.4282810008267,37.5088830955004],[127.4353714015257,37.510596295109],[127.4385789014698,37.512274697965296],[127.4431254005239,37.511613698379996],[127.44381509992529,37.5132969986586],[127.4488198961856,37.5095257952529],[127.4517171995314,37.5104234970119],[127.4583433984954,37.5045558945605],[127.4597010995266,37.5061454978712],[127.46138450025319,37.5048621984442],[127.4628953002042,37.5058613988704],[127.46497700005891,37.5046277986559],[127.4663283998042,37.50559349859321],[127.4663705992077,37.5040887998286],[127.4677415990983,37.5043452995265],[127.4706567949712,37.502961099767],[127.46806239756559,37.495187107541],[127.4631821983267,37.495622502958604],[127.4602466012623,37.4972926012885],[127.46066859855911,37.4986954053213],[127.4599511968876,37.4972985018179],[127.4566194974912,37.4972881024316],[127.45513749956301,37.4955825004391],[127.4582480968135,37.4905006032987],[127.4580691984654,37.485403900186704],[127.4563696991192,37.4852071995512],[127.4582862000184,37.4835266984499],[127.4603628039322,37.4831233009984],[127.4619623010608,37.4855666001359],[127.4611766018465,37.4865045991979],[127.4629882000349,37.4892233964791],[127.4652936994589,37.4847998992529],[127.4682801974933,37.4851869989871],[127.4688751994168,37.4833512989467],[127.4713799008076,37.4846718994134],[127.4725278998865,37.4842637998113],[127.4726291994319,37.4820507018877],[127.4703754986588,37.481697900391],[127.46969799767399,37.4793377017612],[127.4702244986839,37.4783932005603],[127.46810670080171,37.4760891028644],[127.46629320261519,37.4768577020958],[127.4661655027429,37.4790633998901],[127.4653213007108,37.4799255008174],[127.4645160001828,37.479205200728906],[127.4640630997597,37.4797040003228],[127.4647470982753,37.4765547998473],[127.4680664991754,37.472629999315004],[127.4687583000082,37.473881498526694],[127.4716393012909,37.4720331991417],[127.4714005015297,37.4728104983644],[127.47481420019339,37.4741608968824],[127.4772033988363,37.472276998540195],[127.4772733987663,37.4709527998644],[127.4761578994692,37.4705186998805],[127.4770901012777,37.470161098282595],[127.4779085023946,37.4707383990184],[127.47720340173959,37.472276999272395],[127.4794946012259,37.472369299509594],[127.4799199001005,37.4731668995719],[127.4827925998398,37.4737697983463],[127.4868644019574,37.4730701967869],[127.49255400002829,37.4743989974102],[127.4986284016308,37.4727334985355],[127.4979969027942,37.4772081968449],[127.5013318994592,37.474868199184904],[127.5013131993836,37.4741176994663],[127.5065492975225,37.4792305945208],[127.5078906991834,37.4780972926157],[127.5098842065088,37.4789233937108],[127.5077711019156,37.4806393001239],[127.5120660033515,37.4838715982639],[127.5106132022967,37.4865289982439],[127.5125308005303,37.487848797008105],[127.5142119002016,37.4849651992864],[127.5151463014645,37.4857169001176],[127.5155872012523,37.4898218000421],[127.51716950023719,37.4902186996862],[127.51744010116771,37.4915262003773],[127.5162301012999,37.493831799817805],[127.5172564009764,37.495535100502195],[127.5161299017399,37.4962947998884],[127.5163069011105,37.4975099000298],[127.51519100091011,37.4989070003216],[127.5128254998481,37.497258600160805],[127.5130661995688,37.4962046006522],[127.51239730023771,37.495879700977106],[127.51217110032681,37.4972341002924],[127.51035670072571,37.4979224017528],[127.5100763010061,37.4997070999681],[127.5111875998948,37.5005017991734],[127.5116253002987,37.499885599883896],[127.51085890138741,37.5009843009069],[127.5112978009485,37.5023123995788],[127.51231710093231,37.5023234989332],[127.51144150108081,37.5035928999857],[127.5109280002422,37.5025264018627],[127.5066737994698,37.501161601393704],[127.505581699774,37.5000944003501],[127.5032016000083,37.500671700689296],[127.501686901523,37.500047801313194],[127.5003213028886,37.5026200987409],[127.50455800158561,37.5058686966866],[127.5055527011624,37.508630896814],[127.5095850080414,37.5098134074777],[127.4983601192663,37.5203421969489],[127.5029028147236,37.5286411886499],[127.5024736014487,37.5311826023103],[127.5005011992658,37.531217404323606],[127.4951984991271,37.529672301901904],[127.49487999884789,37.5290043022279],[127.4925866011413,37.529341101891106],[127.490796499825,37.5315018028956],[127.4881601007915,37.529276804135996],[127.4869252997741,37.5295153036605],[127.4845457021537,37.5332343999414],[127.4861756013279,37.5338672000587],[127.486628500875,37.5352842986416],[127.4893649997137,37.535619401032804],[127.47650329793791,37.5316870025892],[127.474658199783,37.5321584021178],[127.472446700969,37.536306600226006],[127.4688242995826,37.5360113018213],[127.464955297389,37.531613999889],[127.466537398978,37.5316722995185],[127.4661002001834,37.5307365986204],[127.46653740000421,37.531672299245095],[127.4673518991897,37.531578399339004],[127.4685693988963,37.529084796645],[127.4722170952486,37.5284365972932],[127.47064399682169,37.5232142025156],[127.4668814987326,37.52189830296339],[127.4640955010613,37.522515002361295],[127.4643477008091,37.5248378000385],[127.4654367007893,37.5250995016372],[127.4637868005629,37.5256844018716],[127.4621120973956,37.5229559018845],[127.4598954996122,37.5221145027259],[127.4582495995448,37.523878001005606],[127.4601660983483,37.521587101198],[127.45717000134441,37.519530003255106],[127.4531340017281,37.518486206077995],[127.4488723986566,37.5228684013634],[127.44686139680991,37.5160379035432],[127.4434879001834,37.5167428028383],[127.4427302009411,37.5183664012147],[127.44088660268329,37.5190934005064],[127.4396474038886,37.522697199706904],[127.4408667058433,37.5243226017312],[127.4394223072877,37.525873100180696],[127.43609720027351,37.524833103859],[127.43480750022981,37.5251691034392],[127.43902919423279,37.5234296989953],[127.4333746972051,37.5197315018213],[127.43296589817349,37.5148965001734],[127.43417769696171,37.5130074020625],[127.4286299966946,37.5118403001073]]],[[[127.36485479738721,37.5324304959454],[127.3782319930023,37.5175789949262],[127.38419309795171,37.5180907968995],[127.3856281997394,37.519554797123405],[127.3892898960777,37.519553797124395],[127.39172569364189,37.515296201382],[127.3911142942533,37.5132294034488],[127.388648095299,37.5099728022578],[127.3862777957164,37.5093940979091],[127.38878580027499,37.509907797318],[127.3893765994287,37.5072669997861],[127.39206539891671,37.5081634991119],[127.39231300025,37.5076366988986],[127.39252310051201,37.5098977985258],[127.3934061011014,37.5095381997455],[127.3953618992401,37.5123095970608],[127.3960300985719,37.509927099443296],[127.3974955989921,37.5097293982164],[127.3981103005981,37.5099450993181],[127.39762690094881,37.51247999804259],[127.4008972987875,37.5113629969768],[127.4024729006488,37.5133497991674],[127.4035560997028,37.5128433982845],[127.40522710288731,37.5136000965205],[127.4083843998667,37.516944597358204],[127.40937100126129,37.5153791965341],[127.4102329011567,37.516785298784605],[127.4132437010117,37.5161658996962],[127.4117364007186,37.5164811003605],[127.41170810074689,37.5191802976613],[127.4132668037646,37.5206642951389],[127.4132500021486,37.5229550005346],[127.4147738998072,37.5238512016101],[127.4129732995394,37.5234736010454],[127.4123529989526,37.5220240004654],[127.409371099652,37.5207211017171],[127.4079290010988,37.52257040039],[127.4094528030965,37.524675302769396],[127.40670709936451,37.528959206234006],[127.4032527944578,37.528364710567296],[127.39212850082569,37.5209718030551],[127.38753420134401,37.5221243009176],[127.38837909920059,37.523357601632796],[127.3871172984078,37.5213915024508],[127.38539680012829,37.5204380034043],[127.38264440061161,37.524469401619804],[127.3777199055361,37.5243437017455],[127.3736510074931,37.529613603463396],[127.3764632046809,37.5345463985306],[127.3733593012237,37.531566802623104],[127.3730487991678,37.5327457020064],[127.3691722030444,37.5313144034377],[127.3679048024568,37.533632001839294],[127.36729509951891,37.5328444024345],[127.36485479738721,37.5324304959454]]],[[[127.5281807991518,37.464616899214306],[127.5325449980503,37.464152296078005],[127.5338493021652,37.4655152969477],[127.5365818994326,37.4658934965695],[127.5430868009778,37.4653327943439],[127.54546979859481,37.4635398961368],[127.5502528938117,37.463938995737706],[127.5539928033015,37.4587606972092],[127.5590658027502,37.4639102967675],[127.5609467033937,37.4674487979991],[127.56297550136489,37.469333896114],[127.562720100163,37.469780501926095],[127.5608535006063,37.467840602536704],[127.55851390294589,37.4671570032203],[127.5574206040392,37.4724157979615],[127.5627413014807,37.4728656018265],[127.5551615036689,37.4769977099828],[127.54655789961349,37.4745801071415],[127.54263900065,37.4767210041248],[127.5414589019106,37.4797273037699],[127.5399495961641,37.4780012956],[127.5411827949309,37.476857296744],[127.539279696834,37.472314101287196],[127.5356460988437,37.4722084001958],[127.5334596010302,37.4688619035423],[127.5311731960132,37.468124803532696],[127.5281807991518,37.464616899214306]]],[[[127.5837291984699,37.4867213004193],[127.58542989712329,37.4845042970155],[127.5847468966004,37.478174697183896],[127.5936148014644,37.476996695340304],[127.5958616992175,37.4755985967384],[127.5998303999596,37.4762832985323],[127.6006420997157,37.4776167990991],[127.604597702684,37.4799457997091],[127.605817902073,37.4860351005436],[127.6049409982702,37.4814961039047],[127.59911760222509,37.484415201587304],[127.6007788015189,37.4879967996958],[127.5990623007638,37.4883210002721],[127.5990090001813,37.489332000340795],[127.5980885994408,37.489455800890205],[127.59619449982719,37.487365103854195],[127.59365010237161,37.4878859033334],[127.59166360066381,37.490172203525304],[127.5898264974383,37.489697399430895],[127.5878069995414,37.4846247025259],[127.58542990038909,37.484504302968],[127.5848511009679,37.4867628007095],[127.5837291984699,37.4867213004193]]],[[[127.3223609970176,37.5424923998975],[127.3247727018064,37.5405994983791],[127.32407470108839,37.5423106997642],[127.3298414988322,37.5450102926599],[127.33631459737879,37.542327394590096],[127.3389994980938,37.5422038950883],[127.3403299075263,37.542935500914496],[127.3340784042906,37.5493052013803],[127.3372560004317,37.5523647006383],[127.3340783979604,37.5493052027514],[127.3298214022174,37.5500970019596],[127.3291019978313,37.5526713030181],[127.3255418013915,37.5513757043137],[127.3232718991105,37.5485586016056],[127.3218661983685,37.549120500624504],[127.321576898858,37.547987799767],[127.3243025975721,37.5479975986284],[127.32407639676319,37.545111798442804],[127.3223609970176,37.5424923998975]]],[[[127.2407822997722,37.5484509999184],[127.2418856989424,37.548395499017495],[127.24259909928091,37.5469088996667],[127.24481510103679,37.5457761997405],[127.2435318005362,37.546321399929596],[127.2439789009244,37.547653700739],[127.24209120104611,37.548577700586605],[127.2421422015577,37.5500659007694],[127.2411830997372,37.5489192997733],[127.2418856990346,37.5483955002971],[127.2407822997722,37.5484509999184]]],[[[127.3040999984254,37.5575189000635],[127.3068534957699,37.5491047971229],[127.3083112952604,37.5489224962657],[127.30844720183471,37.551003297230196],[127.3107233995585,37.552206896026604],[127.3132533043627,37.552104994702795],[127.3176575040893,37.5582479938968],[127.3175796011164,37.5591520007372],[127.31702470030311,37.558654500946204],[127.3138721007025,37.5604261003014],[127.3144631984089,37.560979803847],[127.31271759811099,37.5580922021895],[127.3079662992489,37.5598282014781],[127.3086402954269,37.557984399901706],[127.3040999984254,37.5575189000635]]],[[[127.2211005999473,37.5798431999213],[127.2230730001785,37.5792670986331],[127.2236950017638,37.5799389997966],[127.2234897004015,37.5805437009232],[127.22296159886591,37.579817000454696],[127.2211005999473,37.5798431999213]]],[[[127.41929559983319,37.5132293005273],[127.42159669774989,37.513224098406404],[127.4219295051151,37.513302503042404],[127.42159670004139,37.513224100119004],[127.41929559983319,37.5132293005273]]],[[[127.4236030940707,37.5079355007416],[127.42360309817279,37.5079354944268],[127.4236031039888,37.507935496659],[127.4236030940707,37.5079355007416]]],[[[127.5816836972956,37.4796208018729],[127.5816836997044,37.4796207994264],[127.5816837017718,37.479620800429096],[127.5816836972956,37.4796208018729]]],[[[127.4161786990085,37.5149538988614],[127.41617870039491,37.5149538987295],[127.4161787000007,37.514953900600105],[127.4161786990085,37.5149538988614]]],[[[127.6032663980763,37.4863643996381],[127.6032664013096,37.4863644005413],[127.6032663990313,37.4863644013282],[127.6032663980763,37.4863643996381]]],[[[127.224544299959,37.5787894999444],[127.224544300757,37.5787894993359],[127.2245443009445,37.5787894996567],[127.224544299959,37.5787894999444]]],[[[127.39905569988241,37.5105531000557],[127.3990557000282,37.5105530998487],[127.3990557004812,37.510553100139106],[127.39905569988241,37.5105531000557]]],[[[127.4269534995088,37.5157940994195],[127.4269535005428,37.5157940998791],[127.4269534999907,37.5157941002577],[127.4269534995088,37.5157940994195]]],[[[127.24471979981149,37.546567899963996],[127.2447198000965,37.5465678998112],[127.2447198000818,37.5465679003823],[127.24471979981149,37.546567899963996]]],[[[127.3635600942039,37.5331059028001],[127.3635600986819,37.533105895270005],[127.36356010132,37.5331059022156],[127.3635600942039,37.5331059028001]]],[[[127.6301968998308,37.4765301002234],[127.6301968998309,37.476530099786096],[127.6301969015894,37.476530099799795],[127.6301968998308,37.4765301002234]]]]}}]}