{"type":"FeatureCollection","features":[{"type":"Feature","properties":{"interval":15,"stationId":"5889529458"},"geometry":{"type":"MultiPolygon","coordinates":[[[[127.4332799978594,37.5152122998576],[127.4356162000806,37.515124699459705],[127.4360850999167,37.5141230998781],[127.4359244003021,37.5147031995314],[127.4375635986629,37.5143920998425],[127.4368877985737,37.5112376015701],[127.43537139290959,37.510596298286806],[127.4385789014698,37.512274697965296],[127.4431254005239,37.511613698379996],[127.44381509992529,37.5132969986586],[127.4488199023654,37.5095257978592],[127.4510105002381,37.5097579976774],[127.4529316050586,37.5118411935745],[127.4473522009109,37.515966504327196],[127.4434879001834,37.5167428028383],[127.4427302009411,37.5183664012147],[127.44088660268329,37.5190934005064],[127.43902919942859,37.5234297018412],[127.4408865924881,37.519093400638106],[127.4392020941726,37.5165448031867],[127.4398297984052,37.5146215007913],[127.4383133999216,37.5139741014387],[127.4332799978594,37.5152122998576]]],[[[127.3951982984555,37.514902400807095],[127.39758309838031,37.5152639986649],[127.40095459969041,37.5119249998249],[127.4010005014724,37.513602299747504],[127.40213070103201,37.5138504010075],[127.40125740190531,37.5144653003926],[127.40137060017251,37.5177088012671],[127.4013787990537,37.516107400234404],[127.3951982984555,37.514902400807095]]],[[[127.3727007989456,37.525748699732],[127.3727008028946,37.5257486991408],[127.37270079977681,37.525748700606],[127.3727007989456,37.525748699732]]]]}},{"type":"Feature","properties":{"interval":30,"stationId":"5889529458"},"geometry":{"type":"MultiPolygon","coordinates":[[[[127.4286299966946,37.5118403001073],[127.4282810008267,37.5088830955004],[127.4353714015257,37.510596295109],[127.4385789014698,37.512274697965296],[127.4431254005239,37.511613698379996],[127.4442501994902,37.513190598765],[127.4488198961856,37.5095257952529],[127.4517171995314,37.5104234970119],[127.4583433957673,37.5045558951638],[127.4608312009838,37.5069505000189],[127.4603201042994,37.5085027018817],[127.4593915000238,37.5082825041607],[127.45708960232571,37.513619198824],[127.458132301283,37.5157296967135],[127.46468510075509,37.517556400241396],[127.46333870099859,37.5173340011257],[127.4631373011944,37.5191888992924],[127.4643111008979,37.5185608011309],[127.4631722007222,37.5223960025503],[127.4621438993901,37.523016803328304],[127.4598954996122,37.5221145027259],[127.4586590998729,37.524030101383495],[127.4601660983483,37.521587101198],[127.45717000134441,37.519530003255106],[127.45313400066591,37.5184862063566],[127.4488724049275,37.5228684019744],[127.45051740122149,37.526260801522504],[127.4487796045741,37.5279636075026],[127.4467099945545,37.5260538077049],[127.437539802086,37.5309443022378],[127.4368817981204,37.5325889093823],[127.43503729215651,37.528608298761505],[127.43480749614781,37.5251690979537],[127.43902919423279,37.5234296989953],[127.4333746972051,37.5197315018213],[127.43296589817349,37.5148965001734],[127.43417769696171,37.5130074020625],[127.4286299966946,37.5118403001073]]],[[[127.3862777956992,37.5093941018971],[127.3886481001572,37.5099727970803],[127.3893765994287,37.5072669997861],[127.3916736992158,37.5088814984719],[127.39231300025,37.5076366988986],[127.39252310051201,37.5098977985258],[127.3934061011014,37.5095381997455],[127.3953618992401,37.5123095970608],[127.39647669908689,37.5098708988791],[127.3953619016107,37.5123095977551],[127.39762690127951,37.512479998173696],[127.4008972987875,37.5113629969768],[127.4024729006488,37.5133497991674],[127.4035560997028,37.5128433982845],[127.40522710288731,37.5136000965205],[127.4083843998667,37.516944597358204],[127.40937100126129,37.5153791965341],[127.4102329011567,37.516785298784605],[127.4132437005888,37.516165899356],[127.4117364007186,37.5164811003605],[127.41170810074689,37.5191802976613],[127.4132668037646,37.5206642951389],[127.4131057022929,37.5216054018842],[127.4123529989526,37.5220240004654],[127.4084753982349,37.5199466019833],[127.40589970081061,37.520114801815104],[127.4061111005992,37.5218514000785],[127.40851840093441,37.523927300748],[127.4051106004378,37.5265538019246],[127.4022122010406,37.524163104201605],[127.3998015034513,37.5235042048605],[127.3967035010071,37.5242986146334],[127.39212850082569,37.5209718030551],[127.3875341979909,37.522124301718],[127.3856281985649,37.519554798536],[127.3892898960777,37.519553797124395],[127.39172569364189,37.515296201382],[127.3911142928328,37.5132293990012],[127.388648095299,37.5099728022578],[127.3862777956992,37.5093941018971]]],[[[127.32407639659719,37.5451118005367],[127.3241548982061,37.5430370994553],[127.3225404967508,37.5423735997935],[127.3240793006934,37.5410035995959],[127.32487440028869,37.5430015990733],[127.3298414988322,37.5450102926599],[127.33260950087791,37.5441954990053],[127.3341514993359,37.5451671980336],[127.3351861983012,37.5446013985994],[127.3346151986119,37.5428157940796],[127.3354374008772,37.543114499212905],[127.33557550073911,37.5442624980649],[127.3385811017488,37.543656499278995],[127.3376114033167,37.5457979049194],[127.33407840223849,37.549305204549896],[127.3298214022174,37.5500970019596],[127.3291019978313,37.5526713030181],[127.3255418013915,37.5513757043137],[127.3232718991105,37.5485586016056],[127.322640399742,37.5488200013442],[127.3243025979684,37.5479975996707],[127.32407639659719,37.5451118005367]]],[[[127.3086402954269,37.557984399901706],[127.3071096997438,37.549381799723],[127.3107233995585,37.552206896026604],[127.3132533043627,37.552104994702795],[127.3120728027079,37.5563753996114],[127.3137131010676,37.557252798734],[127.3158190018385,37.5570395012085],[127.3155976989562,37.5577471023299],[127.3086402954269,37.557984399901706]]],[[[127.36485479738721,37.5324304959454],[127.3782320039128,37.5175789974113],[127.37655450614359,37.5210355025836],[127.3777199055361,37.5243437017455],[127.3736510028122,37.5296136049328],[127.37304880153421,37.5327457014442],[127.3691721987326,37.5313144023176],[127.36729509951891,37.5328444024345],[127.36485479738721,37.5324304959454]]],[[[127.2418856990346,37.5483955002971],[127.2432479003414,37.5465089999543],[127.2439789009244,37.547653700739],[127.2418856990346,37.5483955002971]]],[[[127.42159669766569,37.5132240999003],[127.4219295021667,37.5133024991174],[127.4219295051151,37.513302503042404],[127.42159669766569,37.5132240999003]]],[[[127.4628952984892,37.5058613990008],[127.4634349999003,37.5058344993519],[127.46356850079589,37.5058458000559],[127.46343500003131,37.5058345000898],[127.4628952984892,37.5058613990008]]],[[[127.4236030940707,37.5079355007416],[127.42360309817279,37.5079354944268],[127.4236031039888,37.507935496659],[127.4236030940707,37.5079355007416]]],[[[127.2228517992071,37.5794167002197],[127.2228518002212,37.579416699850405],[127.2228518003856,37.57941670018511],[127.2228517992071,37.5794167002197]]],[[[127.4161786992414,37.514953900485004],[127.4161786990085,37.5149538988614],[127.4161787003456,37.5149538986904],[127.4161786992414,37.514953900485004]]],[[[127.3990556998766,37.510553099831],[127.3990557004812,37.510553100139106],[127.3990556998507,37.5105531001006],[127.3990556998766,37.510553099831]]],[[[127.4269534995088,37.5157940994195],[127.4269535005428,37.5157940998791],[127.4269534999907,37.5157941002577],[127.4269534995088,37.5157940994195]]],[[[127.24471979981149,37.546567899963996],[127.2447198000965,37.5465678998112],[127.2447198000818,37.5465679003823],[127.24471979981149,37.546567899963996]]]]}},{"type":"Feature","properties":{"interval":60,"stationId":"5889529458"},"geometry":{"type":"MultiPolygon","coordinates":[[[[127.1308327998424,37.6043040002119],[127.131701399104,37.6039389991539],[127.1318605989448,37.6027250003679],[127.1310822996973,37.6006438995283],[127.1331225996301,37.5995356995614],[127.1330568995788,37.5988506996634],[127.13563379948029,37.5986296994178],[127.134721899693,37.5973785998558],[127.135906599906,37.5978907994904],[127.1358650990917,37.5962983996312],[127.1400296999446,37.5953844996084],[127.1391930999709,37.5946093998553],[127.1444397997836,37.5945572994791],[127.14483870009249,37.5954595991292],[127.1458482003662,37.5955466989802],[127.1470570000111,37.594787099224],[127.147804701092,37.596047399542805],[127.1469046018383,37.5971436005724],[127.1477721009708,37.599688198027806],[127.14975359898929,37.599711998004],[127.150909897833,37.5987140990019],[127.1513281983338,37.5954417991056],[127.1517096998213,37.5963929992607],[127.1524213003068,37.5951857999177],[127.1531901997957,37.5964576992099],[127.1539682004721,37.5964000010363],[127.1525260009216,37.596467100312296],[127.1498720005172,37.6014187010456],[127.1488978014914,37.6019699004944],[127.1486072013834,37.6043825991239],[127.1498564001342,37.6049783985281],[127.1537213997319,37.6030224988136],[127.1557245998914,37.6034547994657],[127.1563853992306,37.603047699872796],[127.1557064992381,37.6014038985248],[127.156448399647,37.601900899627594],[127.1576466997137,37.6004232998459],[127.15916720012329,37.6001516997173],[127.1593184005364,37.603039497852],[127.161415798439,37.604426496465],[127.1654177012339,37.605073496768],[127.1675376001358,37.604132297834504],[127.1706083006941,37.606116198689506],[127.1701599000616,37.6057510014017],[127.17030679991471,37.6075195996331],[127.1748011986522,37.60914519805],[127.17788639869981,37.608323798868604],[127.1766520999341,37.606298000894405],[127.1748453000359,37.6057957995999],[127.17847839850741,37.606460899196],[127.1789142994658,37.604825098998],[127.1810190994231,37.603543396969],[127.1855318987315,37.6032417960524],[127.1866177976456,37.5996533996408],[127.18387129867841,37.597975799616],[127.1850674972496,37.5967236000243],[127.1845047985964,37.5946611989181],[127.1876209994075,37.594428999601895],[127.1874819995465,37.5932534007775],[127.1865578989175,37.5936381004198],[127.1880639996286,37.5922556893896],[127.1958972994039,37.5914274907291],[127.202132196623,37.589014492828895],[127.21183019603839,37.5800623933666],[127.2184117923774,37.576766592743596],[127.2286914888781,37.567814291837],[127.2364343960404,37.552568492754],[127.2334436991716,37.544646300096694],[127.2387902968758,37.546857497622504],[127.2357677998983,37.544432000048],[127.23556829935039,37.5432053000307],[127.23665769892129,37.5435216996104],[127.236100199815,37.5410142983837],[127.2376445000228,37.5405981991044],[127.2409522024596,37.5418977991293],[127.24254190086991,37.5461816948454],[127.24526009815169,37.544840896186194],[127.2460854000334,37.5453561995681],[127.2523688974452,37.542335096314204],[127.2549198976004,37.540093197035404],[127.2642131113202,37.534971300212],[127.2623628090195,37.5358314086853],[127.26713140425089,37.548794295722395],[127.26723339993329,37.551045303788],[127.2624970984203,37.5517143061325],[127.2587469994977,37.555991005342996],[127.2509475072972,37.5607251006089],[127.2568872013575,37.5624646988693],[127.25705940044381,37.563266902699105],[127.25094750655569,37.5607251052409],[127.24684050302811,37.5635282062512],[127.2418874079812,37.5697422000372],[127.2377057027072,37.5705404026092],[127.2370951033178,37.57225960089],[127.2382470021659,37.575984197165404],[127.2439592015546,37.578259194623],[127.2444890024501,37.5792885984637],[127.2466089003302,37.5793653983869],[127.24786520031701,37.5814317995194],[127.2484896010124,37.581080200192304],[127.2446294993773,37.582681804550106],[127.2410292011209,37.586707000203695],[127.24077390137619,37.5876880992226],[127.2418408003093,37.5880984988122],[127.24213810126001,37.589259500207596],[127.24197510185671,37.5913410034264],[127.2385826000521,37.5905494028293],[127.2360180017087,37.5912770021989],[127.2314667000706,37.594992000251],[127.23078970016981,37.5936609016163],[127.2286942022653,37.5954424998347],[127.2294294015841,37.5963773034573],[127.2273586985209,37.595294004233004],[127.224507999945,37.5981553016843],[127.2232810974424,37.5959925020684],[127.2214846992388,37.5950460030149],[127.2198262008973,37.5976061004548],[127.2180776021083,37.5985011995841],[127.2174809996909,37.600811901536396],[127.21350660366531,37.600537401810904],[127.2124045027212,37.6031016031667],[127.2129762005214,37.6057992017372],[127.2094004015521,37.6029061043566],[127.2065081044444,37.603340603922106],[127.2036928068771,37.607021500771204],[127.2036920068779,37.6125200952726],[127.2000288032955,37.611289402245596],[127.1976270035444,37.616924900977004],[127.1966725987673,37.6171619024256],[127.1976269985845,37.6169248988433],[127.1961316000799,37.6156155001527],[127.1943741995831,37.6157929009927],[127.1943750966656,37.6133910999484],[127.187175200627,37.6119491014979],[127.1847422999924,37.6130379018919],[127.1839689999074,37.6114823988975],[127.18513030026119,37.6105902988034],[127.1864145992248,37.6114253986792],[127.1871723997905,37.6101862990268],[127.1871752008533,37.6119490982574],[127.1905158992453,37.6123738982554],[127.1902040995571,37.6098578007715],[127.18696249842901,37.6080353013584],[127.1827199009247,37.6090794009465],[127.1788320999321,37.6147505006648],[127.1781393975758,37.6131574001328],[127.17840169747559,37.6092254032514],[127.17480120107611,37.6091452033316],[127.17341500112731,37.6132163002073],[127.1750024018134,37.6144044000894],[127.17308110082631,37.6136241007813],[127.1734053005882,37.6146541009667],[127.171065700226,37.615705900747905],[127.1696000010925,37.6148664013147],[127.1685450020061,37.617320602146],[127.1663117016487,37.6190817005765],[127.166340999753,37.6200540017495],[127.1645256015684,37.6206269011766],[127.16432139924251,37.6217956006172],[127.1643774989486,37.6199292002305],[127.16364249968359,37.6190941010656],[127.1616194999248,37.6208959001792],[127.1615262995587,37.619961000734804],[127.1588354993428,37.618066400739096],[127.15678359993879,37.6190936002199],[127.1566270996201,37.6175986006823],[127.1545804004945,37.6182720005045],[127.1545702000123,37.6199333006396],[127.1545803996169,37.6182720002951],[127.151716100173,37.6175500007676],[127.1521245988979,37.615542400342406],[127.15117559984691,37.615096800788],[127.1507890991402,37.615746700635405],[127.1502623995061,37.6149246998989],[127.1513676995765,37.612658800329896],[127.1508683002308,37.6118784007409],[127.1495244003416,37.611496600928405],[127.1495278000415,37.6122608006469],[127.1464919994739,37.6131266007947],[127.14252360029711,37.6113961006134],[127.1419026991739,37.6120642005142],[127.1413152996786,37.6112943012663],[127.1380366998511,37.612445300556],[127.137281098011,37.6104945008476],[127.1327765995785,37.6086587000473],[127.13286759936939,37.6077675996344],[127.1337058994132,37.608147499624],[127.13413099913579,37.6075716999593],[127.1327824998138,37.606721600083404],[127.1329153994128,37.6047827002935],[127.1308327998424,37.6043040002119]]],[[[127.2908680923948,37.5627002915742],[127.28756009904369,37.5527313002657],[127.2857412993319,37.5527935995793],[127.29010679398921,37.544513795700794],[127.2926151985402,37.5480527958762],[127.2935369976184,37.5445244994045],[127.296445796537,37.5396828938075],[127.2989341961495,37.5291934977326],[127.29894150037819,37.5303952988208],[127.3044201970552,37.5331969924677],[127.3111092053024,37.530994790640904],[127.3176279036784,37.5337854922358],[127.3211344019876,37.537531590011604],[127.3336934011213,37.5369174925995],[127.33631460077869,37.5423273949648],[127.3389994980938,37.5422038950883],[127.3402028968975,37.539501797235495],[127.3444692989248,37.5376736939915],[127.353550401437,37.5376937990394],[127.3655891966528,37.5323431960327],[127.3782319946609,37.517578994516796],[127.3796559932369,37.514699997395795],[127.38122919998811,37.5139025985814],[127.3819941934887,37.5073031985169],[127.38411579052921,37.5047058945273],[127.3877173975626,37.50324228988389],[127.3982788002588,37.50115189242501],[127.4020740003978,37.5015643938429],[127.4050077990701,37.5008878947741],[127.4088634022369,37.502073395618],[127.4098147003903,37.5036247009386],[127.405336202166,37.5062457025142],[127.4051777023245,37.508802799957095],[127.405227103024,37.513600100702696],[127.4083843998667,37.516944597358204],[127.40937100126129,37.5153791965341],[127.4102329011567,37.516785298784605],[127.414227199333,37.5154889999613],[127.415187198373,37.513815301635],[127.41405949657279,37.5119578999554],[127.4152672015252,37.507852792522],[127.41767380410211,37.5086770936852],[127.42360309817279,37.5079354944268],[127.4353714015257,37.510596295109],[127.4385789014698,37.512274697965296],[127.4431254005239,37.511613698379996],[127.4442501994902,37.513190598765],[127.4488198961856,37.5095257952529],[127.4517171995314,37.5104234970119],[127.4583433984954,37.5045558945605],[127.4597010995266,37.5061454978712],[127.46138450025319,37.5048621984442],[127.4628953002042,37.5058613988704],[127.46497700005891,37.5046277986559],[127.4663283998042,37.50559349859321],[127.4663705992077,37.5040887998286],[127.46916499767491,37.5039376999341],[127.4740155986737,37.5006658935906],[127.4770641956251,37.4971482971082],[127.48499339549049,37.4938863957095],[127.4874869948215,37.4908369976244],[127.483387498921,37.486981501479896],[127.4818712994708,37.4867932000743],[127.48248479866399,37.485847500542995],[127.4805992977051,37.48450540173631],[127.4796296986666,37.4808163999449],[127.4803664010432,37.4800061994159],[127.4811492002604,37.4815118979102],[127.4834895998009,37.4825830973392],[127.4847997984907,37.4817669981553],[127.48628099928571,37.4777455993804],[127.4854601017901,37.4799767985807],[127.4879720009092,37.481166598932205],[127.488983701069,37.480290899789],[127.48862250208691,37.4808517999272],[127.4896647010447,37.4825237982552],[127.4939165967928,37.484636996142],[127.49798710000981,37.481626395581806],[127.4983120030199,37.477523397344804],[127.5059012003976,37.4826842981713],[127.5070939996472,37.4812344984571],[127.5064253017495,37.4832802990167],[127.5097538004101,37.4834799999694],[127.5089661013685,37.4836181001259],[127.5083545019801,37.4857810979629],[127.5116672989459,37.4886723978566],[127.512530801583,37.4878487978903],[127.51404940104031,37.4914864992873],[127.5122594010738,37.4910515022699],[127.5114382014241,37.494172600135],[127.51058500128521,37.4943848003726],[127.5123540997904,37.4951232004491],[127.5105850004639,37.4943848021351],[127.5089816020673,37.4950321014878],[127.5089525020964,37.4970246994952],[127.51041910093879,37.4975509001463],[127.509439300314,37.499108500362],[127.5088873996838,37.4979244010688],[127.5071337997424,37.4972736025616],[127.5057296011466,37.499690200145004],[127.507543401381,37.5000661006939],[127.5066738029145,37.501161600627306],[127.505581699774,37.5000944003501],[127.5005091998121,37.5003946022255],[127.4996845006368,37.502490900129196],[127.5006065025058,37.5051379002459],[127.5000268009679,37.5062505004773],[127.49910150017969,37.5053909019022],[127.49638440098819,37.5053292025718],[127.49447450213009,37.506289202179],[127.49209660450799,37.5101276983405],[127.4962244029534,37.5103211987714],[127.49594880117459,37.5134461995078],[127.494789602908,37.5149172049934],[127.4937753000755,37.5135792022307],[127.4926997011511,37.514038301771606],[127.4928309022897,37.5168558057863],[127.49180269926559,37.5153005024487],[127.4878601022385,37.5158255018479],[127.4885872016423,37.517494601043396],[127.4868283034012,37.518512700025305],[127.48641450151989,37.520639701315694],[127.4819301024837,37.5226519017626],[127.48312400128981,37.5260197983947],[127.4862076004684,37.5268768996581],[127.4858365002941,37.5276985005052],[127.48365990042471,37.5284171007297],[127.4838371030882,37.5326553968599],[127.48528640088921,37.5340334998337],[127.4822996022893,37.5325136020793],[127.48057730401159,37.532491702101204],[127.4741652118513,37.5353398036386],[127.4725777007215,37.5369162101773],[127.4688242995826,37.5360113018213],[127.46760479993921,37.534359802743694],[127.4646836028604,37.5370664000371],[127.465599001945,37.5376792994242],[127.4655070017676,37.541786199590895],[127.4631157010043,37.5399496015497],[127.4628545993681,37.542701901738695],[127.4623663987461,37.542457200277504],[127.46338199758769,37.5375019008339],[127.4613413994277,37.536964100175496],[127.4625306990297,37.5368764994246],[127.4630903991195,37.5356954996854],[127.46234429986559,37.5315030038779],[127.45961129886861,37.532945103525],[127.45662330185661,37.5306745057956],[127.4533536996664,37.5354662074404],[127.4389969960052,37.5336055083657],[127.4368817981204,37.5325889093823],[127.4279149070873,37.531879210092],[127.42486341013881,37.5386277033435],[127.4234997991204,37.5381833025925],[127.4217065009137,37.539142401633406],[127.42147130160679,37.5407055022226],[127.4191724999035,37.5430346008592],[127.4180607999195,37.5416322021237],[127.4122878909095,37.540345813139794],[127.4131420981643,37.5375003996294],[127.4146579984219,37.5372303992239],[127.4140213990585,37.5359938004605],[127.4150268988307,37.533898401974696],[127.4147951986777,37.533043902603005],[127.4106372028357,37.5312117044352],[127.4060715996424,37.535193206198905],[127.3977106080034,37.5389320024601],[127.3976328055646,37.5406572128284],[127.387512799667,37.543583904281505],[127.3867836003962,37.5431740046914],[127.3811505996833,37.54674200877],[127.3756854993925,37.547268807124],[127.3732097018683,37.5494281049647],[127.3712464003359,37.547289802551305],[127.3708245006805,37.54977860045901],[127.36941760115431,37.549944706170095],[127.35770240516159,37.5464420081795],[127.3593418035222,37.5562395983819],[127.3578500062553,37.5594966125242],[127.35313240282721,37.5612359131266],[127.3460772982587,37.5588874107542],[127.337331200599,37.5646355115966],[127.3341259022677,37.5655603108114],[127.328797607596,37.5752308011409],[127.32767589901731,37.5757835092475],[127.3258168008764,37.5747937102373],[127.3167612994544,37.5772801012274],[127.3131216015173,37.5698145081942],[127.30311850416619,37.5738783098941],[127.2976522030617,37.5723645098564],[127.2945856967215,37.5726039116964],[127.2908680923948,37.5627002915742]]],[[[127.08791769904501,37.5971946001688],[127.0902568992907,37.597658199574695],[127.090703299669,37.5962769997643],[127.0919188001682,37.5965954984661],[127.0929961001157,37.5952016994846],[127.0932382005607,37.596066199366405],[127.0940825000368,37.5958643996386],[127.09618130018289,37.5978398997341],[127.09605170079391,37.5988621995483],[127.0972758002357,37.5998458002562],[127.094693199812,37.6009744009269],[127.0948196994133,37.5999105010789],[127.09252049992861,37.5991447010978],[127.0919380004341,37.6006145997521],[127.0930190999791,37.6013086005168],[127.0921060999834,37.6023160004867],[127.0898092009412,37.601064300917194],[127.09046090021269,37.602193400351],[127.0891241997765,37.6007114004407],[127.08971959959979,37.599559400194394],[127.0885158996781,37.5997327999523],[127.08917649955019,37.5979394010567],[127.08791769904501,37.5971946001688]]],[[[127.22278449907941,37.5355040989219],[127.2225504993134,37.5345987998272],[127.2241841983989,37.534462897087],[127.2257948967882,37.5322665992833],[127.2254643009656,37.5312891980926],[127.22867340048711,37.5323210995914],[127.22931009985041,37.533871598040896],[127.2344365015665,37.5335847972618],[127.2326940028981,37.53646870154],[127.2340243008973,37.5397089005692],[127.23055359915449,37.537709400777395],[127.22930740014759,37.5386024999924],[127.2299631017233,37.5415323014429],[127.2265294990884,37.5411901003844],[127.2277951993876,37.540195099803796],[127.2277104994261,37.5391542006862],[127.2255176998093,37.540845500354706],[127.2259319995409,37.540381599979106],[127.2247488988278,37.5395952997916],[127.2249740994416,37.5383253994652],[127.2265795008416,37.539556499000206],[127.2277104997106,37.539154199402496],[127.22818269932401,37.5372049012271],[127.2252963994043,37.5365886999666],[127.2246568000439,37.5356174009379],[127.22420220006629,37.5366747000786],[127.2243270996341,37.5354654010495],[127.22278449907941,37.5355040989219]]],[[[127.100980599578,37.6026952996403],[127.10336759931229,37.6010394999262],[127.1045768997127,37.601993699629205],[127.1060263999711,37.6007154998697],[127.1082923997359,37.600974199519506],[127.1085100000085,37.6003234998175],[127.1099020007225,37.601169999105004],[127.11002810009589,37.602598299432294],[127.1109816003144,37.6022234998202],[127.1132022004704,37.6078291006815],[127.1111927007903,37.6070023011336],[127.1110813002171,37.6086302001547],[127.1099236013748,37.6098295989553],[127.111502200328,37.6090748000936],[127.1099306004463,37.60984660248],[127.10851960039159,37.609575302162405],[127.1050783997607,37.6117538012473],[127.1049717988766,37.6110929010713],[127.1036210974973,37.6109069998841],[127.1026037995496,37.6089435997169],[127.10401809963311,37.609908098942],[127.10565079800041,37.606815602034494],[127.10411329831629,37.6047469002358],[127.100980599578,37.6026952996403]]],[[[127.58474689664119,37.47817470087249],[127.5936148014644,37.476996695340304],[127.5958616992175,37.4755985967384],[127.5964261038149,37.4789385982267],[127.5986759019662,37.4812005964162],[127.6019847986573,37.481430696186095],[127.6045976989508,37.479945795812704],[127.60494100186409,37.481496100419],[127.599117600817,37.4844152027132],[127.5977573004995,37.4877651004123],[127.5970025002623,37.4871853010615],[127.5912584004052,37.488455201716995],[127.5901587996489,37.488089700665206],[127.5907439990142,37.4866000009276],[127.5896957995274,37.4867275005897],[127.59024869907991,37.485630300425896],[127.5892450998051,37.4859243002113],[127.5878069995414,37.4846247025259],[127.5854298957009,37.484504300279795],[127.5863800984294,37.4833673981576],[127.58474689664119,37.47817470087249]]],[[[127.5320718969191,37.466296998535796],[127.5325449980503,37.464152296078005],[127.5338493021652,37.4655152969477],[127.5365818994326,37.4658934965695],[127.5430868009778,37.4653327943439],[127.54546979859481,37.4635398961368],[127.5502528938117,37.463938995737706],[127.5539928033015,37.4587606972092],[127.5590658027502,37.4639102967675],[127.5609467033937,37.4674487979991],[127.55851390294589,37.4671570032203],[127.5574206040392,37.4724157979615],[127.5619606022325,37.4727544025999],[127.5551615036689,37.4769977099828],[127.54655789961349,37.4745801071415],[127.5411827988556,37.4768573013055],[127.539279696834,37.472314101287196],[127.5406430972334,37.4699000019003],[127.53804849982801,37.467610804189505],[127.5334595962532,37.4688619030748],[127.5320718969191,37.466296998535796]]],[[[127.07556029954951,37.594345500232805],[127.0759879996557,37.5938082995066],[127.07653760034239,37.5945051995799],[127.07752740029069,37.5942173002136],[127.0764298001679,37.59566650029],[127.07556029954951,37.594345500232805]]],[[[127.0820565992478,37.5959640998604],[127.08552829955289,37.5963117994374],[127.0857500005966,37.5955999999577],[127.08435880004531,37.5974535002162],[127.0820565992478,37.5959640998604]]],[[[127.1803348993871,37.6175060005512],[127.18045840122831,37.616706498987696],[127.1817548007997,37.6170939994907],[127.18163990016919,37.6176699017831],[127.1803348993871,37.6175060005512]]],[[[127.1840705988021,37.6165794998075],[127.18561730218491,37.6162535971934],[127.1854822985689,37.6165365018046],[127.1840705988021,37.6165794998075]]],[[[127.20723430002509,37.614939299906304],[127.20725520000421,37.6149469998986],[127.2074486039811,37.6146058957125],[127.20725520046891,37.6149470009918],[127.20723430002509,37.614939299906304]]],[[[127.1921002957019,37.6173290961179],[127.1923631006068,37.6172772974489],[127.19292040093431,37.617803300712],[127.1921002957019,37.6173290961179]]],[[[127.1006606997424,37.6019748999022],[127.1006280998794,37.601901399728504],[127.1006607002933,37.601974899923405],[127.1006606997424,37.6019748999022]]],[[[127.2329731997595,37.5419486005526],[127.232973199336,37.5419485987941],[127.2331427999316,37.542336300161104],[127.2329731997595,37.5419486005526]]],[[[127.1487316984166,37.6138592001283],[127.1487317005556,37.6138592003359],[127.14873169992529,37.6138592012028],[127.1487316984166,37.6138592001283]]],[[[127.09007249932071,37.6026289996008],[127.09007250030521,37.6026289997457],[127.0900725001922,37.6026290005552],[127.09007249932071,37.6026289996008]]],[[[127.4787558992479,37.48989369910851],[127.47875590114009,37.4898936983972],[127.47875589947479,37.489893701476205],[127.4787558992479,37.48989369910851]]],[[[127.0813334998473,37.5954057998753],[127.0813335007272,37.5954057999808],[127.0813334999709,37.5954058004187],[127.0813334998473,37.5954057998753]]],[[[127.1002269995361,37.602294299783594],[127.1002270001761,37.602294299582795],[127.1002269999626,37.602294300394995],[127.1002269995361,37.602294299783594]]],[[[127.15887959947531,37.6083610004628],[127.15887960012181,37.6083610000067],[127.1588795998697,37.6083610006358],[127.15887959947531,37.6083610004628]]],[[[127.39905569988241,37.5105531000557],[127.3990557000282,37.5105530998487],[127.3990557004812,37.510553100139106],[127.39905569988241,37.5105531000557]]]]}}]}