{"type":"FeatureCollection","features":[{"type":"Feature","properties":{"interval":15,"stationId":"5890815220"},"geometry":{"type":"MultiPolygon","coordinates":[[[[126.7852869986935,37.8003541985378],[126.7854819993226,37.7984925996752],[126.7890271970331,37.797857298249596],[126.7884199967508,37.795319998973],[126.786039499959,37.792216398943],[126.788420001746,37.795319996938495],[126.7914125987534,37.7957043965541],[126.79245109771489,37.7946610975974],[126.7926521975138,37.792654999603506],[126.7904294997365,37.7919547003038],[126.7897151003952,37.7904568016478],[126.7875454992135,37.7909206002752],[126.78922340020199,37.7891056984164],[126.79097500125191,37.7917992959513],[126.79265220131941,37.792654996436504],[126.79531429999071,37.7904268981207],[126.79755080071,37.7919723000769],[126.79711040450479,37.7950297027698],[126.7944461040699,37.7979900044523],[126.79351920499681,37.8018228006195],[126.7938298021258,37.8066053005406],[126.7919627958507,37.8035771018238],[126.78916459864891,37.8035558018451],[126.7890169974717,37.8022143005551],[126.7852869986935,37.8003541985378]]]]}},{"type":"Feature","properties":{"interval":30,"stationId":"5890815220"},"geometry":{"type":"MultiPolygon","coordinates":[[[[126.77676719273849,37.8028273943698],[126.7772251922805,37.7986065985906],[126.7778441955094,37.7982131949825],[126.7767783965752,37.7891035040922],[126.7755697968685,37.7872106027177],[126.7760793996857,37.787378099040495],[126.77606309971141,37.786096599679],[126.7767784010502,37.7891034980262],[126.7782113007569,37.790216897901296],[126.7828044019469,37.790594500203696],[126.779732202262,37.7917257010605],[126.7818837007155,37.7930304000272],[126.782410200189,37.7951318979257],[126.7857458003145,37.7983570977498],[126.7890271970331,37.797857298249596],[126.7884199967508,37.795319998973],[126.786039499959,37.792216398943],[126.788420001746,37.795319996938495],[126.7914125987534,37.7957043965541],[126.79245109771489,37.7946610975974],[126.7926521975138,37.792654999603506],[126.7904294997365,37.7919547003038],[126.7897151003952,37.7904568016478],[126.78754549968559,37.7909206005639],[126.7872447995142,37.789726601469205],[126.78600660075239,37.7906710005248],[126.7860283994251,37.789309301544],[126.7844675982111,37.7893882005121],[126.7848242939258,37.782753394778894],[126.7887364986882,37.7771559975934],[126.7903819013086,37.7820980973717],[126.79234489939951,37.7811440983573],[126.79567939788829,37.7826323982615],[126.79610859996019,37.7807114980248],[126.7976223987418,37.7836712966444],[126.80204429867301,37.787860591185705],[126.80999370233161,37.790386497220396],[126.8109889006283,37.7962024986566],[126.8134260023711,37.7963929001653],[126.81095410220371,37.7966615018464],[126.8105293024837,37.8001717000146],[126.8131885996617,37.801375401098696],[126.8103009007969,37.8015269058739],[126.8066248998113,37.8003263060869],[126.80344820298801,37.8022719041413],[126.8039203005686,37.806692500788394],[126.8034481993546,37.802271902754704],[126.79851600155541,37.802442301882806],[126.793823502532,37.8056138001316],[126.7941571017985,37.8078180993278],[126.7924831019337,37.812799699734],[126.7952859990022,37.8140741989099],[126.7973313018186,37.8125999986322],[126.800132600966,37.8143142993284],[126.8002311005107,37.815116699716896],[126.7977532027333,37.815135600746395],[126.79507380044849,37.8174488021967],[126.793284401739,37.8176140008428],[126.7928237010731,37.819341700521605],[126.79264289882781,37.817924001147695],[126.78804169814029,37.8158939008086],[126.78804429813769,37.815062701639796],[126.7850476001216,37.814679601791596],[126.7803123993748,37.8121952087806],[126.7765258984589,37.8127658001882],[126.77580209918271,37.811799501154496],[126.7766893993708,37.8100211000614],[126.7759917986486,37.8093523985804],[126.77760239703801,37.8081861997466],[126.77676719273849,37.8028273943698]]],[[[126.78840099874019,37.857894699896306],[126.7888315009329,37.856075597676394],[126.79105820145669,37.8561584986452],[126.7910631000436,37.8574934000746],[126.7905806994771,37.8562502007494],[126.78899650029649,37.8567180005869],[126.78911450001709,37.859563400424996],[126.78840099874019,37.857894699896306]]],[[[126.7718968996616,37.7657790999499],[126.77412339934439,37.766722699097805],[126.7736996997007,37.7652230997868],[126.77525249964759,37.7656672990611],[126.77566559993069,37.7650649990283],[126.7764483011923,37.7661923005484],[126.7752524998389,37.7656673004688],[126.77412340003649,37.7667227029681],[126.7718968996616,37.7657790999499]]],[[[126.7767782996154,37.7674029002567],[126.7765455994659,37.767721401020296],[126.776409499602,37.767691601050096],[126.7767782996154,37.7674029002567]]],[[[126.7657560994339,37.7513762000762],[126.7659162004488,37.7514501992534],[126.76591620066971,37.7514502006711],[126.7657560994339,37.7513762000762]]]]}},{"type":"Feature","properties":{"interval":60,"stationId":"5890815220"},"geometry":{"type":"MultiPolygon","coordinates":[[[[126.74139919952731,37.714225400311896],[126.7420183996242,37.7148427985595],[126.742643299794,37.711809399964],[126.74282690014459,37.712751999046205],[126.74413839942869,37.712499799276],[126.7446520989499,37.7108573007572],[126.7440069998964,37.7108716989878],[126.7462344995072,37.7095558990707],[126.74611609997879,37.706875799002],[126.74890589891059,37.7079409988093],[126.7478471992887,37.7067458989612],[126.7502863994676,37.702070500334194],[126.75156489945391,37.7020055992038],[126.75438539913631,37.6992596993406],[126.7543735991481,37.6984616001387],[126.75282649978419,37.6984323002996],[126.7500228998329,37.6961813997725],[126.7529664996628,37.6961131993759],[126.7520558991058,37.692622901235005],[126.7505951990403,37.6916062018404],[126.7473929988915,37.6924141998959],[126.7502500980318,37.6908544982939],[126.7505811977007,37.6885425006059],[126.74946889724839,37.6861002998178],[126.7506656986627,37.6854039988706],[126.7503138992731,37.683599098970305],[126.75504850017231,37.68188219895519],[126.7558831997655,37.6804674994709],[126.7580507993932,37.6795660991147],[126.75765780006421,37.6785837993738],[126.75933309928321,37.679535299307695],[126.76257850002371,37.677610399745],[126.7653459992566,37.6773287000407],[126.7662401996526,37.674475399546],[126.7677521988297,37.6739846999817],[126.7672554999512,37.672887299652096],[126.7691006002874,37.6732966998221],[126.7678854008568,37.6738044003824],[126.7685035002387,37.6750965990902],[126.7699564989423,37.6751274991014],[126.77088570025539,37.6740388987934],[126.77225180028731,37.6758929994932],[126.7732011993379,37.6759459994402],[126.772643199684,37.674540800518706],[126.771876399801,37.6748821997067],[126.7742883990133,37.6734764003998],[126.77274559839549,37.6731564996758],[126.77237939989371,37.6719512000439],[126.7732239993346,37.671956199925],[126.7732659992926,37.670769901111306],[126.77160219930771,37.6709532003204],[126.7723511987585,37.6694482004129],[126.77157129899551,37.6684044004085],[126.7725458989729,37.6679872001938],[126.7718829995466,37.6666087003779],[126.77272239935631,37.6655955001619],[126.77207689993661,37.6651994999586],[126.77364230004531,37.665402299342496],[126.77494050009079,37.6645811979171],[126.77955879948901,37.6649403968146],[126.78263230048171,37.6638197975725],[126.7836488994651,37.662674698717595],[126.7847548994465,37.6636881990861],[126.7850869992355,37.6626936998766],[126.78437069987349,37.6623781998034],[126.7879085002746,37.6618882994303],[126.78848769961651,37.6606923005313],[126.78706439916,37.659194100607],[126.7876111994279,37.658336699774],[126.7868760993357,37.657147900123],[126.7884786996253,37.656815699800106],[126.78879789953241,37.6562121999877],[126.7879345999742,37.6557505998925],[126.7892621999616,37.6561304993617],[126.7917550998778,37.654667199786296],[126.7926266995009,37.6555265992705],[126.79422189879419,37.6549830991948],[126.79409479906019,37.6538839001096],[126.7946871995693,37.653724699849896],[126.7953317995689,37.654896299273396],[126.7960284990588,37.6544440994375],[126.79505709933919,37.6533807997578],[126.7957937989457,37.6521026004612],[126.7939917999328,37.6506799001233],[126.79429169964341,37.6493289013342],[126.7931551996465,37.6488648999653],[126.7940547003746,37.6483490972514],[126.7958998985294,37.6496478959526],[126.8000094944198,37.647567098033406],[126.79817829625101,37.643563102037405],[126.7959504979996,37.64223410136751],[126.7942885996615,37.6426712009304],[126.7910476004119,37.6410581012679],[126.790548500911,37.641300401025596],[126.79113680008881,37.643530500075194],[126.7900353001571,37.6457509008705],[126.7892498998861,37.6451227002976],[126.7885203003276,37.645744100334305],[126.7871595997085,37.645130600656],[126.784462399981,37.645604900164805],[126.7844457998239,37.644391899456004],[126.7853922988774,37.6436231002248],[126.7845197997265,37.6429038007978],[126.7846713998903,37.6414584999067],[126.7857550000082,37.642011699566595],[126.7860931995907,37.6412385002689],[126.784694599432,37.6404503991497],[126.78607840024749,37.640386299085804],[126.7871712999839,37.6422569988764],[126.7878238993313,37.6417951993382],[126.7873951999977,37.6403554999067],[126.7885858995605,37.6411591987086],[126.7902544004171,37.6405547992197],[126.7929247988879,37.6414841988209],[126.7948037990283,37.6404807990458],[126.7963883998753,37.6409180976414],[126.7996469992724,37.639815297645505],[126.8032263981611,37.641149397819106],[126.8042273971601,37.639414499554],[126.8017702998458,37.6384579982255],[126.8064391982842,37.640846097904195],[126.8081155013498,37.6397212983535],[126.80651260150461,37.6419105003253],[126.8065560014612,37.643731798504],[126.8091646011783,37.643214998003195],[126.80891130021661,37.645024200327],[126.80670020159769,37.6470581022114],[126.80336970261101,37.6467510010174],[126.8058955002503,37.6478191001541],[126.8033697022929,37.6467510012068],[126.8049476000489,37.6483412020392],[126.8022735003789,37.6473344019846],[126.80076410188829,37.6486315006875],[126.7998148000156,37.648387501029596],[126.7984644012414,37.6506871996372],[126.7989635007423,37.6521482981761],[126.8020632009249,37.6543475971399],[126.80294720087231,37.6537151993471],[126.80101680107249,37.6572930000318],[126.80094320089741,37.659231499135096],[126.80289790052521,37.6597843002463],[126.8011650014664,37.659659400715704],[126.8013388012926,37.6615313988437],[126.8028841997472,37.6619236984514],[126.8039018015496,37.6606679996706],[126.8058953013569,37.6645865995052],[126.80491399962689,37.6633465008437],[126.80366379984129,37.6650328017609],[126.7990834009142,37.666683100337],[126.7976475003794,37.6681526008224],[126.79666279941009,37.6660518008675],[126.7938141011204,37.6663125004824],[126.79366280109171,37.6688974994901],[126.79544200067289,37.6695454000103],[126.7942672007203,37.6710218997976],[126.7946595001643,37.6728266002493],[126.7933802014436,37.6737537993221],[126.7969678998016,37.674207198970095],[126.7976232997711,37.673108699413],[126.7989252999538,37.672809299861896],[126.79861120063559,37.673214800160196],[126.8000919006081,37.6740861005013],[126.7986187012863,37.6744658003655],[126.7984737014313,37.675344699486594],[126.80070500037999,37.676127000815704],[126.7988107005432,37.6789087002213],[126.7979840001212,37.678408701167996],[126.7960913018515,37.6790722006431],[126.7961482000335,37.679801000398],[126.7946136990833,37.679506700436995],[126.7944439993067,37.6782984013127],[126.79353590021479,37.678480101131],[126.7922096014874,37.6796850002587],[126.79252869942951,37.680883600868],[126.7915060004522,37.6801441016075],[126.7897296011528,37.680582301704895],[126.7901181003439,37.6826890008126],[126.7887952996445,37.6831581004682],[126.7880805001713,37.681589801825],[126.7860948993168,37.6841122029506],[126.7845731008386,37.6840999029629],[126.7840201001605,37.688622100421505],[126.7815889005707,37.6889504007284],[126.7814583006012,37.6909988003261],[126.7804666003176,37.6902351005714],[126.7791378003313,37.6918455005117],[126.7789844004847,37.6927452996119],[126.7806284006475,37.6934440998878],[126.777371201056,37.694315099967994],[126.7788647003599,37.6967312001318],[126.7775790006296,37.6961935016968],[126.77531230079579,37.6975231007167],[126.7760340005358,37.698746900189406],[126.7748608011898,37.6995095013923],[126.77514430150909,37.7015107016061],[126.77243740135741,37.699649003403],[126.76830350521921,37.7033317003981],[126.7701735033492,37.7079962957335],[126.7734313031423,37.7096891978256],[126.7724647019577,37.7108482002654],[126.7750030013198,37.7148833972172],[126.7773256989971,37.714722097378505],[126.7787404009923,37.7129968995953],[126.778632700787,37.713946899179106],[126.7799572009377,37.7151478994629],[126.7781219024599,37.7158506000328],[126.77882600175579,37.718594597288806],[126.783757300388,37.7198958964943],[126.7850181985546,37.7162434986235],[126.7873247994673,37.7157806981358],[126.78946000353311,37.721307103037],[126.7866871027541,37.7253179032602],[126.78675680268441,37.727522101056],[126.7881905012507,37.7288861996919],[126.7827515026696,37.7307901009663],[126.7841984012227,37.7345028972535],[126.7871214056394,37.7357324007297],[126.7837887994139,37.7342381029006],[126.78137360182909,37.736138501000205],[126.7790446041581,37.739517297621404],[126.7792010046294,37.7410574000327],[126.7837921033789,37.742949997503],[126.7863627008083,37.7450795953734],[126.79066990284029,37.746100995721505],[126.791920000568,37.747925900879196],[126.7886524025523,37.748865700604405],[126.7903057007433,37.7519605988813],[126.7925100022421,37.7511891992352],[126.7948497028377,37.7591149987076],[126.7957810019064,37.7595089983136],[126.7956068006569,37.7615336991707],[126.7980432009053,37.7614661980501],[126.7995359012196,37.7643087984438],[126.79902270179389,37.7662390982758],[126.8043444010063,37.7658334979583],[126.8052245001267,37.769022696086],[126.8095522095087,37.7698537017778],[126.8121111064047,37.785486599249],[126.81365130497551,37.787422799078705],[126.81547140315541,37.7894609970405],[126.8181011011937,37.7902670985952],[126.8213979978968,37.788680000182296],[126.8208544979105,37.788274896096596],[126.8213980041774,37.7886799909911],[126.83220030117559,37.780280398216604],[126.82139800137631,37.7886800091432],[126.8202199055132,37.7997279011534],[126.81841310732,37.8049694959118],[126.8183853101539,37.8137191930603],[126.8211528082243,37.8167863933599],[126.8213752028642,37.8193509998534],[126.8198352044042,37.8242675949368],[126.8193890042194,37.8299392983295],[126.8204711028555,37.8302741994505],[126.8193890008109,37.829939301327],[126.8176492008031,37.8325190010437],[126.8155012000154,37.8329969003825],[126.8140456011455,37.8309929023115],[126.81309680164689,37.8324687025988],[126.8118331002539,37.8310155024955],[126.80222089912789,37.828664203454],[126.7936135077353,37.8316840004342],[126.797224804124,37.834888797229404],[126.798779802569,37.835269996848204],[126.7990923015289,37.8360706990192],[126.7975115031097,37.8401063949835],[126.8007633075995,37.8454457990815],[126.8016229066103,37.8492893965452],[126.8052963029369,37.8524180934165],[126.8080676001656,37.851677594157],[126.8127572954759,37.8475012983333],[126.81413280368669,37.849025299726804],[126.8132911028829,37.8499234013014],[126.8139343014833,37.8521121002817],[126.8099915032755,37.854790101167104],[126.81064090318719,37.861336799228496],[126.80893300443529,37.8677244943637],[126.8126776007347,37.8688005002695],[126.8089329990946,37.8677245039641],[126.8049860018645,37.8694062046029],[126.8030599037906,37.869167104842],[126.7951385983372,37.8757005032466],[126.7925846008912,37.8785676003795],[126.7927355995544,37.8802295022965],[126.7909160002977,37.8782620021615],[126.78795480294329,37.8767398042089],[126.78458420726619,37.879136504338405],[126.7830248987891,37.8788209019011],[126.7817159996595,37.8764447997673],[126.784962496413,37.8751219010902],[126.7836022977732,37.8720895041226],[126.7819424943565,37.8720340991444],[126.7806140956849,37.8684440027345],[126.7764693998296,37.8682117029668],[126.7744778005658,37.870366503142506],[126.77457079948991,37.8681256021266],[126.7723476001308,37.8698902025326],[126.7729776985711,37.8670564010445],[126.77009129944281,37.865297501924594],[126.7690670991735,37.8663093995171],[126.7713448967599,37.864173397916296],[126.7690263958547,37.8576946055349],[126.7712829963114,37.8550853007668],[126.7677210991028,37.8523774995938],[126.7697233995856,37.8534727978916],[126.7727221965868,37.853238998125406],[126.7708539984698,37.849898597808206],[126.7744225975231,37.847212599410796],[126.7785190951995,37.841578997134],[126.7776973960212,37.838167500545495],[126.7736940983734,37.8376573997146],[126.7776092957127,37.8358615980466],[126.7787047946172,37.8308097030985],[126.7734486998733,37.8304585034497],[126.7731183988711,37.8283533977419],[126.77359270022,37.830456397812306],[126.7787047974058,37.8308096976231],[126.7794441966664,37.826258802173996],[126.776754398865,37.824986003306904],[126.7750534969121,37.8215043027297],[126.7677016972335,37.818672103676],[126.7627080022272,37.815007107341],[126.7588678060674,37.8171922051559],[126.7574523983271,37.820748507887004],[126.7537624985435,37.820007597830596],[126.75561329930629,37.8192435992256],[126.7554865018522,37.8186439987751],[126.7572820000567,37.8204346969844],[126.7588677984709,37.8171922002269],[126.7584634988752,37.8144724029467],[126.7539442983286,37.8139986018936],[126.7519871995844,37.8152115999398],[126.7564927943972,37.812438896331095],[126.75983749112011,37.8018697970399],[126.76258209368561,37.7983399987815],[126.7617961944715,37.7914940056275],[126.7582199878126,37.7900699912185],[126.7617961983538,37.791493995366],[126.765131995018,37.7896408972191],[126.7658668942831,37.7854751013849],[126.76096308506949,37.784339096949395],[126.75264809338451,37.77315750813101],[126.7479090981235,37.7722349090536],[126.7458318974925,37.769175099814596],[126.75066699791931,37.769525696655805],[126.7511045974817,37.7656649005166],[126.7534740927942,37.7606841991328],[126.75247019327101,37.758814698784505],[126.7529336950497,37.7542317982283],[126.7508720971113,37.7522424002177],[126.7530992996415,37.750883398795],[126.7528623019249,37.7517534991488],[126.7547828000044,37.7527787981235],[126.7585272020039,37.750880696070304],[126.76074910414489,37.7547649972164],[126.7650892998047,37.752521699459706],[126.7672035985324,37.7493188011575],[126.76518150055449,37.7452956051807],[126.7604506980964,37.7454229015283],[126.7644762969603,37.7453144980145],[126.76378169765489,37.740667702661305],[126.7623760980817,37.7398875002487],[126.7637816990536,37.7406676987258],[126.7654513981623,37.738761799707596],[126.7628950007187,37.737290801178595],[126.7619398987634,37.7375391014199],[126.7618345976265,37.7367379993767],[126.7643904979018,37.7330332007278],[126.7637247984442,37.7317088018761],[126.7603617004456,37.7320884007433],[126.7601841999146,37.7315626998034],[126.7610788997422,37.732221399375],[126.7622879985331,37.7316009999954],[126.7606672002463,37.7298353003579],[126.7596068997775,37.729968001313],[126.75805379962149,37.732303700117505],[126.757756299827,37.7313827006184],[126.7569746986489,37.7315186996678],[126.7573361984369,37.7306288001271],[126.7560849989591,37.72998600015519],[126.7577972991212,37.7296844990372],[126.7580781989742,37.7285574996308],[126.7595801989776,37.7279014003484],[126.7586489999401,37.7277386994389],[126.7601508003065,37.7275803995359],[126.7616474006493,37.7280448998488],[126.7607364004498,37.7284564009139],[126.760667200519,37.729835299535],[126.7613137008859,37.729789298793],[126.7622880005913,37.731600998916896],[126.7637247991545,37.7317087988091],[126.7641713987333,37.7296155003447],[126.7630759998287,37.729036000924204],[126.7629603997148,37.727979398939006],[126.7639261020663,37.7279097991087],[126.7647583012341,37.729568097450404],[126.7667142992781,37.7287629982555],[126.7686214989427,37.7266174996396],[126.7680594987131,37.7243767001238],[126.766986599786,37.7231801013204],[126.7657653007892,37.7239785005901],[126.7661820004123,37.724709500813105],[126.765158799536,37.7237785016743],[126.763482400101,37.7239788001437],[126.7626417009417,37.7247243993981],[126.762965301064,37.7255491008881],[126.762641699529,37.724724401077296],[126.7610117006124,37.726173800645896],[126.7547894997842,37.7264350015708],[126.7539502997239,37.7253178000569],[126.75462059958079,37.723260700888495],[126.75222719979949,37.7231141999791],[126.7542444996874,37.723108498782004],[126.7542671996998,37.7218623997902],[126.75556599930171,37.7213460983347],[126.75647599934561,37.7181957001156],[126.7556838998688,37.7182720001746],[126.7559557994509,37.7176209002136],[126.75459310008699,37.715887601545],[126.7541691995695,37.7170757001457],[126.7504561999517,37.714147702317],[126.7466481008294,37.7179509000571],[126.7476485002347,37.719665899020804],[126.7481638020987,37.719397199984606],[126.7481048997986,37.7206055003713],[126.7472164006871,37.719609601367196],[126.7463534003582,37.7200518010397],[126.74659029950959,37.7192119002629],[126.7453478986735,37.718546502301],[126.7429612993163,37.7180825016756],[126.7453478986062,37.718546499148005],[126.7451643987897,37.717646500048],[126.74620569983381,37.717395499396304],[126.7463821996573,37.7158351009567],[126.7453221007174,37.714767802024],[126.741922099859,37.7150910012652],[126.74139919952731,37.714225400311896]]],[[[126.8258394997117,37.635685599787905],[126.8274121995894,37.6335764997938],[126.82765719987471,37.634129699428804],[126.8304130994798,37.6321954993538],[126.8302861996067,37.631048400500895],[126.8295573999288,37.6311064000106],[126.8312092988504,37.6308380993752],[126.831537199755,37.629906398951306],[126.8325854002269,37.630745599051096],[126.8335043001179,37.6300682997873],[126.83605930093971,37.6324962994019],[126.8381464035725,37.632969999569],[126.8363473000714,37.6373515000791],[126.83499260137121,37.6376978997393],[126.8354813010297,37.6382944999241],[126.8335074013055,37.639207599909795],[126.8336870009238,37.6400553001525],[126.8335197993165,37.639269400468905],[126.83021239943719,37.6380985000753],[126.83153899952241,37.637901899512606],[126.8311194998166,37.6363991003994],[126.8297161003643,37.6362195005222],[126.82942579947769,37.6368108006942],[126.8258394997117,37.635685599787905]]],[[[126.7762199985695,37.6514756994749],[126.7780263001022,37.6512605989953],[126.77864359998769,37.6504017998347],[126.7792540004502,37.6517748001101],[126.778756200516,37.6521889999872],[126.77976500013119,37.6527181000164],[126.7784146999451,37.6530865006558],[126.7763288996559,37.6523314003632],[126.7762199985695,37.6514756994749]]],[[[126.8392419999059,37.6540741000235],[126.8409833988636,37.6534654996344],[126.84278399889119,37.6514172985921],[126.8438369997845,37.651541698114904],[126.84450890026399,37.6526305987171],[126.84557000285389,37.652249997691904],[126.84415340210789,37.6530782005756],[126.84404919992281,37.655587800270396],[126.8392419999059,37.6540741000235]]],[[[126.75144319842559,37.7431517990356],[126.7522421996917,37.7429486989646],[126.7522099000371,37.7414894997685],[126.7531464999195,37.7415315998644],[126.7548447004261,37.7392897995214],[126.7544740005407,37.7429610005611],[126.75338909925681,37.742309401590504],[126.75212779991159,37.743701500936304],[126.75144319842559,37.7431517990356]]],[[[126.8710835987691,37.6510256996251],[126.87198760089589,37.6508108998985],[126.8719253996896,37.6509353006471],[126.8710835987691,37.6510256996251]]],[[[126.8163424977767,37.6166111989969],[126.82091890210499,37.6154452992895],[126.8186825022453,37.6161667017151],[126.8199541998186,37.618680601531096],[126.8163424977767,37.6166111989969]]],[[[126.8200568994227,37.6301082998243],[126.82146130039959,37.629698299782],[126.8206905004288,37.6302163004711],[126.8200568994227,37.6301082998243]]],[[[126.843137898751,37.6128071000068],[126.843576300829,37.6126206001945],[126.8433385006056,37.6129594010604],[126.843137898751,37.6128071000068]]],[[[126.773441999307,37.6589494003548],[126.7735376997131,37.6587496992242],[126.7737145004911,37.6588033997106],[126.773441999307,37.6589494003548]]],[[[126.7958057992211,37.667718299666795],[126.795605699489,37.6670822994577],[126.796013400104,37.6681157013598],[126.7958057992211,37.667718299666795]]],[[[126.815989699712,37.6307523997424],[126.8166196010605,37.630711797812204],[126.8179730005422,37.6308047006517],[126.815989699712,37.6307523997424]]],[[[126.8223873990125,37.6108194992129],[126.8240690997178,37.6108659981945],[126.8244745055839,37.6108659982336],[126.8240690992485,37.6108660010615],[126.8223873990125,37.6108194992129]]],[[[126.8128106998163,37.631237599904],[126.8127792999591,37.6311936997961],[126.8133996018598,37.6310940996203],[126.8128106998163,37.631237599904]]],[[[126.8321989960596,37.8030976024477],[126.8341087062817,37.8037379016007],[126.83301590034881,37.80615510701],[126.8321989960596,37.8030976024477]]],[[[126.75330999965949,37.7245276001172],[126.7534210002244,37.7239000999118],[126.7534562000954,37.7245973000335],[126.75330999965949,37.7245276001172]]],[[[126.74968369741501,37.740151198977],[126.7508970989398,37.740822099047705],[126.75097810025069,37.7407178998519],[126.7508970989717,37.7408221013653],[126.74968369741501,37.740151198977]]],[[[126.7618795989331,37.6770523994626],[126.7621766009921,37.6770668993743],[126.7619678001783,37.6771775004251],[126.7618795989331,37.6770523994626]]],[[[126.7597058987752,37.7335490994373],[126.7597059011849,37.733549100363],[126.75970589984951,37.733549101458095],[126.7597058987752,37.7335490994373]]],[[[126.7956132997016,37.6724825000543],[126.7957081002873,37.6725260996666],[126.7956550005727,37.672593300443005],[126.7955570997578,37.6725426999941],[126.7956132997016,37.6724825000543]]],[[[126.7522977980394,37.744925800324694],[126.7524418015435,37.7448889997727],[126.7522977995036,37.7449258018519],[126.7522977980394,37.744925800324694]]],[[[126.75760619740849,37.7447772987448],[126.7577479005583,37.744678796917306],[126.7580367018664,37.7448280002331],[126.75760619740849,37.7447772987448]]],[[[126.77861569574661,37.8773433985073],[126.77861570275981,37.8773433988687],[126.77863769898,37.877397800945],[126.77861569574661,37.8773433985073]]],[[[126.820178998646,37.632419300967804],[126.8201789993708,37.632419298251904],[126.8201790000704,37.6324193008584],[126.820178998646,37.632419300967804]]],[[[126.8301042995606,37.6370910000906],[126.8302228001248,37.637075699983896],[126.83010940003649,37.6371147001709],[126.8301042995606,37.6370910000906]]],[[[126.8089474995713,37.6317545998859],[126.808947500683,37.6317546001694],[126.80894749988221,37.6317546011367],[126.8089474995713,37.6317545998859]]],[[[126.779704699715,37.7128242003018],[126.7797110006708,37.7129153005305],[126.77971099970871,37.712915300210696],[126.779704699715,37.7128242003018]]],[[[126.819014199496,37.6303900998418],[126.8189770995331,37.6303266999052],[126.819014199501,37.6303901010663],[126.819014199496,37.6303900998418]]],[[[126.8097989998013,37.6318909998997],[126.8097990008795,37.6318909995704],[126.8097990009433,37.6318910006959],[126.8097989998013,37.6318909998997]]],[[[126.84098679997939,37.650706299504606],[126.8409868003415,37.650706299419404],[126.840986800163,37.650706300261],[126.84098679997939,37.650706299504606]]],[[[126.8047914999319,37.6384465003038],[126.8047915009997,37.6384464982927],[126.80479150206659,37.6384464997471],[126.8047914999319,37.6384465003038]]]]}}]}