{"type":"FeatureCollection","features":[{"type":"Feature","properties":{"interval":15,"stationId":"5890637453"},"geometry":{"type":"MultiPolygon","coordinates":[[[[127.0972256984693,37.6076985010997],[127.10075689981299,37.6059298999039],[127.1009822999638,37.6049887994905],[127.1020963003333,37.6080717969109],[127.10411329831629,37.6047469002358],[127.09752779959169,37.6011776004751],[127.0989809999429,37.601197499627496],[127.1004100998451,37.5996734995636],[127.10210269963801,37.6002561993282],[127.1025826000407,37.5993583997218],[127.1040462998422,37.600405899357],[127.10617459984151,37.599409499567],[127.1107755011583,37.6001701987026],[127.1137885018009,37.6041634996957],[127.1136726006584,37.608510601275604],[127.10993060107,37.609846602363696],[127.10851960039159,37.609575302162405],[127.1074070995881,37.610829902145],[127.1033386003437,37.6125068001845],[127.1036053000133,37.613447901423896],[127.1033385996426,37.6125068002968],[127.10166250043271,37.612991201133006],[127.1015337001004,37.614404900275495],[127.0997424996802,37.6131329998915],[127.1007469992049,37.611952600155306],[127.0985699997661,37.6110307999796],[127.0972256984693,37.6076985010997]]],[[[127.13973219924,37.6038541002843],[127.1423417000996,37.603841599396006],[127.1428347994628,37.602949899938295],[127.14128070011459,37.602258000394],[127.1412156998304,37.6013797996147],[127.14626029850959,37.6019040991348],[127.146855999431,37.601041699122405],[127.1479920001964,37.6037530999046],[127.1472873007294,37.6038589002888],[127.1476816000378,37.6051563009136],[127.14596980139041,37.6058175015606],[127.1462177993171,37.604652200271],[127.1425644003469,37.6045460005275],[127.14185540105589,37.6050897999837],[127.1429929007418,37.6053878002359],[127.1418554007106,37.6050898005591],[127.1417961001348,37.606380301083696],[127.13973219924,37.6038541002843]]],[[[127.09184989948,37.600196599970495],[127.0920819995267,37.5987466990983],[127.0930937006532,37.5981175997035],[127.0936441003746,37.599238900288],[127.09252049992861,37.5991447010978],[127.09184989948,37.600196599970495]]],[[[127.1601474996556,37.6097779995461],[127.1612084998402,37.6090592996668],[127.1626735005444,37.6098103002811],[127.1601474996556,37.6097779995461]]],[[[127.10058149942931,37.6037768993901],[127.1005703000451,37.603254899701],[127.10128400035991,37.603701200041],[127.10058149942931,37.6037768993901]]],[[[127.0849079994004,37.5963095003457],[127.08490799985219,37.5963094993949],[127.0849080006203,37.5963095000023],[127.0849079994004,37.5963095003457]]],[[[127.11500279956459,37.6104560002526],[127.1150027998156,37.6104559972635],[127.1150028015839,37.610456000134],[127.11500279956459,37.6104560002526]]],[[[127.15971639989179,37.6095975996417],[127.1597164001372,37.6095976001812],[127.15971639990329,37.6095976000717],[127.15971639989179,37.6095975996417]]]]}},{"type":"Feature","properties":{"interval":30,"stationId":"5890637453"},"geometry":{"type":"MultiPolygon","coordinates":[[[[127.0447200999026,37.6044648999501],[127.0462342007024,37.605060599387],[127.0467349000599,37.6065855996419],[127.04960149830039,37.60473909935391],[127.05296610005061,37.6054069998855],[127.0518316008526,37.6064818997897],[127.0522006004859,37.6078026995805],[127.0531975997592,37.6081290993718],[127.05529799993309,37.6072579989354],[127.0561981001872,37.6085998991244],[127.0565614996307,37.6075393997165],[127.0605291000921,37.6074678993698],[127.0610802004103,37.6091679999561],[127.060575100428,37.6099308001346],[127.06185160053559,37.6108436993648],[127.0611992003935,37.6109316000881],[127.0611409007148,37.6123790998955],[127.06219080028059,37.6131595995132],[127.063833799961,37.6134609991829],[127.0643734002329,37.612246999418105],[127.0652127004525,37.612894599185594],[127.065769300532,37.6122629992095],[127.0662385000628,37.612884598587904],[127.067855900604,37.6125950991525],[127.0671682004582,37.6136257998618],[127.0690418996519,37.6130710992731],[127.07204689889511,37.6148951994153],[127.0726234982864,37.6134139001133],[127.0708365993302,37.6131112998349],[127.0727736977173,37.612054900244],[127.0726800978838,37.6112863996294],[127.074113699474,37.6116706993222],[127.0744250990764,37.6100492998208],[127.0737137997877,37.6091318007383],[127.0729697998425,37.6101776004202],[127.07278909963969,37.6088530994143],[127.0762406987437,37.6072323999041],[127.07361229947779,37.6047397002441],[127.0743168992781,37.6027681002795],[127.07345409988511,37.6016245999161],[127.0742299995773,37.601429999968204],[127.0705266986459,37.5976748012796],[127.0712718994398,37.5973767001736],[127.0709544997363,37.5953757004518],[127.0683622001075,37.5945137007261],[127.0678582005677,37.5957972998115],[127.0687911002838,37.598115099697004],[127.0677137000972,37.5986197007904],[127.0676158001951,37.5996988997112],[127.0694370997355,37.5995250994293],[127.0702159008761,37.6002545009046],[127.0683873013778,37.6014799003443],[127.067594501557,37.6032155004218],[127.06807460102691,37.6048369011516],[127.0652880998884,37.605561900637596],[127.064891799561,37.6042252999066],[127.06552689955019,37.6048012992076],[127.065773099304,37.6043127996961],[127.0645316999211,37.6032693008626],[127.0636897002871,37.603740600975904],[127.0622774997794,37.6029191000608],[127.0628609996832,37.6025457000006],[127.0620574969426,37.6016971002678],[127.06203579889821,37.6008558991511],[127.0637349990988,37.6008638987364],[127.065325699948,37.599590899161],[127.0643148993134,37.59626230027],[127.06278589955349,37.595909000219],[127.06182440036511,37.5962420999223],[127.0628953999375,37.5967215001139],[127.06182440003451,37.5962421011562],[127.0612377999376,37.5971521007415],[127.0598059997445,37.596801900913704],[127.0600506995421,37.5951087997906],[127.06076020012381,37.5953049996167],[127.0611888997434,37.594300300157],[127.0600781000536,37.593734600315194],[127.0589166004967,37.5944565000065],[127.0592910000796,37.5948081003701],[127.05826659959949,37.594852200122396],[127.0577515995926,37.5937653008583],[127.0567552000938,37.594569200825305],[127.0558935003656,37.5934275011333],[127.0526282998097,37.593425200182196],[127.05171079981949,37.5916775010916],[127.05044930021529,37.5918665008656],[127.05072859903859,37.5911019000767],[127.0500269997271,37.5907331001538],[127.05120689908689,37.5900524997978],[127.0504263000288,37.589574299410906],[127.0521247993848,37.5892577996377],[127.0510733994177,37.5889972999149],[127.0519299995177,37.5881186000447],[127.0510572998578,37.5879399997807],[127.0511766997971,37.5855847996625],[127.05211249976401,37.5862073998396],[127.052450499426,37.585642000405],[127.0515706001149,37.5853993992572],[127.0542461006057,37.583803499763604],[127.0546950001568,37.5847509988161],[127.0559670997406,37.5837872998347],[127.055572500391,37.5846509000469],[127.0563246000457,37.5848946995542],[127.0570991992711,37.5849912994576],[127.0571026002007,37.584118999083],[127.0577545003299,37.5843482001359],[127.0572423002055,37.58499779954769],[127.058563999872,37.5852897993866],[127.0616020003145,37.5849129997449],[127.06285200012191,37.5866463997832],[127.06370890074689,37.5865213981822],[127.0630232005948,37.5870484999392],[127.06457480128161,37.5881425998425],[127.0647984001206,37.5904501996534],[127.0661793001552,37.591134699659996],[127.0682430999847,37.5907042993534],[127.0674379001856,37.5914804997009],[127.06954619934811,37.5921460992268],[127.0709654985833,37.5920681985873],[127.0720467999125,37.5906764993733],[127.0723330996444,37.5893576003382],[127.071598898593,37.589039498694],[127.072496899621,37.5892080988101],[127.0737615998497,37.587828699742104],[127.07358120059551,37.588701899124395],[127.07443989976301,37.5880530997279],[127.0742100005603,37.5893616986613],[127.075257299513,37.5894074986155],[127.0768918993557,37.587867699517],[127.07727149912739,37.5867363001366],[127.0765196992216,37.586570599481],[127.079107199886,37.586405299371805],[127.0826260996727,37.5836364997065],[127.08320489972189,37.5840138997327],[127.0833944996221,37.5828869003767],[127.08207579983309,37.5825878005272],[127.0813030995642,37.5811821996673],[127.08212929910461,37.5814877991783],[127.0820408995702,37.5792742999767],[127.0829499996231,37.5792280997263],[127.0832626993492,37.5765663999675],[127.08228219988699,37.5756072004033],[127.0828319994997,37.5747712004061],[127.082057299683,37.5745086006292],[127.08340769958059,37.5749918989341],[127.0841484988398,37.574159999765996],[127.082971999695,37.572512100004296],[127.08588089941571,37.5687939004216],[127.0806998993951,37.56724230053489],[127.08082069932381,37.5650979002307],[127.08237969951651,37.562198799327],[127.08375979985489,37.5634761990751],[127.0858842000693,37.5633845995578],[127.08633059987349,37.564509498915],[127.0879059007477,37.5652805988248],[127.08588090097771,37.568793899874706],[127.088784100399,37.5705215000117],[127.0878904009247,37.5718099995511],[127.0890139006888,37.5717122003271],[127.09020220091509,37.573687899365204],[127.0895125015318,37.575066498739],[127.0904748001211,37.577235899534095],[127.09482960116169,37.5781105986959],[127.0945726004861,37.5788903000691],[127.0959393009332,37.579999699298],[127.0950216008762,37.580734099554],[127.0960343003299,37.580964299658795],[127.0950148006503,37.581014700501996],[127.0952774005323,37.5822805001112],[127.09391840006461,37.5815915005692],[127.0937850998788,37.5829341006088],[127.0924016004224,37.583796699964],[127.094025200709,37.5861441994685],[127.0948879005509,37.585896099489396],[127.0947352003709,37.5880912996857],[127.0963876000514,37.5895153994253],[127.0974825003282,37.5891437987272],[127.09781430048659,37.5904455995987],[127.10110620005021,37.589064799431306],[127.1090952978414,37.5918991963585],[127.11354439956449,37.5905124969796],[127.1145800001654,37.592489796742505],[127.1164426034856,37.593856801603295],[127.11614420378399,37.597599297860796],[127.1191093008189,37.5983795970805],[127.12014230086069,37.595712299324404],[127.11910930251081,37.5983795980056],[127.1220306018739,37.6010117975096],[127.1243132023159,37.6013792981919],[127.1213163008133,37.6032609002487],[127.12097050115909,37.6044164990931],[127.1217836050805,37.6047869003687],[127.1204035034948,37.607465000159294],[127.1211569013391,37.609944500556594],[127.1234531001069,37.6122739983821],[127.12428479961349,37.6098069978173],[127.1259427991488,37.6095332992436],[127.1277070002744,37.609901298307996],[127.1274301012591,37.6112963989877],[127.1281664013538,37.6115873995304],[127.122075206011,37.6131087055617],[127.1184353012849,37.6157697044805],[127.1183486984911,37.6128005984282],[127.1171038000454,37.6104602005563],[127.1150027993282,37.6104559993302],[127.11710379771459,37.6104601972593],[127.1189472958711,37.6091920985274],[127.11900109581731,37.6072816004379],[127.11801719680119,37.6055336021859],[127.11558939922901,37.6038592038603],[127.1136726006584,37.608510601275604],[127.1126897016413,37.6086047011815],[127.11334570098529,37.6106347991514],[127.111830200091,37.6091684030296],[127.11100060092059,37.6122102999877],[127.1112167007045,37.613561298636704],[127.1121674997537,37.6123908998071],[127.1132709003718,37.6128191989991],[127.1124011010052,37.6191828004401],[127.1092003015774,37.618481602760504],[127.10737850228419,37.6214868007515],[127.10930830012569,37.622790702529],[127.1068634959794,37.621825303544796],[127.10463419927741,37.619400400811706],[127.1010986003684,37.6184716014553],[127.0995054004787,37.6170919009393],[127.0992656994526,37.6177029008434],[127.098750699685,37.6164231017325],[127.0968555996599,37.6165284009445],[127.09102700107749,37.618322900506804],[127.0926483008341,37.619549399556895],[127.0917691028555,37.6226165998003],[127.09373590059229,37.6240069002252],[127.09277330048421,37.6253334012744],[127.0895859003197,37.625380500377595],[127.08981659974201,37.6247883003765],[127.0890647001782,37.6247130003631],[127.08665860345471,37.6269147022675],[127.08382469874239,37.6245932019481],[127.0820012999021,37.624284802313696],[127.0798484001469,37.6258391005814],[127.07749130004841,37.6247030005475],[127.07766529947891,37.6234866001973],[127.0755657004994,37.6230754007764],[127.07467460046179,37.6245493000219],[127.0765502000289,37.626975100002],[127.0749388000594,37.6273530011684],[127.0728261005467,37.6264384007223],[127.0726246007482,37.6277720993886],[127.0731909003335,37.6279500004531],[127.0721404998725,37.6281280007727],[127.070171499499,37.625553500649104],[127.0712770985857,37.62274999930781],[127.0696417986077,37.620053900819705],[127.0697646974797,37.6176494996538],[127.0681940990503,37.616574200729104],[127.0641699997569,37.616930000963904],[127.0635193998846,37.6142038008674],[127.06052030003829,37.614021001574],[127.05822960045191,37.6123272008478],[127.0574768995686,37.6136214008108],[127.0579809988561,37.6125592009346],[127.0563199997736,37.6115100015897],[127.0553424007512,37.612440700659],[127.054567400372,37.612067101079695],[127.0534000000696,37.614270000419495],[127.0534664990869,37.612536301439405],[127.0512148994961,37.6111431003868],[127.0522205990634,37.611093499823404],[127.0520105995063,37.6102788999215],[127.0508392002746,37.609411100452604],[127.0496879002864,37.6098510005705],[127.0496117997261,37.608623900264895],[127.0480126001939,37.608123900736004],[127.0472657002394,37.6090773005518],[127.0472385993516,37.607065600500896],[127.04615389902989,37.6071433003685],[127.0447200999026,37.6044648999501]]],[[[127.12799389920431,37.6009098999465],[127.1305799990159,37.5995072000015],[127.1295829999242,37.5990360999976],[127.131371899369,37.5984662991512],[127.13187889959751,37.596752599009804],[127.1331040995927,37.5967686990047],[127.1340913997071,37.5947015993521],[127.13495679933379,37.5959295985992],[127.13737169990121,37.594822899532794],[127.1380689998527,37.592518899842],[127.13918770010649,37.591702499315495],[127.14079689998749,37.5928097992582],[127.1424182000083,37.5923239994782],[127.1457807000115,37.592766899523404],[127.1467236996903,37.5935704991954],[127.1468113995915,37.5927580990585],[127.1489191004468,37.593289299411104],[127.1494033999015,37.59410759958],[127.15032240007699,37.5929458991604],[127.1540223999791,37.5945026999181],[127.15654409912091,37.5945041989697],[127.1567974004362,37.595389500844604],[127.1548612009048,37.595969201185],[127.15417720100571,37.5976377014747],[127.15184480055531,37.5980231014117],[127.1500507022525,37.6010036991627],[127.1508645025888,37.602681599154494],[127.1524222010311,37.6036916981444],[127.1540912012472,37.603068999204694],[127.1554765004963,37.6051169990149],[127.1560884000086,37.6043033994972],[127.1564307002657,37.605138198929],[127.1572538994425,37.6046319994352],[127.1570343996376,37.603106500526906],[127.1563853992306,37.603047699872796],[127.1576771008337,37.6020432994428],[127.1584535005662,37.603023698593],[127.1644904009273,37.6056330994404],[127.1675376001358,37.604132297834504],[127.1674903016863,37.6055898994565],[127.1711682001957,37.6077099997771],[127.17053010062929,37.6075731004436],[127.1704242005661,37.608935499497704],[127.16947740095891,37.609295199798495],[127.1719974006013,37.609918399718296],[127.171870600565,37.6110655993602],[127.17274739996921,37.6110855995666],[127.1723925006418,37.611932900601],[127.1704467012148,37.612062100166504],[127.1708797007818,37.6130059992226],[127.1718322002976,37.6126696998614],[127.1720444001395,37.613985198700504],[127.1730811003339,37.6136240995922],[127.1734053005882,37.6146541009667],[127.171065700226,37.615705900747905],[127.1696000010925,37.6148664013147],[127.1685450020061,37.617320602146],[127.1686347982894,37.6157603002734],[127.16694989997431,37.6154651005686],[127.16364250176629,37.6190941002886],[127.1649505013905,37.6198919001621],[127.1643775001481,37.619929200697705],[127.16364249968359,37.6190941010656],[127.1626190000768,37.6196628004313],[127.16090219916319,37.6187196003011],[127.1609518995573,37.6174135007577],[127.1590362004374,37.616137801889494],[127.157387600426,37.6161676005242],[127.1580437001346,37.618066400739096],[127.1561158005113,37.616700300898295],[127.1547245003504,37.618208100568395],[127.1541079976081,37.6174556000944],[127.1549033992567,37.6168914999606],[127.15463389954999,37.6162042003017],[127.1532602990074,37.6148989002328],[127.1523205991642,37.6149834998027],[127.15271199887859,37.614035899878594],[127.15136770022289,37.6126588012557],[127.15117379970009,37.6132520004775],[127.151440099659,37.612186200433094],[127.1495244003416,37.611496600928405],[127.14898520030209,37.6134333007618],[127.1471483015834,37.6139874998717],[127.1456664000342,37.6156206001563],[127.14515149776089,37.615412598801996],[127.14596589694649,37.6139213002933],[127.14252360029711,37.6113961006134],[127.1399849997493,37.613840500863],[127.1379935006153,37.6139562003562],[127.1378196996658,37.61537100109771],[127.1348113989968,37.610958101483796],[127.1319385998337,37.6114106005509],[127.1321843991461,37.6102089012843],[127.1306723000446,37.6103182006483],[127.12986199971981,37.6094262004277],[127.1311342990048,37.6086654998397],[127.1304307997083,37.6078435006617],[127.129756200028,37.6084538004038],[127.1284412984228,37.6054148997407],[127.1299989968651,37.602968002187595],[127.12799389920431,37.6009098999465]]],[[[127.03002669950669,37.577672800432005],[127.0322835989503,37.5768330995572],[127.03504939980081,37.574077599889],[127.0363804010602,37.5760478995466],[127.0374683006006,37.5759755999094],[127.03873020022,37.5775824991],[127.03991570026119,37.5778369995052],[127.0411055001142,37.5766560996459],[127.043269999404,37.57835999854041],[127.0439599990577,37.5774931992748],[127.0434332997724,37.5762021995112],[127.0458528005516,37.576503999471],[127.0441743006469,37.5777517997671],[127.0449472005362,37.5793131987266],[127.0463107002478,37.580414099064996],[127.0474361002583,37.5803010998367],[127.0475325004433,37.582002699426894],[127.0505156010008,37.5844811999665],[127.04719739980101,37.5849932003614],[127.0461644998025,37.5839048004186],[127.0454977004693,37.5841071002163],[127.046060899935,37.5847438009208],[127.0435302997307,37.585374900818294],[127.0398586992355,37.5812476995501],[127.0396826993476,37.5795419002786],[127.03854040048991,37.5788801009404],[127.035735700061,37.5820688002018],[127.0362088985667,37.5804172011846],[127.0332717006207,37.580922701112705],[127.0302590003476,37.5788518011879],[127.03002669950669,37.577672800432005]]],[[[127.2030806990515,37.5886736003409],[127.21155830003909,37.5812321991434],[127.2133694006784,37.5822639992486],[127.2128065003396,37.5832487995962],[127.21478640071389,37.5819350001386],[127.2129679019821,37.584046299973096],[127.2150121005049,37.5854567997572],[127.2142265008532,37.5861832996664],[127.21585310016431,37.585978599616496],[127.2154414011936,37.586866099869404],[127.21662070056821,37.5878723996141],[127.2152868008305,37.5882039005671],[127.215176701438,37.589646000009004],[127.21317220075031,37.5906169020597],[127.21093999956969,37.5906714006823],[127.2104733000364,37.5894924018613],[127.2074504030593,37.5903822009715],[127.2077380989855,37.5917492014771],[127.207396798134,37.590256800721896],[127.2054655000653,37.5893753016034],[127.2030253996574,37.5894638032503],[127.2035943993112,37.5891860999819],[127.2030806990515,37.5886736003409]]],[[[127.2180925982398,37.5769938010286],[127.2201166000479,37.5767381992418],[127.2206134004935,37.5759349990711],[127.2226622002033,37.5763284993226],[127.2224943006744,37.5772946992243],[127.2239494998086,37.5767323993092],[127.2238461000278,37.576051599919296],[127.2251257000881,37.5768457992546],[127.2262040995316,37.576707499772795],[127.2254852992274,37.575844497237],[127.22662580005279,37.576037497777996],[127.22794350009829,37.576503899977595],[127.2262041003413,37.5767075005704],[127.22558760056229,37.5782883998753],[127.229310701042,37.5796031005576],[127.2282799009254,37.5794938013571],[127.2270151014569,37.5807512030346],[127.22150159982169,37.582933600466],[127.222344898641,37.582330399992394],[127.2213961995897,37.5800944022284],[127.2175876983886,37.5813796024677],[127.2178910996856,37.5807198001707],[127.2166828997074,37.579734499819004],[127.2179205986919,37.578895599386506],[127.2180925982398,37.5769938010286]]],[[[127.18296839975149,37.6089969000825],[127.1869624980892,37.608035298669094],[127.1877173973343,37.6061738005306],[127.1877132999833,37.6004715991556],[127.1879065007039,37.604306296616194],[127.1898456987647,37.6044017965207],[127.1922905969796,37.600355999597],[127.1942695968111,37.5986030992923],[127.1939656990575,37.596221698549904],[127.19650890063029,37.5961273998124],[127.1971283018411,37.5993435970943],[127.1990415999278,37.6011001953377],[127.2042895016657,37.6020270998648],[127.20135250384399,37.6041323992827],[127.2016029020899,37.6067898002317],[127.2000288017541,37.6112894047089],[127.2002781986643,37.607657402246],[127.1961922027503,37.6071072027962],[127.19190880246629,37.607832805558296],[127.1905159038592,37.6123739010172],[127.1870499976923,37.6122200008179],[127.1851302990712,37.610590300959295],[127.1864145992248,37.6114253986792],[127.1871723997905,37.6101862990268],[127.1871752008533,37.6119490982574],[127.1905158992453,37.6123738982554],[127.1902040995571,37.6098578007715],[127.18696249842901,37.6080353013584],[127.18296839975149,37.6089969000825]]],[[[127.0390276996749,37.6024838000206],[127.03948709979021,37.601808499397094],[127.0406647990987,37.6021682993273],[127.04000379978659,37.5996242994658],[127.04196020037371,37.5997708997508],[127.0431407007481,37.6004121994102],[127.04350860071669,37.603773599728896],[127.0423999999594,37.6040197001857],[127.0403363999544,37.6032370006693],[127.0406231995299,37.6026443004624],[127.0390276996749,37.6024838000206]]],[[[127.0767457989275,37.5581538004123],[127.07822039898821,37.556827299874],[127.0774510997674,37.5558903991925],[127.07921979936981,37.5552006988476],[127.0805652008726,37.5565350990373],[127.08207640092981,37.5562549993083],[127.080713799507,37.5590288008836],[127.0789100992536,37.558837401423105],[127.0783322991031,37.5578468009654],[127.0767457989275,37.5581538004123]]],[[[127.02256849895751,37.5752423997809],[127.0231422000638,37.574492998526495],[127.02435680003421,37.5758883991982],[127.02564390015101,37.5752632991566],[127.0275367002935,37.576960900665306],[127.025585399026,37.5777724012115],[127.0241647988955,37.576350900375104],[127.0224315995836,37.5765156002806],[127.02256849895751,37.5752423997809]]],[[[127.0509060986334,37.5803209005176],[127.0517711006779,37.5810137001039],[127.051251000015,37.582038100159096],[127.0509060986334,37.5803209005176]]],[[[127.0368269994906,37.561355800201],[127.0381410005012,37.5606725997797],[127.0375145008619,37.5629810006943],[127.0368269994906,37.561355800201]]],[[[127.0484799991572,37.580690000438],[127.0482089992948,37.5792684989329],[127.0494128001187,37.5788050998326],[127.0484799991572,37.580690000438]]],[[[127.0360582991591,37.5911674999496],[127.03653100001189,37.5895572999621],[127.0365696000409,37.591345200029096],[127.0360582991591,37.5911674999496]]],[[[127.06786269800291,37.6359311992734],[127.06856840115191,37.6356218997831],[127.0690998012147,37.636672100533495],[127.06809960066249,37.636349001331105],[127.0672257003811,37.6379198010742],[127.06786269800291,37.6359311992734]]],[[[127.0737410993709,37.5473537002445],[127.0745547000677,37.547359399828196],[127.0744553007695,37.547946101078],[127.0737410993709,37.5473537002445]]],[[[127.0683956998321,37.5901419999157],[127.0686195993877,37.5896817999084],[127.0691156004151,37.5895906995579],[127.0683956998321,37.5901419999157]]],[[[127.01654259960209,37.5731872998552],[127.0166012009264,37.5722627989532],[127.0176271007248,37.5733754002685],[127.01654259960209,37.5731872998552]]],[[[127.0601614995554,37.6230162003057],[127.0616342009845,37.6227739995906],[127.0604816003587,37.6238278004355],[127.0601614995554,37.6230162003057]]],[[[127.2420814987466,37.547853999559],[127.2435479000339,37.547314899504],[127.2439789009244,37.547653700739],[127.2420814987466,37.547853999559]]],[[[127.0153233988216,37.5728577996539],[127.0158949002367,37.5729507996073],[127.0156391000257,37.5734201004882],[127.0153233988216,37.5728577996539]]],[[[127.0636181981604,37.645444999305106],[127.0638784999225,37.645202898140504],[127.06428250078511,37.645323698396],[127.0636181981604,37.645444999305106]]],[[[127.1712059993468,37.609400599619704],[127.1715511001097,37.6092367993842],[127.1720361003168,37.609359100084696],[127.1715511002443,37.6092368003184],[127.1716170999004,37.6095090003416],[127.1712059993468,37.609400599619704]]],[[[127.1572935988018,37.601133600394895],[127.1575304006188,37.6013818997634],[127.15726699929911,37.6014054002873],[127.1572935988018,37.601133600394895]]],[[[127.0496742994061,37.581413799982],[127.0498107002224,37.5815815001815],[127.0497180996811,37.581468000629],[127.0496742994061,37.581413799982]]],[[[127.0506571997865,37.5877786001238],[127.0507219002918,37.587761000265],[127.05064280029501,37.587808900359995],[127.0506571997865,37.5877786001238]]],[[[127.02436539991439,37.5749609000315],[127.0243654005141,37.574960899870604],[127.0244048999861,37.5750449000417],[127.02436539991439,37.5749609000315]]],[[[127.1156858977204,37.6186395009834],[127.1156858977423,37.6186394966586],[127.11584810172299,37.618608697952006],[127.1156858977204,37.6186395009834]]],[[[127.0738849997263,37.5873669002039],[127.07388499992021,37.587366899668],[127.0738850005671,37.587366900113096],[127.0738849997263,37.5873669002039]]],[[[127.06950139930359,37.5905369001313],[127.0695345002006,37.5904386995787],[127.06950140004739,37.59053690011859],[127.06950139930359,37.5905369001313]]],[[[127.1140311995429,37.611282300338296],[127.1140311997551,37.6112822994552],[127.114031200718,37.6112822996699],[127.1140311995429,37.611282300338296]]],[[[127.15887959947531,37.6083610004628],[127.15887960012181,37.6083610000067],[127.1588795998697,37.6083610006358],[127.15887959947531,37.6083610004628]]],[[[127.2447198000965,37.5465678998112],[127.2447198000818,37.5465679003823],[127.24471979981149,37.546567899963996],[127.2447198000965,37.5465678998112]]]]}},{"type":"Feature","properties":{"interval":60,"stationId":"5890637453"},"geometry":{"type":"MultiPolygon","coordinates":[[[[126.92054969947479,37.5560099004518],[126.9216021991072,37.5543123991681],[126.922984699929,37.5548165992028],[126.9241075998198,37.553901099240896],[126.92414530040601,37.5548753990377],[126.925988700554,37.554300399438105],[126.92746890018519,37.5557118994776],[126.9290491004401,37.5554501996814],[126.9298397005941,37.5561811000504],[126.92940060050229,37.5567782998521],[126.93034439955849,37.5568589997714],[126.93105969946741,37.5541412999427],[126.933209399276,37.5523265998499],[126.93174429942431,37.5512809993659],[126.93299320124869,37.5510065989762],[126.93457150020261,37.552556599390904],[126.9356278993727,37.5515498998224],[126.9358021984397,37.5499254000574],[126.93933729930191,37.548930999445304],[126.93943919948839,37.5478139002336],[126.9385008996687,37.547460199958806],[126.9392088996224,37.547133699775806],[126.9394767996734,37.5451936996162],[126.9419080001214,37.5462622993495],[126.9425575001179,37.545576499668606],[126.9452293995564,37.5464763991445],[126.9459452996179,37.545981499691],[126.94731319886189,37.542957200580894],[126.9447396014355,37.5419978015403],[126.9441383002257,37.542404501004704],[126.9447395994452,37.541997799787396],[126.9436066998026,37.539930200923],[126.94308910018239,37.5410414003892],[126.9421404993301,37.540945299837],[126.9424550988776,37.539376899384],[126.9417602995288,37.5382820996583],[126.9427562997043,37.5372620990438],[126.94734419977121,37.5364317988939],[126.94736070034091,37.5373069997044],[126.9493095002634,37.5376580999246],[126.9502694993034,37.538963498619204],[126.95000239965991,37.537296699713195],[126.9529035997883,37.5381175997295],[126.9542667992704,37.5366348001659],[126.95310809955609,37.5353054992407],[126.95567649991409,37.534948798794204],[126.95613640027071,37.5341465994204],[126.95746229967071,37.5348040997358],[126.95677479942131,37.533018099614],[126.9596301994284,37.5332034991939],[126.9625696000639,37.5296746991325],[126.96387749939349,37.5299851986659],[126.963614699942,37.5272467011616],[126.9630731993618,37.5275254009586],[126.96164200079299,37.5259375025465],[126.960114002321,37.5253845030995],[126.95654539924669,37.525794400761704],[126.9579968989009,37.5245884999612],[126.9567075994433,37.5235111004332],[126.9570986991697,37.5223302994701],[126.9593586991459,37.521162297094904],[126.9587713998656,37.5171994998095],[126.9597124022141,37.5210462989592],[126.9618906005961,37.5202487994882],[126.965770096754,37.5205427991811],[126.9689243000292,37.5191301979616],[126.96915489979861,37.5172119998798],[126.97311039913019,37.5155713911695],[126.97494989944269,37.515698890544094],[126.9756016988895,37.505883099784995],[126.9780710996279,37.5054133988797],[126.9783233993756,37.504367099926],[126.979858799933,37.5048534994271],[126.9799763003182,37.504223999618304],[126.9809291013232,37.5053935989326],[126.9809621029565,37.514844692214595],[126.9878880010271,37.5155028924497],[126.99453820150879,37.518484896849394],[126.996153600128,37.5153760997379],[127.00078909645161,37.5131704989911],[126.99975639748429,37.511639200522396],[126.9975113993459,37.5104130009281],[126.9985898994242,37.510033700000704],[126.9965083997699,37.5088412005005],[126.99641389935039,37.506512700753404],[126.99500600075831,37.505904301361795],[126.9940835008087,37.5072939005319],[126.9923256002038,37.5076154008068],[126.9926808988639,37.5067400001862],[126.9903664000701,37.5032182030007],[126.9873135982805,37.5023149024495],[126.98253579971649,37.5021375021887],[126.9772881004109,37.5040044002887],[126.9767721991431,37.5031559983616],[126.9788764995067,37.5023019990808],[126.97889940066341,37.5033596993499],[126.9800009995618,37.5033887993208],[126.98253580015779,37.5021374993441],[126.98450959881549,37.5008868002009],[126.98438419871219,37.498614599663],[126.9849763002647,37.4984426990552],[126.986688901209,37.4991819997987],[126.9867888011091,37.501233997746695],[126.9881530012277,37.501890599935],[126.9879803014004,37.5024319993936],[126.9909292990792,37.5014500980209],[126.9910481016759,37.5023078998775],[126.9933208994031,37.5026631995222],[126.9950645994746,37.5014089000675],[126.99573959879959,37.4997476017288],[126.99289179954269,37.4981327998717],[126.99424229866679,37.4982958997267],[126.99438460002091,37.4972463998034],[126.9954852995111,37.4979261991482],[126.9964836998523,37.4961268991904],[127.0000186998913,37.4959614988685],[127.0005398000036,37.4952978993309],[127.0005891006092,37.4959298993222],[127.00148749971079,37.495893199358896],[127.0025186998617,37.492933900276995],[127.0007668992727,37.4916916998167],[127.0044237963115,37.4881455000922],[127.0043155981162,37.487480698624],[127.0058717995322,37.4887752993971],[127.00781099903341,37.486562799721504],[127.00905349995519,37.4872992990803],[127.0095132994954,37.485624600755],[127.00738009902521,37.4832934004327],[127.0105016984952,37.482079200031905],[127.0105434984976,37.4812894994986],[127.01178489975919,37.4816572990783],[127.012401099143,37.480782599952995],[127.01184339876491,37.480138599373],[127.01256279991699,37.4804892989809],[127.0130781000756,37.4798340997772],[127.01371879975311,37.480912098897896],[127.01591939840411,37.479183397269],[127.01640890095351,37.4807190982493],[127.0179652016582,37.4796303001546],[127.02037130057079,37.482691997731],[127.02599840023001,37.4837980992856],[127.0281774991359,37.4834191999578],[127.0287000983373,37.4825249983109],[127.0277160990599,37.4796662996893],[127.0283715005723,37.4804604981126],[127.0298136991301,37.4804083981647],[127.02898499990481,37.4785586997708],[127.02934619946821,37.477196299575105],[127.03042480010721,37.4779274986883],[127.0317361996367,37.4770257983919],[127.0346344002527,37.477367598860404],[127.03549819938891,37.4759643002637],[127.0348807981673,37.4761105001425],[127.0365084997695,37.4756262996595],[127.0365899997666,37.474469999320995],[127.0381235996722,37.4732015001497],[127.03593289899261,37.4732043006086],[127.0348024989861,37.4713222011092],[127.0325711986933,37.4717301998266],[127.0339906989079,37.4708858984357],[127.0331060993853,37.46917059994],[127.0341768002487,37.4681131995672],[127.0356868989424,37.468500499299495],[127.0347461992051,37.4673747999218],[127.0354013989404,37.4661264005424],[127.0342416000084,37.4657027001073],[127.0350640991735,37.4653525002215],[127.0343001999298,37.4648883996616],[127.0380624997888,37.4666321991836],[127.0390215996477,37.4652296983472],[127.03960350022889,37.4659690983565],[127.040959398873,37.4657390985865],[127.0414791986625,37.464867399123804],[127.04067380031049,37.463776799207295],[127.0434919005153,37.4650151977059],[127.0450947003282,37.4635679996885],[127.0444669004317,37.4645554998837],[127.0448559003391,37.4655812990665],[127.0453383005939,37.465119400384395],[127.0449195009056,37.4668102998415],[127.04568490091219,37.468259599900406],[127.0451329007577,37.4690772993182],[127.0461059009557,37.4703374997671],[127.0453724008594,37.4711438003336],[127.0463481007249,37.4718667001867],[127.0454708006349,37.4718644006657],[127.0459216003781,37.473917800242205],[127.0439334004833,37.4746416006549],[127.0427585005943,37.4738303008003],[127.04219070062841,37.4754790015491],[127.0400576010062,37.476260400068604],[127.0433348004519,37.4800935996971],[127.04285230073741,37.481075099437],[127.0437050001963,37.4805136998635],[127.04324900093171,37.481256499840704],[127.0442053005278,37.4825453994573],[127.04356020059541,37.4835478000902],[127.0441288000268,37.4841613994766],[127.0451408992224,37.4842199992558],[127.04511940040031,37.483508398968596],[127.0469500005805,37.4842140989303],[127.04766800035421,37.4832497998725],[127.0471738007377,37.48507469987],[127.0502921002349,37.486058899222805],[127.0508848996421,37.4854991997825],[127.0503465994835,37.4848569981595],[127.05179289985169,37.4852530991865],[127.0519542006318,37.484295399442104],[127.052212701253,37.4856815992226],[127.0539682010568,37.4867382990529],[127.0564782985467,37.485019200772],[127.05510459966881,37.4831732004884],[127.0532984995867,37.4828335004848],[127.0530011993539,37.4806318996265],[127.0570421006923,37.483492596435795],[127.0595107982236,37.483551896376504],[127.06111580005509,37.480680296418704],[127.063309199396,37.4804495975048],[127.06264740121931,37.4828125980556],[127.0634850003817,37.483424997443194],[127.0662753975913,37.4848426960255],[127.0696844005047,37.4844639980901],[127.07098780057869,37.4879642994904],[127.07195279961371,37.4883099991447],[127.075085699644,37.4868264989724],[127.0741979007305,37.4875028015106],[127.0744890004394,37.489853599159794],[127.0772638001114,37.490571999949],[127.0781950000287,37.4923984991988],[127.0792954999088,37.4917917994683],[127.07982110022651,37.492772499161],[127.0817600982875,37.4928988990346],[127.08076540056561,37.4910152997779],[127.0817454004576,37.4940044990374],[127.0826612004444,37.494292999807996],[127.0789311003699,37.4949294006423],[127.0752963997908,37.4933418017076],[127.0723591019585,37.4966168995971],[127.0730830009982,37.497526200920305],[127.0721039006265,37.4970948016229],[127.0701045996551,37.499245100703305],[127.0690369002581,37.4984711005658],[127.0672516994116,37.499060900863704],[127.06594390057029,37.4976089004615],[127.06511779961039,37.4983914010783],[127.0643586001528,37.4977684004943],[127.06317450009931,37.500529901318],[127.0621773998091,37.5002163008402],[127.0617436005042,37.5010240010949],[127.0596421004619,37.5015128007081],[127.0590115009706,37.5025630999855],[127.0597217003163,37.5042245993931],[127.0629078998069,37.5031786992403],[127.062954300885,37.503864499067596],[127.0643096995296,37.5043158986162],[127.0651715994924,37.5028157992606],[127.0661593995428,37.5031437988621],[127.06662509996559,37.5022701984648],[127.0681258995841,37.5056756969424],[127.0736567005608,37.5049905988116],[127.0733805012117,37.5061977993463],[127.0741266004656,37.5067659987781],[127.07506700091061,37.505193998951405],[127.07604210110169,37.5061593998564],[127.0746595015241,37.5068569002786],[127.0758717003119,37.5081891989463],[127.0789186992516,37.5080698993075],[127.07955909974339,37.506694399208904],[127.0799076997975,37.5078396989315],[127.0808770988281,37.5077119990592],[127.081124498456,37.5057864000373],[127.0865009990871,37.503459299449304],[127.0864619995408,37.5023278994537],[127.087741501091,37.503112799304],[127.0889861010948,37.5027554992909],[127.0908432007783,37.506035699388995],[127.09176370030511,37.505776099524596],[127.0928809011658,37.507212099365496],[127.0959588989519,37.5067531993251],[127.0966314991247,37.5051057004434],[127.0944443990256,37.504612300677195],[127.0940794989396,37.5035509006955],[127.0928648988957,37.503895700717],[127.0922632987352,37.5026213003414],[127.0938152982804,37.5017934004854],[127.0935861983454,37.5010786008362],[127.09494509852081,37.5004766002409],[127.09482219842509,37.4997401002467],[127.096737100638,37.4991551987891],[127.0973535014268,37.5003453993247],[127.0988076014944,37.500101799827],[127.0987777012707,37.501267499794494],[127.1007387997039,37.5020588993687],[127.1019280001473,37.5006016996563],[127.1048865993506,37.5007625993281],[127.1052566994089,37.500042399399696],[127.11048769968,37.501301998553004],[127.110790299567,37.499896599517896],[127.112251399203,37.4992980996537],[127.11153069976301,37.498830399713306],[127.1126826994646,37.498829099640105],[127.112014599745,37.4968528000827],[127.11370459941591,37.4969961990816],[127.1145764987735,37.496011499609004],[127.11361719977559,37.4950881977586],[127.1157906978804,37.4935671987107],[127.1149733986977,37.491588500689396],[127.1139211997499,37.4917666005113],[127.1141870994109,37.4912215998156],[127.1172316008168,37.4906569981709],[127.117475601403,37.4921785991572],[127.118491600387,37.492309899025905],[127.1207758999548,37.4896353992753],[127.12165320137879,37.4909751008539],[127.1202880001854,37.490763500146],[127.1195237009349,37.491659599273596],[127.1198682013706,37.492978798972004],[127.1220365992022,37.4929722989785],[127.12439590056749,37.4952218987808],[127.1254701001741,37.494014099168304],[127.12731509973901,37.4958682992473],[127.1293207989069,37.494320100217905],[127.1295730004923,37.4932600992611],[127.1303815000655,37.494738099787],[127.13134840010869,37.494842599178696],[127.13183439974921,37.4939045000247],[127.1305747002378,37.492642099457996],[127.1337452000168,37.493480399524806],[127.134164600033,37.4927080998645],[127.1362787001527,37.4928595995337],[127.1378799994281,37.4942599989024],[127.141077596253,37.4922245995189],[127.1420308997643,37.487783099462604],[127.1426984002606,37.487617098869],[127.1450839006067,37.488861999257395],[127.14497370068,37.4897232991138],[127.1460371996165,37.489419599417495],[127.1459679997226,37.488755399364],[127.1471173010453,37.4902260990364],[127.1487170999723,37.489573899153704],[127.1495099005885,37.4911940991854],[127.15067190060391,37.490987499621504],[127.1504222008186,37.4921454993812],[127.1512639003094,37.4933452993503],[127.1545276002876,37.4920899996553],[127.1561810003366,37.4927914993439],[127.1554584009797,37.4944382993113],[127.1571159005959,37.4948809996402],[127.155694001342,37.4961411000762],[127.155785000583,37.4978911006439],[127.15462360043469,37.497536601520295],[127.1542620005159,37.498761200891096],[127.15417389977901,37.4976135008028],[127.1534911002142,37.4985472007009],[127.1529015997431,37.496894000559195],[127.15148540115929,37.4975970998561],[127.1517163002777,37.4984279008352],[127.1496272002401,37.4979737002135],[127.14900749969759,37.4962842011306],[127.14619549996091,37.4956048003722],[127.14587350028289,37.4965590994179],[127.1470271003349,37.498074500299104],[127.14609749974579,37.4982934011428],[127.1460849996505,37.497320700736104],[127.1444493993459,37.498221400260796],[127.1412899001261,37.4972201003316],[127.14076750048069,37.498021399778196],[127.1419423001267,37.4992325002522],[127.13965930059031,37.5001398004043],[127.1395150001792,37.502928100202695],[127.13893040019961,37.502417700772305],[127.13832200017781,37.5034828004321],[127.1364444007249,37.503664900222695],[127.13639700046821,37.5046174001538],[127.1353991009522,37.5049716004761],[127.1363124005016,37.5058199995829],[127.1369919024345,37.5097666975356],[127.1387122016483,37.5111623974662],[127.13868240078439,37.5133854002861],[127.13671990100231,37.513921800547095],[127.13681840090379,37.514629599839296],[127.13954550035659,37.516457298334096],[127.1425716008677,37.513969799667095],[127.1395455018881,37.5164572991592],[127.14131720120021,37.5183505980089],[127.14357320055541,37.5174358001854],[127.1413172015493,37.5183505996531],[127.1412434016231,37.519539098464605],[127.1428724026933,37.5222405991624],[127.1454751000906,37.5226955987074],[127.14576030040901,37.5217416999011],[127.1454751005745,37.522695599784896],[127.1461006000846,37.522721599723994],[127.1481089011165,37.5276450980568],[127.15056129943251,37.5261698974784],[127.1527399023931,37.528721598584895],[127.149063002881,37.5300000000366],[127.1497557021883,37.5317137983228],[127.14846300097301,37.532121900666],[127.14935460073039,37.5332455005443],[127.1485800007611,37.5342622996885],[127.1490328005604,37.534856900174404],[127.1480113004362,37.534657900712496],[127.1478901004013,37.5356741999748],[127.148384399907,37.536377699271306],[127.1494807003057,37.5360556991329],[127.1496137017734,37.5368124994054],[127.1465996009633,37.5393465006846],[127.1470441001759,37.5420830993269],[127.14816060113439,37.541863398674494],[127.14835780058979,37.5478160990381],[127.14906490340739,37.547845498866],[127.14954810305301,37.549206499838895],[127.1486077005922,37.5492272009625],[127.1483634001831,37.5503216005814],[127.1473431001681,37.5496441007581],[127.1465421009691,37.5501994002028],[127.148646500146,37.5516679004855],[127.1471822005702,37.5511658010639],[127.144346802396,37.5532011007782],[127.1467172012881,37.5545742002288],[127.1448386039212,37.556908500633],[127.1442507995223,37.5549424018943],[127.1427388972535,37.5547295012995],[127.1408065995806,37.5516812008957],[127.1384342992824,37.5521459004865],[127.1388357989251,37.548865399898695],[127.13614620099099,37.5465497013944],[127.1354417003984,37.5505986002063],[127.1368613007084,37.5520266000458],[127.1339135002388,37.5540441006245],[127.1329859005534,37.55314100100269],[127.13287080066851,37.554321699822005],[127.1335785001451,37.5547530003317],[127.1328042009194,37.5547584003263],[127.13236090015529,37.556403602200206],[127.1310297001514,37.556362401074495],[127.1301796010015,37.557359900077],[127.13055399999111,37.557987500617706],[127.1301796002725,37.5573599006844],[127.1295192996309,37.5577121001333],[127.1300826991681,37.557411599889605],[127.1296768994314,37.556097300972496],[127.1284955004229,37.556946000481304],[127.12789820011271,37.555774901668805],[127.1259437988798,37.556446800661],[127.1251262995348,37.5550585014708],[127.1230671008343,37.554139302699],[127.114217100519,37.5592045017954],[127.1128005983484,37.5580704011148],[127.11078940035961,37.5583963007889],[127.1100820002396,37.55756860066511],[127.1099334990182,37.558361901085],[127.1096735995813,37.555681801992606],[127.10799180041009,37.553657204110806],[127.10442480397711,37.556921700846296],[127.104644203975,37.559917499959596],[127.1021228009963,37.560389601128],[127.1019136996474,37.5613220007804],[127.10148909935289,37.558863099900805],[127.10205589878609,37.5580318007321],[127.099355001487,37.556218002545904],[127.0958701049719,37.5573508014131],[127.0966863057847,37.564156501191704],[127.1003652021058,37.5682988970493],[127.1029453995256,37.5673958979523],[127.1054561032835,37.5641242967743],[127.1043380058825,37.5696255968896],[127.10734450636049,37.573115896573796],[127.1123836027813,37.575689496345305],[127.1172505998954,37.5751505977571],[127.1180149995574,37.573368598990605],[127.11841770046759,37.5742664986713],[127.11971669916859,37.5744526984851],[127.11992949969209,37.5730527987611],[127.1220235989781,37.5736090981535],[127.1183267029344,37.5750162018131],[127.1170065042546,37.576345300484],[127.1171336041275,37.580661996167294],[127.121773099488,37.578958697870604],[127.1239264997153,37.5760051996679],[127.12543220076381,37.5758818995119],[127.1263218998741,37.5776512977425],[127.12862670025599,37.576771997672],[127.13115070065871,37.5782967963402],[127.1344303003879,37.574437599349906],[127.1344726015134,37.5784468976696],[127.1369624990235,37.5771946989218],[127.1368692993178,37.5753849997926],[127.13760669973381,37.574564092463206],[127.14260489903009,37.5749252918411],[127.1447865003851,37.5754344993232],[127.1482796006091,37.5791762980344],[127.1505541985557,37.5777960990146],[127.1517627996438,37.5786417991397],[127.1537177999841,37.577993199718804],[127.1559935009102,37.579807199936],[127.15615450137899,37.5819444993409],[127.15787780126959,37.583171499093],[127.1594212997261,37.5830685991959],[127.1608209993517,37.5817827996251],[127.16627510198909,37.5836766934913],[127.1692325001579,37.5866513999421],[127.1684204008583,37.5863451004113],[127.16734480209219,37.5886543983241],[127.1683708010662,37.5890489979295],[127.1701601994812,37.5874726995521],[127.16946799981069,37.586701400055006],[127.1699869989247,37.5856017004011],[127.1688629997632,37.5853276002725],[127.1692848002312,37.5846648935484],[127.1752833035045,37.5865918939156],[127.17584460123281,37.589666797496506],[127.18280230273601,37.592280688814306],[127.1917944995979,37.5920832911167],[127.19785919855839,37.5909286911688],[127.2042684955649,37.587661493470605],[127.21183019603839,37.5800623933666],[127.2184117923774,37.576766592743596],[127.2286914888781,37.567814291837],[127.2364343893557,37.5525684972968],[127.23896139489179,37.549857894868],[127.2387902968758,37.546857497622504],[127.2357677998983,37.544432000048],[127.23556829935039,37.5432053000307],[127.2366577008475,37.5435216994633],[127.2387902987149,37.5468574961275],[127.2389038986013,37.542572000413],[127.23757789911791,37.5427875999194],[127.2387868991998,37.5423107997835],[127.23703959960551,37.541353099534604],[127.2387868988576,37.5423107982874],[127.2409522024596,37.5418977991293],[127.24254190086991,37.5461816948454],[127.24526009815169,37.544840896186194],[127.2460854000334,37.5453561995681],[127.2523688974452,37.542335096314204],[127.2549198976004,37.540093197035404],[127.2642131113202,37.534971300212],[127.2583879087435,37.5387297100646],[127.2600380070934,37.5499065988877],[127.2624971046696,37.551714303119],[127.2587469994977,37.555991005342996],[127.24684050302811,37.5635282062512],[127.2418874079812,37.5697422000372],[127.2455138043548,37.572882196897204],[127.24395920297991,37.5782591994931],[127.2444890024501,37.5792885984637],[127.250579207713,37.5794116952057],[127.2552075036261,37.582948201100294],[127.2514289018848,37.5822111049725],[127.24640150841451,37.5889758011356],[127.2433981004337,37.5894671053003],[127.23944210438971,37.5939568008106],[127.23772670144339,37.593475902983],[127.23839820350591,37.599071099277005],[127.2378483959362,37.5978469027198],[127.2329577008269,37.5977503028164],[127.2310135027711,37.5998346007321],[127.23204540160191,37.602904001338004],[127.22898480090201,37.6032267012598],[127.2273408997895,37.604907003663996],[127.217171903534,37.6023483056693],[127.2151257037241,37.606268302658705],[127.21540230344749,37.607900801026204],[127.2175474023121,37.611134999934094],[127.2208207053756,37.6133451005051],[127.2225555026037,37.618436100994096],[127.2198974013983,37.6159903040111],[127.2137184053314,37.6211163053055],[127.2114307009266,37.6204147012958],[127.21023580019181,37.622390001078905],[127.2081650001262,37.6182801040165],[127.2065423000753,37.6183671035727],[127.2050325015851,37.6217763001635],[127.20626620035141,37.6231575987822],[127.2073993019286,37.6224579018485],[127.2038734044098,37.6264783988207],[127.2053473008246,37.6321926998128],[127.20627049990141,37.6330015990039],[127.2074016001995,37.631802699796005],[127.2121194989981,37.633606398515596],[127.214036997723,37.632661198628],[127.2139844003815,37.6345107979839],[127.21787930153481,37.6359989997461],[127.21321930214201,37.6389282010021],[127.2142829014884,37.6404237001119],[127.2137328993129,37.6423979030237],[127.2125580004878,37.6428382025834],[127.20836389380969,37.6416618032736],[127.20135709999039,37.6421179009655],[127.2071749992683,37.6404273968341],[127.2076316988116,37.6384513988101],[127.20617149669809,37.6353442994377],[127.2030719999329,37.6328913008879],[127.20366899934781,37.6328733998513],[127.2031939998228,37.6319165008082],[127.2022035005451,37.6327280999647],[127.2026955003094,37.633135500643704],[127.1994812996718,37.6340918004143],[127.20041359877631,37.632789000504104],[127.19905729850831,37.6320966010071],[127.1967357005299,37.6288455035891],[127.1960795000679,37.6321536035784],[127.1914463996244,37.6298310037008],[127.1901071009637,37.6315563019755],[127.186847503323,37.6334701989405],[127.18736719928779,37.6340571038183],[127.1813152985005,37.6327779007644],[127.1820280967798,37.632052598452404],[127.1813296974782,37.6279565025485],[127.17633030247761,37.6273926031124],[127.1711603067957,37.629035706417206],[127.1659236030987,37.62820150704],[127.1652500037723,37.6352599999815],[127.1665112013748,37.6364855009803],[127.1643124002793,37.639309000921294],[127.16432539925479,37.638067501253],[127.16254220056341,37.6358586034653],[127.161061797907,37.6363460029672],[127.15979039833171,37.635156600632904],[127.16012200020481,37.6345396994231],[127.16254219986601,37.6358585987117],[127.1652499971582,37.6352599993103],[127.1659235964846,37.628201506368804],[127.1609410993857,37.628569505393294],[127.1577573025695,37.630806303156504],[127.1575092999597,37.6298738001113],[127.1557177000544,37.6298623004731],[127.15449410102889,37.630359500457196],[127.1530902012821,37.6335125008582],[127.1526985997908,37.6331642009091],[127.15043140006671,37.6356833009323],[127.1484239020742,37.635870500745106],[127.1486943018038,37.6370584995571],[127.1507014027125,37.6377989997374],[127.1480841037322,37.642250000018194],[127.1482354035809,37.6443234979447],[127.1522831995331,37.643713998554205],[127.1531657016988,37.6453896998661],[127.15128970308261,37.6499374977416],[127.15350880081739,37.6503521989038],[127.1523858009745,37.652186200029604],[127.1526772006831,37.6541561980596],[127.1539071994531,37.652911099304696],[127.1547370997979,37.6538375988446],[127.1558223987126,37.653511799170396],[127.157048997486,37.6512886013936],[127.1550342992919,37.6503707988852],[127.1554116992225,37.6492931988528],[127.1574961008321,37.6480920985936],[127.15647320123179,37.64854420004141],[127.15768460165759,37.648821800130904],[127.1582147016197,37.650537099907304],[127.157049001676,37.6512886007578],[127.1586102001148,37.6530051990412],[127.1607257999321,37.6507699000369],[127.1607514991888,37.6498013993696],[127.1612352006261,37.650431600115596],[127.15847070119709,37.653209102062796],[127.1570490005036,37.6512886027362],[127.1558142016051,37.6535667011161],[127.15473710035151,37.6538376014039],[127.15390719983121,37.6529111014997],[127.15170100064701,37.6554946006306],[127.1485639016516,37.6548241013258],[127.1468983033172,37.6568531992967],[127.1466047022751,37.6589212017196],[127.1471637017161,37.661118699522106],[127.14845030033149,37.6622116004262],[127.1471637010949,37.6611187013248],[127.14314729732699,37.6602144016539],[127.14032939942909,37.660406202381],[127.1377767961303,37.6565595012406],[127.1382495985268,37.6552370005576],[127.1359271977814,37.6515002034799],[127.13180150144309,37.653540301836905],[127.1317345015101,37.6554217999554],[127.1326840010621,37.6568996008707],[127.1290472012389,37.6588816007637],[127.1247552992732,37.6582481003015],[127.1253089992521,37.6573333005801],[127.12385439970829,37.6566276999583],[127.1257182990947,37.6556363000732],[127.1252215995914,37.6549652007443],[127.1245741996662,37.655348600141004],[127.1248448996315,37.6548029001602],[127.1231210005478,37.6546671005908],[127.1226794002712,37.6552965006942],[127.1225425994742,37.6544088999533],[127.1235934984045,37.651108699882],[127.1247878994488,37.6501581993648],[127.1242427996199,37.6481258008382],[127.1237146998664,37.6487537001781],[127.121397300769,37.647526201637405],[127.12120690095941,37.6490670000966],[127.1200436011999,37.6503102002085],[127.1201602011351,37.6536771006766],[127.1181413014668,37.654102201182994],[127.1174826008562,37.655637300680404],[127.11671119950489,37.6552063999197],[127.1170516990928,37.654371500459604],[127.11588769940221,37.6544852996327],[127.1163873997715,37.652359101420195],[127.1140318002146,37.6532398007156],[127.1134598994171,37.6517614005466],[127.1117637003412,37.651032900825896],[127.111279100062,37.652233601106005],[127.1111221990704,37.649928198415196],[127.11260919975089,37.6506413990238],[127.113254099106,37.650174399490794],[127.1126260996931,37.6487724998412],[127.1135924002183,37.6490849991046],[127.11407869973199,37.647656600533],[127.11082330030851,37.6463872014047],[127.1103664998261,37.6483085000349],[127.1107456993352,37.6455263010951],[127.1087074992777,37.6462953013358],[127.1100359983376,37.6441148010692],[127.10780990056371,37.6431698020142],[127.1066639017097,37.644853400330604],[127.1053441981946,37.6447186019253],[127.1031298949343,37.6425518025412],[127.1038448954349,37.641932098778696],[127.103911795368,37.63769080302],[127.0972866019932,37.6334250072858],[127.0940393040249,37.6427761023169],[127.0907605021456,37.6450289031235],[127.0894412997344,37.644416401238],[127.08666260225169,37.645192900515795],[127.0860874015702,37.649071401457896],[127.086941700944,37.6509206002498],[127.0858385026197,37.651513902327],[127.0870303014279,37.6545637992771],[127.08772700307,37.6545070004217],[127.0872554035416,37.655895299033396],[127.0903239004731,37.6578849970437],[127.09302750141,37.661104099648504],[127.0907748022563,37.6614680013668],[127.0895000034341,37.663535599542804],[127.0897817031524,37.6651387979396],[127.092830502538,37.666708502540295],[127.0908599045086,37.6668875023613],[127.0884260062677,37.6713272019328],[127.0899685044806,37.674304299402806],[127.0915577028914,37.6751873985197],[127.0913458005643,37.678342200457806],[127.0843881005257,37.6813198015156],[127.0816174032964,37.6805682022672],[127.0774814008025,37.681867403901904],[127.0738879008056,37.677515905591406],[127.0736857000865,37.6834958013142],[127.0688702024786,37.6811704048554],[127.06992720142159,37.686683799342],[127.0707867050537,37.6872543033204],[127.0680053997588,37.6890936055584],[127.0653447982455,37.6877607037094],[127.062191301399,37.6893076021625],[127.0607773028559,37.692151902739596],[127.05710160653159,37.6946662002253],[127.0600663035669,37.699369695521796],[127.0663778013902,37.7010066004058],[127.0590118043161,37.7065208994664],[127.060264104187,37.7076862986579],[127.0589040004492,37.7087294007147],[127.0583424994436,37.708944000540406],[127.0573317000148,37.7065645019074],[127.054883502463,37.7057077027642],[127.0518376055089,37.7078004006715],[127.051070206379,37.7103943005363],[127.04958050153421,37.7112596994909],[127.0518277055434,37.7145185975902],[127.05329800240389,37.7219310007236],[127.05608750038711,37.7232654998532],[127.05634380030179,37.7243949006021],[127.0550062003974,37.7238621004988],[127.0548542005494,37.7247590996018],[127.0565231010123,37.7265385994408],[127.0551273007754,37.7265718004549],[127.0551645008798,37.727853699869996],[127.05652000069331,37.7288299998675],[127.0553826000795,37.728361300629906],[127.0556209008991,37.7299357998838],[127.0547383000028,37.731274300994606],[127.05379029883531,37.7311688999605],[127.05358299963271,37.729208401157194],[127.051553900974,37.7292360010989],[127.05165730014551,37.7304996999986],[127.0502841012384,37.7302489003074],[127.0505281011298,37.7312935998438],[127.0487348012486,37.7320581004505],[127.0488263010559,37.7331868995561],[127.0535200005262,37.735607299211196],[127.0530346003177,37.7366565994103],[127.0537927001577,37.7374314987351],[127.05435130027959,37.7364482995646],[127.0539589006211,37.7374304994541],[127.0553966003165,37.737361699927],[127.0535539009674,37.739428600074994],[127.0531577003072,37.7414098003655],[127.05147750030281,37.7422153004933],[127.05200340002051,37.7441355001005],[127.0501240005391,37.7453431001629],[127.0511462003607,37.7478386005109],[127.0504291001649,37.7474095005525],[127.05031490039191,37.7484974007349],[127.0495253002583,37.7484760011848],[127.04813030040269,37.750809400611004],[127.0459791000791,37.7506353007868],[127.0441089000654,37.751705200117904],[127.04419869954549,37.7504890001539],[127.0432247007215,37.7516955001379],[127.0426173997574,37.7514637003231],[127.04167499953749,37.7504190000707],[127.0422106996543,37.750437599676395],[127.0417661994294,37.7490335001186],[127.0405447991733,37.748908699973605],[127.0404167997908,37.747211100822405],[127.0385452993997,37.7467004000285],[127.04269989986,37.744304099422],[127.0428920998783,37.7434273998931],[127.0448423996437,37.743669899821],[127.04445109982261,37.7411484022765],[127.0417752004129,37.7417693016273],[127.0396500999699,37.7404193006411],[127.0391975999344,37.7389901010208],[127.0366408015389,37.7392518003824],[127.0366044015531,37.739942800046],[127.0406602999247,37.742059099459595],[127.04079560139249,37.74327660012],[127.03933119999401,37.7453644002031],[127.0392381997944,37.7435010010785],[127.0383529002993,37.7447469001455],[127.03690440134609,37.7439422009279],[127.03661180054131,37.7452472000096],[127.0355402000314,37.744643100807394],[127.03524460001219,37.7454404012093],[127.0340495994302,37.7444680000271],[127.0340390995484,37.7431782004724],[127.0327947995884,37.7432197002944],[127.0340390988561,37.7431781993126],[127.03463309792079,37.742091698958305],[127.03295939959449,37.740534600515396],[127.0308671992083,37.740478498712704],[127.03179999810071,37.738252499073404],[127.0333832997663,37.7383304983388],[127.0336280995891,37.7368929992775],[127.0349665994478,37.7358403000926],[127.0340633996448,37.7351972995679],[127.0349627995518,37.734468199904605],[127.03814149983549,37.7366699987019],[127.03872699924999,37.735321400050495],[127.0371922988347,37.7348157995626],[127.0386906000697,37.7344499998455],[127.0395130997307,37.735116599150096],[127.0411882997916,37.733951999290205],[127.04088259996931,37.7328748002897],[127.03812379950949,37.7331196004745],[127.03673289969011,37.7320512003453],[127.03714449960259,37.7316492003298],[127.03570239955451,37.7298470004577],[127.0367026996316,37.7285055000335],[127.0357299991717,37.7276479999538],[127.03701549954029,37.7274736996351],[127.0381199995771,37.7259689999988],[127.0380999993569,37.7235813997575],[127.03878949973729,37.7237729993285],[127.0402164996833,37.7208969992652],[127.0428590990379,37.7211143972405],[127.0440325978644,37.7187341996207],[127.0434021993975,37.717208799512605],[127.0446180988412,37.7162825002611],[127.0424386007915,37.715982800515796],[127.0421987999065,37.7165653002503],[127.0416840994732,37.7159346009651],[127.04221529823239,37.710451300808906],[127.039374596985,37.7101923015119],[127.0375065974187,37.707227002066105],[127.0374365972582,37.7057279984334],[127.0405853941094,37.698037506123896],[127.0385632908695,37.6955708004096],[127.0310832983495,37.693342402637995],[127.0325231965628,37.688107697648505],[127.03058989849609,37.685140200616],[127.02923729926921,37.6852392994402],[127.03531459544001,37.6861400975274],[127.0362548944997,37.6796971039704],[127.0311685988393,37.6785101008213],[127.0319445996634,37.676373898049604],[127.03808480083269,37.6787093992467],[127.0398485990689,37.678393399562694],[127.0429519982023,37.6759680993426],[127.0392193966311,37.672083304783996],[127.03610469707989,37.670573504247606],[127.0329711002135,37.673799101022],[127.0361046965662,37.6705735026217],[127.0323290993066,37.671087302616705],[127.0290525986712,37.6700808028115],[127.0288021981049,37.669226700768604],[127.0305320980278,37.6675503004449],[127.0305153980445,37.6653940026012],[127.0294087991511,37.6646591033361],[127.027548901011,37.664990603004604],[127.02729549887219,37.6634500002476],[127.02794019894121,37.6626679003871],[127.02760119950781,37.66121419986921],[127.02884489927429,37.6610359990606],[127.0293936987255,37.6596581004385],[127.0270810997211,37.657877300095],[127.0272850994986,37.6567212005646],[127.0242460990702,37.653334700948506],[127.0232116001047,37.654100800182405],[127.0223065997501,37.653766400461805],[127.0222245996779,37.6526476003728],[127.0190553996495,37.6494573010483],[127.0171660015389,37.6507102997953],[127.01773300151191,37.654694999715694],[127.0189384010498,37.6550976010849],[127.01863400020211,37.6574568000065],[127.016744001449,37.657574600655096],[127.0168094007605,37.6583917030807],[127.0145727012096,37.6593271003962],[127.0152910004913,37.6614883982349],[127.017026900543,37.6617420997303],[127.0148723020114,37.661850300413796],[127.01069050346109,37.6662115086238],[127.0097666977551,37.666086704338404],[127.00938019930119,37.6634662004544],[127.0076875999309,37.6613281999237],[127.0088561987623,37.6610145002374],[127.01060589606371,37.6583331025407],[127.0105741974533,37.6534951014803],[127.0078278965308,37.650227799770704],[127.0086244994305,37.6468876001462],[127.0068104997904,37.646817200023904],[127.0082602996475,37.6459377993734],[127.0090681994757,37.6442054002083],[127.0083744999217,37.644043199532796],[127.01025629892149,37.6433379994796],[127.008983800194,37.642099900717696],[127.0086421995259,37.642855499888405],[127.01034389884869,37.6408507004323],[127.00908230011031,37.6393885018945],[127.0079099996002,37.6406037999053],[127.0085863989238,37.639275401233704],[127.0073940996768,37.6389771992355],[127.0085863990254,37.639275399001804],[127.0089142987689,37.638175099824096],[127.00690899849029,37.6364885997156],[127.0068025967612,37.6336855955296],[127.0088548970089,37.631948897563795],[127.0072901981409,37.624157703215296],[127.0040503013808,37.6240068033662],[127.00299369328981,37.6252988039026],[127.00163429336611,37.622182504386004],[126.9990155959848,37.6202497063188],[126.99489299830451,37.620419401440806],[126.9934829993083,37.6211887004012],[126.9963361976752,37.6177316947599],[126.9975208964905,37.61382159867],[127.0002390988716,37.610493299573],[126.99822690088381,37.609185400880904],[126.9962631999655,37.6100031001841],[126.9948606012233,37.6092603005469],[126.9959710009082,37.6103326003934],[126.9945795001086,37.6110209001274],[126.9934473005904,37.6112086006603],[126.9932625995737,37.6105075998302],[126.99486059917099,37.609260297663106],[126.99485590015681,37.6067017983637],[126.9967604982522,37.6064031986623],[126.9982130991984,37.6039329983415],[126.9977099995167,37.6019699997958],[127.00077889742781,37.6041854966472],[127.0021004961062,37.5994819013508],[126.9988388993678,37.5991420016907],[126.9991267993325,37.5977339005793],[126.9973200011393,37.5983399999732],[126.99743439952701,37.598982000309],[126.99731999959481,37.5983400006487],[126.9940621996297,37.597550400142005],[126.9944729995056,37.596506100418196],[126.992151099757,37.5941222000895],[126.9931966000782,37.5946116990075],[126.9939763992894,37.5933466000325],[126.9908370995765,37.592204900106395],[126.9918469995671,37.5908523006104],[126.9897664990835,37.5901204007679],[126.9883641982922,37.5875196015002],[126.98347890047549,37.5875911008348],[126.9836406993865,37.5868123003565],[126.98224740077981,37.5864310007378],[126.9817061997314,37.5869645007488],[126.9807831998846,37.5860990001773],[126.98175809890279,37.5858938996001],[126.9814293992315,37.584623000871],[126.9793513987121,37.5849682997766],[126.9791419000659,37.582646800643],[126.97735849949319,37.5837052003645],[126.9754166995802,37.5837618006565],[126.9749579990518,37.5830084008759],[126.97291040054421,37.5838731000906],[126.9728172995522,37.5864220006509],[126.9685090995397,37.584077601914004],[126.9661807991073,37.583845100142995],[126.9655022999947,37.5820954008557],[126.9639196981783,37.5820936004392],[126.96395429807829,37.5804550012942],[126.9589747003747,37.5805263020682],[126.9583586000396,37.5797280007094],[126.95459600216269,37.5808824017763],[126.9549554028687,37.5840884007625],[126.9543208005531,37.5851476013485],[126.9528197015352,37.5852067016014],[126.9517964997742,37.5865170030542],[126.95025419928861,37.586173002729005],[126.94895250059031,37.5873783015237],[126.9490989004439,37.588482200419804],[126.9463996998334,37.5888715014853],[126.9446500999379,37.5900659008839],[126.94400800058,37.5907411002087],[126.9451125005171,37.5922584010442],[126.9439449005433,37.5920864999382],[126.94339750009951,37.5931371001605],[126.94228550002529,37.5927743003837],[126.9419861998109,37.593730800158205],[126.94069590060609,37.59269410076],[126.9407293984081,37.5944922005736],[126.94069589776129,37.592694100171805],[126.9394249983581,37.5915252005576],[126.9406475990425,37.5897596003856],[126.9399396997504,37.5890060011392],[126.9377333995248,37.5901153010355],[126.9375322992074,37.5887641996031],[126.93856759911709,37.5894093991958],[126.9399037990023,37.586359898995894],[126.94187119949099,37.5855548992868],[126.9418021994417,37.583978799922996],[126.9438807994885,37.583919799331895],[126.94330479945391,37.5824638993816],[126.94405380031961,37.5829569984311],[126.9438808006243,37.583919799234494],[126.9467551999927,37.5836078977545],[126.9492116985897,37.5822828981615],[126.9498025977269,37.5773066023545],[126.9486887984459,37.576212300709905],[126.9500198990227,37.5759242992864],[126.9506652977141,37.5741002966087],[126.9528082990354,37.5726780976834],[126.9560665980698,37.5727686995145],[126.95615339843211,37.5712172999116],[126.9546039991645,37.5710920994703],[126.9561279987617,37.5711444992332],[126.9571904976992,37.5699478004299],[126.9582670982654,37.566322299175305],[126.9569691995347,37.564618200446496],[126.9536589995152,37.56459130056599],[126.95291399914801,37.5609458015208],[126.95228609977589,37.5612930011736],[126.9507395001543,37.5602816006321],[126.9493239998057,37.5601821012768],[126.9477451003232,37.5622374028934],[126.9451721006468,37.5611305018941],[126.9429325006291,37.5616848010864],[126.9426000994669,37.5602863007201],[126.941281799743,37.560265700208],[126.9412410995062,37.5592793004567],[126.9372266007566,37.5594253005556],[126.9369631999161,37.5605652001086],[126.93600409986611,37.559855799960204],[126.9359741997754,37.5585247012856],[126.93440540031371,37.5592616006342],[126.9305662002885,37.5570735006173],[126.9288323999187,37.5581460004168],[126.9285749999045,37.557576000508696],[126.9276927004517,37.5597133005915],[126.92693930019,37.559012100511396],[126.9265944005082,37.5602544001356],[126.9261552996067,37.5596489002571],[126.92392889973651,37.560435100361],[126.9223114000732,37.559112900483],[126.92146899977101,37.5598321002403],[126.92168009981471,37.558078800627094],[126.9209748993911,37.5583624002464],[126.920751599738,37.5571680997502],[126.9212741996955,37.5562392007454],[126.92054969947479,37.5560099004518]]],[[[126.9665410957238,37.481973400449604],[126.9708744000751,37.4801943997766],[126.97112680055419,37.480862899440496],[126.973076100553,37.4807980999297],[126.9735702000589,37.481643799084],[126.9762247997168,37.4813742989942],[126.97630409981299,37.4803647991397],[126.97647190015391,37.4813501990113],[126.9786923993282,37.4795724995555],[126.9789613992758,37.477948899804204],[126.9761310994718,37.4764461992518],[126.98166449957499,37.4749207989067],[126.98180909935701,37.4739567990225],[126.9823558996824,37.4763506989829],[126.9847799007224,37.4759263979371],[126.9850679004829,37.4767765000351],[126.983209200714,37.4780619007297],[126.9832679006553,37.4793562994353],[126.9856779006183,37.482028199146505],[126.9912282991782,37.48254699896199],[126.9932229988738,37.480835999272095],[126.9928811995286,37.4800310996259],[126.9954687993445,37.4793514965069],[126.9960463021961,37.4799461971717],[126.99935809996569,37.477598899541896],[127.0002777005507,37.4777759991868],[127.0000410006074,37.4790394990754],[127.0014982008648,37.4801569986762],[127.0025292003283,37.4827112000664],[126.999765101316,37.481688502289195],[126.9986993021739,37.4829798010839],[126.9996400010953,37.4883913998463],[126.99671860203189,37.4904262002755],[126.9979950018398,37.4922459996939],[126.99671860038619,37.4942110004081],[126.9962603000053,37.4935485005577],[126.99281190104921,37.4939251003],[126.9886196996881,37.4956785004868],[126.9867428994649,37.4913533001539],[126.98508169999799,37.489977400879404],[126.9826020000374,37.4927541010128],[126.9794073002882,37.4900599010782],[126.97851440007999,37.491014300508304],[126.9762462000814,37.489846900391306],[126.97565469980361,37.4892709996928],[126.9763892001034,37.4894876997106],[126.9768141996784,37.488582000616304],[126.9739825002982,37.486950401330795],[126.9731123981704,37.4879376002157],[126.97223279905,37.4863936017597],[126.9708995003833,37.4871444010089],[126.97099949998601,37.48789830059],[126.9704385002922,37.4874108010498],[126.96982250005041,37.4879401014541],[126.9688379996665,37.4868719012618],[126.9667752006071,37.488918000393],[126.9649278995203,37.487884301071794],[126.9664532980644,37.4857974001605],[126.9665410957238,37.481973400449604]]],[[[127.1628598987834,37.6499814010704],[127.16642439962429,37.649962099557904],[127.1671713970815,37.6478493953926],[127.1682150011036,37.6480941974412],[127.168366199951,37.649076800624],[127.1675723003086,37.6484114001655],[127.1664244013039,37.649962099088604],[127.16768680063039,37.653047696653104],[127.16988619843099,37.6527651969356],[127.1714690968481,37.651451698249105],[127.17033409898451,37.648422597112805],[127.17453820038921,37.6470576968271],[127.17782439864611,37.647388794178305],[127.18090910023939,37.6495242939227],[127.1817567993917,37.6493548940921],[127.1852672958812,37.6446061988408],[127.1851516961634,37.643678997582995],[127.1870769999981,37.6421735984826],[127.1893349019961,37.6457506996402],[127.1903645009665,37.645882899507995],[127.1893349017197,37.6457507007933],[127.1894870016798,37.6490343977269],[127.1921425011439,37.6487260008128],[127.1919374012073,37.6505662016278],[127.1878974000709,37.6518350055903],[127.184658201491,37.6584221006878],[127.1806258002959,37.6585093005547],[127.1802222012115,37.6615800010302],[127.179362600751,37.6618832001219],[127.1787209988954,37.660616100544196],[127.1767606998692,37.6611805003729],[127.1766067998396,37.6602391007184],[127.1747251003914,37.6602754003743],[127.17452019994721,37.6594515009412],[127.17359530087211,37.6595541008386],[127.17344009985389,37.6603762018295],[127.1720140984701,37.6602150012539],[127.16826349914699,37.6583638011227],[127.1719384985276,37.6588779985695],[127.170064399953,37.6540790012926],[127.1678236021938,37.655334700036896],[127.1679732976103,37.656346500210596],[127.1664243985784,37.6499621012576],[127.1628598987834,37.6499814010704]]],[[[127.23501899825659,37.6520578008961],[127.23592049945721,37.6521007986616],[127.2363703000975,37.64928949907],[127.23757309953771,37.6502586985982],[127.2383644993256,37.649157699381604],[127.2399090003765,37.649343899954495],[127.23952820041869,37.651155698368896],[127.2424088990159,37.6501284995851],[127.2415701989275,37.6476336997769],[127.2439774996248,37.64701329938],[127.2440306993845,37.6455407995418],[127.2450364003075,37.6457454002595],[127.24529650004739,37.6479381980667],[127.2466913011927,37.6466978989174],[127.247297699816,37.648819797852],[127.2479921993146,37.6483097983725],[127.25021300202451,37.6492272975793],[127.2492482026987,37.652722698397895],[127.2529728001224,37.6533172001246],[127.2510363011881,37.6529974012225],[127.2508700013544,37.6543999998199],[127.25172790034651,37.6547536002148],[127.2498699007991,37.654485700258704],[127.2504515000698,37.6551100001889],[127.24878600002499,37.6542523008941],[127.2481208006902,37.655177699968704],[127.2483072004234,37.6571953005352],[127.2479560000952,37.6564274008461],[127.2459387006878,37.65869070078],[127.2444420996122,37.6584273013088],[127.2435128996374,37.6600793003636],[127.2435484992374,37.6590619005663],[127.24301589977,37.6585933010349],[127.2424614999821,37.6592871003323],[127.2418686991399,37.6585605995346],[127.24293649830359,37.6584334990515],[127.24361409762601,37.657293700191296],[127.2397164995952,37.657202000557795],[127.2398277994404,37.655801500050906],[127.2372897007024,37.6522549018892],[127.23501899825659,37.6520578008961]]],[[[127.48499339549049,37.4938863957095],[127.4909404987242,37.4868805956432],[127.4939165967928,37.484636996142],[127.4971692003398,37.485020898589205],[127.498764000281,37.483261399640206],[127.5014518012724,37.4852572999309],[127.50054380057,37.4856432998303],[127.5024436032578,37.4869185997901],[127.5019570013726,37.488678900098996],[127.503390201204,37.490749299021395],[127.5048268007954,37.4905121996795],[127.5033902012874,37.490749300119695],[127.5038581005453,37.4938626999286],[127.50303910050829,37.4940492001072],[127.50315830115329,37.495729600561994],[127.50027830180481,37.4978372004875],[127.50087600041641,37.4987745007012],[127.49854580138,37.4987694013412],[127.4984298988885,37.500104703729804],[127.493918798398,37.497504303370505],[127.49095220136459,37.4969281039467],[127.4898987978231,37.4976444055714],[127.4881526987421,37.4965251013104],[127.4855070000706,37.4976885001954],[127.48620789913579,37.4973889999393],[127.4856581996855,37.4965580007703],[127.48452189961671,37.4971785002265],[127.483635199603,37.4960345006411],[127.48472729887071,37.4953444002536],[127.48499339549049,37.4938863957095]]],[[[126.93488019864759,37.5131473017455],[126.9346440000518,37.5123608988256],[126.93671109955909,37.5120151988679],[126.93705879995541,37.5108401994995],[126.9384524998224,37.5109417995888],[126.938848400211,37.509724699384],[126.9396189994404,37.5101071990015],[126.94016359989091,37.508386099761104],[126.94013600013959,37.509190899218],[126.9427929998722,37.5099188986467],[126.9446974999099,37.5084445979483],[126.9467268994253,37.5086624987316],[126.94823200004531,37.5118399987311],[126.9507867006673,37.5125575999667],[126.9496697000637,37.5139686013465],[126.94717480042709,37.5134810012366],[126.9440776003836,37.5152960011019],[126.94340889975139,37.5131289005404],[126.9426760001494,37.513797100180795],[126.9392270009524,37.5137152002702],[126.93913020035829,37.5144439002129],[126.9383625999079,37.513099600264795],[126.9376676000766,37.5130788002582],[126.9373216005244,37.514139100150004],[126.93488019864759,37.5131473017455]]],[[[126.9298811992456,37.6013912996695],[126.9311526985906,37.6003604991025],[126.9325608999513,37.6005111975638],[126.9338245986876,37.5994664986085],[126.93376520048359,37.5985145991698],[126.93380500108081,37.6010110987971],[126.9359716993215,37.6008037991567],[126.936790198503,37.5997976001629],[126.93589659922091,37.5985093001005],[126.9363835988486,37.5971153997488],[126.9387419997648,37.5989808992587],[126.93881740018581,37.5969994998928],[126.9386353019358,37.599395001831404],[126.9371144003091,37.6005605001572],[126.9372759001692,37.604473900244905],[126.9367502998972,37.6041307997091],[126.9372804998799,37.603330600311],[126.9349766008869,37.6041649003938],[126.9343869996925,37.6052794004839],[126.9344927996025,37.6037825004067],[126.9332387999778,37.6043305005657],[126.9320918991839,37.602505100532504],[126.93062739963331,37.6026822000605],[126.9313841993821,37.6018429001777],[126.9309119998543,37.6012837007369],[126.9298811992456,37.6013912996695]]],[[[127.03986139983911,37.759257299958],[127.0406734998699,37.759364799666],[127.0410154996894,37.7582739980971],[127.0429061998016,37.758085199619096],[127.042881599936,37.756724399120706],[127.0431833018568,37.7578924997437],[127.04562250089579,37.758489700178096],[127.0452554001525,37.759089000834],[127.04400630011581,37.7582785014472],[127.04299349996829,37.7595964009607],[127.04186990031299,37.759631000419],[127.0416517001756,37.7611074998777],[127.042978101144,37.7606388990868],[127.043637200022,37.7624299002537],[127.0426835990057,37.761251000586704],[127.040810199324,37.7612544005094],[127.0415521993025,37.7606930998917],[127.0409675999197,37.7594395008777],[127.03986139983911,37.759257299958]]],[[[127.3004950940906,37.5681363044676],[127.301972888902,37.5652485975561],[127.3025253903011,37.5575823906625],[127.2962430965834,37.5468342014107],[127.29442209819311,37.546727701325096],[127.2952266991203,37.546055697766995],[127.2987904030786,37.5439477925222],[127.3033288088023,37.544622092755496],[127.3102819034665,37.5482334922749],[127.3153915983568,37.5439521965562],[127.31665529709309,37.5406749998334],[127.3178361981896,37.5400669992679],[127.3176551993029,37.5381906981466],[127.3179267004444,37.5388985981958],[127.3204505975672,37.537243097364595],[127.3336934011213,37.5369174925995],[127.33631460077869,37.5423273949648],[127.3389994980938,37.5422038950883],[127.3402028968975,37.539501797235495],[127.344469301831,37.5376736953436],[127.3478562081914,37.5438500013908],[127.3403299070596,37.5429355045872],[127.3417032056863,37.550895396627304],[127.3439401034494,37.55189269563],[127.3445731046941,37.5540574032773],[127.3414883944155,37.556156905336195],[127.3384832974206,37.5538380076551],[127.336316899587,37.553855107638],[127.333874902029,37.5555657059274],[127.3317321019432,37.5601977049566],[127.32835350079091,37.5580604028941],[127.322197406947,37.5660231949313],[127.3237212010835,37.568837101431505],[127.32165210262009,37.5703494015683],[127.32244509874829,37.5692846011078],[127.32038940080399,37.568301402091],[127.3200108011826,37.5695375008549],[127.3156924974291,37.5688312009833],[127.3128721005834,37.5648268025843],[127.31067950191371,37.563667003037104],[127.30555700665779,37.5638998033087],[127.3029782092366,37.5679490992594],[127.3004950940906,37.5681363044676]]],[[[127.2241841985859,37.5344628999241],[127.22596080000079,37.5319746995655],[127.22856820059229,37.5326161992963],[127.23100490176431,37.536543299603295],[127.2326940028981,37.53646870154],[127.23346600197131,37.538261299995604],[127.23303340099089,37.5392952004137],[127.23055359915449,37.537709400777395],[127.2296644999937,37.5379442005088],[127.2298593999997,37.539767501380105],[127.2270413001984,37.5408957010023],[127.2277951993876,37.540195099803796],[127.22818269932401,37.5372049012271],[127.226866099637,37.536522000746096],[127.2268187990641,37.535073701211296],[127.22450090052979,37.5349701001763],[127.2251890001709,37.5359049001468],[127.2245008998968,37.5349701003539],[127.2234893992951,37.5353553001488],[127.2241841985859,37.5344628999241]]],[[[127.1117883006229,37.6644048995146],[127.1141820998794,37.6643027996856],[127.114247300828,37.665358599234],[127.1184733999171,37.6656266986452],[127.1191790992114,37.664344199927704],[127.1188139995658,37.6630004004987],[127.1180278994882,37.6629328004432],[127.1195680005604,37.6627941990713],[127.1189278008057,37.6658440989696],[127.1203607009938,37.6654815993855],[127.121163901294,37.6684024015853],[127.120500797925,37.6696350030222],[127.1163048999757,37.6705273020829],[127.1155646001435,37.6723439015243],[127.1128785995682,37.6718240028734],[127.1113169988579,37.670955999152596],[127.11260149801859,37.6691394995445],[127.1116554989646,37.6679452007388],[127.1126505987136,37.666985498747806],[127.1117883006229,37.6644048995146]]],[[[127.4356161976638,37.515124700087604],[127.4378175994043,37.5137489999648],[127.43688780000929,37.5112375944677],[127.4385789014698,37.512274697965296],[127.4408390006339,37.511870700044206],[127.44021070033159,37.5116327007103],[127.43901110153121,37.512870899472105],[127.4397957007628,37.5143525983681],[127.4426501989125,37.5136479985999],[127.44225899782231,37.5116555985855],[127.4431254005239,37.511613698379996],[127.44381509992529,37.5132969986586],[127.44548879819271,37.5117144982792],[127.4499103017415,37.5112497999026],[127.44734030191249,37.5137430004366],[127.4473522009109,37.515966504327196],[127.4428011995557,37.5171471013981],[127.4424417983701,37.5159855014205],[127.4392020941726,37.5165448031867],[127.4398297984052,37.5146215007913],[127.4383133999216,37.5139741014387],[127.4356161976638,37.515124700087604]]],[[[126.9188019994795,37.516974499274404],[126.9217397984992,37.5158245995583],[126.9233185992273,37.514057399277895],[126.9245693999976,37.513637099101],[126.92493610031049,37.5144409990695],[126.9260523991942,37.513740199770304],[126.9260346991984,37.5125795006578],[126.9248725996944,37.512676500061595],[126.9253821996387,37.512253799769404],[126.92484409960281,37.5110171993846],[126.9266164996407,37.5109960975263],[126.9262375003537,37.5136809990246],[126.9295099011698,37.5140636991421],[126.92913060213249,37.516966198034396],[126.9307631017811,37.5185289994166],[126.9302341994283,37.518194301466295],[126.9290209996122,37.5192603014522],[126.9275469997259,37.5183604015122],[126.9265690995981,37.5194346015752],[126.92629079753671,37.5172738982353],[126.9237975999269,37.5149325005235],[126.9188019994795,37.516974499274404]]],[[[126.9499415995392,37.4974045000047],[126.9522233988055,37.4961224993846],[126.9518190992098,37.495358700148394],[126.9533970984056,37.4930214993243],[126.956177400333,37.493348499217106],[126.9576633005471,37.4946950997569],[126.9568797004047,37.496175800159506],[126.956498099954,37.494870100607],[126.95531600003889,37.495829400420995],[126.9548359998455,37.4949734005749],[126.9533337006789,37.4965239000486],[126.9545095010051,37.4971449008339],[126.9520156997318,37.4990297009882],[126.9511073995906,37.4991017001898],[126.9499415995392,37.4974045000047]]],[[[127.11998409806979,37.4850372993319],[127.1206598986987,37.4837897981951],[127.1202013019208,37.4846592996293],[127.1223905997315,37.4856594986291],[127.12352159982831,37.4844830997761],[127.1237960001115,37.482689899792994],[127.1264588015888,37.4858917997174],[127.1239078000946,37.4881654004772],[127.12111109991409,37.488965900168196],[127.12056099906759,37.4884876996706],[127.1215458980827,37.4876395005188],[127.119440198064,37.4860542994968],[127.11998409806979,37.4850372993319]]],[[[127.3911142928328,37.5132293990012],[127.4008972987875,37.5113629969768],[127.4024729006488,37.5133497991674],[127.4035560997028,37.5128433982845],[127.40522710288731,37.5136000965205],[127.4070926012918,37.517467699476896],[127.40873439965,37.517541599403],[127.4099565994144,37.5161924991867],[127.4099662017419,37.5175648016155],[127.4087344005734,37.5175416003566],[127.4079031979965,37.518963901150904],[127.4055382005065,37.5174406013558],[127.4015586024149,37.516429902006095],[127.4022169017566,37.5199904984455],[127.40425640178829,37.5201321986642],[127.402749501698,37.5214027998031],[127.4036673985448,37.52291490124821],[127.4017472993509,37.5222661011362],[127.4011040002876,37.5210339004801],[127.3925702967196,37.5184773010765],[127.3911142928328,37.5132293990012]]],[[[126.9116674994872,37.5486477007645],[126.9146569005212,37.548117099364696],[126.91561550009,37.551034700919004],[126.9123179996215,37.550882299936696],[126.9131456997376,37.5488328005432],[126.912506300377,37.5487725006035],[126.91242749983951,37.5498066002194],[126.9116674994872,37.5486477007645]]],[[[126.9275938993384,37.6106498005119],[126.9286236999491,37.6085470994403],[126.9292555995586,37.609014599484205],[126.9291916998292,37.608250599638495],[126.9325860002876,37.60749949969],[126.9329424005379,37.609616500253104],[126.9316616001634,37.6098411007439],[126.9310255007416,37.6118003995041],[126.9317726003998,37.6114373998852],[126.9318766000735,37.6120965003375],[126.92976160021941,37.6116901009287],[126.9280548995805,37.6128296011361],[126.9275938993384,37.6106498005119]]],[[[127.1501692988077,37.5546599015547],[127.152106099519,37.5546772984828],[127.1528248998653,37.5517264975579],[127.1530424012947,37.5525191993154],[127.1572280003282,37.5532448996095],[127.1590409007065,37.5557752005639],[127.1565566003755,37.5576741027064],[127.154608899606,37.5566477009428],[127.1539541999927,37.5575569001629],[127.152259499413,37.557282801333606],[127.1501692988077,37.5546599015547]]],[[[126.94563679955691,37.5019599998735],[126.94982420023389,37.50081299951],[126.95025650051339,37.5029587000158],[126.9493650002781,37.503874900105],[126.9498815003752,37.504383400186605],[126.9477460993274,37.5039862011889],[126.9463313998681,37.5048636008207],[126.94563679955691,37.5019599998735]]],[[[127.16256439919029,37.556240700489894],[127.16408130010221,37.5565467981797],[127.1658023996883,37.5556115998427],[127.1657256993223,37.5549441989317],[127.1687512000962,37.5571534000039],[127.1661093000194,37.555730101774095],[127.1651074010213,37.5572573002469],[127.16570890066029,37.5579508997808],[127.1652515000466,37.5588619004378],[127.1644085996231,37.5578451008569],[127.16296819991089,37.557939500070304],[127.16256439919029,37.556240700489894]]],[[[126.9318625980892,37.5273659995654],[126.9329474995608,37.5273367995037],[126.9341871003009,37.5257388986236],[126.93564910041411,37.5272990996713],[126.93330619859451,37.5291063012178],[126.9325344998785,37.527525200694],[126.9313553999005,37.5289352001605],[126.9318625980892,37.5273659995654]]],[[[126.914120599325,37.5180306001454],[126.9164906996328,37.517305199601104],[126.9172988002186,37.515572699368796],[126.9174192003295,37.5173140998689],[126.9189584000621,37.5188810999593],[126.9174191998649,37.5173141008168],[126.9165249001464,37.5183918022079],[126.9149299993462,37.517630000879095],[126.914120599325,37.5180306001454]]],[[[127.47365599886541,37.5054548010142],[127.4734509993346,37.5039838005044],[127.4728882996145,37.504007899672395],[127.47495620088999,37.5030343988311],[127.4734510023951,37.5039838002409],[127.4741062017399,37.5056607985639],[127.4759937998523,37.5060224982022],[127.47711169873439,37.5046272995974],[127.4769051004247,37.5033336996256],[127.47711170163029,37.504627299278205],[127.47814510088081,37.504930500300404],[127.4764818021876,37.506957299084505],[127.4785197009478,37.507092899852005],[127.4774491006255,37.507530000358805],[127.4774536986351,37.508436600855404],[127.476481799607,37.506957302334705],[127.4751172009716,37.507284002008],[127.47365599886541,37.5054548010142]]],[[[127.051609999165,37.4517128996935],[127.0546860978597,37.4481191013982],[127.055861197417,37.44309519846],[127.05971540065501,37.4432289976195],[127.0601507032055,37.4474150010628],[127.0575400008706,37.4500027997933],[127.05849640413079,37.4519485006843],[127.053976801941,37.4502430014091],[127.051609999165,37.4517128996935]]],[[[126.9196528992276,37.6197010001135],[126.91970400009029,37.6177620995599],[126.9225410004954,37.6174543997632],[126.9228432002502,37.6199590002812],[126.9223073996164,37.6191858009175],[126.9216985996409,37.6200239002876],[126.9214772000461,37.618886401124904],[126.9205769002295,37.6202171006617],[126.9196528992276,37.6197010001135]]],[[[126.93013479969501,37.547512999813804],[126.93093240013201,37.546553499348605],[126.93156779988959,37.5472305989645],[126.9344876003419,37.547284599993695],[126.932788300138,37.548879300904005],[126.93013479969501,37.547512999813804]]],[[[127.28241009944621,37.6574456004772],[127.2833774003693,37.6582430991987],[127.28626160063871,37.6579943982767],[127.28886040059821,37.659582899976996],[127.2850299999457,37.659358600658294],[127.2846920998259,37.658117400597405],[127.28241009944621,37.6574456004772]]],[[[126.90718509924591,37.5125600000096],[126.91000030114789,37.5116233002682],[126.91048050067731,37.5128211002245],[126.9097722000599,37.5147908001331],[126.9076999992908,37.5152200011135],[126.90718509924591,37.5125600000096]]],[[[127.1264812998856,37.4713404996875],[127.1267163000426,37.4704450997464],[127.12699820022,37.4712695999256],[127.1264812998856,37.4713404996875]]],[[[127.124987898792,37.4807707998872],[127.1255425991993,37.4791109970893],[127.12681859937969,37.477723398350506],[127.1273688002115,37.4781043998878],[127.1269060005729,37.4795509993884],[127.1277654005606,37.4799343010041],[127.124987898792,37.4807707998872]]],[[[127.0994094981607,37.4866706008999],[127.1003479013056,37.486972097952105],[127.1032945989063,37.4857544989906],[127.1037707002295,37.48646390083319],[127.1020964006903,37.4872307996979],[127.10422920113561,37.488083600212306],[127.102558400947,37.4875695008947],[127.1021628985869,37.4885118014599],[127.0994094981607,37.4866706008999]]],[[[127.36485479738721,37.5324304959454],[127.3782320039128,37.5175789974113],[127.37655450614359,37.5210355025836],[127.3777199055361,37.5243437017455],[127.3736510028122,37.5296136049328],[127.37304880153421,37.5327457014442],[127.3691721987326,37.5313144023176],[127.36729509951891,37.5328444024345],[127.36485479738721,37.5324304959454]]],[[[127.0559661991864,37.745491199289894],[127.0565119993902,37.7442836995374],[127.0580919001111,37.7439385998867],[127.05779240039,37.7449460015127],[127.0559661991864,37.745491199289894]]],[[[127.10982849964891,37.3947156003717],[127.110993299824,37.3947296989866],[127.11117470020261,37.3937118999086],[127.11232790040489,37.3945770993467],[127.1112378006951,37.3948141011115],[127.11126759995331,37.395930600275896],[127.11099329962211,37.3947297013659],[127.10982849964891,37.3947156003717]]],[[[126.9232021996429,37.522466800889994],[126.9240614995065,37.5219988995864],[126.9236473013015,37.521297597113296],[126.92455560089711,37.5215348990407],[126.9232021996429,37.522466800889994]]],[[[126.9386369006186,37.504620101365894],[126.93930880033031,37.5041533992333],[126.9408649004254,37.5051339007753],[126.93957160033,37.5059479009178],[126.9386369006186,37.504620101365894]]],[[[127.0828378981149,37.4838073986008],[127.0841023994588,37.4822396990437],[127.08527640185619,37.4834877970525],[127.0837585012995,37.4837019006692],[127.08358800155531,37.4844340009261],[127.0828378981149,37.4838073986008]]],[[[127.2250322996736,37.539169199908],[127.2257893008109,37.5392795988194],[127.22594880014749,37.5398511005],[127.2250322996736,37.539169199908]]],[[[127.31229809829861,37.653164499709604],[127.3144715004657,37.652134699809096],[127.31333870159871,37.6553731049475],[127.31229809829861,37.653164499709604]]],[[[127.1744392988118,37.5572031989962],[127.1762496005264,37.5574849002166],[127.17623640051639,37.5575420002455],[127.1744392988118,37.5572031989962]]],[[[126.9791947994487,37.5429594004286],[126.97946639942751,37.54164510012539],[126.97990020070921,37.5415793998148],[126.9791947994487,37.5429594004286]]],[[[127.0328796992058,37.467226701669],[127.03265659984879,37.4665359988227],[127.0338682004736,37.4671709994978],[127.0328796992058,37.467226701669]]],[[[126.9229780993289,37.547998900208604],[126.9229607002529,37.5472470993494],[126.9232982005027,37.548057999685696],[126.9229780993289,37.547998900208604]]],[[[127.1086262991346,37.495737600297595],[127.1091195000148,37.4956943999669],[127.1092652001467,37.495939800612604],[127.1086262991346,37.495737600297595]]],[[[127.1900889989364,37.7048841016924],[127.1910218004342,37.7047369996002],[127.19073829977381,37.705152001455595],[127.1900889989364,37.7048841016924]]],[[[127.06364289984741,37.7493807002037],[127.0637929000374,37.748964799510304],[127.0638552001931,37.7494328002779],[127.06364289984741,37.7493807002037]]],[[[126.9913081996621,37.5272595998151],[126.99172930014551,37.527219199914896],[126.9916874002308,37.527538300299504],[126.9913081996621,37.5272595998151]]],[[[127.1106620986374,37.4961767996876],[127.111022100242,37.495447499508195],[127.1106540991973,37.4961951007211],[127.1106620986374,37.4961767996876]]],[[[127.0363043994656,37.7132828990671],[127.037426402077,37.7131782982561],[127.03857860069469,37.7133263006105],[127.0374264012367,37.7131783009792],[127.0363043994656,37.7132828990671]]],[[[127.07437159970961,37.4979302005163],[127.07459869970269,37.497707599885196],[127.0744299003313,37.496959599380396],[127.0745987012528,37.4977076003837],[127.07437159970961,37.4979302005163]]],[[[126.97588879969501,37.503699599966495],[126.97616860021759,37.503692899569195],[126.9762640002343,37.5037809004194],[126.97616859972089,37.5036929003289],[126.97588879969501,37.503699599966495]]],[[[127.1840705988021,37.6165794998075],[127.18561730218491,37.6162535971934],[127.1854822985689,37.6165365018046],[127.1840705988021,37.6165794998075]]],[[[126.9836724993927,37.5434699010061],[126.9840291998525,37.5435477984036],[126.98417190062341,37.5435916001007],[126.98402920018289,37.5435478001044],[126.9836724993927,37.5434699010061]]],[[[127.0330210998068,37.744213800053],[127.033115300001,37.7440886997082],[127.0332253002545,37.7441767003184],[127.0330210998068,37.744213800053]]],[[[127.0444872997637,37.7745198000003],[127.0444852998019,37.774418999272605],[127.0445211002217,37.774937900171196],[127.0444872997637,37.7745198000003]]],[[[126.9164457997002,37.5683550995308],[126.9165374007126,37.5683106995101],[126.9164457999516,37.5683551002074],[126.9164457997002,37.5683550995308]]],[[[127.11439319981389,37.6539419993121],[127.1146274001502,37.6543218002815],[127.11439319972999,37.6539420002803],[127.11439319981389,37.6539419993121]]],[[[127.132943098262,37.5743509997505],[127.1331185001192,37.5742950997683],[127.13306269999009,37.574392800580696],[127.132943098262,37.5743509997505]]],[[[127.1639047993372,37.6546305014659],[127.165152100092,37.6544439991226],[127.1652084012203,37.6545146997529],[127.1639047993372,37.6546305014659]]],[[[126.9025141996339,37.5348237995225],[126.9025142005838,37.5348238002152],[126.90251419995519,37.5348238006519],[126.9025141996339,37.5348237995225]]],[[[126.9239452986882,37.5091755998794],[126.9240751011895,37.5091448996432],[126.924306200114,37.5097107006294],[126.9240751000575,37.5091449005172],[126.9239452986882,37.5091755998794]]],[[[126.9954648994273,37.507836999988804],[126.9955396004671,37.50790460026381],[126.9954326995879,37.508064100754495],[126.9954648994273,37.507836999988804]]],[[[127.055590599865,37.7440938000635],[127.0555906003116,37.7440937997273],[127.0555906002114,37.74409380043],[127.055590599865,37.7440938000635]]],[[[126.9154243992355,37.568811499523605],[126.9154244003582,37.568811499542704],[126.9154243998761,37.5688115003315],[126.9154243992355,37.568811499523605]]],[[[127.0478903999719,37.7387261000094],[127.0478904000581,37.7387260998865],[127.04791769996,37.7388025000786],[127.0478903999719,37.7387261000094]]],[[[127.158086598067,37.5797885992375],[127.15808659883331,37.579788591993],[127.15808660617971,37.579788594967],[127.158086598067,37.5797885992375]]],[[[127.107589899699,37.5298544985386],[127.1075899009463,37.5298544999569],[127.1075899002794,37.5298545004215],[127.107589899699,37.5298544985386]]],[[[127.1614401992961,37.6490308998058],[127.1615103998289,37.6488389989725],[127.1614402007161,37.6490309008336],[127.1614401992961,37.6490308998058]]],[[[127.1755413998969,37.5964641997654],[127.1755414011964,37.5964641995672],[127.175541399956,37.5964642009102],[127.1755413998969,37.5964641997654]]],[[[126.891995999379,37.508904799941305],[126.8919960014405,37.50890479916411],[126.89199600033251,37.5089048007679],[126.891995999379,37.508904799941305]]],[[[126.9137922987595,37.5171527995311],[126.9137923006424,37.517152799473195],[126.913792300411,37.5171528003818],[126.9137922987595,37.5171527995311]]],[[[126.96348759929889,37.4769997002735],[126.9634876009482,37.4769996990145],[126.96348760122329,37.476999699523],[126.96348759929889,37.4769997002735]]],[[[127.08748609992651,37.5174465997867],[127.0874860999865,37.5174466006418],[127.08748609837461,37.5174465993268],[127.08748609992651,37.5174465997867]]],[[[127.1577570991466,37.5807018990413],[127.1577571010458,37.5807019002513],[127.1577570997764,37.5807019005835],[127.1577570991466,37.5807018990413]]],[[[127.1773423995546,37.639959100632396],[127.1773423998348,37.63995909965],[127.1774626003995,37.6399998001095],[127.1773423995546,37.639959100632396]]],[[[127.4722327972256,37.5078557018689],[127.4722328003318,37.507855698713],[127.4722328024261,37.5078557003254],[127.4722327972256,37.5078557018689]]],[[[126.9118743995561,37.5504227999435],[126.9118743996737,37.5504227995272],[126.9118744000996,37.550422799826],[126.9118743995561,37.5504227999435]]],[[[126.9188224998022,37.6365571001911],[126.91882250074781,37.636557100148394],[126.91882250006401,37.636557100742195],[126.9188224998022,37.6365571001911]]],[[[126.9569724992,37.4966071002043],[126.9569724999188,37.4966070999253],[126.95697250022111,37.4966071001424],[126.9569724992,37.4966071002043]]],[[[126.9829562994052,37.4747428995026],[126.9829563006551,37.4747428999667],[126.9829562993787,37.474742900395306],[126.9829562994052,37.4747428995026]]],[[[127.0031658002557,37.5139470000242],[127.003148399897,37.5139706001528],[127.0031657998865,37.5139469998609],[127.0031658002557,37.5139470000242]]],[[[127.1140311995429,37.611282300338296],[127.1140311997551,37.6112822994552],[127.114031200718,37.6112822996699],[127.1140311995429,37.611282300338296]]],[[[127.1156894997506,37.6647879998471],[127.1156895005419,37.664787998982405],[127.11568950009931,37.664788000121],[127.1156894997506,37.6647879998471]]],[[[127.1534158994214,37.656259900719],[127.1534159003225,37.6562598981509],[127.1534159016727,37.6562598989816],[127.1534158994214,37.656259900719]]],[[[126.9398423998435,37.5146865000027],[126.9398424001627,37.5146865000014],[126.9398424000863,37.5146865001796],[126.9398423998435,37.5146865000027]]],[[[126.943946999845,37.542039599828804],[126.9439470002378,37.5420395997456],[126.9439470000095,37.5420396000895],[126.943946999845,37.542039599828804]]],[[[127.1320536996713,37.640917300016696],[127.1320537007856,37.6409172996199],[127.1320537000263,37.6409173002868],[127.1320536996713,37.640917300016696]]],[[[127.1491696998565,37.554680400109206],[127.1491696997827,37.5546804000045],[127.1491697005037,37.5546803996814],[127.1491696998565,37.554680400109206]]],[[[127.15887959947531,37.6083610004628],[127.15887960012181,37.6083610000067],[127.1588795998697,37.6083610006358],[127.15887959947531,37.6083610004628]]],[[[127.1617278994391,37.650110299478804],[127.1617279004284,37.6501102997542],[127.1617279001334,37.6501103004369],[127.1617278994391,37.650110299478804]]],[[[127.23314279983039,37.5423362996123],[127.2331428002001,37.542336299965505],[127.2331427999316,37.542336300161104],[127.23314279983039,37.5423362996123]]],[[[127.39905569988241,37.5105531000557],[127.3990557000282,37.5105530998487],[127.3990557004812,37.510553100139106],[127.39905569988241,37.5105531000557]]],[[[126.9420554999502,37.5369307998067],[126.94205550038579,37.5369308000825],[126.94205549997919,37.536930800647],[126.9420554999502,37.5369307998067]]],[[[127.06231239991159,37.6560754999829],[127.06231240002569,37.6560755000033],[127.0623123999816,37.6560755000565],[127.06231239991159,37.6560754999829]]],[[[127.1234876999056,37.656550799955696],[127.1234877002223,37.6565507999996],[127.123487700011,37.6565508004023],[127.1234876999056,37.656550799955696]]],[[[127.1376501996522,37.5501078998275],[127.1376502002617,37.5501078996723],[127.1376501999945,37.5501079000674],[127.1376501996522,37.5501078998275]]],[[[127.1729599997229,37.6174225993439],[127.1729600001593,37.6174225995377],[127.17296000018581,37.6174226002426],[127.1729599997229,37.6174225993439]]],[[[126.93809159965261,37.513465199871796],[126.93809160005921,37.5134651999806],[126.9380915997544,37.5134652008239],[126.93809159965261,37.513465199871796]]],[[[126.9546666999131,37.495713700045904],[126.9546667000148,37.4957136998346],[126.9546667000474,37.4957137000257],[126.9546666999131,37.495713700045904]]],[[[127.1888249005785,37.620653499899205],[127.1888249001147,37.6206535002009],[127.1888248997374,37.620653499835306],[127.1888249005785,37.620653499899205]]]]}}]}