{"type":"FeatureCollection","features":[{"type":"Feature","properties":{"interval":15,"stationId":"5891336948"},"geometry":{"type":"MultiPolygon","coordinates":[[[[126.79557009985231,37.6549156999482],[126.7971560990421,37.6518659996415],[126.7989634995009,37.6521482985389],[126.80000949589041,37.64756710208081],[126.79817829625101,37.643563102037405],[126.79885879709171,37.641791100443],[126.7963883998753,37.6409180976414],[126.7996469992724,37.639815297645505],[126.8032263981611,37.641149397819106],[126.8042274003326,37.6394144986811],[126.8064391982842,37.640846097904195],[126.8092552013585,37.639229899703096],[126.8082452004498,37.642129499387],[126.8091645995304,37.643214998301495],[126.8111875991553,37.6420536991645],[126.8116137026023,37.6427564981202],[126.810335601233,37.6435609000212],[126.81003090199471,37.6465240973917],[126.8115627004629,37.6466786972371],[126.81287230194029,37.6491003985789],[126.81384660315881,37.6493950012455],[126.8104852022422,37.6505172017267],[126.80837410448619,37.6542842009342],[126.8064179014899,37.654116400933],[126.80517520154109,37.656318501878395],[126.80421109889521,37.654629502229],[126.8013629004797,37.6548492015862],[126.7990793992519,37.656302401873],[126.798140499803,37.6560773019636],[126.79803439962791,37.6539190018713],[126.7973631994723,37.6536708018222],[126.7963367991974,37.6554790017077],[126.79602850009361,37.654444100762596],[126.79557009985231,37.6549156999482]]],[[[126.7941504994923,37.6593134998444],[126.7945737998566,37.6588165989589],[126.796555501388,37.659633998406896],[126.7941504994923,37.6593134998444]]],[[[126.7857808997757,37.6725413999302],[126.78578090037041,37.6725413992748],[126.7857809005839,37.6725414002875],[126.7857808997757,37.6725413999302]]],[[[126.79505709933919,37.6533807997578],[126.7950571001193,37.6533807996018],[126.79505710003019,37.6533808005008],[126.79505709933919,37.6533807997578]]],[[[126.8047915009997,37.6384464982927],[126.80479150206659,37.6384464997471],[126.8047914999319,37.6384465003038],[126.8047915009997,37.6384464982927]]]]}},{"type":"Feature","properties":{"interval":30,"stationId":"5891336948"},"geometry":{"type":"MultiPolygon","coordinates":[[[[126.76160019844541,37.6847188008066],[126.76110390002539,37.6838520998415],[126.762710399723,37.68478549896059],[126.7638584989866,37.6843017992913],[126.7635869992099,37.682863899096304],[126.7648312001165,37.6836489991231],[126.7657861002169,37.6821935997705],[126.7664500002575,37.6831995988299],[126.7695534994629,37.683102399500804],[126.7691575998239,37.681545699922],[126.7701278992411,37.6811654996229],[126.7706282998624,37.6780079996527],[126.77549809928439,37.6799509990616],[126.7753887998,37.6784338997169],[126.7770210987314,37.6781720994155],[126.77757799817451,37.6766418009458],[126.7756939997586,37.6763097004378],[126.7763014987125,37.6753742004307],[126.775833399104,37.6747003010082],[126.7744387993256,37.674669299912395],[126.7742875996904,37.6723270001399],[126.7750965991927,37.6717688004073],[126.7737386997992,37.671461200345206],[126.7743502992402,37.6707512003946],[126.7738144991883,37.6683664002983],[126.77477069923451,37.668318298959704],[126.7741623998803,37.6667043999814],[126.7755561998882,37.6673950993337],[126.7755019999567,37.666704699940695],[126.77659820024489,37.666458999679406],[126.77870080085799,37.6677360972043],[126.78067899887981,37.6658189991214],[126.7831639996122,37.666014698564396],[126.7850869991144,37.662693700080595],[126.78408859902541,37.662131599260704],[126.78617340005809,37.6621599992616],[126.7865799996515,37.6614662999553],[126.7857396990478,37.6586924996394],[126.7868760993357,37.657147900123],[126.7851924993079,37.6566294003234],[126.7860686992535,37.6562281001425],[126.7853239995713,37.6560254000658],[126.7856371995257,37.6552498003271],[126.7845149987996,37.6552741997803],[126.784955599368,37.6535066008488],[126.78430870001489,37.6534088009466],[126.7841865995914,37.654293200013],[126.7834231996676,37.652152200566206],[126.7840530988714,37.6508123006544],[126.7830142996103,37.6501917004162],[126.78403869934469,37.6480209003848],[126.7852012993739,37.6475934999203],[126.7847994997947,37.645979399866604],[126.7866695994239,37.646484799373205],[126.7865328995821,37.6455244002431],[126.7880576994113,37.645431699971205],[126.7860537995823,37.6443313004747],[126.7867831990582,37.6438784001249],[126.78606429923701,37.6431033998091],[126.7870269990043,37.6423710994483],[126.7859758997873,37.6415535000248],[126.78603479901939,37.638095299942705],[126.7876105984132,37.6366303006359],[126.79429950072999,37.6309367986002],[126.79782739942401,37.6348507956174],[126.7992892979621,37.6333256971425],[126.802448198607,37.6323891973531],[126.8037280973271,37.6307458989964],[126.80657929811849,37.631793097218306],[126.80927889851459,37.6293392987044],[126.8099938009741,37.6292103994287],[126.8093107014761,37.6307144006175],[126.8111740996127,37.632128099203804],[126.8133996018598,37.6310940996203],[126.81435380090561,37.6339321967822],[126.815989699712,37.6307523997424],[126.81851519999499,37.6314563987755],[126.8189770999649,37.630326699886595],[126.8185152006313,37.631456399015796],[126.8218609000406,37.629480299836196],[126.8230365000071,37.6302516993132],[126.8214743996449,37.6297601009273],[126.8195498009114,37.6306712017099],[126.8201790002822,37.6324192999618],[126.819408400841,37.633499199778505],[126.8215525006749,37.6342435018639],[126.81871600315199,37.6349150012801],[126.8182825035855,37.637056999138096],[126.8201416017264,37.638598797596295],[126.8200259009824,37.6423017029012],[126.81775110037549,37.6407991019896],[126.8173713998357,37.6428834008274],[126.8142160029911,37.6408767028341],[126.812025602787,37.643915803763505],[126.81156270324989,37.6466787010006],[126.81287230194029,37.6491003985789],[126.8170680987069,37.6506591962443],[126.8224331995262,37.6495202975596],[126.8240695010899,37.648239398305],[126.8225851021918,37.6496940994818],[126.8249376031695,37.6515301013816],[126.8227512008729,37.651572703110006],[126.82204900073711,37.655483001189],[126.8179695997944,37.6560236016227],[126.81583240128191,37.6589783033163],[126.8140347030796,37.659472302822294],[126.8122188006081,37.661280003161295],[126.8120119003631,37.6646996010715],[126.8112703988645,37.662861202373],[126.80836620176869,37.664593400640804],[126.8086778007255,37.665881301842404],[126.807987800299,37.6650480010413],[126.8059916000956,37.6648827009337],[126.8047230003557,37.6658801004248],[126.80483600069549,37.6669527007301],[126.80173210003109,37.66712090032],[126.80024820002029,37.6680683006805],[126.79535300008901,37.6683396012058],[126.7958571992375,37.6658051007349],[126.7938141011204,37.6663125004824],[126.79400320143881,37.669523500021896],[126.79366279954921,37.6688975011709],[126.7918552013568,37.6695752004932],[126.7924437018235,37.6718074992144],[126.79338020115,37.6737537990863],[126.7972149012588,37.675652899691805],[126.79815930054009,37.6770835002262],[126.7974376002215,37.6766897011697],[126.7971399000581,37.6778274000938],[126.79428820015579,37.677862700435696],[126.79341360033709,37.6786567009544],[126.7897816006995,37.67661550125],[126.7903697004622,37.67959499982],[126.7889664001474,37.6810578004458],[126.7865631992633,37.6780097019235],[126.78543020007109,37.6809073000851],[126.7850904999214,37.6802432007879],[126.7831106003583,37.6807771003705],[126.7831700002499,37.6813683007531],[126.78264949935891,37.6806966007741],[126.7817620002464,37.6810714003993],[126.7817045010635,37.6822301006009],[126.7807278999661,37.6816429005294],[126.7791264003873,37.682721600431],[126.7790551998409,37.685013200955304],[126.7778135002896,37.6849639009478],[126.777061000527,37.6863257005165],[126.77546190064,37.685771300628396],[126.7754848003017,37.6884885997343],[126.7763935003163,37.688676100019805],[126.7742005003809,37.690325600792804],[126.7738584996685,37.6894642006793],[126.7724536999333,37.6892650003948],[126.771387999229,37.689943999831094],[126.7708123996535,37.6889762004944],[126.7694237997404,37.6899974002064],[126.7689028994085,37.6887749006089],[126.7660356996539,37.6877404007817],[126.7653537998952,37.6882607002992],[126.7657017995723,37.6864960011933],[126.7647214005527,37.6872165004728],[126.7648004005893,37.6887058004974],[126.763785399485,37.688205400329004],[126.763482099802,37.686980900646404],[126.7617622999019,37.687967901200295],[126.7611169995202,37.6874650998739],[126.7618549992025,37.6871179001367],[126.7609674996367,37.686824500273],[126.76160019844541,37.6847188008066]]],[[[126.8305426996327,37.633375899744195],[126.8319548999859,37.6313527999067],[126.8328143008888,37.632554999332406],[126.8349104002056,37.6330623999855],[126.834075700371,37.6338037996806],[126.83492050034499,37.6351107995935],[126.83572459954091,37.6343380003663],[126.8352953999442,37.6337330996961],[126.8361602011387,37.6340697000865],[126.8332556993923,37.6379071003853],[126.8311478997882,37.636563300235196],[126.8305426996327,37.633375899744195]]],[[[126.8418099987551,37.6127236000629],[126.8454741001205,37.6129549001801],[126.8433385009277,37.6129594008959],[126.844138200214,37.61414979977],[126.8431459999953,37.6143978003862],[126.8418099987551,37.6127236000629]]],[[[126.82238739882949,37.6108194999885],[126.8237868978099,37.6090605006529],[126.8226096001477,37.608137399132694],[126.8247127027282,37.609071998294596],[126.82447450327989,37.6108660019965],[126.82238739882949,37.6108194999885]]],[[[126.8422176998597,37.6530266990994],[126.84305040084939,37.6529800996202],[126.8431145001944,37.653806600087],[126.8422176998597,37.6530266990994]]],[[[126.8163424977767,37.6166111989969],[126.8185485968171,37.6159185987534],[126.8170568007342,37.6128971994425],[126.8185485992424,37.6159185964211],[126.8207984012859,37.6151991974693],[126.8209278014731,37.6178818007136],[126.8199541981967,37.6186806014545],[126.8163424977767,37.6166111989969]]],[[[126.8289245996385,37.6350616997212],[126.8291211000952,37.6349555998082],[126.8291510004253,37.6355316002689],[126.8289245996385,37.6350616997212]]],[[[126.7765249996834,37.6874386002232],[126.7764505994614,37.6874204998629],[126.7765320002396,37.6871929996784],[126.7765249996834,37.6874386002232]]],[[[126.79758149938641,37.674866699340505],[126.7976698004223,37.6745891992166],[126.7980561004176,37.6748769004678],[126.79758149938641,37.674866699340505]]],[[[126.7976487984686,37.6695855998899],[126.7976488010356,37.669585599901495],[126.79764879932361,37.6695856011254],[126.7976487984686,37.6695855998899]]],[[[126.86860859901171,37.6030171997228],[126.8686086005102,37.6030171991742],[126.8686086004771,37.6030172005147],[126.86860859901171,37.6030171997228]]]]}},{"type":"Feature","properties":{"interval":60,"stationId":"5891336948"},"geometry":{"type":"MultiPolygon","coordinates":[[[[126.7307184986714,37.683372501432196],[126.7301197989872,37.6822772994699],[126.7329224989969,37.6790212994538],[126.73488489703449,37.6750246034505],[126.7335261998126,37.6734815998995],[126.73413829942629,37.6730307001747],[126.7334088990209,37.672620199898695],[126.7333498996337,37.670258600267395],[126.7336004002175,37.6708770995398],[126.73609529884111,37.668902599908606],[126.7360122989241,37.6674039014073],[126.73429609957229,37.666532799559896],[126.7387214991995,37.6678292972121],[126.7404355980749,37.6667701979048],[126.7389621998927,37.664520798026096],[126.7441942991455,37.6644611987619],[126.7442022011427,37.6630177989161],[126.7467236991631,37.6633058991808],[126.74628609989841,37.662135099859704],[126.7467236997429,37.6633058987608],[126.74808039838621,37.662295099771605],[126.7478626973871,37.661132098600305],[126.75487270018681,37.6579812985877],[126.7568412986777,37.6593592977832],[126.7595018991751,37.659321398551604],[126.7606975979794,37.6571102007628],[126.7592173993809,37.6566667009902],[126.75931489914201,37.655798100061496],[126.7621364976006,37.6550115004399],[126.7633821985141,37.6521555981879],[126.765124099047,37.651210097415],[126.76574829842279,37.649210099415],[126.7636090005621,37.6467809018442],[126.76216339973291,37.6466267037168],[126.7598873968598,37.6498031996096],[126.7621633976379,37.6466266985217],[126.7617885980127,37.644696200452195],[126.75915519909219,37.641215400022],[126.76311499858019,37.64321949789],[126.7644652988065,37.640520499649604],[126.7642166987821,37.6396070996778],[126.7651840986895,37.639030699873],[126.76494009892221,37.6376205996675],[126.7686234952388,37.6360200012681],[126.77136948936291,37.6330911880122],[126.7739169930784,37.6316837874005],[126.777978096087,37.630511286376304],[126.7831550954361,37.625838186591295],[126.7858146927765,37.6251369872925],[126.7931318946173,37.6207676887795],[126.79523950039659,37.6222011977247],[126.7970554998387,37.6194007992873],[126.7967743009727,37.6199399998188],[126.7990479997238,37.621136898736204],[126.8004662005257,37.6203675990182],[126.80072710010991,37.622473698027804],[126.8032240990806,37.6223960994418],[126.8029585987911,37.6214197992379],[126.804198697551,37.6198503008074],[126.8028845988651,37.6188040018537],[126.801514999322,37.6196608008407],[126.80289999899139,37.6160783008145],[126.80207209956781,37.6162327992614],[126.8048782982748,37.6157365997724],[126.8039558991972,37.615135000374],[126.8048782997407,37.6157365986354],[126.80582550026679,37.6138757961983],[126.8108894978684,37.6095863998414],[126.8100238908918,37.6066102955825],[126.81137579487799,37.6050207930199],[126.8117844987179,37.6000691935755],[126.81722839327401,37.598721994922705],[126.8186203939412,37.597410792386],[126.8210937999195,37.5966679998723],[126.82150679712859,37.5957586909132],[126.8294804018353,37.5928912991605],[126.82994750136821,37.5939248981269],[126.83253810162529,37.5943186997468],[126.82928390224889,37.5958262008662],[126.8315731022324,37.598458300277095],[126.8283348008152,37.600493700381],[126.8287227004273,37.6015959992787],[126.8296467004792,37.6008653991553],[126.83209119803469,37.601650398370296],[126.8365041000453,37.601457799565196],[126.8344549011039,37.6014068027622],[126.8343658013988,37.6049431997096],[126.8390938001906,37.6048205998859],[126.8392442001997,37.6064073985442],[126.8408879991784,37.6071348990634],[126.8392251981799,37.6026746988665],[126.8392677982964,37.6004391004775],[126.83720149934791,37.600403800619205],[126.8368994989928,37.599121700312395],[126.8353093986726,37.5983608983285],[126.8392328002444,37.5982270970385],[126.84071900035691,37.5967752985041],[126.8412107003145,37.5981665982445],[126.845192798734,37.5988311974893],[126.8504797980848,37.5970195989144],[126.8490645996214,37.595517495039],[126.8504798005662,37.5970195978643],[126.8538324977267,37.5967857980785],[126.85492459736301,37.5944209994192],[126.8546468976407,37.5925955012447],[126.8537814981846,37.5921831002401],[126.85555149946761,37.5900415977374],[126.85687659985581,37.5903084992025],[126.8578110989213,37.5875427019683],[126.8569545989662,37.5866743982295],[126.857811102176,37.5875426990991],[126.8598315001556,37.5877894988523],[126.8629745008814,37.586664996678806],[126.86540410253211,37.5896292977749],[126.8712751980481,37.590263797689204],[126.8743537989904,37.5880059989636],[126.8739899995802,37.586517297258695],[126.875806699529,37.5865816987499],[126.8761798995976,37.5852143985317],[126.879029497082,37.5842035990878],[126.876822299132,37.5804730014687],[126.878716700369,37.581421899061],[126.880905299516,37.5798834999472],[126.8803022983975,37.575929798862695],[126.88196220129781,37.578332695737295],[126.8850040982559,37.577546996523004],[126.886253698681,37.5760770973852],[126.88650079856929,37.5741535985996],[126.88813999919971,37.5730299986578],[126.8880664992732,37.5706772010106],[126.88733069983391,37.5710936980592],[126.8908786985856,37.5692517972274],[126.89009729867409,37.5663369983304],[126.89057799819341,37.5644219002455],[126.888881298698,37.5633831995017],[126.8893423996794,37.5615775001909],[126.88817589883689,37.5597004997336],[126.8935938939433,37.5558381926833],[126.8955286996922,37.5568346993606],[126.896884199678,37.5555437996169],[126.89839379880719,37.5554096992597],[126.8985190986819,37.5543098003596],[126.89738609827671,37.5541314002443],[126.897370393746,37.5531941933068],[126.8985883001169,37.554210899184],[126.9002285997152,37.5540596990813],[126.9015176991965,37.5524730999016],[126.9015691996111,37.5504646998429],[126.9060418001837,37.548690198549004],[126.907579099684,37.546494699881094],[126.90352539751771,37.5430219011375],[126.90483569807331,37.5378461043925],[126.90216419896271,37.5386337002091],[126.9041697993499,37.5373940987754],[126.9046881001428,37.5350194003718],[126.90083210130051,37.5374820001014],[126.9003352004048,37.53884390042511],[126.89739539933099,37.5399867004753],[126.89778369986121,37.5382509003251],[126.89664050024881,37.537607000849704],[126.89558849988211,37.537639000635096],[126.8937794012581,37.5400098993528],[126.8943500991963,37.540715301180704],[126.8932241993309,37.5393105013032],[126.891729899249,37.5395813013186],[126.89103849946119,37.538673600903905],[126.8900471998756,37.5395732000119],[126.8913186999178,37.5363790990516],[126.89306010067,37.536727498484],[126.8939518003585,37.537862698864],[126.89701559866711,37.5328970000929],[126.8965081989308,37.5302348004548],[126.8948170004235,37.530247100538396],[126.8942242995555,37.529435701124],[126.8929997992443,37.529825900187],[126.8934248992297,37.528506500865696],[126.89218729994771,37.529016100694896],[126.89131880015779,37.5273524007238],[126.89065089992759,37.5274396003822],[126.8908492998421,37.5248980000238],[126.89192459926889,37.5247846996106],[126.8918300995231,37.5238362999279],[126.8931097987239,37.523342000168796],[126.8941693987165,37.5216439007376],[126.8934572989992,37.5193298013016],[126.8910843991645,37.519525299341296],[126.8937229995738,37.519154497685896],[126.8946446986521,37.517273699566694],[126.8938553993395,37.514963400987696],[126.892150200012,37.5162385003295],[126.8916290989726,37.5157429005014],[126.8924766990138,37.5143865009779],[126.8919482996694,37.5131855985871],[126.8951850998676,37.5137710993476],[126.8968308001216,37.5132031999056],[126.89683720119399,37.514393899691],[126.8984064005988,37.516346799184504],[126.90064290123769,37.5167407997968],[126.89921680003691,37.5168505015808],[126.89850080009799,37.5187538008347],[126.8969383016605,37.5198341997543],[126.89809390098071,37.5221171993162],[126.89914519992941,37.521738399694996],[126.90181180022451,37.523258399961705],[126.89956380201299,37.523663900677604],[126.8994843020925,37.525929898411604],[126.9019469996298,37.5253667989747],[126.9021389006326,37.5263109000881],[126.9006434006895,37.527245100721004],[126.9006949018852,37.5303512989187],[126.9026419012235,37.5293344995332],[126.90760540015249,37.5307555995848],[126.9066791009799,37.532171499160796],[126.9080489004167,37.532037300247296],[126.90536710052251,37.5340443008429],[126.90490460055089,37.5358248993449],[126.9057906000752,37.5365529988672],[126.90653120171531,37.5360770985822],[126.9113656000405,37.5450819997438],[126.91262119951091,37.5453036994312],[126.91390419797631,37.5436936914356],[126.9183330994249,37.543480099316696],[126.91917049964681,37.5425981920107],[126.9251679000982,37.5447672991913],[126.9284726973102,37.542229195946405],[126.933039400016,37.5422061995395],[126.9323244007858,37.5432664990054],[126.93375989935029,37.5430107992611],[126.933616604392,37.5419925984467],[126.9361783018303,37.5422983981409],[126.9396903998763,37.540824898271495],[126.9404596005279,37.5414874988941],[126.9414705995169,37.54078229959929],[126.9412010995519,37.5396751996565],[126.9421978992178,37.5395574999242],[126.9407327998565,37.538947599915],[126.94205549959669,37.5369308001936],[126.94370159875899,37.536879899426005],[126.9435170994839,37.535164399963],[126.9455106992972,37.534551799208],[126.9466513001194,37.5344763996297],[126.9479703000244,37.5356142988902],[126.94876560033511,37.5347328995775],[126.9496583996829,37.5349199992197],[126.949990900047,37.5363696992203],[126.9514017001007,37.5358215996329],[126.9513213006812,37.536727498855996],[126.9529766991562,37.5366815988951],[126.95255540010879,37.535034099512096],[126.95567649991409,37.534948798794204],[126.95677479942131,37.533018099614],[126.9596301994284,37.5332034991939],[126.9650614989815,37.5308914004305],[126.9638774991209,37.5299852000761],[126.963614699942,37.5272467011616],[126.9623737000613,37.526742201741804],[126.9631151992825,37.5263002992073],[126.9626646996285,37.525355698989095],[126.9633920996527,37.526143798995896],[126.9640645995394,37.5252936995276],[126.9656166008411,37.5260529993722],[126.9665315012942,37.5255061993656],[126.9687768008534,37.5287904990289],[126.9686646008192,37.5307198008737],[126.9679201989795,37.531151801978005],[126.9677661995544,37.529823900416794],[126.9665407001733,37.5296072002941],[126.9667300000648,37.5306300000353],[126.9641713008975,37.531700100231404],[126.9649831011958,37.5323029005859],[126.9639912011251,37.533369800311704],[126.965423299693,37.5354100982714],[126.9665494998362,37.5349350989406],[126.96677799976861,37.533888799854196],[126.9678631010507,37.5340883979281],[126.9701473999188,37.5367751986721],[126.9715128994597,37.5363566985623],[126.9725821995016,37.533909298770595],[126.9751147992449,37.5345298990554],[126.9755673998573,37.5335610992692],[126.9763963011717,37.5339931001006],[126.9761713005098,37.5353628006756],[126.9742869008565,37.535871500255496],[126.97436920014229,37.5377882001794],[126.97284259961901,37.53601540142029],[126.9707365017251,37.537019800415905],[126.9708377016239,37.5380919993437],[126.9701203007327,37.5382264006844],[126.9700432006114,37.5410132003623],[126.9718181995668,37.5418706997907],[126.9717244996067,37.5409645984519],[126.9731225002057,37.5403152993058],[126.9727811007742,37.542281100330094],[126.9700432005024,37.5410132006106],[126.9694723997781,37.5422758008225],[126.9682051992544,37.541835500104],[126.967830599629,37.5408162011233],[126.96490350077251,37.5413982011898],[126.96491040081719,37.5434798994487],[126.9661256005741,37.544151299062904],[126.9671190004686,37.543308099683195],[126.96762440018591,37.5440689006315],[126.9670316003128,37.5440202007648],[126.9669399000785,37.544985400691004],[126.9657253002716,37.5445539004732],[126.96479239995169,37.5458267004842],[126.9648715995391,37.544880299260605],[126.9661255993445,37.5441512997592],[126.963392701018,37.543356900784],[126.962867701543,37.5442926998482],[126.9640411005212,37.5457688000402],[126.9632684996317,37.54664120035731],[126.96316489970839,37.5456869009884],[126.9620030008703,37.5456204010549],[126.96226180063839,37.546751300247195],[126.9610918007048,37.5470949004704],[126.96132990035319,37.5480850006713],[126.960133800867,37.5492540000278],[126.96035220050881,37.5509922992037],[126.9620146002724,37.5512126001082],[126.96077150101851,37.5516542007111],[126.9616001007071,37.5526680997454],[126.9614269006983,37.5555093989502],[126.9627566006898,37.5559964996526],[126.9626846001686,37.5573376993692],[126.9661871006754,37.5567898998606],[126.96726480031299,37.5579659986351],[126.968405899316,37.556461099419],[126.96916210029771,37.5568586997239],[126.9683617003906,37.5578875993416],[126.9692357006464,37.5572939994201],[126.9685926007341,37.558501800128305],[126.9693049012383,37.558734800802405],[126.9699592001815,37.561986400238105],[126.9687207008468,37.561892700391],[126.9688513009398,37.5638564996117],[126.96962860148699,37.564007800954],[126.9680623011938,37.5665554008238],[126.9696397003856,37.56855740040341],[126.9680882004219,37.5675117010124],[126.9660606997642,37.568530600190705],[126.96650139955659,37.5681192000232],[126.9658726999055,37.5674159007169],[126.96482160056709,37.5674919010717],[126.96404849928041,37.5687051005045],[126.9634721994482,37.5677600999447],[126.9640274990146,37.566506099383],[126.96310809950769,37.565632199816505],[126.9645086991125,37.565491899291096],[126.9642838993373,37.5649457998372],[126.9632643995398,37.5646687003283],[126.96349349917,37.5637956000232],[126.9606800998749,37.5635132013131],[126.96051489911021,37.5619617001651],[126.9594954998369,37.5612601007582],[126.9549469001872,37.563223900736396],[126.9561063990161,37.559965401016],[126.9547895001313,37.5585490002318],[126.9534243002983,37.559132400574605],[126.9535536002318,37.5607346000562],[126.95291400046071,37.56094580226],[126.9531397995066,37.559970100288304],[126.9517961996503,37.559913699855805],[126.9525089989375,37.5596276001419],[126.952431499015,37.558586401183106],[126.9506410008055,37.559131500638],[126.9512686000846,37.560639300516],[126.9493240009438,37.560182100697496],[126.9491297015283,37.561458901672],[126.9477451003232,37.5622374028934],[126.94517209838949,37.5611305016407],[126.93914860051889,37.5614571012673],[126.9388211004368,37.5630137000638],[126.9375193998222,37.5636095002456],[126.9364189001357,37.562729300398004],[126.93637630016501,37.5634545999679],[126.9355630002174,37.563512700117194],[126.93591689967839,37.5643793006385],[126.9349754005657,37.5641696008492],[126.9347659003959,37.565381700459206],[126.9335399003254,37.5654215004205],[126.9339768999571,37.567034399475496],[126.9348032003091,37.5672672999577],[126.93235440064609,37.5707510008583],[126.9308324004493,37.5711883002699],[126.9310092009063,37.572832400179806],[126.92970730040561,37.5725369002091],[126.9297961008579,37.573609500231704],[126.9290024006073,37.5741924998791],[126.93041240079009,37.5762980004227],[126.9300171005286,37.5775053003349],[126.9275696999813,37.5776416003414],[126.924171700261,37.579220000186396],[126.9236654002968,37.581092999972704],[126.9249265007096,37.5812487997296],[126.9257064002575,37.5828860000013],[126.92505900009421,37.5832382000593],[126.925268000556,37.586103600155404],[126.9231173007593,37.5864545002498],[126.9243984013653,37.5877755992856],[126.9233461010679,37.588909999969395],[126.9256212002266,37.5898998995129],[126.9248543008876,37.589930700575394],[126.9241824020862,37.5916384997439],[126.9247551019188,37.5927176003273],[126.9239173018281,37.593255800483405],[126.92491420083121,37.5948108989283],[126.9262193001729,37.594416599657904],[126.92562720103929,37.597165600218695],[126.92642450024199,37.598320199064105],[126.92822270084321,37.5976590987233],[126.9291455999203,37.5983257980566],[126.9316159008251,37.595207598919],[126.9359988991729,37.5948273989787],[126.93665749984659,37.5939226990766],[126.9377401001953,37.5939560995543],[126.9371848019527,37.5945490005168],[126.9384607006768,37.5961442989215],[126.9398376992998,37.5957355993302],[126.9407293984081,37.5944922005736],[126.93809529958381,37.592968900223205],[126.9401253992358,37.5912745999446],[126.9406475990425,37.5897596003856],[126.9399396997504,37.5890060011392],[126.9385676011225,37.5894094007358],[126.93861109917201,37.590690801392],[126.9369691002891,37.589922801228],[126.9368316996604,37.5890262003034],[126.9390627988729,37.5881399998887],[126.9402834993356,37.5859360990549],[126.94187119949099,37.5855548992868],[126.9418021994014,37.5839788002707],[126.9410925996473,37.5838962998814],[126.94330479954321,37.5824638993658],[126.9467551999927,37.5836078977545],[126.9492116985897,37.5822828981615],[126.9494975980319,37.580113299547804],[126.9509563998749,37.5796924990073],[126.95146470018601,37.5785873985281],[126.9545960034138,37.5808823992109],[126.9537806005723,37.5808832004385],[126.95258970172411,37.5834172011021],[126.9528197015352,37.5852067016014],[126.9511054009037,37.5849366008165],[126.95106890072759,37.585928000589],[126.94814299980091,37.5885722014],[126.9446318009699,37.589422899925005],[126.9462968006837,37.591438899952],[126.9456296006277,37.593302600714104],[126.94511249960479,37.5922584014616],[126.9440278002071,37.5921366013656],[126.9423486015098,37.5939781006189],[126.9427984008696,37.5950238000689],[126.94159550063901,37.5952277005193],[126.9408894016225,37.5968000995661],[126.93859140041181,37.5967009001914],[126.9387420024955,37.5989808999898],[126.93752390268351,37.6018791999195],[126.9380843023216,37.6053405997154],[126.93725020240129,37.607050800426606],[126.9401149011122,37.6084410975825],[126.9395567009847,37.6087245001223],[126.9414055006704,37.6117409997449],[126.9396509001359,37.61287510040059],[126.9367567007075,37.6130756020872],[126.9343369021405,37.616418199063],[126.93616560003629,37.618278099886],[126.9367586047869,37.6201318985663],[126.93622960263541,37.621665100129],[126.93716970007989,37.6234955028483],[126.93350070047289,37.623488702999204],[126.9296522014239,37.6278934007918],[126.9300314010447,37.6289769997082],[126.9314646016251,37.6289138001576],[126.9299888010799,37.6295822005273],[126.9298563012124,37.6311630989464],[126.9330693019744,37.633471800152],[126.9349987001234,37.6336649000876],[126.9323793008993,37.6361562004992],[126.9329466004282,37.6368972004043],[126.9323338999872,37.6361892006381],[126.9319368000428,37.6368723003361],[126.9305005010129,37.636192600827],[126.9291983023151,37.6372512997683],[126.9298786022859,37.6388732986665],[126.9332088015646,37.6395333005301],[126.9298785989275,37.6388733023612],[126.9279379008682,37.6399921012424],[126.9253433030767,37.6397888012776],[126.9266933019252,37.6441977973977],[126.9281283004902,37.6441597974357],[126.92917099944749,37.6420603995351],[126.9314160002498,37.6422942993225],[126.9302267002667,37.6424892002152],[126.92884400084719,37.6456553996054],[126.92984440167689,37.645873198438],[126.92893480051349,37.6468061999286],[126.9299679003064,37.6476178995495],[126.9291967009771,37.6481189000492],[126.9291551013097,37.649618000198394],[126.93118670013949,37.6512258000034],[126.9302753009064,37.6502478010469],[126.9288645023172,37.6510002002945],[126.9282108010127,37.6524407007887],[126.9264472010272,37.652183202744304],[126.9225070049674,37.6545623003652],[126.9211956009792,37.6602059039903],[126.9188687939544,37.6595907012955],[126.91220940061379,37.6601199007663],[126.91264320042211,37.661231200124],[126.9119386998525,37.6624614002335],[126.9103252006997,37.6621601006926],[126.9096642015618,37.6630177044077],[126.9050447972878,37.6643457030493],[126.9041211982114,37.663215304179694],[126.8986704036622,37.6642868031082],[126.8967139991957,37.6671164023811],[126.89216040144599,37.6667901020236],[126.8915923020141,37.6681804006333],[126.89238690121951,37.669106699707],[126.891823600495,37.6694423004104],[126.8908767004312,37.6686102011895],[126.8876269996062,37.6692518012106],[126.88566829894161,37.6654364004784],[126.8863122990267,37.664759800396595],[126.88602069931831,37.6630752020812],[126.88428549912051,37.661295004076806],[126.87934489929471,37.659664905081],[126.87544049628809,37.6606350080927],[126.870337499181,37.660179202821205],[126.8683499980723,37.6576700050433],[126.8623141954598,37.6530670025893],[126.8594600983139,37.652374803281496],[126.8546187031553,37.6545746010817],[126.8546801004417,37.6563045003916],[126.85461869964911,37.6545746016786],[126.84971920454859,37.656100800152394],[126.85056760390961,37.658047599682],[126.85048380108371,37.6641665988901],[126.85283530164189,37.663641994087605],[126.8552483992288,37.6645512931783],[126.8603277026594,37.6631979004045],[126.8552484018082,37.6645513013288],[126.8553200017366,37.666726499153604],[126.8566598003968,37.6670722988078],[126.8566872001599,37.6684373996068],[126.8572591003925,37.667978600193194],[126.8558662022726,37.6690525007837],[126.8554757023973,37.6714558996824],[126.8536236004233,37.6709204004006],[126.8520689006434,37.6742615017443],[126.85132859948371,37.6727877003726],[126.85022860058369,37.673012900147405],[126.8494316001962,37.6747097021918],[126.8491616998476,37.6731740001113],[126.8468471998214,37.672831700846906],[126.8454030990744,37.6682840009121],[126.84183699974899,37.6648979043486],[126.8397958017902,37.6682524009941],[126.8383839010326,37.666945001716],[126.8331250040316,37.6699379027078],[126.8318768008254,37.672652601951796],[126.8271280032291,37.676375800645005],[126.8275503011141,37.6778758009306],[126.8243901016415,37.6773706023424],[126.8210129048108,37.680532999605695],[126.8224419011232,37.6825672000576],[126.8213624009193,37.6845518003774],[126.8167803001199,37.6834491019126],[126.8153574001169,37.683749902363104],[126.8140963001082,37.6855357009711],[126.8117134010787,37.684868401452796],[126.8100286027635,37.6864805998406],[126.8118736023649,37.6882277988375],[126.8120251044749,37.6900892000453],[126.8103024010222,37.691603902969696],[126.8098505014741,37.693347001226606],[126.8086112005999,37.6935541007746],[126.80325020246059,37.6908213064004],[126.7980815012257,37.697349002377806],[126.7985120980876,37.6993380023182],[126.7948220982297,37.6986651027458],[126.79297130008051,37.6969885044224],[126.7903024027494,37.700348901062],[126.7923479013686,37.701778500372306],[126.791682600797,37.7031096050317],[126.7923478989666,37.701778500550006],[126.7886764994629,37.7012889999241],[126.7881569000169,37.698238402259804],[126.7855549026189,37.699258101240105],[126.7833601044176,37.704347397728405],[126.7840139037638,37.7046891973866],[126.782970101452,37.7055445002955],[126.7837517006704,37.706564699275305],[126.7862269033254,37.7061384975392],[126.7855823019084,37.707934702034],[126.78628590013619,37.7097142023047],[126.7843734991098,37.709829801621105],[126.7844057984216,37.707968902081696],[126.7829504998769,37.7076572023934],[126.78182890099849,37.708666901383694],[126.7779256991791,37.7072475015822],[126.7788603992199,37.701083801719896],[126.7772389008414,37.7002009026028],[126.77514430006299,37.70151070241],[126.7737948008278,37.7030520012804],[126.77179840282419,37.7091648951675],[126.7734313036735,37.7096891991405],[126.77083880187801,37.712408600468706],[126.7715572011832,37.7137517995075],[126.7737951989452,37.7142096990496],[126.7740367022861,37.7134800986205],[126.7750030013198,37.7148833972172],[126.7776578002815,37.7144957996237],[126.7769394011825,37.7164977993528],[126.7778884002335,37.7181424977081],[126.7837573012919,37.7198958982346],[126.7851262027031,37.7183977992407],[126.786266901073,37.7213927992469],[126.7854882006655,37.720985801348],[126.7840769012226,37.7227518007266],[126.7850375017193,37.7276058999162],[126.7859803010534,37.7282193010254],[126.7851847002364,37.7297225020339],[126.7839699987815,37.7279024028877],[126.78276319998831,37.7278706029195],[126.7815966011549,37.7294629013272],[126.78182220209399,37.7312659026401],[126.78069770321851,37.734252999653],[126.7841984015051,37.734502901013904],[126.78137359767099,37.736138503378804],[126.780311198649,37.7356058038689],[126.7779727009875,37.7383666011081],[126.7743261024348,37.739032802007394],[126.77107479727479,37.7390356015409],[126.7668400015096,37.7371107034658],[126.765451401365,37.738761803568096],[126.7639546989403,37.737885499405294],[126.7641827987219,37.7297020002582],[126.7630759998287,37.729036000924204],[126.7629603993363,37.727979399914304],[126.7639261020663,37.7279097991087],[126.76476030208991,37.729652199947],[126.7669462999039,37.7301472994519],[126.7668404999508,37.7292883998712],[126.76795869944259,37.7288422002148],[126.76743049856191,37.727555199463296],[126.7686214989427,37.7266174996396],[126.7677167990558,37.723630300870205],[126.766986599786,37.7231801013204],[126.7657653007892,37.7239785005901],[126.7659260997604,37.7248223010494],[126.765158799536,37.7237785016743],[126.763482400101,37.7239788001437],[126.7626417009417,37.7247243993981],[126.762965301064,37.7255491008881],[126.762641699529,37.724724401077296],[126.7610117006124,37.726173800645896],[126.7547894997842,37.7264350015708],[126.7529694988283,37.7246447998176],[126.753420999929,37.723900099894],[126.7534562003105,37.7245972994836],[126.7545654993768,37.7244075999619],[126.7539449996966,37.723330000347694],[126.7520266994324,37.7230933005057],[126.7542444996874,37.723108498782004],[126.7540219999675,37.7218774998706],[126.75556599930171,37.7213460983347],[126.7559290996587,37.719590700107],[126.75524709913131,37.7191398000131],[126.7558945987855,37.7175126999199],[126.75459310008699,37.715887601545],[126.7541691995695,37.7170757001457],[126.7504561999517,37.714147702317],[126.7480493000249,37.7159172011769],[126.7466481008294,37.7179509000571],[126.7476485002347,37.719665899020804],[126.7481638020987,37.719397199984606],[126.7482798001503,37.7208922002482],[126.7472164006871,37.719609601367196],[126.7463534003582,37.7200518010397],[126.7453478986735,37.718546502301],[126.7429612993163,37.7180825016756],[126.7453478986062,37.718546499148005],[126.7463821996573,37.7158351009567],[126.7453221007174,37.714767802024],[126.743883399183,37.716700700762196],[126.7423087995845,37.715671700827905],[126.74139919941841,37.7142254002068],[126.7420183996242,37.7148427985595],[126.7428268994349,37.712751999424405],[126.7422511995215,37.711846299002595],[126.74413839942869,37.712499799276],[126.7446520989499,37.7108573007572],[126.744006999595,37.7108717007428],[126.74390339881609,37.7098595000459],[126.74594929924301,37.7098173988173],[126.74611609997879,37.706875799002],[126.74890589891059,37.7079409988093],[126.7478471992887,37.7067458989612],[126.7506452991087,37.7010964013083],[126.74815840159559,37.7002896021151],[126.745876600718,37.701155801209104],[126.7465838992139,37.6993029015582],[126.7453973999006,37.6991128013358],[126.7447965997893,37.700430201096],[126.7450370993449,37.6991321007532],[126.7415182002338,37.700178900622994],[126.7428436986054,37.6993872996258],[126.7427456987034,37.698665500347595],[126.7412409002082,37.6976849013282],[126.73805949934051,37.6975913011155],[126.7390474983231,37.696475799419304],[126.7375809997896,37.6948650010301],[126.736423599628,37.6957469003722],[126.7378155994172,37.6938198003064],[126.7360517997097,37.6934264005913],[126.7367555993264,37.6926007997235],[126.7358585989371,37.6904299995833],[126.73882829718539,37.6875133015068],[126.7368748980257,37.6864356023],[126.7371049980336,37.6827381022796],[126.73489820024041,37.6818674031503],[126.73313520171261,37.6839314014049],[126.7307184986714,37.683372501432196]]],[[[126.7931612964959,37.577130500140605],[126.7954924034073,37.5756651955063],[126.7990870998126,37.576017495154],[126.80062629941041,37.572519199299805],[126.8025624988191,37.5723998983245],[126.803845399126,37.571147199273696],[126.8033780993776,37.5695627997475],[126.8043332988424,37.5680287006308],[126.802456799468,37.566965500185304],[126.80182379832189,37.564436301729394],[126.8001116000341,37.5643951017706],[126.79681789916259,37.5624330001926],[126.79655049940679,37.5613543996905],[126.8010809994952,37.5610990992378],[126.80223929993349,37.5595927991479],[126.80336079942089,37.559590898642604],[126.8037177990639,37.5583227999107],[126.80657879877239,37.5569428995911],[126.80637989888,37.5561358999228],[126.80723329903789,37.5564599992315],[126.80971429714299,37.5539131004016],[126.81098919956469,37.5510346971854],[126.8146002008818,37.5505894992973],[126.8138271010838,37.5514390009628],[126.8139400005743,37.5534555992774],[126.81730240039481,37.556115599187095],[126.8143800019489,37.5584715006172],[126.8152090011199,37.560931098157596],[126.81982289795761,37.5603314986344],[126.8202815981174,37.558709897949996],[126.8229610988912,37.5590225993833],[126.8235023983499,37.5583682000377],[126.8225677990234,37.5569593994752],[126.826136098584,37.5556451988986],[126.8270086996957,37.554530199452905],[126.8280496007786,37.5569042994467],[126.8287555000727,37.5573316990193],[126.82942839999279,37.556365099520704],[126.8325261004823,37.5590396983842],[126.8371053984674,37.5574231997441],[126.836494299972,37.555848999595],[126.8379013006896,37.5574965995541],[126.83940559957031,37.5572477996605],[126.83933060027749,37.5567073996569],[126.8401431004829,37.5572557998633],[126.8404125008025,37.559027900365194],[126.8382240010062,37.560841500767005],[126.8389915003645,37.563322198673504],[126.8397549017984,37.563223800982804],[126.83722560110199,37.565235201783395],[126.8374992011037,37.5674718012126],[126.8363934998678,37.5653220029952],[126.8345892016721,37.567371800945395],[126.83670840189451,37.5697298989545],[126.83296050063569,37.5733520009205],[126.8302648991172,37.5717741013174],[126.82612359891681,37.5740379007096],[126.8256420994304,37.572854501017595],[126.8236165995254,37.5731059013316],[126.82203219867989,37.5713577003985],[126.8226820993624,37.569986600885],[126.8209408999889,37.5689803014591],[126.81802260043351,37.571395400255604],[126.8165675989574,37.571558000936804],[126.81540179888161,37.5704230011647],[126.8134105008729,37.5709314006563],[126.8144459010791,37.5727250997697],[126.8167921012714,37.5738270995107],[126.8168112012523,37.5753906979471],[126.8181892012805,37.5760388972813],[126.8168464009907,37.5768586008018],[126.8166285001407,37.5787708996598],[126.8172531011618,37.5792623998855],[126.81595400091831,37.5791850003269],[126.8141115014902,37.5810707010191],[126.8117000003914,37.5816300011792],[126.81138269857179,37.5800615017523],[126.8094992983531,37.580577401692004],[126.8074853983998,37.5777139023049],[126.80542230046291,37.5776099024089],[126.80454180134339,37.5785616014572],[126.8027107016899,37.577749100994495],[126.8023151014751,37.5793210004538],[126.8042247003828,37.5810227005834],[126.8017548012193,37.579508602054396],[126.80001780209031,37.58135420101],[126.7994990006564,37.583766600559194],[126.79712530001541,37.5842254004724],[126.79738659882639,37.5819208001005],[126.7985035988171,37.580726399299806],[126.79813849966139,37.5795593993005],[126.79930379958681,37.5798126991386],[126.79891689954789,37.577712100643],[126.7958203993537,37.577875000399295],[126.7954923997577,37.575665202439204],[126.7931612964959,37.577130500140605]]],[[[126.7860922983331,37.5035463996527],[126.78855589881361,37.502147098442904],[126.79014239867159,37.502418598739396],[126.79209519923171,37.500733897982],[126.7925344006145,37.4984202987199],[126.79315719990889,37.500037298526],[126.7942048006828,37.499643398458595],[126.7943597009612,37.5018574975061],[126.7970536982672,37.5005518988117],[126.7964682991953,37.4979182000506],[126.79954670042389,37.4979887970102],[126.7994025015691,37.49938719965],[126.80095390106979,37.500364500075804],[126.7987941007934,37.5003189035813],[126.797110600474,37.501339300681096],[126.7972353003493,37.5030655989548],[126.7988170003006,37.5043066998386],[126.797943000111,37.5037206012195],[126.7973833006646,37.5051134998605],[126.8010447990907,37.506187799676],[126.80484760246671,37.5038931982777],[126.8070570002573,37.5067455954253],[126.80831139900289,37.5064614957094],[126.8084469005154,37.507131800241105],[126.8074955010096,37.508201201793305],[126.804642800743,37.5067949033119],[126.8032810021048,37.5101216999851],[126.8044200004112,37.5113190015125],[126.80307549967101,37.5114589020886],[126.80177250020719,37.5134284014771],[126.79960890237079,37.514210300695204],[126.80189010035379,37.5164229987165],[126.8027507999363,37.5151612996447],[126.8039319995282,37.515312798237396],[126.806751200387,37.5132437990545],[126.8125946017526,37.5196277986452],[126.81489600119781,37.518659498702995],[126.813205701383,37.5194913996118],[126.8133221015205,37.520855599116096],[126.8150174008896,37.5209046989914],[126.81715520167741,37.5226141970443],[126.8177133001425,37.5255247008219],[126.81661120028049,37.5253282013533],[126.815222100863,37.527897600096104],[126.8136577009463,37.5286952008494],[126.8139695005386,37.529787200331],[126.8118758012143,37.530149002994904],[126.8096516034385,37.5321390010049],[126.80792079990731,37.5314743009108],[126.8063817004833,37.5342177016479],[126.8042332009571,37.533989002205395],[126.8036026996005,37.5331112997619],[126.8043929994709,37.5329391000203],[126.802903199799,37.5323133001371],[126.80378019897431,37.5315855007318],[126.8021254006291,37.5296959026214],[126.8009365996504,37.5298942021606],[126.799494001093,37.5323994996553],[126.8024321998863,37.5327177042577],[126.7994939974746,37.532399502766694],[126.8001306989885,37.5318472001737],[126.7988588986374,37.530039801239994],[126.7968795993831,37.5306335004355],[126.7967476989366,37.5282608015384],[126.79468099962159,37.528923503064895],[126.79464039775621,37.528343300007705],[126.7979377982714,37.5255966999051],[126.797688198521,37.5243806011212],[126.796243599798,37.5231799008248],[126.7958967991719,37.5237194004213],[126.7934328006788,37.522631101109496],[126.7923225005205,37.5236905007884],[126.79166669857459,37.5228701997611],[126.79229580031061,37.523336798905106],[126.7938591986827,37.5215685998061],[126.7951370987235,37.5214121994636],[126.79516179870011,37.5202008999934],[126.7964621995702,37.5201562995616],[126.7981399004358,37.5175482967502],[126.7999164989546,37.5167905976809],[126.7994859990897,37.5141917001068],[126.8003161982595,37.5127619015366],[126.79867979989591,37.510615503683],[126.79414509847689,37.5103290019999],[126.7942731971318,37.5086246015864],[126.7902222001583,37.5056725039895],[126.7883162020643,37.5064677031943],[126.7886911985791,37.5059252996457],[126.7860922983331,37.5035463996527]]],[[[126.848301598842,37.5635833005637],[126.8489166001384,37.564201698887],[126.8494707996917,37.5608033989871],[126.8507144994194,37.5604827991661],[126.85090459894931,37.5591100989941],[126.8518243992362,37.558765198837804],[126.8514171994,37.5569792002077],[126.8522191999266,37.5557156998697],[126.8565490999455,37.5579077983392],[126.8588128990995,37.556096999452905],[126.8584933992959,37.555264799698804],[126.8591848002571,37.555909399304795],[126.8602009006117,37.554661199007896],[126.86545170029119,37.555898199351205],[126.8638300003652,37.5584182002397],[126.86226760011519,37.5589185002303],[126.8627870995829,37.5601994008055],[126.8593252014131,37.558970601142704],[126.8593060014323,37.560494899618405],[126.86037540054609,37.5620459008656],[126.8593672008651,37.5622447014434],[126.8588632005246,37.563980400057595],[126.8603514001095,37.563972400035894],[126.857745201187,37.5642357006733],[126.8582912001762,37.565668000418],[126.85689910049541,37.564697201106895],[126.85655770097449,37.5665492999785],[126.8566353990943,37.5656130002565],[126.8539677001028,37.5645401006616],[126.8536698004151,37.5656326007096],[126.8523056996025,37.5647553005951],[126.851383099936,37.5652435005292],[126.8503091001857,37.5636242010333],[126.8494607004202,37.564809200571],[126.848106699452,37.5647981002916],[126.84891659902199,37.564201700420895],[126.848301598842,37.5635833005637]]],[[[126.761906898198,37.7605543986655],[126.7639820989432,37.7616994980958],[126.76701609590921,37.7599917998035],[126.7652489976763,37.757875901919405],[126.7649932957558,37.754120100644904],[126.7653311998588,37.7519639994884],[126.7672035985324,37.7493188011575],[126.76518150055449,37.7452956051807],[126.7611544992959,37.7454118999345],[126.7744161019795,37.7449335979635],[126.7777571013801,37.7473207975073],[126.7795078996612,37.745057597887104],[126.7801169028827,37.7504066977046],[126.7819688022399,37.7511382992408],[126.78064810156829,37.7529585011142],[126.7820633001531,37.7541652999074],[126.7811387007664,37.7541699007475],[126.78067750058389,37.755348500569596],[126.7807911004703,37.7565828993352],[126.78201020065781,37.7564764997683],[126.7807567016082,37.7578884992769],[126.7809319020965,37.7592616985141],[126.78348850299341,37.760342000827],[126.7829151028661,37.76817349890101],[126.7838201022052,37.7689418989299],[126.7857269002984,37.768843699028096],[126.7873035025159,37.77007320082],[126.7841323032924,37.7706328041166],[126.7804023003747,37.774084101906105],[126.780382699684,37.7759838008659],[126.7761462999421,37.774047102825094],[126.7714993018196,37.7745549024284],[126.7708439000183,37.7724384020486],[126.7701296980416,37.7730066022141],[126.7659932010229,37.771644401776],[126.7646799004298,37.7721234013398],[126.76348189851021,37.771517800475195],[126.763170598828,37.770390400659],[126.76180699851811,37.7706481003383],[126.7642499990759,37.768791799898004],[126.76502289579871,37.765305501052296],[126.7638442951503,37.7620901013764],[126.761906898198,37.7605543986655]]],[[[126.7874084989975,37.4836744992089],[126.7902595992449,37.483063699507504],[126.7909441999186,37.481446399248306],[126.7933194988445,37.4799378994393],[126.7928241999244,37.4780442997107],[126.7955265989826,37.4774256994317],[126.7955273000005,37.476312399246396],[126.7991742006025,37.4797350986832],[126.8006401000776,37.479719098074995],[126.79919580069311,37.4808187005021],[126.799221900667,37.4821239991968],[126.8028094012315,37.4826782002174],[126.80196500018569,37.483957500154304],[126.80106580052761,37.4831517010406],[126.7998119007801,37.4839330003162],[126.80080360078979,37.484440899751405],[126.8005838001372,37.485074100866896],[126.7987754008883,37.4865793000447],[126.7978415009041,37.485179801491],[126.79598730275829,37.4853429013279],[126.79393400243119,37.4876297020735],[126.7936416996408,37.489025401429906],[126.7939339987498,37.4876297010195],[126.7929369997468,37.4870034016458],[126.7905976003594,37.4877014007917],[126.7908057994935,37.4870693002689],[126.78983430046499,37.486586200752],[126.789658099683,37.487464200092795],[126.789012099414,37.4869081998859],[126.7892163991788,37.4855697001222],[126.7877429986852,37.485174600202804],[126.7874084989975,37.4836744992089]]],[[[126.953851699532,37.5783389999671],[126.9549436991983,37.577677099846106],[126.9543919997713,37.5770761999631],[126.9551595991714,37.5763974002551],[126.954243299631,37.5756509996305],[126.9555395993589,37.5754885993012],[126.95597459995051,37.5763232990808],[126.95799669961069,37.5743408996475],[126.9589678993786,37.5747492989705],[126.9595419992725,37.5741809991458],[126.959956599784,37.572202300001],[126.9585530003512,37.5711426005463],[126.9585280000016,37.572102200529606],[126.9585529998604,37.5711425996827],[126.9594304002554,37.570921999663405],[126.9596904004548,37.571744299189795],[126.9604530000822,37.5711675993775],[126.9622194004282,37.5725759998181],[126.9614729007053,37.5739684999191],[126.9617753006639,37.5761516998926],[126.9606900006227,37.5765044997059],[126.9616564999274,37.5771149008036],[126.9600104000411,37.5778512004525],[126.95809919993901,37.5761523002817],[126.95559749992519,37.5775072002294],[126.955347400194,37.5766743007144],[126.953851699532,37.5783389999671]]],[[[126.971144099252,37.575942800024],[126.9723999996624,37.5758189997606],[126.9726856000059,37.5745327995086],[126.9737019995424,37.575375099157306],[126.9734373000048,37.5740699989947],[126.9763399000647,37.5743067994358],[126.9771715001348,37.5752809999565],[126.97658279968961,37.5758688006594],[126.9755710996981,37.5741341002996],[126.9744381008311,37.5744203000134],[126.9744039011205,37.5754771995951],[126.9753109008319,37.5756625001369],[126.9741960009071,37.576440599691196],[126.9750426008111,37.5774555002815],[126.97402340065169,37.5775038003498],[126.97392380029669,37.5782690004891],[126.9733278997525,37.5765003008064],[126.97232459992979,37.5770407002043],[126.971144099252,37.575942800024]]],[[[126.9639297991802,37.552262999427],[126.96541739977161,37.5521292990045],[126.96739409995621,37.5492597993602],[126.9681029001907,37.5497291995066],[126.970128300252,37.548199599345196],[126.9707304011112,37.548637899568305],[126.96973160184551,37.5499804995345],[126.9699568015891,37.5537782001552],[126.969177499865,37.5554238003796],[126.9677324000462,37.554802700334506],[126.9673596998289,37.5556458001183],[126.9672695002143,37.5542985005996],[126.9666377002224,37.5550656004339],[126.96493939970951,37.5549265002941],[126.9639297991802,37.552262999427]]],[[[126.9383625993816,37.513099600237396],[126.93970079915469,37.513434099306295],[126.9394725997416,37.5119178994595],[126.943367999425,37.510987898931006],[126.9475760008064,37.5133928005368],[126.9459162988435,37.5143340011961],[126.943239299921,37.513091100578194],[126.9426760001494,37.513797100180795],[126.9383625993816,37.513099600237396]]],[[[126.9723104989816,37.563165299690304],[126.9731773999369,37.5618213999036],[126.97534589957469,37.5618676994795],[126.9755924002003,37.560809199699705],[126.9787697002078,37.5632852994601],[126.9780474008838,37.564436100007],[126.9785327003467,37.5651195001074],[126.9771199997976,37.5657100001614],[126.976724900029,37.564607000256004],[126.9751097996168,37.564829400604],[126.9746188998349,37.563694400371006],[126.972922599523,37.564239200532],[126.9723104989816,37.563165299690304]]],[[[126.87116109955839,37.5467147001199],[126.8732584991438,37.5459726998363],[126.8738661994703,37.544661999995405],[126.8760092000915,37.544266799217105],[126.87826890110209,37.5470825998931],[126.87766450049489,37.548041500828],[126.87540869996829,37.5480691005025],[126.875299799558,37.5471893011039],[126.8743305005273,37.54705590123729],[126.87407119970311,37.5478699008642],[126.873674999098,37.5470620002109],[126.87116109955839,37.5467147001199]]],[[[126.7911256937899,37.8190192996869],[126.7926428989317,37.8179239994834],[126.7918663995984,37.8160370995003],[126.7928476994624,37.8162650995878],[126.7905261981499,37.8144506009111],[126.7920592994139,37.8138487995215],[126.7924831003073,37.8127996987651],[126.7952859990022,37.8140741989099],[126.79570009871671,37.8119746005591],[126.7946300985747,37.8117868985035],[126.79733129986009,37.812599998288704],[126.79886649891971,37.811195497608495],[126.80030420185,37.8119046980604],[126.801098602459,37.8136426987486],[126.800486499816,37.815882006269604],[126.7977531977691,37.8151356045099],[126.79507380044849,37.8174488021967],[126.793284401739,37.8176140008428],[126.7923244021934,37.820596299904096],[126.7911256937899,37.8190192996869]]],[[[126.7621119984941,37.6037210009784],[126.7642342000583,37.602091696711405],[126.76580219849029,37.5998188989842],[126.7657894999112,37.598532398885304],[126.7686807970199,37.5993164981012],[126.7698794982536,37.5984621974387],[126.7708576994002,37.59614529835731],[126.7708409005915,37.597643498242896],[126.7728417010662,37.5990191987344],[126.77434650048899,37.598972699558296],[126.772882002714,37.600677100195696],[126.7731741024219,37.6018355990372],[126.7742710013639,37.6027054982227],[126.7756376999972,37.602239998688205],[126.7759274005932,37.6028981993698],[126.7730401002629,37.6036211008693],[126.7723007002796,37.6045205003178],[126.7718998008881,37.6055613996861],[126.7735273997756,37.6054934989969],[126.7744873011863,37.6065117017766],[126.7714509014111,37.6072368014078],[126.77004739712919,37.607147800052196],[126.7683421988344,37.6041815030185],[126.7655478016288,37.603754203445796],[126.7642341997161,37.6020917031582],[126.7622433002212,37.6044213002008],[126.7621119984941,37.6037210009784]]],[[[126.78840099874019,37.857894699896306],[126.7888315009329,37.856075597676394],[126.79105820145669,37.8561584986452],[126.7910631000436,37.8574934000746],[126.7905806994771,37.8562502007494],[126.78899650029649,37.8567180005869],[126.7897246007739,37.8584992990693],[126.7908985006963,37.858802600183296],[126.7890246000322,37.8612703005399],[126.7884673990845,37.8602225004418],[126.78750479990839,37.860323899908295],[126.7884673994096,37.8602224990082],[126.78840099874019,37.857894699896306]]],[[[126.8345824996629,37.549367700009],[126.8363198000002,37.5479699995277],[126.83632000062521,37.5492730993876],[126.83778310036159,37.5490372],[126.8370440004186,37.5502113001207],[126.8363200004728,37.5494325009254],[126.83633000001011,37.5508193004758],[126.8356707997501,37.5493607002736],[126.8345824996629,37.549367700009]]],[[[126.9738051994462,37.571610599997896],[126.9770279000068,37.5696338994178],[126.9781457004434,37.5703648000085],[126.9769427005099,37.5704199003616],[126.97705090022899,37.57201620057],[126.9738051994462,37.571610599997896]]],[[[126.7326513984625,37.5707050986424],[126.7339657998391,37.569789796848305],[126.7394973001128,37.571151299539096],[126.7402920043795,37.5699668007066],[126.739186102002,37.5716513014106],[126.7373840998751,37.5707750009639],[126.7360899991488,37.571480000364],[126.7348256998003,37.5710441004205],[126.7339191007069,37.5698229016417],[126.7326513984625,37.5707050986424]]],[[[126.7903323981618,37.7993485011175],[126.7917746984134,37.7980312985125],[126.7917139988601,37.796464199767605],[126.7929002993292,37.7963100989469],[126.7924510998149,37.7946611005866],[126.7916452997673,37.7955940001104],[126.79397159825531,37.7890914986591],[126.7953049994475,37.788547598779004],[126.7971558040179,37.7880856],[126.7982608036688,37.792049200200104],[126.8043634028623,37.7956370989071],[126.79711040450479,37.7950297027698],[126.7930070004406,37.800849400828994],[126.7903323981618,37.7993485011175]]],[[[126.7937400995112,37.46975170057701],[126.7978206002539,37.4676485962693],[126.79874359933089,37.465549598368305],[126.7997797003185,37.4677767995393],[126.80092640077079,37.4676306999264],[126.8007878999735,37.47038590035999],[126.7991241999691,37.4707540006694],[126.7986070001524,37.4700122008227],[126.7983209000101,37.4714126011007],[126.795590899216,37.471414201106796],[126.7937400995112,37.46975170057701]]],[[[126.86394659892851,37.5515757000234],[126.86470219919529,37.550493599821],[126.8639149992852,37.5499518004883],[126.8643423992177,37.5493901998653],[126.8657601990885,37.5492572000364],[126.8652023998453,37.5484450995054],[126.8657602000345,37.5492571990697],[126.8683882003366,37.5489556997992],[126.867413299476,37.5488432012384],[126.86394659892851,37.5515757000234]]],[[[126.91549049938081,37.528116200286696],[126.91705379920221,37.5286104987359],[126.91868430004739,37.5265373983124],[126.919493700556,37.5267918994266],[126.9176544007968,37.528682799464],[126.9180132001098,37.529679700560806],[126.91593009964019,37.5293644008695],[126.91639519960209,37.5286769005495],[126.91545359983121,37.528990800087],[126.91549049938081,37.528116200286696]]],[[[126.931723899929,37.527655800091296],[126.9344256008476,37.5258767989333],[126.93453730016171,37.5280664002351],[126.9325344998785,37.527525200694],[126.93188280015319,37.5282888003105],[126.931723899929,37.527655800091296]]],[[[126.980622999552,37.5660131004338],[126.9825569995888,37.5654301994878],[126.9822449000915,37.564296599829],[126.9844806009171,37.5661069998541],[126.9835363009456,37.5660899007149],[126.9838201006763,37.567318900347495],[126.9827225993276,37.567502000485696],[126.9826839993467,37.5666346005335],[126.980622999552,37.5660131004338]]],[[[126.7180773992909,37.6191573002846],[126.71929510099069,37.6188362996474],[126.7203815998279,37.6213395988552],[126.72118860035671,37.6209693001491],[126.7203815995951,37.6213396006288],[126.71875699965629,37.6190079005818],[126.7180773992909,37.6191573002846]]],[[[126.96848579942639,37.522426799241195],[126.9692733997381,37.5228105989107],[126.97060739960911,37.5209648991735],[126.9720944994355,37.5219143987756],[126.97283250056229,37.5211683989061],[126.97340360086609,37.5222641997984],[126.97244580097251,37.5225521997751],[126.9722336001463,37.5240852003922],[126.97124729898451,37.523370301810004],[126.9683425996238,37.524338900331394],[126.9692733993688,37.5228105999488],[126.96848579942639,37.522426799241195]]],[[[126.7580781989742,37.7285574996308],[126.7595801989776,37.7279014003484],[126.7586489999401,37.7277386994389],[126.7616474006493,37.7280448998488],[126.7607364004498,37.7284564009139],[126.760667200519,37.729835299535],[126.761318301561,37.7298640006539],[126.7606355999963,37.730325701037],[126.75871050027571,37.7300099010056],[126.7580781989742,37.7285574996308]]],[[[126.72928829657559,37.6115675990443],[126.7319481991818,37.610604897883896],[126.7353741009599,37.6114811991052],[126.7335841986608,37.6113736021138],[126.73128590095911,37.6130079004795],[126.73028070196429,37.6139126995747],[126.73020650006829,37.615923101899604],[126.72928829657559,37.6115675990443]]],[[[126.79322509867531,37.4500718006076],[126.79251379922839,37.4492774995037],[126.7932141001292,37.4511503990386],[126.7945973997149,37.4500363995433],[126.79543050052139,37.4510091002182],[126.7949747997288,37.4506169007835],[126.7935719986346,37.4515447017648],[126.79322509867531,37.4500718006076]]],[[[126.9856943989829,37.5349345000755],[126.987830000208,37.534149999502695],[126.9863821000869,37.5352663002821],[126.9856943989829,37.5349345000755]]],[[[126.9266508996253,37.5140035000259],[126.9273706005951,37.514490899487996],[126.9270280004161,37.514641499984606],[126.9274251011418,37.5151634015962],[126.9266508996253,37.5140035000259]]],[[[126.8103551993954,37.5077284001655],[126.8113451989707,37.5062400979573],[126.8124921013822,37.5071006983595],[126.8149948020687,37.5057424999863],[126.8125204004209,37.5085719016477],[126.8103551993954,37.5077284001655]]],[[[126.8901955986142,37.5077287994753],[126.8915935002505,37.506354699393505],[126.8908138009789,37.507457599671405],[126.8912615006919,37.5085290000616],[126.8901955986142,37.5077287994753]]],[[[126.9236472990881,37.5212975994223],[126.924749800863,37.5219887005349],[126.9236008996013,37.5220667004001],[126.9236472990881,37.5212975994223]]],[[[126.9909803999541,37.5725564999932],[126.99110519992061,37.572494399757296],[126.9910065000951,37.572615599993696],[126.9912389000315,37.572559500004694],[126.9911596999748,37.572622100282594],[126.9909803999541,37.5725564999932]]],[[[126.9887839992502,37.520118400170404],[126.9906657006203,37.5201244992942],[126.99081700034431,37.5208784999933],[126.9887839992502,37.520118400170404]]],[[[126.9895102991981,37.572557199986996],[126.99059230026721,37.571940599996],[126.9903851003219,37.5725629003257],[126.9895102991981,37.572557199986996]]],[[[126.8819389993897,37.545784200098],[126.88266869936629,37.5448829997806],[126.8820404992358,37.5437063990218],[126.8831001002243,37.544206099885294],[126.8819389993897,37.545784200098]]],[[[126.9048910995701,37.5226839998575],[126.90546620031931,37.52276209997],[126.9049932997498,37.522846000261],[126.9048910995701,37.5226839998575]]],[[[126.7205485995674,37.619054600103496],[126.7207955002249,37.6189013994444],[126.7210094007286,37.619184600389495],[126.7205485995674,37.619054600103496]]],[[[126.9733867998924,37.5651308999419],[126.973522000448,37.5653752005154],[126.97344099983819,37.5653757999636],[126.9733867998924,37.5651308999419]]],[[[126.9351977995295,37.5621651002492],[126.93513219997669,37.561858799931606],[126.9352901000984,37.562117900125095],[126.9351977995295,37.5621651002492]]],[[[126.94116160107001,37.536243799146604],[126.9416208008398,37.536422899883],[126.9413757998939,37.53715420055261],[126.94116160107001,37.536243799146604]]],[[[126.8701940991033,37.633250897909804],[126.8705461006435,37.6332814001713],[126.870331499859,37.6334094006158],[126.8701940991033,37.633250897909804]]],[[[126.9188019994795,37.516974499274404],[126.9200026003284,37.516795699654004],[126.9189885003846,37.5171858015876],[126.9188019994795,37.516974499274404]]],[[[126.7936106978029,37.58109909937831],[126.79463230180791,37.580977399667205],[126.7941893992812,37.5812612026355],[126.7936106978029,37.58109909937831]]],[[[126.9854889989741,37.576516400800706],[126.9862526005142,37.576471499482395],[126.9861959006947,37.5768371003082],[126.9854889989741,37.576516400800706]]],[[[126.7885885992704,37.852668400857496],[126.78837279992091,37.8515338991582],[126.7885886012476,37.852668401048696],[126.7885885992704,37.852668400857496]]],[[[126.88315109972861,37.5140708002522],[126.8838187013966,37.513735499572405],[126.883818701299,37.5137355014796],[126.88315109972861,37.5140708002522]]],[[[126.8115171993468,37.485328199661595],[126.8117811013727,37.4855762001664],[126.8116076997194,37.4859086005494],[126.8115171993468,37.485328199661595]]],[[[126.8412027982276,37.568034700217],[126.8419178002497,37.568123900913804],[126.8410051998865,37.5686129007561],[126.8412027982276,37.568034700217]]],[[[126.89340399940231,37.4976393001112],[126.8934756995746,37.4973797000752],[126.8935040999649,37.4972821996283],[126.8934756999541,37.497379700273],[126.89340399940231,37.4976393001112]]],[[[126.9736016998166,37.5226430996842],[126.97456000047809,37.5223099986303],[126.9744296000673,37.5225549001145],[126.9736016998166,37.5226430996842]]],[[[126.83285559926121,37.5966039009814],[126.83289619921979,37.5965571991873],[126.83351190069651,37.5958100996983],[126.83289620108579,37.596557200132196],[126.83285559926121,37.5966039009814]]],[[[126.9911979996904,37.565800100538695],[126.9914268006566,37.5662520995892],[126.992023000603,37.56626900016],[126.9914267994219,37.5662521005671],[126.9911979996904,37.565800100538695]]],[[[126.6740088996104,37.5685502999522],[126.67400889939121,37.5685503012448],[126.6735578995341,37.5685409001877],[126.6740088996104,37.5685502999522]]],[[[126.8155860993248,37.552516599885195],[126.8159110004953,37.552534400271796],[126.8156590002463,37.5525748004529],[126.8155860993248,37.552516599885195]]],[[[126.8232347996272,37.491751299421196],[126.8238202008081,37.4919285007667],[126.82373600022869,37.4919509008037],[126.8232347996272,37.491751299421196]]],[[[126.8405505994168,37.5414957994756],[126.8406721000979,37.5415506000098],[126.8405505996479,37.5414958000904],[126.8405505994168,37.5414957994756]]],[[[126.77571879945681,37.5972251997515],[126.7759199003016,37.5973044984477],[126.775919900494,37.5973045003071],[126.77571879945681,37.5972251997515]]],[[[126.8818600002092,37.5148640001382],[126.8819235001117,37.515000300248694],[126.8818599997003,37.514863999229],[126.8818600002092,37.5148640001382]]],[[[126.9714471986935,37.5625236997008],[126.9715472001857,37.5623729987835],[126.9714472002831,37.5625236999736],[126.9714471986935,37.5625236997008]]],[[[126.7865374990716,37.4391239999733],[126.7865375004721,37.4391239998079],[126.7865374995472,37.4391240006891],[126.7865374990716,37.4391239999733]]],[[[126.83448559683009,37.591888800163],[126.8357144009632,37.5913694981804],[126.8344855996278,37.5918888014975],[126.83448559683009,37.591888800163]]],[[[126.8862399991949,37.52561999943261],[126.8862400010637,37.525619999824904],[126.8862399995085,37.525620000940705],[126.8862399991949,37.52561999943261]]],[[[126.98435389969511,37.575993699894696],[126.98435390091561,37.5759936993095],[126.9843539000484,37.5759937005181],[126.98435389969511,37.575993699894696]]],[[[126.75760619740849,37.7447772987448],[126.75789659985129,37.744926399752394],[126.7578966006583,37.7449264004747],[126.75760619740849,37.7447772987448]]],[[[126.8440320961656,37.6717882994515],[126.8440321016147,37.6717883003679],[126.8440320996747,37.6717883034184],[126.8440320961656,37.6717882994515]]],[[[126.79677799964891,37.5812023000949],[126.7967780001816,37.5812022991959],[126.79677800029211,37.5812022999719],[126.79677799964891,37.5812023000949]]],[[[126.79775359959069,37.6193614001046],[126.79775360112349,37.619361398544406],[126.79775360101819,37.6193614005117],[126.79775359959069,37.6193614001046]]],[[[126.8835365988115,37.5434567000576],[126.8835365995393,37.5434566987552],[126.8835366007139,37.5434566994185],[126.8835365988115,37.5434567000576]]],[[[126.9365399999104,37.5619297999108],[126.93654000011189,37.561929800038],[126.93653999999559,37.5619298001047],[126.9365399999104,37.5619297999108]]],[[[126.7604506980964,37.7454229015283],[126.7604506994524,37.7454228996382],[126.76045070040671,37.7454229002392],[126.7604506980964,37.7454229015283]]],[[[126.85746739963841,37.5660898998851],[126.8574674007998,37.5660899000318],[126.8574674000648,37.5660899004379],[126.85746739963841,37.5660898998851]]],[[[126.86041869905449,37.629471100425306],[126.8604187003474,37.6294710998271],[126.8604186991354,37.6294711010282],[126.86041869905449,37.629471100425306]]],[[[126.90074319984889,37.539495100275005],[126.9007431999968,37.5394950997739],[126.90074320022059,37.539495100120405],[126.90074319984889,37.539495100275005]]],[[[126.9262374997972,37.5136809988985],[126.9262375003537,37.5136809990246],[126.9262375000387,37.5136810003484],[126.9262374997972,37.5136809988985]]],[[[126.9364287999387,37.5616077999214],[126.9364288001296,37.5616078001561],[126.9364288000135,37.561607800206595],[126.9364287999387,37.5616077999214]]],[[[126.7918989995419,37.858503899573904],[126.7918990003583,37.858503900230104],[126.7918989996958,37.858503900482],[126.7918989995419,37.858503899573904]]],[[[126.7941340995824,37.7020446001062],[126.7941341010869,37.7020445996949],[126.7941341013419,37.7020446017246],[126.7941340995824,37.7020446001062]]],[[[126.7964663996663,37.581487200495],[126.7964663999605,37.58148719981],[126.7964664003036,37.581487199984394],[126.7964663996663,37.581487200495]]],[[[126.8492590994955,37.5614777002171],[126.8492591000482,37.5614776993893],[126.849259100163,37.5614777002561],[126.8492590994955,37.5614777002171]]],[[[126.8812709006566,37.6178297991176],[126.881270900031,37.6178298002769],[126.88127089990421,37.6178297999842],[126.8812709006566,37.6178297991176]]],[[[126.9415543998861,37.6109296999222],[126.9415544014321,37.6109296991356],[126.9415544005215,37.6109297005562],[126.9415543998861,37.6109296999222]]],[[[126.97195479973351,37.555194099848],[126.97195480002681,37.555194099872104],[126.9719548000524,37.555194100171605],[126.97195479973351,37.555194099848]]],[[[126.9253524001355,37.5123805001718],[126.9253523999432,37.5123805000191],[126.9253524000298,37.5123804998733],[126.9253524001355,37.5123805001718]]],[[[126.93809159965261,37.513465199871796],[126.93809160005921,37.5134651999806],[126.9380915997544,37.5134652008239],[126.93809159965261,37.513465199871796]]]]}}]}