{"type":"FeatureCollection","features":[{"type":"Feature","properties":{"interval":15,"stationId":"5896031469"},"geometry":{"type":"MultiPolygon","coordinates":[[[[127.07075979913431,37.018534600788705],[127.0714112007872,37.0182370983789],[127.07178640010679,37.0189363005205],[127.07075979913431,37.018534600788705]]],[[[127.073341198969,36.9903860003096],[127.0748081980135,36.9880496969547],[127.0805744978546,36.985300797764296],[127.0792507997822,36.981976299559],[127.0808266986126,36.984923897037696],[127.0848620999894,36.9832747962262],[127.08715390016991,36.983643398706],[127.0917832010983,36.9824739990536],[127.0931996030331,36.9843853006317],[127.09410550212719,36.9891492958677],[127.09547170076101,36.9892560957609],[127.09599540055551,36.9909523991482],[127.0974023005853,36.9908419998452],[127.0960090006068,36.992170001352605],[127.09502500096211,36.9949377998216],[127.09245390132459,36.9973383999605],[127.0931654003036,36.9982963013572],[127.0907374992357,36.9983350008896],[127.08961290036031,36.9974108018138],[127.0886259007274,36.9986124009206],[127.0889042005483,36.9996926006661],[127.0856571003755,36.9994836008119],[127.0851469003887,37.000047200785396],[127.08346660076059,36.9987554009848],[127.0821550993816,36.999300400301706],[127.08325429881529,36.998310800537396],[127.0820780999915,36.997366201482],[127.0809858010838,36.9976463012019],[127.08013749972051,36.999258400312705],[127.0788902994554,36.9977552999023],[127.08075979833889,36.996510800528306],[127.080573698525,36.9952888017503],[127.0775409986031,36.9933974018396],[127.0752342000235,36.9943448008175],[127.0769374972434,36.9933292996659],[127.0755538984334,36.9897214020489],[127.073341198969,36.9903860003096]]],[[[127.09695069959129,36.9898344993332],[127.0969507005498,36.9898345000424],[127.0969506996002,36.9898345002661],[127.09695069959129,36.9898344993332]]],[[[127.1255894973017,36.9196835980636],[127.1263872960195,36.915890399607704],[127.1272954008096,36.9158686994179],[127.126372700231,36.9161217010739],[127.1255894973017,36.9196835980636]]],[[[127.1266464960276,36.9122415006054],[127.12664649906421,36.9122414989935],[127.12664650159061,36.9122415014901],[127.1266464960276,36.9122415006054]]]]}},{"type":"Feature","properties":{"interval":30,"stationId":"5896031469"},"geometry":{"type":"MultiPolygon","coordinates":[[[[127.04552289838479,37.0519792998801],[127.046550699973,37.0517021989046],[127.04687649997679,37.05052829940821],[127.0473887004346,37.0506013996199],[127.046959000444,37.0516529993735],[127.0478515005718,37.051015499597696],[127.0486264002166,37.05210119969],[127.05084239994939,37.0524173994783],[127.0510231003594,37.0515595974358],[127.0521186005426,37.0522856997476],[127.0518028009477,37.0534054997653],[127.0534482993022,37.054156399014396],[127.0534477997681,37.0497062996243],[127.0557567001851,37.0510252996805],[127.05649010030821,37.0506930995634],[127.0572282005091,37.0518991000299],[127.0555923003361,37.052380600446696],[127.0554132005152,37.053194099633195],[127.0564467007647,37.0533524997349],[127.0550247006185,37.0533316003138],[127.0556234000795,37.0542651009509],[127.0502349002125,37.0537517012916],[127.0503219001255,37.05501550002781],[127.0488789012515,37.056253000698796],[127.04818559887319,37.0562479999918],[127.0498351988962,37.0552540006627],[127.0485474996357,37.0551182007985],[127.048643599716,37.0537202013521],[127.0470510002089,37.05372290133219],[127.0470615996073,37.0551253011486],[127.04552289838479,37.0519792998801]]],[[[127.0482409990814,37.0751176998482],[127.04835009985989,37.0735081998086],[127.0490333996933,37.0742307989613],[127.0498774993939,37.0720258990284],[127.0535609995661,37.0693614992867],[127.0536600004011,37.0700612992566],[127.0547552993058,37.0699916993262],[127.0546615003578,37.0694111979359],[127.0570867008432,37.0699346986454],[127.0577490005109,37.0713714988165],[127.0588138999296,37.0703075995412],[127.059500000411,37.07069439899],[127.05905630095579,37.071624200083406],[127.0608501020966,37.0748973993691],[127.06064550216101,37.076715401111095],[127.0586887011963,37.077377001498796],[127.0592263999957,37.0796663006463],[127.0564002999734,37.0819857011825],[127.0543200996401,37.079155801153604],[127.0543383994387,37.0779424011901],[127.05366349989819,37.0778298012719],[127.0515835000408,37.080234600678295],[127.0512448996232,37.079191100479505],[127.0504786995162,37.079285999907704],[127.0521586991678,37.077830499995194],[127.0513617992666,37.0765823006154],[127.0494464000102,37.0759773005721],[127.0486607997709,37.0744896006931],[127.0482409990814,37.0751176998482]]],[[[127.048260599689,37.049492299951694],[127.0488600025225,37.0493705996248],[127.0488600017298,37.04937060217],[127.048260599689,37.049492299951694]]],[[[127.0523823994733,37.0566511996177],[127.0523824003079,37.056651198884694],[127.0523824010031,37.056651200311094],[127.0523823994733,37.0566511996177]]],[[[127.0564803978376,37.1106380001625],[127.0578999003095,37.108767197149206],[127.059308699593,37.1087106971118],[127.05952840126041,37.110390198206396],[127.0619285011931,37.1099733998456],[127.0624686008763,37.1130948001507],[127.0598624974338,37.113197301243005],[127.059528397544,37.1103902020717],[127.0564803978376,37.1106380001625]]],[[[127.06025079919631,37.079374300447896],[127.0602507996342,37.079374299501495],[127.06025080092391,37.0793742997112],[127.06025079919631,37.079374300447896]]],[[[127.0615558976934,37.0215048007911],[127.06327789825511,37.0191760977302],[127.0656409993618,37.0184894966724],[127.0661339007909,37.0162534978585],[127.0664336029752,37.018174898280996],[127.0714111992309,37.0182370997732],[127.0724656000748,37.013911497356],[127.0718170024648,37.020480999213596],[127.07489799938381,37.0205467991478],[127.07525560012411,37.0192111983209],[127.076909799503,37.0216101996948],[127.0789374993406,37.0198858991502],[127.0786165967112,37.016671799960996],[127.0825171034481,37.0166492000168],[127.0819201010171,37.019879999998004],[127.0825059004375,37.0203286004395],[127.0788898003177,37.0235936007835],[127.07702810075011,37.0216543028291],[127.0753422000593,37.022015501960404],[127.07448480076779,37.0244294009633],[127.0717513000704,37.026097700053],[127.0708771996601,37.0301075030945],[127.0712349984604,37.0255076989572],[127.0691145005809,37.0237373007276],[127.0675295970345,37.0241897007019],[127.06704459750101,37.022147501943],[127.0659617985838,37.021673302417206],[127.062358998821,37.0226478014594],[127.0615558976934,37.0215048007911]]],[[[127.0631801980667,37.000619601233],[127.0651928971522,36.999411100197],[127.0635040964889,36.9976870995194],[127.06352459745979,36.9938154967506],[127.0663652979326,36.9935105954533],[127.0672996969982,36.9917482972156],[127.0706352961121,36.9899617978821],[127.0685504981969,36.986959900884],[127.0694357977345,36.9828534005457],[127.0683940979906,36.978102999497196],[127.0663869991762,36.97741770022439],[127.0683940979592,36.978102999027094],[127.07027009740881,36.9769225980033],[127.07446889939929,36.9734301982174],[127.0742678010933,36.9715092941008],[127.07894190145001,36.971922797343304],[127.08027370112451,36.974293396757304],[127.0848500999221,36.9726549991259],[127.0856907004663,36.976437396491],[127.0908857974263,36.976231295911305],[127.09648129598689,36.9805955942309],[127.09815619431201,36.978838195988295],[127.0987885987229,36.9760034937721],[127.10200599550551,36.9753328944427],[127.1020708023715,36.9768515999974],[127.104428902223,36.9813477993263],[127.10258320235509,36.9828199995996],[127.1038720012723,36.985577197282105],[127.1086300007795,36.9852479994628],[127.1078117015505,36.9879180992302],[127.1085893007729,36.9881106990376],[127.1094252011847,36.9902826984368],[127.1082522006316,36.991982299933596],[127.10827170072011,36.9927840998908],[127.1091117011515,36.992936699957305],[127.1047774009634,36.9939171019086],[127.1041406016002,36.9955193003064],[127.105599101213,36.9962935002912],[127.10433520121309,37.000036801372794],[127.1028716000633,36.9977842017963],[127.10203570003121,36.9977078020329],[127.1012509997176,37.0000504017293],[127.0997278002631,37.000964500921604],[127.09972210026879,37.002384199501904],[127.10126150024941,37.0031354991822],[127.1018976006899,37.0021003987812],[127.1040644005875,37.0023271990525],[127.10415660088799,37.005012200170206],[127.1033263997944,37.0044362008181],[127.10261920012341,37.0049088006577],[127.1025400996808,37.0039300006367],[127.1012615005426,37.0031355016783],[127.09815930114381,37.005396602062994],[127.0982181006749,37.0071672008923],[127.0947847005349,37.007922400541],[127.0942297004468,37.009236500908],[127.0917020996402,37.009677700477894],[127.0913714993406,37.007877902000395],[127.0892158995901,37.0084759002914],[127.0891752996307,37.0072526015147],[127.0876667011393,37.0070349017324],[127.0871983008192,37.0079699010226],[127.0878793008658,37.0091456014353],[127.087198300246,37.0079699013658],[127.0858664007053,37.0085534021899],[127.08617479796389,37.0062568010821],[127.08336690077181,37.0050107023282],[127.07974010256129,37.007190001112704],[127.08076180158251,37.009107102304704],[127.0794108001609,37.0075170022269],[127.0775270002088,37.0085621018735],[127.076840599614,37.007800601390706],[127.0751694001789,37.0104232010721],[127.07272760030779,37.0112842002111],[127.072742197564,37.007820600783305],[127.0709778960021,37.004433899667504],[127.0673028996771,37.0015929025085],[127.0631801980667,37.000619601233]]],[[[127.0641908990044,37.1469501985733],[127.0664383001989,37.1469851997315],[127.06658630084989,37.147936100010305],[127.0656234988087,37.1484813008267],[127.064340199197,37.147941300575],[127.0641908990044,37.1469501985733]]],[[[127.11523219930419,36.905786999964995],[127.1231170965718,36.9056157988314],[127.12391549666289,36.903985398491606],[127.1253621977498,36.903490398193306],[127.1277533987857,36.9042238975894],[127.1285924016254,36.902453398477896],[127.1308832049119,36.908958999240106],[127.1357504000447,36.9090667991323],[127.1357524005484,36.9113093975602],[127.1372072025252,36.9117974000923],[127.1374716032619,36.9127764010558],[127.1350965014721,36.916397801112495],[127.1349798005523,36.91983659923589],[127.1358940005819,36.9195254994214],[127.13627560048171,36.9203845004715],[127.1328642003027,36.9207283004054],[127.1329233000451,36.921636801880105],[127.1328641992249,36.9207283007889],[127.12776480112619,36.9209629000097],[127.1279564004432,36.924694299926095],[127.1293591005405,36.9238394995614],[127.1286858012437,36.9244658001273],[127.1296510006905,36.925182199895204],[127.1289909009966,36.9256835003281],[127.1294051016515,36.9265593007901],[127.1235602009258,36.9277428008146],[127.1225055985085,36.9271696003203],[127.1231425993138,36.925030801942704],[127.1214676995464,36.924501902988005],[127.1213566991405,36.9225134010017],[127.1187602008079,36.9237947001426],[127.1173330976492,36.9277911023839],[127.1186063992142,36.924953200345996],[127.1180320997885,36.924114801184395],[127.1170240983527,36.9243879011443],[127.11652149888721,36.919732596664105],[127.12000499787611,36.921288797477],[127.12137899696,36.9176120982075],[127.1228911995223,36.9177471980788],[127.12724659987171,36.9159034993523],[127.1281049990133,36.9152865999692],[127.12823709863481,36.9137316013046],[127.1266465002254,36.9122415027947],[127.12267409973269,36.9128469026512],[127.1218413989496,36.910137600885996],[127.1199909008001,36.9082790027446],[127.1168205961182,36.9089674008947],[127.11523219930419,36.905786999964995]]],[[[127.12929379949689,36.921832000506605],[127.12929379959719,36.9218319991406],[127.1292938007494,36.921831999620004],[127.12929379949689,36.921832000506605]]],[[[127.13452139844699,36.9230653004516],[127.13463760062521,36.9228063991892],[127.1346248005831,36.9230698995388],[127.13452139844699,36.9230653004516]]],[[[127.1359797995523,36.918347400725104],[127.1365460002703,36.9180419999746],[127.13654049993539,36.9181723007746],[127.1359797995523,36.918347400725104]]],[[[127.14010899881019,36.8356137986549],[127.141343098733,36.8355946985532],[127.14185099822511,36.8340273001206],[127.1408913991724,36.8335654000336],[127.14272079896361,36.8328087994592],[127.14343319987401,36.8310021988844],[127.1442858998731,36.8309459988781],[127.1451612998327,36.829524899433906],[127.14532720057059,36.8308671986145],[127.1471737996839,36.8314728979524],[127.1485923980434,36.8294831979671],[127.1506634983672,36.828273599009805],[127.1497604988201,36.8260480990263],[127.1501748995977,36.824678197958704],[127.1513117998391,36.8241604992447],[127.15423430019649,36.824837299185],[127.15248440060641,36.8270315997607],[127.15327030005581,36.827627899552304],[127.1524906008161,36.8293088983335],[127.1543795996423,36.8274632993424],[127.1551792997742,36.830510496966106],[127.158691400257,36.827776799592904],[127.1589761019578,36.8285746012358],[127.15839010021921,36.8281923004759],[127.1569062005878,36.829248601313196],[127.15593870156509,36.8331490984435],[127.1588780024184,36.8366728064451],[127.15652300157751,36.8360597014466],[127.1572541000508,36.8384424007901],[127.1551313990083,36.8387840007051],[127.1534899006498,36.8363453031438],[127.1524153017244,36.8391712003179],[127.1528723017602,36.8409294019611],[127.1513990005637,36.842134300803195],[127.1508582991258,36.8390629030011],[127.14572219905469,36.8391952027141],[127.14505909894909,36.8381799004745],[127.1438437996896,36.838542700199696],[127.1437892990266,36.837300800853605],[127.1425663002496,36.83683440132],[127.141996600007,36.8377777003956],[127.1413514987853,36.8360216008312],[127.14010899881019,36.8356137986549]]],[[[127.14134349959761,36.874423299306294],[127.1413435019987,36.8744232974033],[127.14134350142051,36.8744233008822],[127.14134349959761,36.874423299306294]]],[[[127.1435054993193,36.8705875009744],[127.14350550066891,36.8705874994068],[127.1435055008921,36.870587500296196],[127.1435054993193,36.8705875009744]]],[[[127.1436750997085,36.83930080151119],[127.1436750998583,36.839300799441595],[127.1436751003304,36.839300799941796],[127.1436750997085,36.83930080151119]]],[[[127.14593979964289,36.8055523009035],[127.1465293008898,36.804594698824104],[127.148232801194,36.806529198741],[127.1498792995475,36.8062623990078],[127.1500496000601,36.805241499640104],[127.1507080005525,36.806233499453896],[127.15297100048289,36.8062342000064],[127.1526273005941,36.8094380990106],[127.1544672014245,36.8101188010655],[127.15322210134569,36.8107736014383],[127.1529250016449,36.8125007999663],[127.1512829012001,36.8125259007499],[127.1515751003764,36.8143788014565],[127.15006429989539,36.8153793010887],[127.14831919887061,36.8148025004163],[127.1494903985093,36.8135882000776],[127.1480425986989,36.8133216996774],[127.1490284983597,36.8121990986835],[127.146749998871,36.8089999992461],[127.1477269990351,36.8082272995161],[127.1470680985146,36.8062052002506],[127.14593979964289,36.8055523009035]]]]}},{"type":"Feature","properties":{"interval":60,"stationId":"5896031469"},"geometry":{"type":"MultiPolygon","coordinates":[[[[126.90497499797229,37.5133750990449],[126.9062188996306,37.5119524994586],[126.9078804998814,37.5121121994625],[126.9093628996229,37.5112141994914],[126.91113540032171,37.5123408000812],[126.9106584004994,37.5138503991952],[126.9123264007239,37.514064900411704],[126.9113323979715,37.5161393011073],[126.9084875998681,37.5146486009657],[126.9076299993608,37.515500000833505],[126.9076031988408,37.514731900805],[126.90497499797229,37.5133750990449]]],[[[126.9439104998227,37.37204350013489],[126.94399080026389,37.3720713999461],[126.94399079961549,37.3720714008218],[126.9439104998227,37.37204350013489]]],[[[126.9483956995502,37.3214351997535],[126.9489593000376,37.3209660998097],[126.9490242997801,37.321230300925905],[126.9483956995502,37.3214351997535]]],[[[126.9636718994432,37.3016705000509],[126.9680268998457,37.2957250993725],[126.96989720001261,37.2967485996485],[126.97260409998749,37.295581499402594],[126.9731045004206,37.2969998996504],[126.974031400138,37.2962862998304],[126.97536850057931,37.2977489995613],[126.97650899964059,37.2968810992854],[126.9783755997458,37.296911999462296],[126.97798180051869,37.2973152996716],[126.9790715003932,37.2975487999843],[126.9789328007679,37.298478700134694],[126.9774924007843,37.2992697003829],[126.97777890091061,37.300270399476204],[126.97885639983309,37.3009828987637],[126.9797415006004,37.3000148004643],[126.97916870117321,37.30021910026],[126.97976950043271,37.3016252005884],[126.97885640033999,37.3009829008885],[126.9780800007661,37.303097800241005],[126.9758931996329,37.3037894016288],[126.97511059934449,37.305330300198],[126.97500419945091,37.3037155018128],[126.97261600050871,37.3061702012311],[126.97048809968939,37.3052292010008],[126.96980839881671,37.3039946006935],[126.96697330001581,37.3039824008913],[126.96685269994501,37.3031512005611],[126.9663623992757,37.3036567002585],[126.9636718994432,37.3016705000509]]],[[[126.9688379985144,37.3052101000934],[126.9688379997871,37.305210099477996],[126.9688380004753,37.3052101006529],[126.9688379985144,37.3052101000934]]],[[[126.97594549865799,37.2494605996151],[126.9778941990963,37.246509498418604],[126.9807158997654,37.2459609986222],[126.9827171024715,37.2465256993907],[126.98488160031839,37.248217499733705],[126.9850567006648,37.2503432995886],[126.986568800096,37.2524072994239],[126.98849369919341,37.2535256985772],[126.9891160010837,37.252057396316495],[126.9982742032052,37.2536207970523],[126.99947340121,37.2572956964025],[127.004120101895,37.257804197385305],[127.00640799960709,37.2568518983376],[127.0065462000784,37.2537836991964],[127.0111072999135,37.254129399765894],[127.01019860105009,37.2551175997264],[127.01125310044381,37.255116899598896],[127.0112749008165,37.2560867992285],[127.0131200002741,37.2568110994744],[127.0143230003851,37.262621999082704],[127.0154151009961,37.262329599703804],[127.0172447994161,37.2647346972256],[127.0193062005561,37.2648287980522],[127.01956470069051,37.2656741994566],[127.01930619927771,37.264828800661995],[127.01595170079361,37.2656383006947],[127.0166074001696,37.267508399479595],[127.01784860009279,37.2670829990884],[127.0185833004116,37.267696299269396],[127.0178189003142,37.267483200560804],[127.0172075996181,37.2691129008505],[127.0161362997685,37.2678986010339],[127.0148467993167,37.2685924000966],[127.0150715995806,37.2665734016139],[127.0140106996625,37.265821001580505],[127.012982700425,37.2669768006223],[127.011673701734,37.2687245988745],[127.01442610038819,37.2723921006641],[127.0126684006224,37.2738863002376],[127.0116004006751,37.273490000707405],[127.01037860189689,37.2742069999904],[127.01096700085209,37.2759568011255],[127.0089027015799,37.2765394013086],[127.0065717006034,37.281707501018005],[127.0027505996094,37.281911100659705],[126.9989421009156,37.2799482006879],[126.9986202002545,37.281493300225904],[126.99784250038701,37.2808930006047],[126.9943912996207,37.2823414010987],[126.993786199723,37.281347700358594],[126.9944394995821,37.280891000064194],[126.9922369990476,37.2803611004049],[126.9939413988009,37.2778656996685],[126.9929108998314,37.2763201012141],[126.9925746001677,37.2768114007228],[126.9902823014347,37.2758651026316],[126.9888932003664,37.2800732001259],[126.9902108001864,37.2813168995529],[126.99328780049001,37.281939900024696],[126.9919975005776,37.281470301609005],[126.9915228005995,37.285657700218],[126.9907019999654,37.2862657004614],[126.98975540052031,37.2856684008377],[126.9888241999029,37.286515401264296],[126.9897553997919,37.2856684001662],[126.9884256000012,37.2842712006685],[126.98613860029731,37.2846902006558],[126.9835214001666,37.2840726002324],[126.98357800002209,37.2846507003768],[126.9833001991713,37.2840108996885],[126.98607659869971,37.283219699562096],[126.9865713982049,37.2800995026823],[126.98444039580849,37.2764067015532],[126.9802995985616,37.2747934007683],[126.9819555970338,37.2718985009544],[126.9804382987696,37.2705057008207],[126.9810157993564,37.2692653005144],[126.9804030988557,37.2682613989813],[126.98183249726469,37.2642525968099],[126.9843001998136,37.263495499763096],[126.9855332001711,37.2621959983323],[126.9887033992139,37.2625707983608],[126.9900275978897,37.2599058010258],[126.9859890984438,37.2585870017513],[126.98609879782849,37.257700200172906],[126.9842153997119,37.25636330150979],[126.98442989893219,37.2546649001016],[126.98606069878909,37.253669600577105],[126.98300910046851,37.2522245006031],[126.98103500163411,37.2527454025762],[126.9767901993947,37.251708700882304],[126.9769150993763,37.2504650996845],[126.97594549865799,37.2494605996151]]],[[[126.9808884966914,37.2582199004575],[126.9809770016921,37.2580831972384],[126.9808885035498,37.2582199028773],[126.9808884966914,37.2582199004575]]],[[[126.9926647994882,37.285382199915304],[126.9926648004389,37.2853821995514],[126.9926648003417,37.2853822002646],[126.9926647994882,37.285382199915304]]],[[[127.0091461994144,37.2450248000315],[127.0111494002813,37.245922698934905],[127.0119849994457,37.245233599624],[127.0130710007697,37.2411156997245],[127.01198500074389,37.2452335996133],[127.0130366008091,37.2458644004991],[127.0091461994144,37.2450248000315]]],[[[127.01323219930441,37.238963400767105],[127.0143043002713,37.239641899569],[127.0150281007563,37.240078601228994],[127.0143042995364,37.239641901198304],[127.01323219930441,37.238963400767105]]],[[[127.0140762992705,37.245252799855],[127.014076300288,37.2452527998405],[127.0140762999182,37.2452528007775],[127.0140762992705,37.245252799855]]],[[[127.0165220995309,37.240533400283496],[127.0172246990917,37.2407336996412],[127.0194086002194,37.2374151994967],[127.0180348018763,37.2409818986288],[127.0215682017017,37.2418789008751],[127.0180168005199,37.241553601292004],[127.0165220995309,37.240533400283496]]],[[[127.017359499191,37.205831099864],[127.0191456987033,37.2036155990883],[127.0222489993254,37.2024889986876],[127.0235868998205,37.2009370992757],[127.02549230115869,37.204414697118004],[127.0283354983155,37.2042901972425],[127.03037569910069,37.2019074985573],[127.0313036976152,37.1996837001423],[127.0303144986044,37.197272002554],[127.0294674994514,37.196421003405],[127.0268719989424,37.1964709003684],[127.0274999999815,37.193760399649],[127.031450097065,37.1940725985922],[127.0319214965936,37.1899053027595],[127.03128529697189,37.188363003270304],[127.0279057969633,37.1873840026357],[127.0304987947425,37.1816157022039],[127.0265614991508,37.1788530983546],[127.0338097997743,37.180181596213096],[127.0349206986634,37.1778352985594],[127.0356014997461,37.177883699132906],[127.0349277009023,37.1788625001425],[127.03550080032919,37.1804656985393],[127.0395302977116,37.1820307968452],[127.0399611995356,37.1786467996491],[127.0409389996333,37.1791357993241],[127.0401297984642,37.1773561992105],[127.0405544979551,37.1759418977827],[127.0423508991438,37.1764446992592],[127.0420616995376,37.1755730997168],[127.043487298112,37.1745116007783],[127.040424598085,37.1709517027729],[127.0374972978408,37.1710525003228],[127.0401619013778,37.1702894987206],[127.0417068997773,37.17215569871],[127.0426364989032,37.1671494018607],[127.04177009891609,37.1661256991934],[127.0426365003352,37.1671493985825],[127.0459496991758,37.1672083973157],[127.04703689808859,37.1661986983254],[127.0474575976679,37.1645846999394],[127.0454322977012,37.163115999625205],[127.0454651967784,37.1592370993162],[127.041520096739,37.1581228001727],[127.04287529970331,37.1570193000083],[127.04286429999061,37.155962899672495],[127.044270798669,37.1562759990141],[127.0435987994527,37.153209098316296],[127.0487001943513,37.1502969012285],[127.0464423962146,37.1474706029867],[127.0424712001858,37.147737902719406],[127.0405648003214,37.1490317007497],[127.0405402979149,37.1464140996068],[127.04192520101529,37.1458259994191],[127.0424712011283,37.147737897520805],[127.04644239715711,37.1474705977881],[127.04458339901609,37.1449958002629],[127.04759129696819,37.1435550012859],[127.04443399973229,37.144501600368095],[127.0444019990057,37.1435946004192],[127.0426043993269,37.1430005001113],[127.0434699986846,37.1404999995457],[127.04674249999279,37.138809297784896],[127.0474486009766,37.1392784000732],[127.0473774010478,37.1414968978547],[127.0504046982554,37.1403236989114],[127.0508639977961,37.1384975007376],[127.0493865982789,37.136794701073505],[127.05011239813581,37.1341405997769],[127.05209579864571,37.1350459988454],[127.05335889738261,37.1343327995586],[127.0523454981887,37.1322121003959],[127.0544351975169,37.1300325997713],[127.05394269802039,37.1282141014108],[127.0518472982507,37.1276861010169],[127.0500666982125,37.1249599024696],[127.0488110990427,37.1245555027282],[127.0457173996956,37.1257838023218],[127.04324819843009,37.1246184023843],[127.0438843980302,37.1230396000231],[127.0405015973139,37.11999079969149],[127.04794939226379,37.1144075996028],[127.0443547959153,37.1045084076423],[127.0427492975208,37.1042990078517],[127.0375396027305,37.1060893060614],[127.0345871986064,37.102556501769],[127.0370917973455,37.102076000301196],[127.03690830130289,37.0999064969871],[127.0381065001047,37.1007992960943],[127.040905197306,37.0997426971509],[127.0420106962005,37.0978117990818],[127.04352559468559,37.089192707700896],[127.0352064979897,37.087603710528604],[127.0369701990335,37.0840915001926],[127.035928700075,37.0833415009426],[127.035382199385,37.0839474010199],[127.0347189999424,37.0821069002261],[127.0305829962109,37.0835958037245],[127.02917189762199,37.0821706051497],[127.0301978001832,37.0832039991686],[127.0312585991224,37.082015300357305],[127.03107249885,37.0810423991016],[127.0312586002716,37.082015298613904],[127.0328879986422,37.0812224994067],[127.03286019926,37.078268900331494],[127.0339761992592,37.0773343003116],[127.03316820006721,37.076791900854005],[127.0314323984901,37.0783601017839],[127.0297669993259,37.077389601852694],[127.02964329953541,37.0758441006954],[127.0225019994281,37.0736546002531],[127.0256156967318,37.0709984020029],[127.02487399524989,37.0658179997861],[127.0261090000648,37.0650793986564],[127.0280709984625,37.0672693975584],[127.0309715012242,37.0665131988165],[127.0352461969495,37.068948996380705],[127.0364367011432,37.0640785974117],[127.03818730118431,37.0698925928301],[127.0442945001766,37.0701198961565],[127.0445416999294,37.0663139999624],[127.0452086993168,37.0655368007144],[127.0443958994324,37.0640297990029],[127.045436298392,37.0628429001898],[127.043642199859,37.062843000187904],[127.0454362983145,37.0628428994103],[127.0471441966194,37.060799400701],[127.0436159956584,37.0608138000077],[127.0392555999785,37.0585460004589],[127.0379403996199,37.058853101984],[127.0392555992064,37.0585459992275],[127.0392377992242,37.056216501556996],[127.0371599988953,37.0561098977008],[127.0388899971653,37.054285699525],[127.0392657967717,37.0518386001276],[127.0360743999631,37.048174003792205],[127.0297588974546,37.0479073024829],[127.0322778984624,37.046267298931],[127.0343175985833,37.0468195994312],[127.0360191968817,37.0449439013069],[127.03144519885659,37.0396120010712],[127.0305890994475,37.0399741005224],[127.0307376987196,37.0385796995614],[127.0355099993781,37.0378350987511],[127.03587550057901,37.035194296899704],[127.0374280990264,37.0350684970255],[127.03917009728441,37.032124399969604],[127.040833598313,37.032103598397796],[127.0411056980377,37.027357101647006],[127.039161596338,37.0273411006358],[127.0408627991072,37.024976899626296],[127.0407883991816,37.022705101898104],[127.0379504972707,37.0212693986228],[127.03886439794519,37.0174641993787],[127.0418697981673,37.0175069979638],[127.0406498999086,37.0149613995075],[127.0418697999829,37.0175069972372],[127.04533649872,37.018667096967],[127.04608419797229,37.0175724980616],[127.0458128987638,37.0153965989357],[127.04694979835119,37.0148406993678],[127.0464821988188,37.0132507009578],[127.0445020987003,37.0136417002726],[127.04426719893519,37.0110261028882],[127.0399069989402,37.0125469025895],[127.0394795983794,37.0112289975509],[127.04043129742769,37.0103789984009],[127.0384695968158,37.007707397828504],[127.0394080967481,37.006767697897395],[127.0379493971602,37.002879798105106],[127.0415383975338,36.9993130984262],[127.0401105989616,36.996870900868394],[127.04475189581039,36.98787809872881],[127.04417379638849,36.985604901002],[127.0416963984435,36.9845701999349],[127.0463255986197,36.9812227997229],[127.0451951980938,36.9788364008993],[127.0415772969152,36.977079100065],[127.0430881982305,36.974602500627405],[127.0415361997112,36.9745341006432],[127.0416795993928,36.9729411979106],[127.0429228014354,36.9736414973869],[127.04706740004241,36.9707272996968],[127.0469450007963,36.972504099226704],[127.04769200204859,36.9722636996139],[127.05043159995469,36.974206097864105],[127.0520417983445,36.9722819997882],[127.050154299724,36.9706181001884],[127.0508860990082,36.969943900659295],[127.04859669878651,36.969201600602595],[127.0509765983627,36.9697443990268],[127.0488515990382,36.967359200111],[127.0503896983731,36.9638827997452],[127.04896769973921,36.9627433998542],[127.0498618997534,36.962689799412],[127.0507891997425,36.961037999020405],[127.0511937006295,36.96317439842],[127.05338309844011,36.9616238999705],[127.0537300982889,36.960296199074605],[127.0524746993093,36.9584111995217],[127.05451139813769,36.959937798197195],[127.0567238970543,36.9598426974413],[127.05843899896081,36.957648398021796],[127.06004489902739,36.9577370983363],[127.0611425989335,36.955568799523],[127.0604147997096,36.9547510002142],[127.0617730988145,36.9528892984676],[127.0634602006826,36.953066299149],[127.0669052985732,36.9563123971287],[127.0704053972971,36.9519514988],[127.07136909943169,36.9518449984984],[127.0707085038151,36.953252299962905],[127.0746514998721,36.956102597112604],[127.0762943982292,36.954358898856306],[127.0772116010877,36.9549325979492],[127.0791563003947,36.9537050976669],[127.0796812014079,36.956522198500004],[127.0823907998401,36.955907499610305],[127.085347499712,36.9566679986125],[127.0845486018147,36.9571228008316],[127.0862334001299,36.9586529993014],[127.0879204984428,36.958712899241505],[127.0883300992586,36.9569706988645],[127.0899290991024,36.9588499974357],[127.09132600382979,36.9580059942993],[127.0958112001349,36.9588345968517],[127.1024722017379,36.9578573997605],[127.10238600191519,36.9594038984091],[127.106342197959,36.9610267967862],[127.107368202191,36.9595230989936],[127.1107056984915,36.9635704966494],[127.113128901498,36.9620072985207],[127.1117158044754,36.963598302692404],[127.115378200813,36.9670121992785],[127.11934169830991,36.9659062988778],[127.1195068986063,36.9643216958892],[127.12079780022191,36.9638341958023],[127.1229253052533,36.965649898298004],[127.12219640237721,36.9728184978846],[127.1245569000167,36.9728212978818],[127.1268620000438,36.976863695963104],[127.129218400047,36.9768711959641],[127.1315673024419,36.9801466976633],[127.13154470242891,36.9845987997711],[127.12915270207891,36.984401501208396],[127.1270038032306,36.986025702734],[127.128379401855,36.988965399794296],[127.12767400307389,36.990940599839405],[127.1305823001656,36.9916234991565],[127.131995698954,36.991047699724106],[127.1323650988631,36.9899871000919],[127.1309568002748,36.9884870971228],[127.1332925006811,36.9881230962468],[127.1336657037804,36.9906414996665],[127.13596010233451,36.993243299389306],[127.1345187003934,36.994863700794404],[127.1305263025085,36.993876400831],[127.1286430009544,36.9955810006093],[127.1305953996974,36.997895498625],[127.1315671005533,36.9969846993875],[127.1328031996497,36.9982232990145],[127.13286650030531,36.997045698749204],[127.1342660015398,36.9983617995374],[127.13291650017389,37.002143301109],[127.1243643995753,37.003838403867796],[127.121736702203,37.0054661022401],[127.1216705022692,37.0085574991487],[127.12296980096991,37.0089950987111],[127.12210380095361,37.0097612992603],[127.123520801135,37.0097746993659],[127.1216765026849,37.013479102046595],[127.12230390197391,37.015975499786606],[127.12107639969281,37.0160892002554],[127.1222821983149,37.0159409996489],[127.1216764989206,37.0134791021108],[127.1184456021515,37.0125098030801],[127.1171868034103,37.0132237023662],[127.116960103637,37.0176937978961],[127.1192160015532,37.0179582983863],[127.12129280175911,37.0197336984032],[127.12010010094511,37.0227960998228],[127.11846009976499,37.0198558042719],[127.1141877013815,37.021460503652506],[127.1108640996672,37.0213203014039],[127.1109638965041,37.0177817009931],[127.1068481006199,37.018223300551504],[127.1046887001653,37.021554300173],[127.1012906011282,37.022864401894005],[127.099478500977,37.024926300914494],[127.10051089994461,37.0279230979177],[127.1014206029225,37.0278658986065],[127.1004157002389,37.028231602117295],[127.09951630108151,37.0301737014845],[127.0982691997311,37.0287393999435],[127.0987800992556,37.0281135002106],[127.09727979973819,37.02804340081],[127.0957538982322,37.0258350999392],[127.0951937982286,37.021856301792106],[127.0924358999859,37.0206374027987],[127.0899502024716,37.021795101641],[127.0895720024541,37.0230813009735],[127.08639550058619,37.0238655019783],[127.08448910239309,37.0265334993101],[127.08671800442771,37.0284819010241],[127.08580520294369,37.0308251004683],[127.0870578025499,37.0324168013668],[127.0857938019561,37.033477101832396],[127.0878700017377,37.0362531975304],[127.08903480550269,37.0404860994837],[127.0883310006479,37.0432481006247],[127.0864776997262,37.0438002014509],[127.0834203970925,37.0417299007779],[127.0825749980155,37.0398394014181],[127.074029500203,37.0396256034728],[127.0720225999726,37.0383118027349],[127.0712326008099,37.040992703780894],[127.06902410301839,37.0428939018797],[127.0689498026256,37.0456813016027],[127.0669761038397,37.0478218999917],[127.0709221998936,37.0496341981794],[127.0734738001194,37.0481542983409],[127.0750747993429,37.0530097941979],[127.0789522987744,37.0523693943217],[127.0800181061346,37.0484648980502],[127.0809455035563,37.0516880000458],[127.0797307032303,37.0536019999987],[127.0813036016574,37.0558514977492],[127.0829918003738,37.055806000946596],[127.0813035997938,37.055851502102904],[127.07911630089279,37.0593005003021],[127.0792213007878,37.060311999290604],[127.0801508003003,37.05967689926],[127.0797419012475,37.060625999957196],[127.0813847000025,37.061492901119294],[127.0797419011795,37.0606260023246],[127.07757530288421,37.0606735025063],[127.0761666015559,37.0647651003938],[127.078139499583,37.0669454982134],[127.0804673999921,37.0644401987396],[127.0804215001338,37.0663462995951],[127.0829447018083,37.066247394999],[127.0805691028934,37.0689721025236],[127.081369502093,37.0747455967501],[127.0861103009223,37.0757132997283],[127.0825857024943,37.0778226025695],[127.083444001636,37.0807437996483],[127.0822164017078,37.0832926036969],[127.0779652989553,37.0811271042569],[127.07331830360229,37.084630800753196],[127.0765463029962,37.0882433994677],[127.0762839009989,37.097053594902],[127.0768987003952,37.097073200012495],[127.076272800761,37.0975014998255],[127.0772263998074,37.0992088981181],[127.0775145011228,37.097364999873506],[127.08102890102451,37.101841697172205],[127.0856646007217,37.101045498983396],[127.08605380102,37.101912299316304],[127.0841674027902,37.1033526999066],[127.083124603833,37.105425297834],[127.0821807024097,37.1120542009945],[127.0785133032055,37.112364501257396],[127.0786251030937,37.114292299329605],[127.07801860026119,37.1135015008052],[127.076969101255,37.1159211986907],[127.0780571003547,37.116145698591],[127.0784562046072,37.1172329006451],[127.077542201229,37.1180927023155],[127.0774184993516,37.1204767037896],[127.0732000025992,37.1218306023174],[127.0737591012664,37.125290002268],[127.0720946002242,37.126565902649205],[127.071084801234,37.1293398998752],[127.0758621014884,37.1358025974223],[127.08089819926589,37.1357923993256],[127.08209360036099,37.1351132995713],[127.07830300306401,37.1369092018779],[127.0782236031434,37.1383663004208],[127.07694820111121,37.139574700293494],[127.07734520072799,37.140675699724504],[127.0824920988749,37.1415217972653],[127.0836727989444,37.138870499461305],[127.0837903016106,37.139985800420895],[127.082118099994,37.1417981013904],[127.07862730000359,37.141834601137006],[127.07836100051131,37.14352619959789],[127.07977679976321,37.1441149993719],[127.0804238003011,37.1436309995692],[127.0816253004376,37.144721098636396],[127.08318919887371,37.1442231991343],[127.0830114003363,37.1447437995596],[127.0870021989152,37.1426150994926],[127.0858587995421,37.1413709990357],[127.0870022008884,37.1426150991524],[127.0887580003175,37.142797800013994],[127.087311800664,37.1430554001476],[127.0903469013101,37.145316099865],[127.09130250077929,37.150963400765804],[127.0898211018189,37.1508570010035],[127.08910950307241,37.1526572022974],[127.0863843995334,37.1516866022944],[127.0846222012956,37.1521421018389],[127.0827395031783,37.15403039995061],[127.0820427042981,37.156632999440596],[127.0826442036966,37.1578844981891],[127.08414580264291,37.158868397874],[127.0864378002767,37.1588251017733],[127.0841458007218,37.158868402109],[127.08352910133851,37.159794601182796],[127.08425990007771,37.161380800063306],[127.0825608005663,37.1617204000511],[127.0813716002351,37.1650645007847],[127.07915950234451,37.1651654006625],[127.07860290290111,37.166629899198],[127.0808909010715,37.1690834974713],[127.0823016011897,37.172497899144204],[127.0844510019142,37.1725801998043],[127.0826531013664,37.1736025998782],[127.0828940004873,37.174624401950396],[127.0802105031708,37.1750683015065],[127.0801646005203,37.177094001428095],[127.0775370976374,37.173401603528696],[127.07467150050299,37.1738767030536],[127.0691703060042,37.177288299642],[127.0641807033215,37.1827836035746],[127.06333600358441,37.1865949008847],[127.0648999020893,37.1899668003247],[127.0626162026685,37.1903881014189],[127.06137630120591,37.1927613003566],[127.0623738003889,37.1933806004957],[127.0611918001268,37.192821100706205],[127.060486701256,37.196054002233595],[127.0601594984024,37.193717199591],[127.06167409900641,37.1911329005973],[127.0604070002735,37.189241202489],[127.0591383015422,37.189529202201],[127.05640480215709,37.193151200157004],[127.0573087987017,37.1914532999027],[127.0522804005487,37.1916567018565],[127.0517097011194,37.1924545010587],[127.0521250001739,37.1936530005303],[127.0472044002448,37.1962417000276],[127.0457189004626,37.2000897990044],[127.0473113988701,37.2012485978456],[127.0496584008326,37.1993425003079],[127.0485087003835,37.2019131000021],[127.04731140121889,37.201248600957896],[127.045854302676,37.205183297023204],[127.0476088020651,37.205412097207294],[127.0498870024728,37.208379696441],[127.0483831029988,37.2101714006345],[127.05066990071201,37.2121036987022],[127.0508627009658,37.2144443986819],[127.0514306008491,37.2145292006636],[127.0491196008728,37.2147548028235],[127.04801740193311,37.21695300229629],[127.0467882986922,37.216463501775806],[127.045469500011,37.217154801084504],[127.0446780001678,37.2164393008214],[127.0429585007303,37.217170401615],[127.0416328007441,37.2165354016069],[127.0407453016316,37.21820669993561],[127.0365352991907,37.2199185020855],[127.03564780007821,37.2218493001547],[127.0327287988463,37.2205596010364],[127.0314581984865,37.2177831007837],[127.02975290019181,37.2174281011387],[127.0287883011564,37.2188720996947],[127.0290076000054,37.2221395017976],[127.02672509593759,37.221000003337],[127.0258906970793,37.2194893006475],[127.0293875948323,37.2173912989887],[127.0275058960074,37.213140001288906],[127.02876069670961,37.211156100207],[127.02717509829519,37.2080793032838],[127.0245168991509,37.2069027032299],[127.0209043027635,37.2079362021964],[127.0202573009514,37.2097774013191],[127.01884159862941,37.2089963999646],[127.0204467989746,37.209116298354196],[127.0210509986063,37.2077527993864],[127.02048029917701,37.2054860016532],[127.0192082002132,37.2066884007821],[127.0188349998782,37.2057528007242],[127.01807539994171,37.2065738005629],[127.017359499191,37.205831099864]]],[[[127.0252133994025,37.0565619998548],[127.0264200994482,37.057019999303904],[127.0277043005555,37.056293398741005],[127.0284202003764,37.057944597578896],[127.03113690182681,37.0591747986839],[127.03431810038299,37.0587273991419],[127.0329644015746,37.0593376994417],[127.03161040463071,37.06183569901221],[127.0322834040601,37.0632309982607],[127.0298230977357,37.0633159003957],[127.0300999985524,37.0609480981491],[127.0293632992891,37.0589759001213],[127.0252133994025,37.0565619998548]]],[[[127.02555509923981,37.0543687995319],[127.02555510133631,37.0543687994187],[127.02555509969011,37.0543688005847],[127.02555509923981,37.0543687995319]]],[[[127.026009199236,37.054977399976096],[127.0260092000433,37.0549773999004],[127.0260091999074,37.0549774006464],[127.026009199236,37.054977399976096]]],[[[127.02809419980849,37.262406299877306],[127.03009849967559,37.2604615991497],[127.03128190016619,37.2603037999027],[127.0322883013783,37.2617730995139],[127.03214800034391,37.2623760008411],[127.0322882999159,37.261773100386996],[127.02809419980849,37.262406299877306]]],[[[127.03402419961431,37.0365916000028],[127.0340242000188,37.0365915986179],[127.0340241998926,37.0365916009925],[127.03402419961431,37.0365916000028]]],[[[127.03604969924841,37.0588899999054],[127.03605110000869,37.058728999038],[127.03627900128129,37.060523200313895],[127.03604969924841,37.0588899999054]]],[[[127.0413205989103,37.1553013000064],[127.04152100107811,37.1554441004346],[127.04132419979811,37.1554876002904],[127.0413205989103,37.1553013000064]]],[[[127.04155779865171,37.251685100552905],[127.0415578001984,37.2516850998122],[127.0415577996584,37.251685100977106],[127.04155779865171,37.251685100552905]]],[[[127.0509284995941,37.1964428003467],[127.0509285008753,37.1964427998605],[127.05092850047829,37.1964428010032],[127.0509284995941,37.1964428003467]]],[[[127.05854669878269,36.9533865988842],[127.0599170006706,36.9535002978566],[127.0598758002003,36.954456900634895],[127.05854669878269,36.9533865988842]]],[[[127.07817149917899,37.1331014001235],[127.0783297011716,37.1331000994892],[127.0783297005232,37.1331001006872],[127.07817149917899,37.1331014001235]]],[[[127.08707339827069,36.9285024990271],[127.0909122970802,36.9241599984738],[127.0884557995367,36.921864800769],[127.0883544006278,36.920667998236496],[127.09043550026419,36.9209353980475],[127.091295199596,36.9223004985529],[127.0936719979155,36.9172986000503],[127.0933282982592,36.9158242015247],[127.09103909884671,36.9150230015783],[127.0905252992356,36.9134523989106],[127.0922594991182,36.9138756992369],[127.09354039872309,36.9107122993455],[127.0957986980812,36.908856899862805],[127.0934624994232,36.900927703816095],[127.0918126955914,36.8985396006758],[127.09538590065449,36.899307297089294],[127.0994548965855,36.8935271028695],[127.0960699957496,36.8923399970453],[127.09945489965409,36.8935270973021],[127.1001878029215,36.892315698805994],[127.1032835023489,36.8963621956205],[127.107015398617,36.8969028950798],[127.1094001962322,36.8963064956762],[127.11279019292881,36.8909062005239],[127.106551999167,36.8888813025488],[127.10569049741879,36.8906138005079],[127.106158700631,36.8890843973342],[127.1127901958649,36.890906196250405],[127.1170832943142,36.885329897505905],[127.1195703993943,36.8838868972144],[127.1233756989578,36.886418397727795],[127.12462339646241,36.8847374010898],[127.12233350104219,36.884146202272206],[127.11896469785411,36.881101301825396],[127.1205779978737,36.8794086997875],[127.117663797616,36.876921699908095],[127.1206458991508,36.8758315995036],[127.1205775025738,36.8748142988459],[127.1223277008236,36.8770013966588],[127.124222298929,36.876368697291504],[127.1258206996588,36.8738252989766],[127.12565099982851,36.872798000003904],[127.12736939995011,36.8708624998939],[127.1274843999317,36.872622898757],[127.1300129974031,36.8735061978737],[127.1343795987476,36.8721657966887],[127.1374025972709,36.868732898693295],[127.1373715015838,36.8671298986833],[127.1391928011422,36.8692619992821],[127.1374025989456,36.8687329038126],[127.1343796019686,36.8721658003797],[127.1352090011392,36.8725942999512],[127.1353455010027,36.8738976986478],[127.1368066012213,36.874630498347905],[127.14098869995239,36.8743664993631],[127.142764000745,36.8753054965668],[127.14469509881391,36.875084796787505],[127.1459425975664,36.8723411995311],[127.1435054993193,36.8705875009744],[127.1443975999435,36.8708836991564],[127.145110598682,36.8677359016869],[127.1415761987588,36.8661077024364],[127.1417519972033,36.8654280003852],[127.14518239724839,36.8652396987401],[127.1478009984807,36.8638392987349],[127.1466215008621,36.8625535991061],[127.1482367002768,36.8636125968787],[127.14975619817069,36.860421700749704],[127.1491702971974,36.8585635021875],[127.143960300404,36.857339001972804],[127.14150509920741,36.8583164000771],[127.13766269931531,36.8528604003738],[127.1386684983095,36.8478574053768],[127.13002199935289,36.846297908674906],[127.1263844987287,36.8439093069448],[127.12185839812379,36.8456068015309],[127.11854239727559,36.8386460008391],[127.11994439830369,36.8381322993181],[127.12048749776059,36.836983400467],[127.1199302983178,36.8358333016171],[127.11776469805329,36.836775002710105],[127.11678379752179,36.834468302001795],[127.11707109887651,36.830128000000904],[127.1214296993159,36.8291270976243],[127.1215397990366,36.826749898494704],[127.12360699925291,36.826442998640296],[127.12345119916961,36.8234888998194],[127.1245063989555,36.822769899605994],[127.124238798866,36.8218403987426],[127.1270731986483,36.821407399213896],[127.1276402982473,36.8203763996757],[127.1266691987762,36.8187257964874],[127.12866269678271,36.8158117994014],[127.1286438974651,36.811935801443],[127.125998896566,36.812109400097],[127.1269038974652,36.8101568990185],[127.12689449747461,36.8071898019856],[127.1231367995533,36.802802099808204],[127.1238340996264,36.8029636993357],[127.12365129977441,36.8012870993064],[127.1247180994382,36.8023048990185],[127.1256078991895,36.8004830001981],[127.1246033992619,36.7992905997744],[127.12522999970341,36.799625199226604],[127.1261046996005,36.7985536994892],[127.12585609950699,36.7958352002117],[127.1247957992086,36.7948941004762],[127.1250230987175,36.7935503003734],[127.1275116999435,36.7938167998045],[127.1273706996456,36.7929947996846],[127.1281751996724,36.7930030994202],[127.1285176998696,36.7937008994683],[127.1290847998548,36.7924296994816],[127.1294307001694,36.7935391996321],[127.130585999473,36.79253499978],[127.1312588997884,36.793432299485296],[127.13181360008831,36.792057798798005],[127.1344909006894,36.7930448996251],[127.13474570043459,36.7940701985998],[127.13650029867999,36.792421200248796],[127.1356044973103,36.7901877999939],[127.1360624995143,36.7874055982421],[127.1369844002013,36.7870762982241],[127.1401067009369,36.789187895248304],[127.14360809743549,36.7880719963642],[127.1456046973288,36.786607396765],[127.14574719955671,36.7824574983156],[127.1463165001593,36.7849291988188],[127.14793759939121,36.7847053996099],[127.14851120085851,36.783783799477305],[127.14671470180751,36.786633499206],[127.1506013997364,36.7866260994812],[127.1521009000562,36.784236199724305],[127.1512412011906,36.786338999350995],[127.1525148006169,36.7876697999217],[127.1540798996006,36.7885503984997],[127.1548575005356,36.7870575986475],[127.1552485016465,36.7886968993952],[127.1614286987814,36.7915383980182],[127.163195997583,36.7883328976761],[127.1658001996285,36.7878705991088],[127.1635203009025,36.7903911997926],[127.16473090089569,36.7909501993408],[127.16421940045859,36.7918693998647],[127.1656900992628,36.7925586991798],[127.1670317994451,36.7903252997808],[127.1675607013239,36.7912903001038],[127.1647983009632,36.7927659000479],[127.1656088007397,36.79456119947049],[127.16710950089539,36.7943723997313],[127.1669179010095,36.7953151994993],[127.1693727036346,36.7974487979932],[127.1699174012785,36.7995033984728],[127.17365939929921,36.801188996703104],[127.17524030199729,36.8007095961083],[127.17365939985301,36.8011890020613],[127.171050301734,36.8056747985054],[127.17452419826009,36.8100272941529],[127.17694500815631,36.8110887910522],[127.17874570174399,36.814971499992396],[127.1751323005524,36.8138738011935],[127.17364860203611,36.8161017989655],[127.17606210020459,36.8164798985886],[127.17635010181509,36.8171247995444],[127.17406170093109,36.8168473001738],[127.1729330036189,36.820118899901594],[127.1758041012299,36.8228318030184],[127.1746335007482,36.821550001280805],[127.1705085048732,36.8227481000827],[127.17047680490491,36.825742397088405],[127.1725744044596,36.8278108980393],[127.1770757005363,36.8270177988561],[127.1769652016375,36.829460499982304],[127.1790144004587,36.8303795985653],[127.1812454001216,36.8295153997395],[127.1812802996659,36.8301034005485],[127.1811638995685,36.829576100326896],[127.1801551005773,36.8300457998572],[127.1802797005449,36.8314717015852],[127.1764067013716,36.8334764004531],[127.1774031003752,36.8342049997245],[127.1776485001307,36.8385712992864],[127.1789892001542,36.8381926997686],[127.17907650072169,36.8396841003576],[127.177165300509,36.841284100358706],[127.1769499017479,36.842789004018606],[127.17476949981129,36.8428171030995],[127.1711610034198,36.8458952000214],[127.17138500293571,36.848340001905],[127.1704838042334,36.850759700522495],[127.1682742020665,36.8486624027999],[127.1646879056528,36.8506247008376],[127.16430800603271,36.854474796987496],[127.1612978016212,36.855841000567096],[127.1622965000015,36.8571986004714],[127.1610613012367,36.8571496005204],[127.1577357002762,36.859079105168405],[127.1541952011255,36.8588945022275],[127.1506546999303,36.8629677004205],[127.1507813997124,36.8621803002207],[127.1493780005222,36.861349501168206],[127.1482367016645,36.8636125990701],[127.1503020002087,36.8635072994147],[127.1520816021128,36.866452697366306],[127.1517178023324,36.8680281003818],[127.15403950229289,36.868456100398106],[127.1552670028412,36.8707545006099],[127.1541504030272,36.8742600002942],[127.159919502604,36.87791520019999],[127.1583228036846,36.879359700078304],[127.15641550179609,36.8792183008312],[127.1546237007551,36.8822812012948],[127.15570629847821,36.880066300102904],[127.15409410009039,36.879527700641496],[127.15402259993651,36.880300000239],[127.1504260014062,36.880990499915704],[127.1490339994875,36.8828824041926],[127.14799930083089,36.8812594016198],[127.1471857013358,36.8829704041046],[127.1429943010984,36.8855773047877],[127.1418385022542,36.8874254029396],[127.14216970170139,36.8894224013454],[127.140448601715,36.8893705015957],[127.1398398023238,36.8940468969193],[127.144083502288,36.8949083960156],[127.1431769031418,36.8958699008601],[127.1438102025085,36.898580698149296],[127.1467118059009,36.8987181954718],[127.14676450818881,36.904359795016504],[127.1501921095982,36.9068977987663],[127.1468305013548,36.91092480495389],[127.1430412051441,36.9129066029721],[127.14222850595681,36.9167224991562],[127.14637140181391,36.9187882970904],[127.148678803291,36.917100999058604],[127.1492413038227,36.918501900622104],[127.1529382056531,36.9198716005659],[127.153463205277,36.92236540001419],[127.158931601509,36.9296965009924],[127.1488993036503,36.9359116028528],[127.1495488006466,36.9386632023259],[127.1484676993154,36.9382778023702],[127.1446058010252,36.9393754015437],[127.1443810986718,36.9400143023456],[127.1410092996686,36.9396811031633],[127.13874020193771,36.941116301728094],[127.1394482012297,36.9425849002595],[127.1387402006814,36.941116301929696],[127.134259501619,36.9430129019535],[127.1331131998782,36.9457025002211],[127.1286302003453,36.9437262020665],[127.1281377008378,36.9465287992639],[127.1286875036479,36.948043300582405],[127.12408469837939,36.9479500999977],[127.1244793991261,36.9435115021686],[127.1207853016788,36.9463205016273],[127.1167753039477,36.946222501710196],[127.1172321004083,36.9500482003771],[127.11672299945229,36.947874202004],[127.1140713978243,36.9491599998837],[127.1137969969036,36.946376397166],[127.114134600635,36.947754997903],[127.1167229980466,36.947874197783804],[127.1166061929357,36.9382968020155],[127.112967896574,36.9347745055378],[127.11041089913101,36.935642704669604],[127.10426860527329,36.9344271058852],[127.1012217049728,36.9397463024356],[127.09977859800449,36.9405010012435],[127.0982150980552,36.9392218972183],[127.0999283966799,36.9387635970549],[127.1026416939666,36.9343893014292],[127.10067989592841,36.9325639032546],[127.09746659914171,36.9325810032375],[127.0936204992005,36.9312749015506],[127.0915509978134,36.932689001479304],[127.08852229865319,36.928606100772],[127.08707339827069,36.9285024990271]]],[[[127.1020370996203,36.7921303005288],[127.10315200013099,36.792148899847],[127.1031684998757,36.7925571012805],[127.1020370996203,36.7921303005288]]],[[[127.10328609980421,36.7941532001123],[127.104071200792,36.7942659001257],[127.1037199003497,36.7952501012916],[127.1040711993655,36.7942659007258],[127.10328609980421,36.7941532001123]]],[[[127.1037337995492,36.7927739992219],[127.1042741011269,36.79307940110851],[127.1038748001029,36.7930277003513],[127.1037337995492,36.7927739992219]]],[[[127.121444299733,36.8234358998061],[127.1214443011765,36.8234358998724],[127.1214443000157,36.8234359009184],[127.121444299733,36.8234358998061]]],[[[127.1230498993593,36.7997763001094],[127.12329580026349,36.7997426995122],[127.12344760011611,36.8004523001194],[127.1230498993593,36.7997763001094]]],[[[127.1246136995737,36.797921100119204],[127.124624300474,36.797959200210904],[127.12463660009,36.7981985007766],[127.1246242995631,36.7979592000811],[127.1246136995737,36.797921100119204]]],[[[127.1274762964555,36.8665076998002],[127.12804899722191,36.865207994766905],[127.1302517005474,36.865928298374904],[127.13183740055669,36.8649456000444],[127.13103300095341,36.8665049006102],[127.1274762964555,36.8665076998002]]],[[[127.12929379949689,36.921832000506605],[127.12929379959719,36.9218319991406],[127.1292938007494,36.921831999620004],[127.12929379949689,36.921832000506605]]],[[[127.1305479997234,36.989445499654],[127.13054800019731,36.989445499345806],[127.13054800040041,36.989445500346804],[127.1305479997234,36.989445499654]]],[[[127.1347490996366,36.9136318002475],[127.1347490996773,36.913631799716995],[127.13474910018509,36.913631799744095],[127.1347490996366,36.9136318002475]]],[[[127.1348590994703,36.8560248018693],[127.1351899017881,36.85565659757761],[127.1353276016504,36.8556952975389],[127.1348590994703,36.8560248018693]]],[[[127.1424552977102,36.8697205998378],[127.1424553004584,36.8697205994634],[127.14245530036949,36.8697206018413],[127.1424552977102,36.8697205998378]]],[[[127.14435949946909,36.8905334003623],[127.1443595011001,36.8905334000816],[127.144359499598,36.8905334020448],[127.14435949946909,36.8905334003623]]],[[[127.1466405999151,36.789439700132405],[127.14667330059041,36.789473799975504],[127.14667329988241,36.7894738000983],[127.1466405999151,36.789439700132405]]],[[[127.1477555987202,36.783462000286],[127.1477556008295,36.7834619997902],[127.1477555995732,36.7834620008533],[127.1477555987202,36.783462000286]]],[[[127.149638599862,36.7844706998812],[127.1496386011991,36.7844706998451],[127.14963860009911,36.7844707005171],[127.149638599862,36.7844706998812]]],[[[127.15705349903901,36.786987199585695],[127.1570535006286,36.7869871990451],[127.15705349984151,36.7869872011049],[127.15705349903901,36.786987199585695]]],[[[127.1584577993833,36.788538099946194],[127.1585743995861,36.7883485996147],[127.1585744004108,36.788348599782296],[127.1584577993833,36.788538099946194]]],[[[127.1590583995987,36.7885674999486],[127.1590670999181,36.788554699576196],[127.15967030041641,36.7888602006452],[127.1590583995987,36.7885674999486]]],[[[127.17955229987109,36.8333066006007],[127.1795523008373,36.8333065997174],[127.1795523008385,36.8333066004738],[127.17955229987109,36.8333066006007]]],[[[127.2901133991611,36.601222500267596],[127.2912905994409,36.6007257999674],[127.2906555000118,36.598594199671304],[127.29345119990481,36.5988691996477],[127.2938305993847,36.597868400228],[127.2930529998878,36.5977775996002],[127.29622489999579,36.5960398998296],[127.2965968003593,36.5970521991951],[127.2975921001307,36.59650279941221],[127.29873049989651,36.5972351996366],[127.29871920016909,36.5982873990684],[127.2997961001955,36.598461998919795],[127.3021321003815,36.601892299764],[127.3003898003234,36.602517600436],[127.3002310006481,36.603438500072606],[127.2980431000702,36.604999900006405],[127.29428590019941,36.6056528003743],[127.2941705996599,36.6047492003298],[127.29364409991659,36.605434600559704],[127.29292789966459,36.6046285999723],[127.2940861998425,36.603674900038705],[127.2926557002499,36.603618700452095],[127.2925421999215,36.604323900210694],[127.2905333996395,36.602000700351795],[127.2912502996914,36.6020749996776],[127.2909289000128,36.6011599005927],[127.2901133991611,36.601222500267596]]],[[[127.2902333992283,36.6004801998104],[127.2902996999733,36.600447599156404],[127.2902837998119,36.600522500234895],[127.2902333992283,36.6004801998104]]]]}}]}