{"type":"FeatureCollection","features":[{"type":"Feature","properties":{"interval":15,"stationId":"5896286341"},"geometry":{"type":"MultiPolygon","coordinates":[[[[127.0457504994007,37.0745876002906],[127.0460437997567,37.0735272996852],[127.04701749967839,37.073579799156896],[127.0473152984747,37.071659499043506],[127.0521546998236,37.0679739994653],[127.0534843997563,37.0687762981003],[127.0550192982214,37.0673470995295],[127.0543478988928,37.066488900387704],[127.05491890067971,37.0664387990442],[127.0556822008868,37.0684737987528],[127.0568671013151,37.067568799545796],[127.0579299002523,37.0685800985345],[127.0590603005649,37.0685004997614],[127.0593123007034,37.0697614996883],[127.0620368003994,37.0717934000958],[127.0596764016082,37.072359900643406],[127.0605587007259,37.0742397987635],[127.0618581010956,37.0732889992601],[127.0608501020966,37.0748973993691],[127.0643104001699,37.0754148997218],[127.0656903012679,37.078059001803005],[127.0643273003454,37.0809594004606],[127.0614799003354,37.08073740025689],[127.0613203006155,37.0816101000052],[127.0623128003415,37.082192000397896],[127.0603881007828,37.0826874011185],[127.05947450091469,37.084022100857595],[127.0594278004464,37.0862658005554],[127.0581324993581,37.0854746009269],[127.05722990018269,37.08650450047249],[127.0554025001502,37.084684202263496],[127.0535021993113,37.0854880004258],[127.0519949001136,37.0834629005864],[127.04947889922819,37.0837568000056],[127.048974699364,37.0808148995889],[127.04981669838149,37.0777950007458],[127.0457504994007,37.0745876002906]]],[[[127.0638436999546,37.074938100310995],[127.06384369936991,37.0749380993775],[127.06384370058831,37.074938100183395],[127.0638436999546,37.074938100310995]]]]}},{"type":"Feature","properties":{"interval":30,"stationId":"5896286341"},"geometry":{"type":"MultiPolygon","coordinates":[[[[127.0327866952843,37.0718970953723],[127.0354448980237,37.071323499639895],[127.03539619985,37.070181998767005],[127.0354449004393,37.0713234988528],[127.03687719900701,37.071551798624505],[127.0380531983835,37.069889694188895],[127.0442945001766,37.0701198961565],[127.044541700667,37.0663139992228],[127.0442945024095,37.070119898684204],[127.047315300501,37.071659498061905],[127.0502446975716,37.0693089004125],[127.04890829779569,37.0647364040677],[127.0471367995672,37.0647862040179],[127.0471591994731,37.0628263007442],[127.045436301196,37.0628429007276],[127.04544229988521,37.0635758004581],[127.0454362983273,37.0628428986575],[127.047144196597,37.0607994000172],[127.04890249882409,37.0603988997126],[127.04892459819531,37.0586363000895],[127.05066619963469,37.058326298625296],[127.0508472998627,37.0569269998899],[127.0508504010345,37.0587644984205],[127.0519077008574,37.0591453983695],[127.05376239937159,37.0584136990825],[127.05378399934999,37.0572119002843],[127.0523823994733,37.0566511996177],[127.0532964993938,37.0562149993209],[127.0534482993772,37.0541564011236],[127.0518028008687,37.053405501889195],[127.0502349002125,37.0537517012916],[127.0503219001255,37.05501550002781],[127.0488843000224,37.0569208006769],[127.04818559887319,37.0562479999918],[127.048643599716,37.0537202013521],[127.0470510002089,37.05372290133219],[127.0470615996073,37.0551253011486],[127.04552289838479,37.0519792998801],[127.0471294999111,37.049981899452696],[127.0478585007379,37.051420699595305],[127.0501436995663,37.052080099833],[127.0505897991202,37.051540600372505],[127.04826059983351,37.0494922990034],[127.0515242998582,37.051584697410696],[127.0532158999512,37.0493305988823],[127.05649010030821,37.0506930995634],[127.0582611000537,37.0524641000758],[127.0555923003361,37.052380600446696],[127.0554132005152,37.053194099633195],[127.0564467007647,37.0533524997349],[127.0550247006185,37.0533316003138],[127.0554901002128,37.05516600005],[127.0556233996473,37.054265100895],[127.0534483012829,37.0541564008524],[127.0536255011057,37.055726999281795],[127.0551623001084,37.0562084989516],[127.055521699749,37.0553849997751],[127.0580173011798,37.057756398898704],[127.0591912006265,37.0573880992188],[127.0605198011189,37.0584719992499],[127.06174580362709,37.061394400514196],[127.064984900388,37.0630334988751],[127.06680930028101,37.0619814994227],[127.0677925010115,37.063242100359496],[127.0672315012507,37.0642444999735],[127.0699437002465,37.064696498789296],[127.0686884014279,37.065925199294],[127.0688013004263,37.066769200561204],[127.0660825031451,37.068044199286206],[127.0670190022086,37.0697585975718],[127.0741289040106,37.0681838987616],[127.0723262037136,37.0706923990861],[127.0732245028153,37.0732073965711],[127.0758077055618,37.0739667007789],[127.07356540226921,37.0753363015129],[127.0736550021796,37.08059509625409],[127.0772778999289,37.079002299050096],[127.0782974010117,37.0798022988024],[127.0779652989553,37.0811271042569],[127.07159130147089,37.0822353024698],[127.07142500163721,37.0841225005826],[127.0694298026023,37.0839966009148],[127.0674391049782,37.0858518998329],[127.0692839031334,37.0898880957967],[127.0692063001655,37.0913919003457],[127.0644971022607,37.092633803825],[127.0635783031795,37.0945346019242],[127.0638554022176,37.0958992017342],[127.06357829578711,37.094534602789004],[127.0605950987703,37.0926762046474],[127.055543100718,37.0924877037155],[127.0531721002728,37.0944327013108],[127.0534010966592,37.090318102977896],[127.04977139944539,37.0899606010306],[127.048103000328,37.0867622011473],[127.0464324007653,37.087494101763504],[127.04538489923121,37.0871133005313],[127.0453091993069,37.0862247014199],[127.0409042943022,37.0861468014569],[127.0375285978003,37.0841360026264],[127.0376820991178,37.0822105012047],[127.036375799436,37.08305880016341],[127.0393233995754,37.0811959998248],[127.0392288996699,37.0801241008967],[127.0376037004018,37.0799698015281],[127.0360232997618,37.08126700091049],[127.0378445992127,37.0796744991472],[127.0405257983149,37.0802869985258],[127.0419381969025,37.0785253002875],[127.0401630986776,37.076944901867904],[127.03792850043591,37.077438800867604],[127.0347525999195,37.0754047010831],[127.03360549937149,37.075760800238996],[127.0348750986456,37.074827699571],[127.0327866952843,37.0718970953723]]],[[[127.08184869904919,36.9895565002444],[127.0844198990238,36.9880285992174],[127.08534489920119,36.988892199002805],[127.0863497000876,36.987846999193906],[127.0863744007149,36.9890474998074],[127.0852879011024,36.9898570005082],[127.08576000063029,36.9910616993035],[127.0882565000873,36.9901640990412],[127.0872171007886,36.9914630998329],[127.0880725015509,36.9917112998773],[127.0844806996945,36.9933489011145],[127.08492319917771,36.9922792008475],[127.0837206000217,36.9914396014701],[127.0824323995857,36.9925675004283],[127.08184869904919,36.9895565002444]]],[[[127.0711545979599,37.0235785001588],[127.0718931985299,37.0194568004526],[127.07075979913431,37.018534600788705],[127.07219840026721,37.016615997295496],[127.0718170024648,37.020480999213596],[127.07489799938381,37.0205467991478],[127.07525560012411,37.0192111983209],[127.0762233001735,37.020502999969295],[127.0743028005113,37.021292000367005],[127.07267539991939,37.023370801984804],[127.0716664999199,37.0228287010468],[127.0711545979599,37.0235785001588]]],[[[127.0564803978376,37.1106380001625],[127.0578999003095,37.108767197149206],[127.0607887981129,37.1085965972259],[127.0619285011931,37.1099733998456],[127.0624686008763,37.1130948001507],[127.0598745974217,37.1133215011188],[127.059528397544,37.1103902020717],[127.0564803978376,37.1106380001625]]],[[[127.06346999846879,37.1469599997018],[127.0664383001989,37.1469851997315],[127.0666623006724,37.148494800357],[127.0656600996105,37.149261401318704],[127.0656122987613,37.147937400553104],[127.064340199197,37.147941300575],[127.06346999846879,37.1469599997018]]],[[[127.0674291991877,37.020180098381196],[127.06742920114681,37.0201800985135],[127.06742920132601,37.0201801020497],[127.0674291991877,37.020180098381196]]],[[[127.0564269992759,37.054853100362905],[127.0564269997131,37.054853099421706],[127.0564270004204,37.0548530996039],[127.0564269992759,37.054853100362905]]],[[[127.0627871998618,37.1689608000018],[127.06278720063361,37.1689607995081],[127.06278720056021,37.1689608004381],[127.0627871998618,37.1689608000018]]]]}},{"type":"Feature","properties":{"interval":60,"stationId":"5896286341"},"geometry":{"type":"MultiPolygon","coordinates":[[[[127.0104422964254,37.073033602867305],[127.0110642979065,37.0701585014056],[127.0087616998806,37.069816900913],[127.0089268985061,37.068364700275495],[127.0096817986106,37.068520498708295],[127.01105899973071,37.066148996977304],[127.0140884988845,37.067970595232005],[127.01603629693669,37.062412800789794],[127.0139525984943,37.060123498962106],[127.0162875994605,37.0577928991578],[127.01950599707081,37.05849919824],[127.020255799744,37.0561248993995],[127.02117629882349,37.0558967996276],[127.02025109952369,37.0548351983279],[127.02249260080451,37.0551694972946],[127.0236083996887,37.05281329965079],[127.02555510133631,37.0543687994187],[127.0252452003402,37.054953499508706],[127.0260092000433,37.0549773999004],[127.0267272001358,37.056948598771],[127.0277043010923,37.0562933992301],[127.0284202003764,37.057944597578896],[127.03113690182681,37.0591747986839],[127.03431810038299,37.0587273991419],[127.0329644015746,37.0593376994417],[127.03161040463071,37.06183569901221],[127.0323102040333,37.0632879982037],[127.0364367011432,37.0640785974117],[127.039371604373,37.0627226989041],[127.0421242023469,37.070046696229696],[127.0442945001766,37.0701198961565],[127.0445416999294,37.0663139999624],[127.0452086993168,37.0655368007144],[127.0443958994324,37.0640297990029],[127.045436298392,37.0628429001898],[127.043642199859,37.062843000187904],[127.0454362983145,37.0628428994103],[127.0471441966194,37.060799400701],[127.0436159956584,37.0608138000077],[127.0392555999785,37.0585460004589],[127.0379403996199,37.058853101984],[127.0392555992064,37.0585459992275],[127.0392377992242,37.056216501556996],[127.0371599988953,37.0561098977008],[127.0388899971653,37.054285699525],[127.0392657967717,37.0518386001276],[127.0360743999631,37.048174003792205],[127.0297588974546,37.0479073024829],[127.0306616990972,37.0475276996232],[127.0306692995888,37.046312799678205],[127.0343175985833,37.0468195994312],[127.0360191968817,37.0449439013069],[127.031445198627,37.039612003273795],[127.0303017997704,37.040683202202594],[127.0302508994462,37.039733000523],[127.0310179990042,37.0383156992784],[127.0328726976618,37.0378278994807],[127.03363849872669,37.0365943985189],[127.0346117996031,37.0365878985576],[127.0343578005303,37.0378427987434],[127.0355099993781,37.0378350987511],[127.03587550057901,37.035194296899704],[127.0374280990264,37.0350684970255],[127.0391700999765,37.032124398377],[127.0408336027527,37.032103595242496],[127.0439947044724,37.0358196962723],[127.0501317985293,37.032090999183104],[127.0517947983402,37.0320812991956],[127.0517938983411,37.0312800999968],[127.0497397989213,37.0301866010875],[127.04761779596849,37.0273284000177],[127.0513312980406,37.027339699294195],[127.0516470977248,37.0225846040493],[127.0482304998124,37.019345505934],[127.04533649653331,37.0186670988399],[127.0469116991725,37.01837719919531],[127.04754050055979,37.0169568979168],[127.0478382002621,37.0180709968027],[127.05320259489771,37.0202253946483],[127.0555007925995,37.0132950015787],[127.0581263979425,37.0112763993034],[127.05827259779629,37.0089105016693],[127.0543411968836,37.0078952977355],[127.05694729755601,37.0086807963968],[127.05837679827401,37.0051013984972],[127.0580490987337,37.001481500773394],[127.0596484988169,37.0023348983436],[127.0594714992768,36.9998446992414],[127.06159479824089,36.9988540997088],[127.0585953989015,36.995293796125296],[127.0663652979326,36.9935105954533],[127.0672996969982,36.9917482972156],[127.0653706969624,36.988603997094906],[127.064858198002,36.9839299007671],[127.0631820977586,36.979226500544],[127.0631116970761,36.978236499432],[127.0649967995816,36.976299099527395],[127.06527799894951,36.974314097626504],[127.0693438966782,36.9735248992446],[127.0709876976214,36.9721366981735],[127.0696202001039,36.9697902975284],[127.07185119935549,36.9712202958965],[127.07347420188691,36.9706305949795],[127.0742678010933,36.9715092941008],[127.0803918974047,36.9692660954028],[127.08232579929901,36.9707397965878],[127.08449710053179,36.9699524963134],[127.0871356995208,36.9716738974873],[127.0879379008624,36.971189997189],[127.0883121015973,36.972142598199696],[127.09246819744119,36.9748264955158],[127.09413429793409,36.9731509964132],[127.09878859700761,36.9760034954645],[127.10200599550551,36.9753328944427],[127.1045425948958,36.9729708949053],[127.1052868013876,36.9735139990446],[127.1043426026062,36.974040101715204],[127.1044423025065,36.9768489989063],[127.1054693014795,36.9781709975843],[127.1067389024621,36.9781360983948],[127.1077748006155,36.980339299817494],[127.10869780051951,36.9802578999893],[127.10777480161501,36.9803393019078],[127.1081629008863,36.983930699151905],[127.1091026009844,36.9831881994083],[127.10974880033821,36.9846631979333],[127.1115829024088,36.984088999226195],[127.1127943011664,36.9862843003501],[127.1113391006996,36.9877859996058],[127.1115236012127,36.9888331993999],[127.1125054002309,36.9889777992553],[127.11254770075449,36.9901768989671],[127.1134670001922,36.990729200119695],[127.1123214003937,36.9911030005667],[127.1128124005642,36.994218000148095],[127.1102449000972,36.994514301113895],[127.1094392009029,36.9954355001927],[127.1100200005585,36.995908901879005],[127.10941969962491,36.9944621009808],[127.1076805013641,36.994805400637496],[127.10897170058429,36.9975357997263],[127.1082160001773,36.996950000726095],[127.1072162012471,37.0005605990774],[127.10880860080191,37.0008865001966],[127.1076993010948,37.0029293002293],[127.1062656011033,37.0026783007492],[127.1069395003051,37.0060670002744],[127.1045314005887,37.0059679007121],[127.10478260049199,37.0073437005441],[127.10281720031121,37.0061581013043],[127.1011421006073,37.009076199671206],[127.1025664009965,37.0092340005518],[127.0996819011026,37.0093493012404],[127.0987255001523,37.010189000675496],[127.09755520030801,37.0097237004785],[127.09683160047881,37.0109094002699],[127.094225101136,37.0117866997427],[127.0932609051604,37.015508598687795],[127.09750250091881,37.0163579978384],[127.0989209008558,37.0152479988554],[127.09956490041701,37.0160978993377],[127.100318501214,37.015711499024704],[127.0999175007035,37.016533400253],[127.1008096003969,37.0182720000628],[127.0992639993031,37.019048600805796],[127.09869309987401,37.018550501303906],[127.09669840068169,37.0200351002595],[127.0966693007108,37.021029999264606],[127.0987806011164,37.021752900196404],[127.0984740001615,37.0232139000161],[127.097723299739,37.0217718011597],[127.0951937982286,37.021856301792106],[127.0924358999859,37.0206374027987],[127.0899502024716,37.021795101641],[127.0895720024541,37.0230813009735],[127.08639550058619,37.0238655019783],[127.0844764024058,37.0268832989603],[127.08671800442771,37.0284819010241],[127.08580520294369,37.0308251004683],[127.0870578025499,37.0324168013668],[127.0857938019561,37.033477101832396],[127.08734870040121,37.035469899839605],[127.0853501007999,37.0367497020503],[127.08510060053881,37.0377572014955],[127.0835100004402,37.0360549026606],[127.0803140021043,37.037184601850505],[127.0798127983814,37.0397812026122],[127.074029500203,37.0396256034728],[127.0720225999726,37.0383118027349],[127.0712326008099,37.040992703780894],[127.06902410301839,37.0428939018797],[127.0689498026256,37.0456813016027],[127.0669761038397,37.0478218999917],[127.0709221998936,37.0496341981794],[127.0734738001194,37.0481542983409],[127.0750747993429,37.0530097941979],[127.078952297484,37.052369394288505],[127.0777266987708,37.0466910989851],[127.080018099323,37.048464897799],[127.0867736004967,37.0493933996382],[127.0800181044837,37.0484649032689],[127.0809455035563,37.0516880000458],[127.0797307032303,37.0536019999987],[127.0813036016574,37.0558514977492],[127.0831871008275,37.0555430990369],[127.0833656031234,37.056752600151405],[127.0830626034264,37.060385696518296],[127.0813872033658,37.0626121986342],[127.0816396031134,37.0644588967875],[127.0829447018083,37.066247394999],[127.0870114977415,37.068461892784505],[127.0903511021652,37.0607158958999],[127.0901145012788,37.061871500156],[127.0925298988634,37.0633797986477],[127.09245760005591,37.0624010987029],[127.0942382011077,37.0658220982529],[127.0917065010745,37.0673624004375],[127.09266860011239,37.0688352989646],[127.0944149004754,37.0681350985707],[127.095867299023,37.0695710971347],[127.0998996002779,37.0702858973193],[127.1010491034756,37.073544597209896],[127.1003178025341,37.0784386013399],[127.0977496009867,37.07708890493],[127.0949858007761,37.080125703154806],[127.0917325027534,37.0788732027669],[127.0912530036466,37.0841089997391],[127.09303750167169,37.0886062999838],[127.0941284005808,37.089412799177296],[127.0947776000806,37.0888025999594],[127.0944739005874,37.0894969998466],[127.09586870237389,37.092171800278805],[127.0933014019844,37.095482002233496],[127.0920008984541,37.095202802945906],[127.0896241000538,37.0968627008981],[127.08973680015049,37.0981765005616],[127.0895276994418,37.0968680014034],[127.0875871991009,37.0985775012827],[127.0856075008045,37.0969269028931],[127.0844954019166,37.0986584011616],[127.0860538009038,37.101912301347],[127.0841674027902,37.1033526999066],[127.083124603833,37.105425297834],[127.0821807024097,37.1120542009945],[127.0785133032055,37.112364501257396],[127.0786251030937,37.114292299329605],[127.07801860026119,37.1135015008052],[127.076969101255,37.1159211986907],[127.0780571003547,37.116145698591],[127.0784562046072,37.1172329006451],[127.077542201229,37.1180927023155],[127.0774185014795,37.120476700422195],[127.0732000025992,37.1218306023174],[127.0737591012664,37.125290002268],[127.0720946013773,37.1265659025129],[127.0723188011531,37.1292150998637],[127.07136760100491,37.1295906006499],[127.0721188004928,37.131241799615395],[127.0729292001688,37.1308533999325],[127.07359260045959,37.133338498166204],[127.0745911991854,37.1314742993156],[127.0781643002962,37.1315784000121],[127.0745912027593,37.1314743017506],[127.0735926037579,37.1333384998864],[127.0758621014884,37.1358025974223],[127.0781807991697,37.1353589978659],[127.07817150017699,37.133101399068],[127.07878200022171,37.1357678985258],[127.0808981999231,37.135792399146],[127.08245460027031,37.1346845997735],[127.0829053997118,37.136109002222796],[127.0817289995852,37.1355216006005],[127.07830300306401,37.1369092018779],[127.0782236031434,37.1383663004208],[127.07694820111121,37.139574700293494],[127.07734520072799,37.140675699724504],[127.0824920988749,37.1415217972653],[127.0836727989444,37.138870499461305],[127.0837903016106,37.139985800420895],[127.082118099994,37.1417981013904],[127.07862730000359,37.141834601137006],[127.07836100051131,37.14352619959789],[127.07977679976321,37.1441149993719],[127.0804238003011,37.1436309995692],[127.0816253004376,37.144721098636396],[127.08318919887371,37.1442231991343],[127.0830114003363,37.1447437995596],[127.0870021989152,37.1426150994926],[127.0858641990261,37.1415642995908],[127.08603840001561,37.1406490983441],[127.0870022008884,37.1426150991524],[127.08908630072101,37.142664198845395],[127.087311800664,37.1430554001476],[127.0878964000794,37.1440435991594],[127.0903469005172,37.145316098604205],[127.0916570038965,37.145181099514204],[127.0904455020784,37.148266801275504],[127.0913512011727,37.1492667002756],[127.09130250077929,37.150963400765804],[127.0898211018189,37.1508570010035],[127.08910950307241,37.1526572022974],[127.0863843995334,37.1516866022944],[127.0846222012956,37.1521421018389],[127.0827395031783,37.15403039995061],[127.0820427042981,37.156632999440596],[127.0829591033817,37.1582544978191],[127.0870098007,37.158805801771805],[127.0841458007218,37.158868402109],[127.08352910133851,37.159794601182796],[127.0845247007807,37.1615177999103],[127.0825608004606,37.1617204004248],[127.0815040001465,37.16582790037209],[127.07860290304761,37.1666298995701],[127.0808909010715,37.1690834974713],[127.0823016011897,37.172497899144204],[127.08415410228851,37.1718207999785],[127.08448640239631,37.1726774007113],[127.0826531013664,37.1736025998782],[127.0828940004873,37.174624401950396],[127.0802105031708,37.1750683015065],[127.0801646005203,37.177094001428095],[127.0778420973324,37.1734956034347],[127.07467150050299,37.1738767030536],[127.0691703060042,37.177288299642],[127.0641807033215,37.1827836035746],[127.06333600358441,37.1865949008847],[127.0648999020893,37.1899668003247],[127.0626162026685,37.1903881014189],[127.0620210032637,37.191672200134796],[127.0625822027025,37.193117898689096],[127.0611918001268,37.192821100706205],[127.060486701256,37.196054002233595],[127.0603408994202,37.194613401701204],[127.0594150973635,37.196461101053],[127.0606804978814,37.191730201578004],[127.0573088004038,37.1914533000704],[127.0564048000207,37.193151200362905],[127.0573087987017,37.1914532999027],[127.0547047007396,37.191137200905104],[127.05423230098809,37.1918105022976],[127.0522804005487,37.1916567018565],[127.0517097011194,37.1924545010587],[127.0521250001739,37.1936530005303],[127.0472044002448,37.1962417000276],[127.0457189004626,37.2000897990044],[127.0473113988701,37.2012485978456],[127.04964000042679,37.1988130001009],[127.0494740007847,37.201394399693996],[127.0484168004372,37.201247400377596],[127.04889220047559,37.201915200103],[127.0476088013916,37.2054120968888],[127.0498870024728,37.208379696441],[127.0514084009514,37.208725296095395],[127.0500738013081,37.2087942020117],[127.0483831029988,37.2101714006345],[127.05066990071201,37.2121036987022],[127.0508627009658,37.2144443986819],[127.0523275001042,37.2146841001766],[127.0491196008728,37.2147548028235],[127.04801740193311,37.21695300229629],[127.0467882986922,37.216463501775806],[127.0429585007303,37.217170401615],[127.0416328007441,37.2165354016069],[127.0407453016316,37.21820669993561],[127.0373782019186,37.2198047036733],[127.0357260005943,37.2220040026307],[127.0327287988463,37.2205596010364],[127.0314581984865,37.2177831007837],[127.02975290019181,37.2174281011387],[127.0287883011564,37.2188720996947],[127.0290076011597,37.2221395011967],[127.02672509593759,37.221000003337],[127.0258906981399,37.2194892970252],[127.0293875948323,37.2173912989887],[127.0275058960074,37.213140001288906],[127.02876069670961,37.211156100207],[127.02717509829519,37.2080793032838],[127.0245168991509,37.2069027032299],[127.0209043027635,37.2079362021964],[127.0202573009514,37.2097774013191],[127.01889219948049,37.2096384006122],[127.0194213986081,37.2074705002405],[127.0164419995883,37.2054563997709],[127.0178490004933,37.2027038968274],[127.0191457020939,37.2036155973994],[127.0222489993254,37.2024889986876],[127.0222505994904,37.200871799562],[127.02340739998449,37.200212799385],[127.02549230115869,37.204414697118004],[127.0283354983155,37.2042901972425],[127.0302065989546,37.2019467990809],[127.02947639944249,37.2004647993612],[127.0313036976152,37.1996837001423],[127.0303144986044,37.197272002554],[127.0294674994514,37.196421003405],[127.0268720020469,37.1964709033551],[127.0265312998703,37.194856899639696],[127.0274814999588,37.1934093997249],[127.031450097065,37.1940725985922],[127.0319214965936,37.1899053027595],[127.03128529697189,37.188363003270304],[127.0279057969633,37.1873840026357],[127.0304987947425,37.1816157022039],[127.0265614991508,37.1788530983546],[127.0290440043395,37.179433396689504],[127.03358410015579,37.176394699628005],[127.0356015005586,37.1778837000773],[127.0349277009023,37.1788625001425],[127.03550080032919,37.1804656985393],[127.0395302977116,37.1820307968452],[127.0399611995356,37.1786467996491],[127.0409389996333,37.1791357993241],[127.0401297984642,37.1773561992105],[127.0405544979551,37.1759418977827],[127.0423508991438,37.1764446992592],[127.0420616995376,37.1755730997168],[127.043487298112,37.1745116007783],[127.040424598085,37.1709517027729],[127.0374972978408,37.1710525003228],[127.0401619013778,37.1702894987206],[127.0417068997773,37.17215569871],[127.0426364989032,37.1671494018607],[127.04177009891609,37.1661256991934],[127.0426365003352,37.1671493985825],[127.0459496991758,37.1672083973157],[127.0474575976679,37.1645846999394],[127.0454322977012,37.163115999625205],[127.0454651967784,37.1592370993162],[127.0415954001824,37.1582061012398],[127.042309998403,37.1570249993228],[127.0409413992895,37.1556249996827],[127.0415187003554,37.155339399389604],[127.0411223014768,37.155778000100696],[127.0427037998748,37.1572563997712],[127.0431656998858,37.153199098326304],[127.0487001943513,37.1502969012285],[127.0464423964508,37.1474706036736],[127.0426570002362,37.1504573006869],[127.0421138994985,37.148169401452],[127.0405678010446,37.1488137008077],[127.040886198947,37.149781401984],[127.0405402979149,37.1464140996068],[127.04192519958619,37.1458259987705],[127.0426043993269,37.1430005001113],[127.0420819995036,37.1429246998486],[127.04322209876419,37.1427346996677],[127.0434699986846,37.1404999995457],[127.0446089975456,37.139739700306],[127.04674249999279,37.138809297784896],[127.0474486009766,37.1392784000732],[127.0473774010478,37.1414968978547],[127.0504046982554,37.1403236989114],[127.0508639977961,37.1384975007376],[127.0479604985025,37.1357901984529],[127.050139398113,37.134241000167805],[127.0505341994829,37.132607996691],[127.0528850988737,37.1320111992678],[127.0544351975279,37.1300325995923],[127.05394269802039,37.1282141014108],[127.0518472982507,37.1276861010169],[127.0510875990104,37.1256433030597],[127.0482791974561,37.1274295025256],[127.0488110990427,37.1245555027282],[127.04697179844119,37.125819802285804],[127.04324819843009,37.1246184023843],[127.0405015973139,37.11999079969149],[127.04794939226379,37.1144075996028],[127.0443547959153,37.1045084076423],[127.03964810062199,37.1050995070512],[127.0333975068726,37.108033704117],[127.0315971983887,37.1059305024152],[127.0287803962142,37.106778303112804],[127.0284333989458,37.1057784985418],[127.029844197535,37.1037955005248],[127.029123198256,37.1029140014063],[127.0295729981712,37.100026701241504],[127.0267938963602,37.087320295202204],[127.0220484011057,37.0799225026],[127.0191914023804,37.0780139055148],[127.0169853958647,37.0781988066692],[127.0104422964254,37.073033602867305]]],[[[127.1349471992798,36.8357208000158],[127.1375011983514,36.834601500032996],[127.1380206998938,36.8324791989508],[127.13900929987929,36.8324388988817],[127.1447473999637,36.8260473996961],[127.1449301007371,36.8275632998805],[127.1490306974558,36.8272833991319],[127.1485805990213,36.8250743999512],[127.1501748985785,36.824678200129],[127.1493377989402,36.819549899076],[127.1507347013001,36.8211807993798],[127.153249800282,36.8214836991338],[127.1557669001748,36.824078999738894],[127.1563503008544,36.8235264994079],[127.1571220003697,36.824723499688595],[127.1591358002361,36.8249056991323],[127.1606470002378,36.826049399820704],[127.16096250069809,36.826746299891106],[127.15991840101279,36.8267633006323],[127.1589761019551,36.82857459882101],[127.1609338999973,36.8298103975852],[127.16234230015941,36.8274832999778],[127.16220889969489,36.828162300889204],[127.1616102002936,36.827789801261694],[127.1621633006262,36.830713700328495],[127.1615727003297,36.8302172005695],[127.1614861988099,36.8308893004636],[127.15888820002361,36.8285234002402],[127.1569062005878,36.829248601313196],[127.15593870156509,36.8331490984435],[127.1574462010657,36.8354028976143],[127.15906369944821,36.835844697172504],[127.160090100206,36.8341693971835],[127.1620901041772,36.8351961975052],[127.1593866044624,36.836128001266005],[127.1573049041282,36.8392325037557],[127.15584790209179,36.8393730039789],[127.15437610065689,36.8443975999989],[127.1527513986712,36.84525490179],[127.1529017989444,36.8444048005436],[127.151484899484,36.8441833002872],[127.15116139992341,36.843018900922694],[127.1480541969682,36.8437863991035],[127.14888649589041,36.842296599612695],[127.14762399715289,36.8391126027967],[127.14572219905469,36.8391952027141],[127.1440572995495,36.8419036007023],[127.14004939818429,36.8393626018091],[127.1401562985974,36.838379000606004],[127.13760259994159,36.8378117005331],[127.1375610983669,36.8364988003648],[127.1359173000107,36.8365467003169],[127.1349471992798,36.8357208000158]]],[[[126.9893406977744,37.2720684006455],[126.9898212988692,37.2682132002835],[126.9888560996184,37.2679658999022],[126.989821299485,37.2682131987105],[126.9908329984733,37.2666806002431],[126.9895237996936,37.2664494999882],[126.99015659894111,37.2649610997559],[126.9893449995312,37.2642918999867],[126.9904577988514,37.2612211995718],[126.99002759596151,37.259905798681196],[126.99182669956281,37.260367799441],[126.99337519993911,37.2581129999284],[126.99451929995999,37.2589646988997],[126.9966286994126,37.257655197232104],[126.9976669018065,37.258727298568395],[127.0019889017786,37.2582166995827],[127.0020844011353,37.261527096658],[127.0047344007414,37.260185898315704],[127.00434710065001,37.261787799503],[127.00546300125731,37.261965100109094],[127.00301110070559,37.2628923003553],[127.00198690076971,37.261670701464105],[127.0020791998175,37.263797000662194],[127.00193879925021,37.261653402159],[127.0003854001114,37.2644630008162],[126.9992403001643,37.2645702005494],[127.0002000003859,37.2662299990825],[127.0016536003927,37.2647608996777],[127.00179730073471,37.2663743988678],[127.003033302422,37.2661900995594],[127.00251610117009,37.2666526006017],[127.00499700100781,37.2695844000146],[127.00493900073849,37.2709853001453],[127.00369220086,37.2707048007588],[127.0038644005647,37.272337800036304],[127.0029944008036,37.272699000087506],[127.0029595000869,37.2738626004213],[127.0008599988078,37.2725463008494],[126.9990634006044,37.2724181009776],[126.9987291001279,37.2744473002603],[126.9978159995129,37.272415900743596],[126.9951673991778,37.273785401256305],[126.9967739993002,37.27261999956281],[126.997687399293,37.2709766992363],[126.9973211996592,37.2700203001927],[126.9951633009456,37.2704394009246],[126.99463299959929,37.2715983005009],[126.99328559870139,37.271065000597304],[126.9919575000295,37.2687555029068],[126.9905471996964,37.2683957037275],[126.9893406977744,37.2720684006455]]],[[[127.1431523994558,36.8060990005847],[127.1439162987317,36.8054603002734],[127.1434497998555,36.8043105986429],[127.1446236988517,36.803140999524196],[127.1446243007759,36.8043123990493],[127.1461217991063,36.803314399632995],[127.1463696002463,36.8016176991616],[127.1479882001112,36.8026317991074],[127.14917489952701,36.8027624990243],[127.1493329001338,36.801880199139596],[127.14917490092691,36.802762499322],[127.150398799703,36.802932399152105],[127.1505508001526,36.8019833991645],[127.15160860016441,36.8030795989542],[127.1536586005424,36.8028597992759],[127.153262701128,36.8044822990465],[127.1540840014129,36.8056673985214],[127.1534539007521,36.8062405996993],[127.15609810074699,36.8063508985458],[127.15607470064971,36.8080303996014],[127.1573846005932,36.8093310997287],[127.1561121006947,36.8095177996978],[127.15626070138221,36.812430001714596],[127.1548219019891,36.8142464002811],[127.153103201804,36.814867000477],[127.1527616010231,36.8186462000624],[127.1500891998688,36.818505700069906],[127.1496379996235,36.816565600717],[127.1460325994304,36.8158551003228],[127.1466627997649,36.8138866995634],[127.1483191996805,36.8148024988633],[127.1494903985093,36.8135882000776],[127.1480425986989,36.8133216996774],[127.1490284983597,36.8121990986835],[127.1474720990511,36.8100996000395],[127.1472122995498,36.806641401102],[127.14543240018861,36.8071924010537],[127.14539589968939,36.806465000536505],[127.1431523994558,36.8060990005847]]],[[[127.11083169694591,36.9221407010969],[127.1134398981863,36.9184039982664],[127.1111525024725,36.9211762974945],[127.1123508012742,36.9215670971037],[127.1139436014651,36.919128697268],[127.11652149888721,36.919732596664105],[127.1178810975276,36.918765797630904],[127.11799469741399,36.9156262007705],[127.1144893949003,36.9131950996847],[127.1168205961182,36.9089674008947],[127.1130830988075,36.9074971017515],[127.1116264002642,36.9084772007714],[127.110288198396,36.9077459988248],[127.11178249690171,36.905403801167004],[127.1112633978823,36.903866398477895],[127.113799198983,36.9026765984656],[127.11407969870251,36.9016559994862],[127.120578397269,36.9024769972516],[127.1216308966416,36.8996122991081],[127.1245194012667,36.8991205982158],[127.1278541004789,36.9001667979409],[127.1289797004486,36.8983152981009],[127.1303543008402,36.8987297982123],[127.1331419028711,36.9010550999974],[127.13268240230629,36.902252400679004],[127.1332850022162,36.9034941003911],[127.1301065036847,36.9059548989262],[127.130883202908,36.908958995922106],[127.1357950995905,36.9081990974835],[127.13812339782619,36.9059469979674],[127.1391242005009,36.9061820976188],[127.13692190358381,36.908611500275],[127.139732401438,36.911889698924305],[127.1414765009921,36.9113786991809],[127.14382820114061,36.9120001995811],[127.14073350149499,36.913832202890305],[127.1412323000585,36.916835500156495],[127.1402422006167,36.9161321009445],[127.138138100586,36.9175066004169],[127.13755900044879,36.9205629992099],[127.13940100867511,36.920645101057204],[127.1385162049003,36.922346405272],[127.134408602588,36.924798803563],[127.1343170026796,36.9275171008447],[127.13105660319819,36.9273494010585],[127.1271940037788,36.9305430023095],[127.12761999877279,36.927077001533],[127.1267964995963,36.9271624014476],[127.1244860019068,36.928557400052604],[127.1256519004624,36.9304990019905],[127.1236198018661,36.930416802037],[127.1227904025718,36.932341802025],[127.1235452971755,36.9285388020309],[127.1210140997067,36.927489903079795],[127.11881050191029,36.9299421006276],[127.117195301341,36.9298378007219],[127.11682559866139,36.9323531997871],[127.11696839851861,36.931246000894305],[127.11498229747339,36.9301749999752],[127.114948697787,36.9256703035385],[127.111689697591,36.925893802478896],[127.11083169694591,36.9221407010969]]],[[[126.9630101986156,37.3017510997573],[126.9649833997668,37.2996519996519],[126.96483780000399,37.2988578996842],[126.9649381002021,37.2993945992703],[126.9670065991932,37.2978785001998],[126.96802689884589,37.2957250996456],[126.96989720001261,37.2967485996485],[126.97248500011601,37.294887699642395],[126.9723519002397,37.2955963993877],[126.9743516999974,37.2958927996353],[126.9753963000253,37.297121499380204],[126.9765552004077,37.296354599533004],[126.9766449003594,37.2969751995429],[126.97917630024011,37.2973696983954],[126.9786895006448,37.2997465993139],[126.9793204000139,37.2999148991456],[126.97981330035941,37.2988467995917],[126.9804130011621,37.3005001002571],[126.97976950016161,37.301625200762494],[126.97885640033999,37.3009829008885],[126.97862020022589,37.3026296007092],[126.97612409997201,37.3039385016935],[126.97552610057,37.3054182002138],[126.9717121997766,37.3063061006111],[126.9704881003923,37.3052292009342],[126.96883799873801,37.305210100657895],[126.96685269994501,37.3031512005611],[126.96637539929121,37.30375010035],[126.964665598919,37.302114600078106],[126.9630101986156,37.3017510997573]]],[[[127.0111648992216,37.2668240989021],[127.01220199916091,37.2663223999244],[127.010925499461,37.2655554001708],[127.0120796991432,37.264746899916396],[127.0122756003957,37.2627258989554],[127.0137707997619,37.262708598673505],[127.0136184002624,37.2613522988296],[127.0178261020362,37.2650260978549],[127.02025520022009,37.2651307989235],[127.021132400719,37.264426500346296],[127.0197737996463,37.266084200359],[127.0179231999861,37.26514310022171],[127.01595170079361,37.2656383006947],[127.016836700611,37.267447199246],[127.01784860009279,37.2670829990884],[127.0185833004116,37.267696299269396],[127.0173942994314,37.269764800198594],[127.01548049999249,37.26816790102],[127.0144919996715,37.268328500360504],[127.0150715986016,37.2665734008281],[127.0140106996625,37.265821001580505],[127.01298269869099,37.2669768017478],[127.0111648992216,37.2668240989021]]],[[[126.9824245987068,37.2838002001231],[126.98607659869971,37.283219699562096],[126.9865713951832,37.2800995012334],[126.9878799024024,37.2798118960532],[126.9905217003157,37.280691199741],[126.9902108004632,37.2813168995964],[126.9915480010271,37.2836038994754],[126.99267430068511,37.283950499745],[126.99215460016251,37.2837627005096],[126.9913762004585,37.2858478008642],[126.9888241999029,37.286515401264296],[126.9897553997919,37.2856684001662],[126.9884256000012,37.2842712006685],[126.98613860029731,37.2846902006558],[126.9854311005207,37.2840783011275],[126.98360009836361,37.2850275013955],[126.9824245987068,37.2838002001231]]],[[[127.0279026993303,37.262283600196504],[127.0286311991688,37.2613209992668],[127.0294276998168,37.2615662997215],[127.0297741009316,37.2596112992045],[127.03009850094159,37.2604615992479],[127.03144810072291,37.2602064992324],[127.0322883013783,37.2617730995139],[127.03230640018549,37.262337800879294],[127.0322882999159,37.261773100386996],[127.0306556993062,37.2618138005555],[127.0283490998483,37.262896600529395],[127.0279026993303,37.262283600196504]]],[[[127.13001299747141,36.873506199116704],[127.1307589036207,36.874232797933004],[127.1413435019658,36.8744232973932],[127.142764000745,36.8753054965668],[127.1466279005172,36.8756782991074],[127.1471563013943,36.8767263013908],[127.1463863999748,36.8773106015634],[127.1441391022221,36.8765561023179],[127.1425428027909,36.879552501863905],[127.1396411022047,36.876541703820195],[127.13841259636699,36.880003605057404],[127.134377998763,36.8751880067975],[127.1295920996345,36.876685601013705],[127.12885079982979,36.874795499742596],[127.13001299747141,36.873506199116704]]],[[[127.0091461994144,37.2450248000315],[127.0111494002813,37.245922698934905],[127.0119849994457,37.245233599624],[127.0130710007697,37.2411156997245],[127.01198500074389,37.2452335996133],[127.0130366008091,37.2458644004991],[127.0091461994144,37.2450248000315]]],[[[126.9485735982304,37.3221283012792],[126.9490435000408,37.320612299752604],[126.94937670014811,37.3210422004886],[126.9485735982304,37.3221283012792]]],[[[127.1030902998242,36.7942655000568],[127.1037337995492,36.7927739992219],[127.1042741008729,36.7930793992846],[127.1037199012684,36.795250100838295],[127.1040711993655,36.7942659007258],[127.1030902998242,36.7942655000568]]],[[[127.13459909941581,36.8015551001264],[127.1348791997991,36.8011833991232],[127.1356346013342,36.8015711004109],[127.13459909941581,36.8015551001264]]],[[[127.0132321998275,37.2389633990798],[127.0143043002713,37.239641899569],[127.0150281007563,37.240078601228994],[127.0143042995364,37.239641901198304],[127.0132321998275,37.2389633990798]]],[[[127.03604969924841,37.0588899999054],[127.03605110000869,37.058728999038],[127.03627900128129,37.060523200313895],[127.03604969924841,37.0588899999054]]],[[[127.04146989873959,37.251476700761295],[127.0417562002084,37.2514972998612],[127.04164829956791,37.2519173007449],[127.04146989873959,37.251476700761295]]],[[[126.9442546993516,37.3720175008757],[126.9439104998227,37.37204350013489],[126.9442284001438,37.371597199700496],[126.9442546993516,37.3720175008757]]],[[[127.1020370996203,36.7921303005288],[127.10315200013099,36.792148899847],[127.1031684998757,36.7925571012805],[127.1020370996203,36.7921303005288]]],[[[127.004808898801,37.2639329002559],[127.0050084998366,37.2638413996808],[127.0052177008411,37.2638927015506],[127.004808898801,37.2639329002559]]],[[[127.0509284995941,37.1964428003467],[127.0518106001443,37.1969508000532],[127.05178809985219,37.19697880018099],[127.0509284995941,37.1964428003467]]],[[[127.1284670984404,36.8771884989305],[127.12887870030511,36.8773664002212],[127.128757799737,36.8773142005266],[127.1284670984404,36.8771884989305]]],[[[127.1457757986218,36.871291399592295],[127.146340700444,36.8714637991255],[127.14586870007389,36.8713198010214],[127.1457757986218,36.871291399592295]]],[[[127.1410172985762,36.9181257004163],[127.1411690001218,36.9178986990933],[127.141198300358,36.9179332002154],[127.1410172985762,36.9181257004163]]],[[[127.0336232000434,37.2609699003171],[127.03366680006431,37.261073500315],[127.0336530000136,37.2610479002391],[127.0336232000434,37.2609699003171]]],[[[127.1435054993193,36.8705875009744],[127.14350550066891,36.8705874994068],[127.1435055008921,36.870587500296196],[127.1435054993193,36.8705875009744]]],[[[127.12929379959719,36.9218319991406],[127.1292938006795,36.921832000555],[127.12929379949689,36.921832000506605],[127.12929379959719,36.9218319991406]]],[[[126.9923901994445,37.2859731007389],[126.9923902001016,37.2859730994539],[126.9923902002978,37.285973100696],[126.9923901994445,37.2859731007389]]],[[[126.9926647994882,37.285382199915304],[126.9926648004389,37.2853821995514],[126.9926648003417,37.2853822002646],[126.9926647994882,37.285382199915304]]],[[[127.1070228994035,37.007721600342904],[127.1070229002237,37.0077215996887],[127.10702290017801,37.007721600617],[127.1070228994035,37.007721600342904]]],[[[127.13585029958661,36.9039048009812],[127.1358503000323,36.9039047990684],[127.1358503000993,36.9039048000096],[127.13585029958661,36.9039048009812]]],[[[127.148520599199,36.8249257000122],[127.1485205995146,36.824925699710604],[127.1485206002328,36.824925699881504],[127.148520599199,36.8249257000122]]],[[[126.9930098998557,37.2847164999471],[126.993009899959,37.284716499780004],[126.99300990009381,37.2847165002171],[126.9930098998557,37.2847164999471]]],[[[127.1033936998551,36.795199400117305],[127.1033936998674,36.795199399958705],[127.1033937001337,36.795199399988],[127.1033936998551,36.795199400117305]]],[[[127.1347490996366,36.9136318002475],[127.1347490996773,36.913631799716995],[127.13474910018509,36.913631799744095],[127.1347490996366,36.9136318002475]]],[[[127.0140762992705,37.245252799855],[127.014076300288,37.2452527998405],[127.0140762999182,37.2452528007775],[127.0140762992705,37.245252799855]]]]}}]}