{"type":"FeatureCollection","features":[{"type":"Feature","properties":{"interval":15,"stationId":"5896399353"},"geometry":{"type":"MultiPolygon","coordinates":[[[[126.9798155998339,37.2837885999621],[126.9814321993272,37.283561299017],[126.9811662995623,37.2820823989901],[126.98286499888961,37.2832822980506],[126.9847762969783,37.2827817985511],[126.986571397869,37.2800994963072],[126.98585010008719,37.277150598122596],[126.9878799024024,37.2798118960532],[126.9888932013891,37.2800731957919],[126.991716999767,37.278496697814596],[126.992418999065,37.2770068993044],[126.9939413989695,37.2778656984544],[126.99494039940481,37.275630999410694],[126.9961506000545,37.276110099342894],[126.99616280042049,37.2769993992762],[126.9981167008168,37.278826700388606],[126.99861730032481,37.2802296997185],[126.9980978005232,37.2806675999652],[126.9994330015971,37.282069900224506],[126.9990253012852,37.283582800271496],[127.00024970031549,37.2858570000652],[126.9989661004429,37.288286400030195],[126.99717600056479,37.2887148006057],[126.9952447004574,37.2910241001666],[126.9915212998058,37.2919316003796],[126.9898213996523,37.291161200724],[126.9885944001752,37.2929479009737],[126.9879584993471,37.29209560001431],[126.9885580988296,37.2903262007429],[126.98648949975211,37.2895439015007],[126.9853892008339,37.2910757000326],[126.9869784002727,37.2918788003013],[126.98523920024489,37.2912723005548],[126.9837732005522,37.2925903000093],[126.98602180139261,37.2935678002479],[126.98464530014749,37.2930960007349],[126.9839876002858,37.2938004005117],[126.98377319926921,37.2925902991415],[126.98671469937429,37.2890035997584],[126.9858445996273,37.2884642004421],[126.9858972996394,37.2864035019783],[126.9835014990169,37.286402601769105],[126.98360009836361,37.2850275013955],[126.9824245988739,37.2838002018417],[126.9798155998339,37.2837885999621]]],[[[126.9686809989756,37.3011301992817],[126.9693831984975,37.2994262996326],[126.9694418001943,37.3007829997478],[126.9711498984862,37.300870399660404],[126.9702112994064,37.2999048004884],[126.9713707992661,37.2991907995696],[126.9711825003126,37.2981643991539],[126.9731001011175,37.299513799435196],[126.97475300078851,37.2993184011333],[126.9742954004521,37.301695699981],[126.9729457004257,37.3030227003239],[126.9708444994077,37.3015178010728],[126.9696984001587,37.302181000461296],[126.9686809989756,37.3011301992817]]],[[[126.9984471996713,37.2656364001547],[126.99918990005041,37.2651972993729],[126.9992700010079,37.266610000594],[126.9984471996713,37.2656364001547]]],[[[126.9483956995502,37.3214351997535],[126.9487095002616,37.321310599901594],[126.94863840016599,37.3214437007125],[126.9483956995502,37.3214351997535]]],[[[126.98029269959841,37.2823702989286],[126.9803297003989,37.2823609987115],[126.98029269959291,37.282370301226194],[126.98029269959841,37.2823702989286]]],[[[126.9982399997585,37.2655242998199],[126.9983184000726,37.265386899648405],[126.99824000000389,37.265524300046],[126.9982399997585,37.2655242998199]]],[[[126.9992908992924,37.2893450002055],[126.99929090011811,37.2893449989716],[126.9995385008222,37.289405500250304],[126.9992908992924,37.2893450002055]]],[[[126.9982650997616,37.2671372002876],[126.9982651004137,37.2671371991482],[126.9982651007157,37.2671372000584],[126.9982650997616,37.2671372002876]]]]}},{"type":"Feature","properties":{"interval":30,"stationId":"5896399353"},"geometry":{"type":"MultiPolygon","coordinates":[[[[126.9572453995229,37.305832000422605],[126.9581120988255,37.3058299997407],[126.9638679977578,37.300608800899596],[126.9636093980164,37.2987263027821],[126.95882919849619,37.2962237998529],[126.9605936983074,37.2968244992628],[126.9587606996101,37.295378299880106],[126.9592174995601,37.2938933999253],[126.96053669985831,37.2940641991698],[126.9608402008093,37.2933193988017],[126.9628142988352,37.2941088980122],[126.9641341975153,37.2917507003704],[126.9619201006163,37.291132399204805],[126.9641341984022,37.291750698586505],[126.96888489871691,37.291470095044296],[126.9696626979391,37.2865710999433],[126.9680450962883,37.285171700008796],[126.96980529947061,37.283513299823504],[126.9695251993689,37.279231400734304],[126.9685716996965,37.2791782996694],[126.9690981995144,37.277797099185804],[126.97061560014271,37.2778266988502],[126.9729272993033,37.2761241998638],[126.97522720017231,37.2722892994573],[126.976666599659,37.272556199341395],[126.9791529992449,37.2716096996401],[126.97964679937999,37.269320299815],[126.9818576001858,37.2698057985781],[126.98829429939191,37.2677879975518],[126.989821299485,37.2682131987105],[126.9908329984733,37.2666806002431],[126.9895237997825,37.2664495004742],[126.9893923994838,37.2640995001791],[126.9887006996885,37.2639665997091],[126.9904577988514,37.2612211995718],[126.99002759596151,37.259905798681196],[126.99138950027509,37.2598087986257],[126.99228709937749,37.2581049003296],[126.99168829864591,37.258214199622195],[126.9935808002315,37.256992198165996],[126.99447929959449,37.2578643988086],[126.996628700512,37.257655197317],[126.9976669018065,37.258727298568395],[127.0011228983505,37.2585118987838],[127.0009279997554,37.2571425965556],[127.003879001016,37.2577626964805],[127.0047344007414,37.260185898315704],[127.00609540010511,37.2600228990022],[127.00623780071429,37.2590972994714],[127.0067203005964,37.262074199580404],[127.007505401029,37.2620440000586],[127.0067122995357,37.262522700716296],[127.0054630004398,37.261965100556495],[127.00552960037321,37.2625728999487],[127.0062646999833,37.2637897994492],[127.0072019006536,37.26369769993],[127.0036099018454,37.2641888015607],[127.003033302422,37.2661900995594],[127.0056570007467,37.2675707003039],[127.0067830004549,37.2702953001805],[127.00552800057609,37.2722471998525],[127.0058590002451,37.2729648991348],[127.006891800926,37.2721552003523],[127.0064404013774,37.2728637996437],[127.0077996017726,37.2733876001958],[127.0075462005145,37.2756427990714],[127.00890270206429,37.276539399417395],[127.00761180255351,37.2794918000327],[127.0088412008193,37.282991198598296],[127.008276101106,37.2837677998229],[127.00864520073691,37.2848482987424],[127.0114413006393,37.284989298758596],[127.0113518002583,37.2876862000479],[127.01060100107459,37.2887144005105],[127.01234870084541,37.293723801152204],[127.00999470040989,37.2945213006409],[127.0097196002648,37.2956145001194],[127.0072413005918,37.2951897008258],[127.0065659001141,37.2960619007103],[127.0052898008435,37.295840900807704],[127.0053819004613,37.296984100516504],[127.004160100204,37.2982754004914],[127.003041399715,37.2970449013032],[126.99815310130549,37.3001868014057],[126.9977869999545,37.29873340049021],[126.9960584005224,37.2988487007477],[126.9956682001606,37.300528700626],[126.9957807001388,37.298666601302195],[126.9947385000051,37.2984688014485],[126.9941073006363,37.299474300443],[126.99314110032451,37.298561100844104],[126.9922919003309,37.2987989005671],[126.9913406004409,37.301198400351296],[126.9908325001578,37.3006300007376],[126.99053409986661,37.301368900258],[126.9884862007898,37.3011779008533],[126.9876970013907,37.3022321001221],[126.9889780995362,37.302549802836005],[126.9873718994197,37.3023909028892],[126.9847706007388,37.3037872016685],[126.9846458999544,37.306066700783305],[126.98262349978991,37.3069506004342],[126.98185720055619,37.3061789012059],[126.97609609957671,37.305632004175706],[126.9731247025481,37.307401302406404],[126.9729423000001,37.309517601521],[126.97156819955029,37.3073511030305],[126.96770200012,37.3075135027764],[126.96613089639379,37.3086535049344],[126.9667715986132,37.3080201985398],[126.96547649990829,37.3065191000409],[126.9657255996592,37.305159601400405],[126.96324439844699,37.3051519026981],[126.9610071990902,37.303412503260404],[126.95962150047589,37.3039208027521],[126.9581812008792,37.3064155047651],[126.9572453995229,37.305832000422605]]],[[[126.93931069849289,37.3476821002242],[126.9402642980506,37.3425284994304],[126.9427764995817,37.3418854976794],[126.9446526004657,37.3438753983021],[126.945959299159,37.3441500980274],[126.9480942006194,37.3423927994964],[126.9478956009916,37.3475156990724],[126.9493644996584,37.346202999663106],[126.9502612000139,37.3472188991232],[126.95187400020491,37.3467126994766],[126.9509744011943,37.3488085004679],[126.9515825005862,37.3498897993866],[126.9539185003055,37.350056599217304],[126.95719300038701,37.3526316005237],[126.9565008005629,37.352512500670706],[126.95449680084491,37.3546992008017],[126.9543063007301,37.357594400982705],[126.9532364018035,37.358550000825204],[126.9532580982523,37.3562596019608],[126.9506892008212,37.3576025006179],[126.94958630131961,37.3594062004147],[126.950546901847,37.360642499544795],[126.9497108980343,37.3613683006876],[126.9492189990632,37.3601071001831],[126.9482678998057,37.359873500316],[126.9495862985604,37.3594061999503],[126.9494291991244,37.3543444996205],[126.9485725994888,37.353613199763295],[126.9492709987904,37.3531037002728],[126.94783240022899,37.3519456014309],[126.947844400217,37.3532681001084],[126.9469437995228,37.353339300674904],[126.9471630992186,37.3523506003938],[126.9460291998265,37.352358600776405],[126.9444346991376,37.3501152007337],[126.9427117994894,37.3492272006358],[126.94172279966999,37.349938500776],[126.9414964997359,37.3488726011254],[126.9391858995935,37.348346102158104],[126.940058499255,37.347907400132996],[126.93931069849289,37.3476821002242]]],[[[126.9353924991957,37.322808900086095],[126.9387557970876,37.321438298019],[126.9411980006989,37.321872999095895],[126.9430156988812,37.3212189997499],[126.9439566979402,37.3189937019752],[126.9407194992338,37.3193447003124],[126.9423526966563,37.315931399613994],[126.94050319798579,37.3145896997496],[126.9437305002417,37.314534897544796],[126.9452769998152,37.3130790995365],[126.9504778005317,37.3117953980248],[126.951349200106,37.313373499079496],[126.9523724004759,37.312139399470496],[126.954449899457,37.3144964986845],[126.9552155999598,37.3148440983677],[126.9559810002157,37.313888699348],[126.9569716004622,37.3150963989523],[126.95782730059541,37.3149108998709],[126.9578050016211,37.3165843007539],[126.9606929012442,37.318931300950204],[126.9578268002984,37.3254465015091],[126.9541668011843,37.325552102708905],[126.9534937018574,37.3275273007337],[126.9551658012153,37.329692199923095],[126.95344970057019,37.3300677008344],[126.9506742996606,37.3297241005611],[126.94997669984349,37.3286317012101],[126.94725219873389,37.328676900725],[126.9454160975785,37.327245401015304],[126.9406690002823,37.3272694016747],[126.9398844998763,37.326171901094],[126.93882979988359,37.327141400132405],[126.93819519865569,37.3250895009233],[126.9366013987671,37.3251680008482],[126.93657679949409,37.3231817002205],[126.9353924991957,37.322808900086095]]],[[[127.03104809846951,37.2126998984853],[127.0333018993406,37.2075535992563],[127.0350051987788,37.2066760991854],[127.0347310993855,37.2050262993496],[127.0361565988267,37.202819999265806],[127.0371722005787,37.202601799083595],[127.0366342004253,37.203365399809506],[127.0379419005725,37.203723000236096],[127.0370739017075,37.206395898148195],[127.04036290222301,37.2088829008929],[127.0386081006723,37.2085978017532],[127.0382166010638,37.2102004001506],[127.0389099993602,37.2108400008876],[127.0372403996432,37.210328000732694],[127.037309999467,37.209520000737],[127.0359067008703,37.2085031017539],[127.0359450008725,37.211430900306006],[127.0324817007142,37.211043601242906],[127.03104809846951,37.2126998984853]]],[[[126.93941309911389,37.369469500115],[126.9401248993756,37.3686122992638],[126.94653099901369,37.3675737989412],[126.9478029006307,37.3683705002613],[126.9473208007423,37.3694057995515],[126.9491670011402,37.3707102006386],[126.947623201941,37.3743806009009],[126.9456074039568,37.375996899284594],[126.9443604990832,37.3749280012631],[126.9430571998475,37.375944300734304],[126.94101240004521,37.3760612002711],[126.9414971992615,37.375102300697904],[126.9395243996014,37.3734903000813],[126.93941309911389,37.369469500115]]],[[[126.9312028998946,37.3567304999347],[126.9325481999071,37.3574351992015],[126.9339274006343,37.356455699272],[126.9335267004976,37.358491400157696],[126.9343576996666,37.3590981995509],[126.9350586993028,37.358354199352604],[126.9345772003317,37.3574477991419],[126.9358707005115,37.3572388995007],[126.9350587003344,37.3583541999707],[126.9357027001621,37.359627100454496],[126.9338000996527,37.359800800426605],[126.9335199996297,37.3574889001133],[126.9312028998946,37.3567304999347]]],[[[126.931640199119,37.3854745003184],[126.93127839926049,37.3839734009118],[126.9320767988506,37.3830100976774],[126.9341733004667,37.3835311982109],[126.9354920992271,37.3820734995878],[126.9351065995687,37.3814537000196],[126.9361086014213,37.3813873999368],[126.9354921013893,37.382073500929195],[126.9365546003268,37.3832324997702],[126.9353631004837,37.3833900001367],[126.9351640011898,37.3845913996495],[126.93412130082851,37.3850932999015],[126.9348889001938,37.3853151999785],[126.9337617008905,37.3882881005978],[126.9341037991712,37.3875481004807],[126.9331888989864,37.3862985006675],[126.931640199119,37.3854745003184]]],[[[126.97719399962149,37.2485407998622],[126.9789706001441,37.2479222996925],[126.980142800138,37.248715398859304],[126.9822194992305,37.2478935995119],[126.9826389010403,37.2483436996687],[126.98199920073921,37.2487153000463],[126.983024201272,37.249418500656],[126.9822979010469,37.251247900311505],[126.9811233002863,37.2504827009658],[126.9807790000494,37.2512435008784],[126.9779976990917,37.2500504001436],[126.97836339965501,37.2493161001931],[126.97719399962149,37.2485407998622]]],[[[127.0091461994144,37.2450248000315],[127.0111494002813,37.245922698934905],[127.0119849994457,37.245233599624],[127.0130710007697,37.2411156997245],[127.01198500074389,37.2452335996133],[127.0130366008091,37.2458644004991],[127.0091461994144,37.2450248000315]]],[[[126.9216726987113,37.4037876022685],[126.9230705987453,37.403286299314395],[126.92279189966811,37.4023903999396],[126.9237699000597,37.4011794994131],[126.9230800006924,37.4016400000398],[126.92441020030999,37.4019991997124],[126.9243931011696,37.402684199743305],[126.9216726987113,37.4037876022685]]],[[[127.01440659976001,37.265738999602505],[127.01542090087709,37.264979798856196],[127.0161734003984,37.266459999946505],[127.01440659976001,37.265738999602505]]],[[[126.9631902999428,37.2429844000083],[126.9643966003208,37.243386698808905],[126.96513610042109,37.2442364001133],[126.9631902999428,37.2429844000083]]],[[[126.9508536995769,37.3898861993072],[126.95121929984701,37.3894666987837],[126.9516314002266,37.3901459000166],[126.9508536995769,37.3898861993072]]],[[[127.0511495991696,37.1976493999539],[127.0509284999123,37.1964427998119],[127.0524614003764,37.1960592991839],[127.0511495991696,37.1976493999539]]],[[[126.9248609996731,37.349693000328],[126.9259727003979,37.3492330999164],[126.9258437003588,37.3498017004276],[126.9248609996731,37.349693000328]]],[[[126.9415202995198,37.3773787004445],[126.9411936998639,37.3767385995937],[126.9420351008696,37.3774419992366],[126.9415202995198,37.3773787004445]]],[[[126.97803249920669,37.3118256993836],[126.9784907998803,37.311805298631704],[126.97842300023251,37.312075500049],[126.97803249920669,37.3118256993836]]],[[[127.0108545994435,37.282079798766596],[127.0108546019665,37.282079799641096],[127.0108545990018,37.2820798014221],[127.0108545994435,37.282079798766596]]],[[[126.9382870983514,37.3833841000898],[126.9382870989065,37.3833840988894],[126.93828710125099,37.3833841001546],[126.9382870983514,37.3833841000898]]],[[[126.9683744985424,37.2802337005829],[126.9683940982887,37.2801824989715],[126.9683940998741,37.280182498665205],[126.9683744985424,37.2802337005829]]],[[[127.0142528995878,37.2396046012356],[127.0142529003227,37.2396045996063],[127.01430430072381,37.2396419004367],[127.0142528995878,37.2396046012356]]],[[[126.9916090982621,37.2738923004207],[126.99160909947271,37.273892298589],[126.99160910114061,37.2738923004792],[126.9916090982621,37.2738923004207]]],[[[126.9314224996064,37.3575131997973],[126.9314225003694,37.3575132001911],[126.9314224996796,37.3575132003619],[126.9314224996064,37.3575131997973]]],[[[127.03050239970631,37.2090954000992],[127.0305024002008,37.2090953993762],[127.030502400398,37.2090954003932],[127.03050239970631,37.2090954000992]]],[[[126.9570469999216,37.354606599113396],[126.9570470006956,37.3546066004943],[126.95704699993091,37.3546066001044],[126.9570469999216,37.354606599113396]]],[[[127.0140762992705,37.245252799855],[127.014076300288,37.2452527998405],[127.0140762999182,37.2452528007775],[127.0140762992705,37.245252799855]]]]}},{"type":"Feature","properties":{"interval":60,"stationId":"5896399353"},"geometry":{"type":"MultiPolygon","coordinates":[[[[126.8485992977515,37.4801411004078],[126.84936709977569,37.4778180994833],[126.8500093999199,37.4779926994753],[126.8507336001629,37.476019799325805],[126.85159309964111,37.4760051992467],[126.8519444999427,37.4741399998764],[126.8523183002754,37.4749455993028],[126.8530633999268,37.4743131998388],[126.854066900611,37.4747299998953],[126.8533486003801,37.4760311001783],[126.8549575993197,37.4775433985143],[126.8563663008655,37.4753918993329],[126.85831449891731,37.4778423968824],[126.8622026989314,37.4771687976792],[126.8632444978896,37.4765182983297],[126.8622778996611,37.4733747998343],[126.863360000378,37.4736295989889],[126.8654147993198,37.472432999549206],[126.8648730992133,37.470969999660504],[126.8656549995237,37.4711738996851],[126.8676197996698,37.4696656997425],[126.8685962003121,37.4697937997474],[126.86877890019649,37.470893799137],[126.869788399187,37.470293799737],[126.871458400371,37.4709542995978],[126.87131080117351,37.471792699637],[126.8734488003065,37.4726149999659],[126.87285460037549,37.4729505001126],[126.87444550000629,37.4742041994867],[126.8753940996985,37.4733369992087],[126.8761604001386,37.4744715997231],[126.8772462990527,37.4737395004552],[126.8787935985221,37.4708551003701],[126.8772864000293,37.4700456011796],[126.87674109923951,37.470946500327095],[126.8767608986763,37.469729200166604],[126.875925199512,37.4692433006525],[126.8749922996431,37.4667175997409],[126.8771438995252,37.4671058987659],[126.8770977995713,37.4656626002092],[126.8762674998333,37.464630301018204],[126.87523629905719,37.465206700249404],[126.8748631000294,37.4644035992421],[126.87587539970009,37.464395799040496],[126.8763042992712,37.4632178002185],[126.8753282002473,37.4626581007782],[126.87454959853879,37.4632795993162],[126.87424879882461,37.4595988998091],[126.8747683007212,37.4591459992686],[126.8762279992615,37.459885598529],[126.8776139978998,37.456785701604296],[126.877364498021,37.4554400976363],[126.88143559536441,37.4537959986657],[126.8773590996567,37.4483974993771],[126.8796470985596,37.448110998238995],[126.88077609928021,37.4461940977464],[126.88362889870041,37.4466322983207],[126.8884617989941,37.444383697610206],[126.8910898006694,37.4446684968333],[126.89477169783561,37.4424996990805],[126.8953043973029,37.4412129003673],[126.8944500981572,37.438829702750496],[126.8915681001911,37.4393715021303],[126.8884521990543,37.437326102273],[126.8878785994028,37.4360953993905],[126.88845220006941,37.4373260980954],[126.893812598005,37.4341487006589],[126.8940642955118,37.4292691954657],[126.8962044000805,37.431060098638106],[126.8972410990438,37.431111598586604],[126.89862949765539,37.429681300016895],[126.89881309716179,37.428305000006304],[126.897411097253,37.4259444990562],[126.898848998589,37.4238380998643],[126.8958958997557,37.4221404005671],[126.8953566997311,37.4197781018186],[126.8943336999677,37.4200117001046],[126.8948605993116,37.419265100553396],[126.8937567982377,37.4180385994513],[126.8947910967034,37.4166464994103],[126.8911236978627,37.4117054005982],[126.8965167991713,37.4043224989528],[126.8986134979895,37.4040468990062],[126.89843740126851,37.3979839972838],[126.9035834961224,37.4005470947207],[126.90506399652969,37.3961137972704],[126.9052912980035,37.3923997988565],[126.9036501969685,37.3910889976881],[126.90539630134761,37.3913255947414],[126.908612898131,37.387912798154204],[126.9115400981208,37.3869249977697],[126.91356949642099,37.3835508003638],[126.9132045967859,37.3809700029446],[126.91016739468971,37.3766908962076],[126.91423209683511,37.374283997838404],[126.9131291995895,37.3718334993575],[126.9157126974375,37.3723011993565],[126.9159515971986,37.369250302407394],[126.9150012969369,37.3683580967256],[126.9164004955377,37.3644892005945],[126.9114634966292,37.361883900520205],[126.9104854980173,37.3532694013713],[126.9097056962073,37.352248598232805],[126.9093813948507,37.3453835970533],[126.9149947957643,37.341760796118905],[126.9159335948255,37.3399059979737],[126.9149715957875,37.3339423039374],[126.90813110236431,37.3341062021054],[126.9093091004961,37.336632300272996],[126.9056673970577,37.3353395040424],[126.90813109574701,37.3341061992436],[126.9071614971967,37.3279807991447],[126.9052855985255,37.324181102889796],[126.9014329023782,37.322842104228805],[126.8976450929091,37.323944003750796],[126.8966359971477,37.3225862997762],[126.8989150992868,37.3219887991113],[126.89964029856161,37.3190689020312],[126.89772689249409,37.316344399237096],[126.8991049957779,37.313127898553596],[126.8962300986528,37.308863002818505],[126.8935653966556,37.3110888044927],[126.892343197141,37.3106400013164],[126.8913521969383,37.308809203007996],[126.8927215968875,37.3077504985539],[126.8931849964241,37.304654801649605],[126.8897927976529,37.3020366022021],[126.89072039966571,37.2999544997617],[126.8952387999505,37.3004213986644],[126.8963904989171,37.2992109976357],[126.9035732985612,37.301157596438905],[126.9064533973475,37.299826196263],[126.9117801001593,37.2990721997001],[126.910938001153,37.2992282999595],[126.9128087020453,37.299590599207804],[126.9137779025633,37.305551497633],[126.9185555980745,37.30502889905431],[126.9195037990638,37.3038987985911],[126.92103640054171,37.305607398867096],[126.9232704983076,37.3059481985263],[126.92532659867581,37.304669297749],[126.9256673008153,37.3060216987976],[126.9269920994905,37.306347198472096],[126.9335267015899,37.3051823971551],[126.9363172987993,37.3036442986932],[126.9360437003108,37.302305498102704],[126.9381728992522,37.301520198731396],[126.9378635982165,37.299388698621],[126.939189096891,37.2982101997995],[126.9367114992078,37.2934300030337],[126.9352608965081,37.2926354020785],[126.9374503980824,37.290106300264],[126.9372918997106,37.289282099026],[126.9390360012349,37.289540598765605],[126.9403061018193,37.28866109923],[126.9420545000709,37.2891014987896],[126.94373799838739,37.2873526005385],[126.94268139813809,37.2856094983071],[126.9434135992166,37.2846748988324],[126.94583200062729,37.2851394983686],[126.9460910003251,37.286348098793596],[126.9475019990259,37.2865352986068],[126.9483904997715,37.2830107997661],[126.9494524000339,37.2827869999271],[126.9483905010815,37.2830107998019],[126.9490323009112,37.2840278994709],[126.9507058992376,37.2841251993736],[126.9506177993257,37.282758800740005],[126.9497915996804,37.2827855000272],[126.9488790958381,37.277200802250604],[126.9446386000786,37.2781701012813],[126.942861399333,37.2773959002335],[126.9446086973715,37.2756287010707],[126.9434174985627,37.274157402542],[126.9411167981182,37.274226102506],[126.9429878995253,37.2718728998341],[126.9415456997259,37.2708828997988],[126.9433785995566,37.2717026994182],[126.9429891998834,37.2697828989429],[126.9443697006414,37.269973299330296],[126.9462218005488,37.2725580983968],[126.9477940005768,37.2725672988457],[126.948882799488,37.2717897996232],[126.9493946971043,37.268281201750995],[126.9477660968326,37.267263901339106],[126.9484707996954,37.2664913986737],[126.9544900996472,37.2653591981367],[126.9562981991273,37.265852298225596],[126.9573722980532,37.2641050999728],[126.95707589946501,37.258826302617706],[126.9553775992445,37.2588664005464],[126.9532007013095,37.2536689050555],[126.94997999872899,37.255733503910996],[126.9482267958504,37.2556941012805],[126.9491195970776,37.251456797617],[126.94776079843639,37.2494382996355],[126.9480062981909,37.247999801074],[126.944288293284,37.2472725052188],[126.9385232996239,37.2436708001462],[126.9417799963025,37.239758696318404],[126.9417116963708,37.237134098942995],[126.94027599855279,37.234499696551],[126.9418448004821,37.235009499406196],[126.9454281975914,37.2334500007907],[126.94288669594211,37.2338573971933],[126.9453666003506,37.2305975973251],[126.9464693006449,37.2330477998772],[126.9480734990407,37.2337084992165],[126.9536201983628,37.23080989792199],[126.9521495996124,37.2269290993594],[126.9541323976296,37.2258971003914],[126.9519383003112,37.223357399665296],[126.9528641000343,37.2240664991108],[126.95475170051411,37.2233899985552],[126.9554616023788,37.2252456002129],[126.9576176011959,37.226269400086],[126.9571343007005,37.2295783985736],[126.9596216014955,37.23243569588681],[126.9664158008379,37.226918698460196],[126.9671218001319,37.2278705975083],[126.96920040116771,37.2283952968339],[126.9716759986921,37.2274203978088],[126.9719519986636,37.2254318985855],[126.9782610010744,37.232891495388],[126.9827253011681,37.2324719960968],[126.9846534992399,37.230840897727894],[126.98519549921801,37.2282781992024],[126.9859327018658,37.2286623003681],[126.9854234015655,37.2310771987865],[126.9877241992647,37.2318127980509],[126.9888814016016,37.2313707985633],[126.99028090020211,37.232602897331205],[126.99199829957881,37.2311138984537],[126.9884665010199,37.2342984009],[126.9895141020082,37.2365761008055],[126.9880591022895,37.2389717006112],[126.9927027014342,37.2441257009042],[126.99233320204141,37.248705696975],[126.99426730010731,37.252454693226],[126.9982742032052,37.2536207970523],[126.99947340121,37.2572956964025],[127.0009279997554,37.2571425965556],[127.00312319781321,37.2541807990908],[127.00499859936369,37.2530685995109],[127.0054656997932,37.2515964996675],[127.0069050996004,37.2512945990113],[127.0070535997541,37.2501275997713],[127.0081160001285,37.250642698893],[127.0098671993496,37.249662299627595],[127.00992939940251,37.248045299557],[127.01175639873419,37.2484773986051],[127.01283859777159,37.2471639997079],[127.0091461994144,37.2450248000315],[127.0111494002813,37.245922698934905],[127.0119849994457,37.245233599624],[127.0130709994656,37.2411156986148],[127.01198500074389,37.2452335996133],[127.0139944993523,37.2460302990775],[127.0157843987818,37.241307599841],[127.0132321995619,37.238963399043904],[127.01631639885599,37.240374899047396],[127.01864879813729,37.2390084988123],[127.0194085973775,37.2374152004056],[127.0166986990355,37.2372302989484],[127.0192654979911,37.234939599586],[127.01851139922809,37.233789998915896],[127.0203182990133,37.2328975991555],[127.0238304973702,37.229059399147395],[127.0238285978338,37.2266269983224],[127.0226626989997,37.2243370006124],[127.0202385014239,37.2228973020521],[127.02017000149239,37.2243000006494],[127.0157250963874,37.2240913028581],[127.0161986978178,37.222794899859096],[127.0151955978132,37.220648499824904],[127.0168183964424,37.2180292020173],[127.0152975979632,37.213978006068494],[127.0098660007547,37.213033604688306],[127.0069103980313,37.2083541012369],[127.00613199723169,37.2048400021881],[127.0067232975677,37.201759602084906],[127.005391797469,37.2003063988372],[127.00713289989291,37.198124399153194],[127.0090264992329,37.200165497423896],[127.01178009974069,37.1954889996324],[127.0151052995484,37.1969096987275],[127.0168880977656,37.1946893009479],[127.0168599014534,37.1936813963932],[127.0182171000962,37.1936109964636],[127.0215094993404,37.1909703990901],[127.0239924984254,37.1929237972324],[127.0278263970427,37.192087697932],[127.03128529733429,37.188362998970604],[127.0294428991767,37.1862894010442],[127.0304987947425,37.1816157022039],[127.032055801754,37.181338498843104],[127.0362261990786,37.1849712975398],[127.03924599605881,37.1825734999376],[127.03550079830899,37.180465699715896],[127.0395302977116,37.1820307968452],[127.0399611995356,37.1786467996491],[127.0408787996935,37.1792189992409],[127.0413275998351,37.1785506990796],[127.0431402005926,37.1787518989407],[127.0434017008901,37.1792493001819],[127.0414389015811,37.180328600540705],[127.041340201391,37.181115500203994],[127.0420050007262,37.181887099432394],[127.0431195996116,37.1816292996902],[127.0438513004405,37.180515398915794],[127.0448136033916,37.1816372003769],[127.04461240359281,37.1832644987496],[127.0460248021804,37.1848603971537],[127.04863779956739,37.183868698145396],[127.0500249046744,37.1863532002654],[127.05368750032329,37.1884912996481],[127.0546996993111,37.188204899934505],[127.0566376995276,37.185596199318],[127.05549019697929,37.1813126012151],[127.0522165979792,37.180920199264],[127.05421969869,37.179511898555404],[127.05425169865799,37.1776330004343],[127.0530338994762,37.1769598998051],[127.05438909856379,37.1748805010009],[127.0532507986813,37.1736446011594],[127.0508647997921,37.1738383002179],[127.0503605996946,37.172570300507694],[127.0482733991081,37.1711330999046],[127.0515507985058,37.1669553998755],[127.0544606981942,37.1680456981361],[127.05605389808869,37.165634898165],[127.0575505987108,37.1654124987416],[127.0593169999725,37.163061396993996],[127.0613736983957,37.1627419973234],[127.0634999975943,37.1602763994309],[127.0617205993737,37.1589337007736],[127.0611045986648,37.159244200821206],[127.060297099734,37.1577297006694],[127.0578731993702,37.1576115016454],[127.058562898124,37.1561207012373],[127.0565594001275,37.1557754015826],[127.05627200034111,37.1567778010844],[127.0546587990911,37.1572265009259],[127.05134739942609,37.1563067038766],[127.05277499947779,37.1551709996518],[127.0526861989312,37.1525424007111],[127.05152729717291,37.1525440977528],[127.0506202980799,37.1472162030807],[127.0490894985018,37.1474633960916],[127.050620300735,37.147216197695],[127.0521049996219,37.1444528999073],[127.0538967996265,37.1432708989718],[127.0541471995165,37.1418290985048],[127.0589231975569,37.1379606002481],[127.0603018995201,37.1350305990592],[127.0619094001002,37.1346279966371],[127.0642347020835,37.1357754000142],[127.0633021030108,37.1385842973126],[127.06773939967839,37.1410870956696],[127.0687984986193,37.1387963979603],[127.0745129001959,37.1399241993886],[127.0719602013163,37.139467800911795],[127.0719379013386,37.1412689991106],[127.0750332999758,37.1416237987825],[127.0777310003948,37.143951999538],[127.0780612001511,37.1483500998012],[127.08141569889679,37.1485254983514],[127.0820835005466,37.1478733983178],[127.081863202759,37.1485092036329],[127.0790546017281,37.1502069015552],[127.0800446998666,37.1528006003765],[127.07905459954091,37.150206902638104],[127.0764393021562,37.1516546011904],[127.07742789980081,37.1541734009824],[127.0770314996375,37.1533234007276],[127.07371720110571,37.1535387007576],[127.07335470146819,37.154560299736],[127.0761491008724,37.155949500171396],[127.0730596000367,37.1596320007071],[127.0704849999713,37.1597444009095],[127.0700812995177,37.1605838006565],[127.0682708006362,37.1598980011417],[127.06847410021581,37.1613601021428],[127.066269601212,37.1600137026075],[127.0644857018009,37.1620983020299],[127.0661061001805,37.1643554997727],[127.065311400943,37.1655379988771],[127.06622810002631,37.1660177983973],[127.0679516001857,37.165082698342],[127.06929730254531,37.1659823993476],[127.0685739008543,37.166283100935104],[127.0694468008968,37.1676225005242],[127.0680236003004,37.167298701007304],[127.0674646007947,37.1693054003331],[127.068320299939,37.1697425998959],[127.0703667999768,37.168946499200196],[127.0709519014023,37.1676602996559],[127.0703668019874,37.1689464983697],[127.0717667029048,37.1717260021507],[127.0688661058054,37.1753572985194],[127.0656309016325,37.1766806019187],[127.0621750025083,37.1803718018704],[127.0574989046078,37.1816111000205],[127.06154750099981,37.1837244986424],[127.0608964016297,37.186069398168],[127.0633360008447,37.1865948961887],[127.0648999019004,37.18996679775],[127.06936969987869,37.190201599602204],[127.0712577993195,37.1888617993],[127.07150800016619,37.1928137989913],[127.0725219002608,37.1923767995203],[127.0729209006629,37.193162798525506],[127.0741875000946,37.191670899790196],[127.0729209013478,37.1931628011504],[127.0750674013221,37.194713999684495],[127.0748220012671,37.1964695011174],[127.0756604006705,37.1978476004059],[127.07436100141669,37.1996623008912],[127.0764961003215,37.201883899977396],[127.0750896003661,37.2009558008882],[127.0739252015305,37.2017461000979],[127.0744519011592,37.2030582004725],[127.07337730013991,37.204747500107004],[127.0724842006114,37.2048878998576],[127.07204269976239,37.2060000002745],[127.0701829016222,37.2058204004541],[127.0697855002457,37.208238500238004],[127.0672115006014,37.2090695007664],[127.06662950029231,37.2117294000806],[127.0659648998921,37.2112303011157],[127.0609469021016,37.2157001024844],[127.0602394020043,37.2179499013293],[127.0614238014235,37.2197759998256],[127.0602200009134,37.221419999460004],[127.06151200180379,37.2226876013313],[127.0596731001492,37.221096701818894],[127.0553394988178,37.2235668036854],[127.05194559974,37.2231823030685],[127.05039030129531,37.2256963005545],[127.0487877009606,37.2251067010698],[127.04907969908739,37.227769800873894],[127.04854299927099,37.2265207016168],[127.04723930003391,37.2263531015754],[127.0462489989675,37.2275164999369],[127.04652129877229,37.225965200604996],[127.04519169935631,37.225965200750196],[127.0449752995727,37.2251915015239],[127.0423445022035,37.2259717007437],[127.04216480115379,37.2282780999795],[127.0390091025733,37.2306195999496],[127.0390213025746,37.2313448001696],[127.0375298986735,37.231757000975904],[127.0376637985396,37.2306447020882],[127.0338801015822,37.2315139024108],[127.0297879013962,37.2305112027198],[127.0286337025504,37.2342070990239],[127.02976440141971,37.2360376971933],[127.035250300212,37.2354712984534],[127.0370808002896,37.2367086984955],[127.0392755007575,37.2359302986065],[127.0401340003773,37.236953799301304],[127.04145349905781,37.23639819985689],[127.04121499990289,37.2356682983465],[127.0429184998246,37.236449599312],[127.0436980002848,37.235778699758896],[127.0439487003152,37.2364284992584],[127.04547359992219,37.2353259996603],[127.045555202204,37.2374337998507],[127.04872159935209,37.2394303986473],[127.0489259991477,37.2386729994047],[127.0525165993386,37.239280398746395],[127.0534016984535,37.2379852000416],[127.0520534992012,37.2359409015206],[127.04943759878971,37.2343084004543],[127.05186259757701,37.2344648996083],[127.05393340076381,37.232257199268396],[127.0537372021578,37.2328695994594],[127.0570581001222,37.2344894978379],[127.059680799248,37.2333055990293],[127.06126870095,37.231234799179006],[127.06241540052791,37.232866097495304],[127.06526929767399,37.2322180981433],[127.0660187007256,37.2331108990115],[127.0650436013259,37.2335236007384],[127.0659400010086,37.235495800232904],[127.065043600155,37.233523602213495],[127.0641189010797,37.2336482020889],[127.0635085016901,37.2354177003194],[127.06552810014969,37.236482300561896],[127.0629637021069,37.2362330011147],[127.0628584022122,37.2367485005992],[127.0638810011896,37.2390030983446],[127.0654162004466,37.240171997473304],[127.0675804995228,37.240033398110505],[127.0679799993929,37.237176000114395],[127.0661180995597,37.2372094998347],[127.0663801998841,37.2367621995359],[127.0701358005383,37.2378097997415],[127.06977020003279,37.238863900334195],[127.069535899783,37.238098000776304],[127.0678531009564,37.2384458006277],[127.0682081003444,37.2397375996495],[127.0696368002282,37.240174699466095],[127.0692380006405,37.2405307995745],[127.0706911991873,37.2417910983142],[127.0714446993567,37.2396250987622],[127.0728854003537,37.238858599111],[127.0747246012178,37.239899598228],[127.0763778004991,37.238265499168094],[127.077013600012,37.2397845986865],[127.0774200002329,37.238603498908304],[127.0781463003571,37.2388424987658],[127.0773470011339,37.2399528989921],[127.07841930041799,37.2412099978007],[127.0798496995492,37.24005729825689],[127.0790942007861,37.2411952997545],[127.0807839002386,37.2413921998099],[127.0817900016956,37.2424978988456],[127.08135550174521,37.245543398426],[127.0856473013891,37.2470470962863],[127.0870457014155,37.2497909994036],[127.08585310038079,37.2515948006238],[127.08432420130839,37.250425201516705],[127.0845334010992,37.252508999432905],[127.08129220241939,37.2533034008796],[127.0807611029505,37.2545694996135],[127.08570779963499,37.255936297693204],[127.0899563006499,37.2527131972842],[127.0888160004795,37.2544031993439],[127.0896682021165,37.254587999215396],[127.0899972005671,37.2558314011024],[127.0886531005591,37.2563619019567],[127.08868310111039,37.2592221005614],[127.08656820137391,37.2598799998724],[127.0864835011947,37.261739599689996],[127.0886295990486,37.261972199457404],[127.0900485006397,37.261259298906],[127.0903959003944,37.261857900932405],[127.08888740190291,37.2621535006368],[127.0858615038768,37.2646870010732],[127.0880864011954,37.2680686028041],[127.08468840078801,37.2690496000114],[127.0855625999138,37.270475498585505],[127.0859308011823,37.2699784003679],[127.0842751006908,37.2716372001646],[127.08068109995591,37.2718489003259],[127.0789141997093,37.2685443003829],[127.0754049996419,37.2698692011429],[127.07364349979291,37.2694766015142],[127.07285399916351,37.2679981010338],[127.0699505994963,37.268086800241],[127.0698994991644,37.2666601012365],[127.0689785000285,37.2678613003938],[127.0701770978443,37.265329800795705],[127.06663089915021,37.2636276008049],[127.066969299013,37.2626090002277],[127.06587229966449,37.2604738016849],[127.0640679014689,37.2609320012267],[127.0634758998233,37.2643302005303],[127.0630514996364,37.2632003997178],[127.0637559989319,37.2615755013427],[127.0628673988471,37.2604441015971],[127.06056170115279,37.2618103002309],[127.0608883002793,37.2626688006925],[127.058999000299,37.259877101265495],[127.05788120141679,37.2598733012693],[127.0567426013297,37.260476002004395],[127.0559552021171,37.2625929998874],[127.05652660249899,37.263324900674604],[127.0559551993941,37.2625930013426],[127.0532647020846,37.2631563007793],[127.052892402094,37.2651883007241],[127.0540438004425,37.2664440013348],[127.05280360013981,37.266016400652],[127.0490913004124,37.2671581006608],[127.04814770102111,37.2700586000526],[127.0469187008786,37.271273599748504],[127.0476249005479,37.2731994002237],[127.0465318006965,37.2733350003639],[127.0468185002219,37.273923000444306],[127.04528309989661,37.2757834012243],[127.0430213008762,37.2760861010508],[127.0431910006199,37.277234801172405],[127.04164520064211,37.277169801186005],[127.0411412011461,37.278370799985],[127.0418523005745,37.2790309000371],[127.0405904005224,37.279958700563505],[127.0393812009156,37.279332000988994],[127.0389253998713,37.2809760008029],[127.0373816001487,37.2813048003163],[127.0363867003845,37.2790849016034],[127.0341957019658,37.2788864020323],[127.0327406015482,37.2810764008047],[127.03277350098081,37.2828911002575],[127.0336755004385,37.2836524001204],[127.03311340083691,37.2865617991482],[127.03376300018729,37.2869780987319],[127.0346076008705,37.286134599113694],[127.0340269017877,37.2882798003886],[127.0353051005095,37.2890090996593],[127.0369566014862,37.2930735994351],[127.03288860251551,37.2962479004433],[127.0337698020838,37.297520699697],[127.0338331011584,37.2998962993201],[127.0350662002175,37.3014076000324],[127.0344046998658,37.3028379004575],[127.0305357024796,37.3018325021009],[127.0280940049213,37.3034586004748],[127.0275392997821,37.302520701688906],[127.024097403224,37.3044676997419],[127.0241376035302,37.307578301493606],[127.0216097004492,37.311736200559096],[127.0195082010397,37.3125575009054],[127.0185720997023,37.3138791008617],[127.01568039717739,37.3121898039794],[127.0102366991754,37.3106809014453],[127.0097129996991,37.3111765009497],[127.0088588005533,37.310077802048404],[127.0070604023517,37.311424200702],[127.008519100893,37.315310496815705],[127.0109305003527,37.3181977005187],[127.0085190999303,37.3153105031218],[127.0043309041185,37.3165921018402],[127.0031561026919,37.318226502215204],[126.9987521010533,37.318388502340895],[126.9929273068781,37.323764796964596],[126.99468149972719,37.325950908749306],[126.9924513969245,37.3232846009958],[126.992619098717,37.318229700042906],[126.9909119004242,37.317504300768306],[126.9905497001109,37.3183485002712],[126.9890811998255,37.3184020009373],[126.9881243007824,37.3194839998553],[126.98954690164979,37.3214045992541],[126.98613390164,37.3251232006891],[126.98741390051461,37.328352201231795],[126.98700929918719,37.3274972015544],[126.984207300236,37.3291580004336],[126.98283170078821,37.3287793007178],[126.9831916993015,37.3308345016671],[126.9828316995687,37.32877930299],[126.97550920063641,37.3288258037191],[126.9742283973274,37.327643704221],[126.966188805367,37.3290918027729],[126.9681795032148,37.3323162997806],[126.9716626997316,37.3355582965386],[126.9732347029109,37.3349336976112],[126.972863701212,37.3368228006075],[126.9733429007328,37.3381409992893],[126.9743179010882,37.3379707002623],[126.9733429018466,37.3381410004369],[126.9721991032672,37.340930899985196],[126.97535570074109,37.3422534989539],[126.97603630067991,37.3434152984348],[126.9776884994342,37.3415275989531],[126.978216301484,37.3445513982795],[126.9798193004052,37.3451299982171],[126.9799102007497,37.3460912984783],[126.98171339894651,37.3460161985534],[126.9819540017484,37.3471055004527],[126.98071690106181,37.3477338998397],[126.981826902176,37.348110900612305],[126.98047940240399,37.35112350211],[126.9781533008187,37.3513109047634],[126.975719003253,37.353635502438806],[126.9753664036056,37.354880101194205],[126.9784114062559,37.357519800244496],[126.9783068018077,37.359472702165995],[126.9693643002079,37.3661773023023],[126.9675786019936,37.3688849995946],[126.9688570007152,37.373508594971],[126.9721772007947,37.375069699928794],[126.9706450008745,37.3748360004613],[126.9703899008816,37.375483300108],[126.9737849009647,37.3797303988502],[126.9749579997916,37.380034698545906],[126.9754126001961,37.3793839991692],[126.9752367007599,37.3804869991392],[126.976134599862,37.3799799996462],[126.9760711013992,37.3790131003392],[126.97842620428631,37.384003900976204],[126.9819878007247,37.3854682995118],[126.9824047001406,37.3864752995265],[126.984669400163,37.386341099488504],[126.9857270001877,37.3883261987326],[126.9879571028424,37.388915898671],[126.99067150309601,37.3880868002203],[126.992145602105,37.3902909992609],[126.99107770251811,37.393226399419305],[126.9914869026791,37.3947390013877],[126.9898311025083,37.3965551021333],[126.9921143020638,37.4021540007636],[126.9855610019341,37.4015653039964],[126.984386800758,37.404080803637605],[126.9836597007027,37.409297798737896],[126.9845321006127,37.408347899370504],[126.9863966018934,37.411184997255006],[126.9909500004982,37.409134099366504],[126.98904420222979,37.4128518998692],[126.9911760011707,37.415146798475305],[126.98997970224731,37.4174176994057],[126.9913327000697,37.419045998845505],[126.99418180004871,37.4183870997147],[126.99341010063881,37.419812799307],[126.9940220000269,37.420503798616],[126.9960808986362,37.420816698560905],[126.9971658975512,37.4177020016756],[126.99471799999911,37.4178437015339],[126.9931986997068,37.4142833989145],[126.9971658969843,37.4177019953737],[127.0044873981317,37.4186882968042],[127.0060665999561,37.4205166982059],[127.0069169031481,37.419953295193004],[127.0060666020831,37.4205167014218],[127.0075159006338,37.4233593985791],[127.0088063004365,37.4226334998105],[127.0095686004113,37.4244904989962],[127.0106065003145,37.4247034994781],[127.0097381020129,37.4266760989179],[127.01285389889709,37.428364997229],[127.0145957976952,37.4276616972541],[127.0165118017485,37.4285272987537],[127.01760930212211,37.431510099895696],[127.0166057010285,37.4339803997846],[127.01826989975861,37.434756599118],[127.0189057000541,37.4334964998259],[127.02014840117779,37.4341542994361],[127.0206032022831,37.4383141992444],[127.01866870230671,37.4423885026359],[127.01629850467691,37.444045600978804],[127.0129600027971,37.4441875005584],[127.0115612036692,37.4458157017505],[127.0121255031049,37.449066798499395],[127.01440980115319,37.4513853966309],[127.014244201154,37.452471500947205],[127.0121545997084,37.452126700003],[127.0104195988338,37.4485594025159],[127.00962559962781,37.4484190026563],[127.0082606009928,37.4499855010898],[127.0080005019848,37.4542602991232],[127.0091515008338,37.4548112985722],[127.01054449989749,37.4537666987732],[127.0132970009726,37.455301700051],[127.0126793014645,37.458193101016704],[127.011803399406,37.4570945017906],[127.00095950340949,37.4588280028298],[127.0005725993325,37.4616383010995],[127.0004758963302,37.460286601751605],[126.9951182969674,37.457717901886596],[126.9957088956474,37.4546054004539],[126.9922611956211,37.4535594021874],[126.99274500037829,37.4518791988499],[126.9941253989979,37.452001598727506],[126.9947839983393,37.4509669997621],[126.9934308980593,37.4500718990429],[126.993011598311,37.4472368994972],[126.9952142970243,37.4459708002139],[126.9945326968783,37.4435198016039],[126.9908104006006,37.4435946015291],[126.9910699992836,37.4427249015339],[126.9880391974542,37.438246102185204],[126.9802906011607,37.4372757032606],[126.9802270961708,37.4350276021915],[126.9766589958935,37.433895901465206],[126.9756192967812,37.42617589864199],[126.9736669962045,37.4212829995148],[126.9772496005764,37.4234834961033],[126.9825392995857,37.423704296526395],[126.9845770975479,37.4229187973119],[126.9856117965132,37.4203730998576],[126.983052999072,37.4173489028818],[126.978923998902,37.4162845033023],[126.9771640983915,37.4185084011599],[126.9747671981859,37.4169620999741],[126.9754179975351,37.4160330009032],[126.972105100848,37.4141148028214],[126.96940699750971,37.413403203923195],[126.964880298961,37.4145808047038],[126.96213879919141,37.4142986008501],[126.9629950991543,37.4112872000555],[126.9594222992963,37.410208301568204],[126.958706600012,37.409034502741996],[126.95637959792681,37.4084285028036],[126.9562950988347,37.407508401132],[126.9549035002263,37.4075777010627],[126.9550022001276,37.4085818000586],[126.95391069738349,37.407619400957],[126.9512889000053,37.4076710009054],[126.9506205999147,37.408946500766596],[126.9470958020259,37.4090937032899],[126.94291659955141,37.4053714020735],[126.938276201278,37.4069567027234],[126.9367070028472,37.408867300812794],[126.9350884012192,37.413286300582506],[126.927388501557,37.4145678054544],[126.9258069031386,37.4169640030582],[126.9274950014505,37.4205192995029],[126.9270779001435,37.421681899949405],[126.9258200011354,37.4205438012205],[126.92540149907421,37.4215738029161],[126.9231820012937,37.4219614025285],[126.9234298010842,37.4243139022868],[126.9201761022083,37.4256251018062],[126.9182277041567,37.4312555961757],[126.91730540089921,37.4303531014238],[126.91505550314909,37.4320332997436],[126.9148590030462,37.4333455994051],[126.91688260102259,37.435157997592704],[126.9182497026095,37.4351708996194],[126.9137994006573,37.4352069021106],[126.9112123032444,37.437081500236],[126.9140010008608,37.4398187977593],[126.91902990486909,37.4405383970116],[126.9163975010517,37.4424464012365],[126.91220889623169,37.4414685031299],[126.9077401007005,37.4429530016454],[126.90727100116959,37.444194400404],[126.9070059014347,37.4451556994427],[126.9099851013649,37.4479797000081],[126.9095621018045,37.4493487999014],[126.9129557999552,37.4497434996251],[126.91260240030999,37.4508896995605],[126.91328920082299,37.4531865987528],[126.9139550014989,37.453128299088604],[126.9121682010038,37.4542569996564],[126.9125443023339,37.4552808008407],[126.9104792003084,37.4618395997526],[126.9111416003594,37.4621740999867],[126.9076495018444,37.4625679016518],[126.90749570201069,37.4649245995502],[126.9092674008651,37.4652176994426],[126.90730480162121,37.4651419003598],[126.90967950045639,37.4676409009614],[126.9078365006202,37.467282001441],[126.9065845014175,37.4690978998295],[126.90636360195751,37.4719801006975],[126.9042456019488,37.471717400897305],[126.9039935011329,37.473411900566],[126.90117170154511,37.4752369997744],[126.9009705001209,37.476177700630004],[126.8989157998299,37.4774889007601],[126.8978675008782,37.4770163012327],[126.8965027015345,37.4785056003507],[126.8939012993017,37.4782293006338],[126.8923940008776,37.4794720997794],[126.89415840109599,37.480541800076296],[126.8934877014936,37.4823217991497],[126.8939915009898,37.4828802985912],[126.8974911004852,37.4837400984665],[126.89625200090991,37.484720600659],[126.8968443998839,37.4864753995689],[126.8976014000114,37.4855531997325],[126.89712010080899,37.4863364993758],[126.89786200006711,37.4869861987261],[126.90079270001429,37.485851199443],[126.9004324005875,37.4871961986529],[126.9021319011853,37.4870883982258],[126.9041159003852,37.4888043992513],[126.90424830052281,37.4908341001978],[126.9050762008511,37.491762099541305],[126.904523100724,37.4955836997512],[126.9057870997887,37.4963763993246],[126.9066578998049,37.4954323978015],[126.9100990002424,37.4946010990937],[126.9123298004557,37.4963475993888],[126.9118466007848,37.496828399551],[126.91435010034499,37.4965572992442],[126.9151675006338,37.497443999420604],[126.9183615990834,37.4962877988862],[126.9182697002952,37.4951660991834],[126.91836160111819,37.496287798472395],[126.923157900177,37.4963262989491],[126.9262390994441,37.497889698841],[126.92771119947261,37.4970945991726],[126.9276304007884,37.4959370987834],[126.93079610084729,37.4965977004774],[126.9303967008988,37.4972274000754],[126.9316187010132,37.4979855000369],[126.9311960004751,37.4992514996652],[126.9325768004209,37.4998616995859],[126.932320400681,37.50126010022311],[126.9315633999862,37.5002719008964],[126.9291015002026,37.5030094015559],[126.927672100683,37.502147300689494],[126.9264872990083,37.5028042012541],[126.9259174994621,37.502204100013],[126.9264762994253,37.501157200630004],[126.9248219000276,37.5013306007719],[126.9226501004892,37.5040860009154],[126.9224021009126,37.5068626007309],[126.9214378999136,37.5066439012537],[126.9203330989533,37.5040818005008],[126.9185202976101,37.5032886998851],[126.9174536986767,37.5015815015923],[126.914642700828,37.5019415013287],[126.9141022003625,37.501336401295],[126.9127780016867,37.502112800518596],[126.9140959006006,37.5047674999],[126.91196480085401,37.5025050027412],[126.9105227013686,37.5047270008856],[126.9110561006066,37.5069141991519],[126.9133848004189,37.507185399789094],[126.9134992005838,37.5088874989696],[126.9162285007457,37.5118973986714],[126.9159772009356,37.513057999111204],[126.9180041004505,37.514813699586796],[126.91741920029139,37.5173140997441],[126.9189638994521,37.5188107987723],[126.9188019994795,37.516974499274404],[126.9217397984992,37.5158245995583],[126.9222957997596,37.5147349993213],[126.9237976005111,37.5149324994526],[126.9238275024633,37.515509201764694],[126.9189885013823,37.5171858005122],[126.91950640006921,37.519131800386496],[126.9172840993872,37.518130902468805],[126.9142765002784,37.519931300165005],[126.9147629994482,37.519564100232095],[126.9137123991634,37.518899600691796],[126.9106729990321,37.5188974001961],[126.9101669991676,37.5157501014262],[126.9084875998681,37.5146486009657],[126.9076299993608,37.515500000833505],[126.9076031988408,37.514731900805],[126.90294730093359,37.5124200013209],[126.90261480036199,37.512911701265196],[126.8998511980728,37.5117881002285],[126.8981695986634,37.510137901377696],[126.8952072992324,37.5101719003896],[126.89494379897829,37.5087623011713],[126.8934365004856,37.508068901864696],[126.8923285006303,37.509672700272404],[126.8916106003347,37.509523200463796],[126.8913709999956,37.510922700646205],[126.8892961006577,37.511331801222],[126.8881482992249,37.513143901004106],[126.88733859960651,37.5106386008952],[126.8862142007309,37.5110294005044],[126.88620830018381,37.5132849012179],[126.8852152986034,37.5133079004276],[126.88478019960759,37.5114044007312],[126.8820537003838,37.5120917006791],[126.8812180001259,37.5113610009096],[126.88090490004771,37.5123812010219],[126.8791084990824,37.5119703004394],[126.8731830982138,37.5064493003023],[126.8726803982772,37.503237900925505],[126.8750763978659,37.5027500994046],[126.8751694977728,37.499973402181304],[126.8710508008877,37.500590502382],[126.86993860199989,37.5020254009471],[126.8684489998418,37.501243000729104],[126.867920399422,37.501665500461904],[126.8680587994648,37.5009156004349],[126.86621939878931,37.5001386990971],[126.8661057989785,37.4988322991753],[126.8682662997706,37.498663999364396],[126.8672817992528,37.4966222998965],[126.8682536005992,37.4973195986883],[126.8702568000631,37.4966232996725],[126.87084029937759,37.495037501207506],[126.8689640012539,37.495638000607],[126.8661572986819,37.4928939018626],[126.861803099884,37.4937587005854],[126.8596138009151,37.4930528011124],[126.85912830140059,37.4936611005041],[126.8599190010444,37.4950702006453],[126.8583886003761,37.4963391002003],[126.8584587998414,37.4972270011877],[126.85739570008249,37.4966119011174],[126.85652250095569,37.4972942004351],[126.85688419967039,37.498875401240504],[126.8562099991054,37.4972830005572],[126.8543485992421,37.4972584010351],[126.85516369849421,37.4955175008781],[126.8534907001672,37.4942530021426],[126.8524450012129,37.4952793011163],[126.85154529919849,37.4948543998175],[126.8518793996229,37.4934600985734],[126.8540257990341,37.493052999103305],[126.8541981988617,37.491585800570505],[126.8531604995831,37.4913113986067],[126.8552462996459,37.4916262982886],[126.8553968996695,37.4899512980797],[126.85836060014769,37.4901233986133],[126.85902059948769,37.4890920996446],[126.860618799286,37.490439598426704],[126.8649012995212,37.4912286995771],[126.866157300018,37.492893899914996],[126.86731969997419,37.4919385995985],[126.86980869970989,37.4918003995436],[126.8701018996746,37.4906929991701],[126.87158429915179,37.490839598493004],[126.8722757985017,37.4890148000753],[126.871143599867,37.4866548013526],[126.870293599254,37.4871007999325],[126.8708819986656,37.4864990005343],[126.8706039970431,37.481207603146],[126.8677311999159,37.4809568033968],[126.8649025000841,37.479012902326204],[126.8644128005738,37.4804824008567],[126.8629563998437,37.4792828008127],[126.8613777998536,37.4797651004268],[126.86027760018881,37.4792284003602],[126.8605155007159,37.480218399973495],[126.8586227017281,37.4807845038694],[126.8572395031113,37.483398701255204],[126.8576257999585,37.4844916010262],[126.8572394999945,37.483398701069504],[126.8562545998811,37.4844048008918],[126.8523394996575,37.4814404008715],[126.84970990044779,37.4810433003837],[126.8502855001818,37.4822902020696],[126.8489743998475,37.481715201277694],[126.8485992977515,37.4801411004078]]],[[[126.7978778956721,37.32237460006],[126.7984294002228,37.3190797996364],[126.7985118003267,37.319918899063694],[126.80305869885,37.3211921971945],[126.80598669747991,37.3196870971703],[126.80561039786531,37.315517201207],[126.80429819917751,37.314685202039],[126.80467649943,37.3143062994686],[126.8057750995822,37.315065098835596],[126.80657859957269,37.3137208995278],[126.806108101486,37.3145577998362],[126.8072725003216,37.3164257979682],[126.8096885982753,37.3175147965663],[126.8120487972702,37.3160994974644],[126.8122483980012,37.313431499192],[126.8151758983437,37.3132386991506],[126.8149714990378,37.310583699524],[126.8166480998881,37.3104904985486],[126.8170424999475,37.3090122994849],[126.8190267996196,37.3091284982284],[126.8203562997533,37.3066560991416],[126.8219997006976,37.306449999421496],[126.8208867005122,37.3069006999724],[126.8213175014761,37.3089916982996],[126.8238972011479,37.3101115979524],[126.8262309995257,37.3099822994674],[126.82617579996621,37.3094300995547],[126.8270442004563,37.3099370986668],[126.82715490045689,37.3112647986411],[126.82956639989,37.3113088984948],[126.8324889999417,37.3075511993069],[126.8337682998249,37.308973898034196],[126.834756399517,37.3068763002496],[126.8335780997469,37.3067918994598],[126.8358853988852,37.3066715989561],[126.8364029983676,37.3057728998548],[126.8357874001041,37.3040479993869],[126.83848110037209,37.3038817993414],[126.8389812009227,37.303221999648095],[126.8393952005087,37.3042027986673],[126.8402524996514,37.304120498749604],[126.8412959991054,37.3028853992028],[126.8425973989201,37.3039972985527],[126.8427295987879,37.3022127003373],[126.8414717991499,37.3016954000506],[126.8432903999952,37.301451298942595],[126.84331730116959,37.3023195986122],[126.8456897987971,37.301657399274404],[126.844669699943,37.2999923995285],[126.8465025019704,37.2994742981111],[126.84948350098881,37.3005605977907],[126.85428629713749,37.300161197708796],[126.85424379718,37.296599001271],[126.8520915993322,37.296060701809296],[126.8512820995092,37.294671300847696],[126.8505224991918,37.295269900995],[126.8502607979353,37.293489200517904],[126.8482022999938,37.2932627007444],[126.8470605995555,37.2912768022788],[126.84438949935691,37.2904606002119],[126.8450965995693,37.288668800841705],[126.8443572996766,37.288367199382904],[126.8451955988383,37.2877642999858],[126.8440565976435,37.2873252996187],[126.8456428955672,37.2841701992905],[126.8477638991525,37.2831833996294],[126.8477213995282,37.282291899215195],[126.85079719852611,37.2800882000593],[126.85133709945599,37.2788870996434],[126.85765499942619,37.278129298307704],[126.8568176019298,37.2807994981624],[126.85884170005009,37.282555299185496],[126.8607032001067,37.283501898789],[126.86187130050641,37.2825730988359],[126.8666298002883,37.2854421991901],[126.8678476004349,37.2848276999744],[126.867611801449,37.2858598999242],[126.869097701122,37.2868743000873],[126.8681659021452,37.2880809007213],[126.8693670009441,37.290100798701395],[126.870336099975,37.289219299582896],[126.8703870004909,37.2900681993704],[126.8716719002675,37.2900321989693],[126.8741393014051,37.2931920978191],[126.87734230285099,37.2930813982728],[126.87765400391841,37.2966248974461],[126.8803167053547,37.3041801968432],[126.8758000011651,37.3024135045676],[126.8750015019636,37.303370703610405],[126.8747254018524,37.3066562005812],[126.8753535012243,37.30732739991],[126.8747245014443,37.3088160994378],[126.877026601253,37.309291700300605],[126.8761521003847,37.3092295013202],[126.8756971008397,37.310224700325],[126.87679450186761,37.311185703893],[126.8736149011511,37.3109939047791],[126.8715725003386,37.314966700759996],[126.86959080086879,37.3142217010334],[126.8664419998192,37.3154039011346],[126.8661617999037,37.3148288006261],[126.86036329999651,37.3149513006193],[126.8580501000013,37.3130154013125],[126.851666101425,37.3157234007625],[126.8519538007329,37.3191421029981],[126.8495173028425,37.3202299023188],[126.849278999712,37.3184578019983],[126.8479042010868,37.317638202817896],[126.8465362002447,37.3206700010308],[126.84535630035991,37.3211415015783],[126.8453010997814,37.320428400273194],[126.8444624006201,37.320467900233695],[126.8442117994032,37.3211684005855],[126.84358569967111,37.320187701046095],[126.8429399995422,37.320974200592104],[126.8422541997985,37.3202683007505],[126.8413986006541,37.3206121004067],[126.8413131003037,37.322551600848094],[126.8368366002519,37.3223766008814],[126.83581530018019,37.3236951005763],[126.83297389831179,37.3214233013753],[126.8280155008085,37.3212828005666],[126.8263001025239,37.322731699117696],[126.826512601351,37.3255322999507],[126.82641289942879,37.3241535011811],[126.822469902639,37.325000200373196],[126.8224610996841,37.3272424041005],[126.8210060991304,37.3270241015869],[126.81951840061811,37.327865100745896],[126.8181742996583,37.327291601183305],[126.8160771988639,37.3236346026059],[126.8139675001035,37.3239206007949],[126.8133420999921,37.322922700789],[126.8124468995903,37.3229674003801],[126.81301959925361,37.3219653004031],[126.8114926007806,37.3221603002081],[126.8114801002413,37.322784400440504],[126.81011950042429,37.3222292010456],[126.8091282014156,37.3230212002536],[126.80924779933589,37.324397500712],[126.807839999118,37.3197400004207],[126.8060993008587,37.3198273003334],[126.8049907003672,37.321798101159004],[126.8018124022923,37.323244000402106],[126.80255809993339,37.325613501303906],[126.80112410031519,37.3238443023712],[126.7975048982571,37.3245011024012],[126.7978778956721,37.32237460006]]],[[[127.0577262957431,37.020796299946],[127.0623196984846,37.020339098049],[127.06327789825511,37.0191760977302],[127.0656409993618,37.0184894966724],[127.06692479868819,37.0141120007765],[127.06519499727621,37.0139711984115],[127.0669248029875,37.0141119983482],[127.0661339012016,37.0162534978882],[127.0694087979267,37.016455897685795],[127.0695776000892,37.0152313990789],[127.0695700008008,37.0183499996461],[127.0714111992309,37.0182370997732],[127.0721983984437,37.0166160013943],[127.0727957975104,37.008555900047995],[127.072289598485,37.0058906988354],[127.0731250990338,37.003065401683195],[127.0709778960021,37.004433899667504],[127.0691550981478,37.0004281011648],[127.06709040021249,36.9982644033285],[127.0651928979873,36.9994111012085],[127.0648058987285,36.9959180987417],[127.0660948974395,36.9941377005221],[127.06352459755479,36.9938155013732],[127.0663652979326,36.9935105954533],[127.0672996969982,36.9917482972156],[127.0706352961121,36.9899617978821],[127.0685504981969,36.986959900884],[127.0706426987931,36.986019896833504],[127.07184279759299,36.9836858991675],[127.0709899977924,36.9824335984303],[127.0711122975503,36.979990700552904],[127.070701597961,36.978882901660704],[127.0684570978332,36.9798050009251],[127.06798899839569,36.978494299105904],[127.0688923013778,36.978101598821006],[127.0717616991644,36.9792541982578],[127.07339239753371,36.9766889008231],[127.0719241990635,36.975543496593204],[127.0734643001496,36.9767397974136],[127.07588839772549,36.975855898297496],[127.07446889939929,36.9734301982174],[127.0762935004749,36.9750934976177],[127.08271479961101,36.9734119973278],[127.0825910010107,36.975127397874],[127.0856907004663,36.976437396491],[127.0869010011557,36.9785574977183],[127.0888213020645,36.9775924986388],[127.091036799849,36.9815324946988],[127.0964812944045,36.9805955956357],[127.1000394019666,36.9767424985904],[127.0981562034939,36.9788382020064],[127.0999983018906,36.9826959986774],[127.1022146006668,36.9820251997917],[127.0999983025382,36.9826960000253],[127.10065880192441,36.9841134987065],[127.1038719987112,36.985577197242804],[127.1061974015107,36.9850816978439],[127.10776100084179,36.988287100037304],[127.1079456007428,36.9906438003602],[127.1069609012913,36.9913678006145],[127.10697930061,36.9927096007485],[127.10326400087659,36.9944032011161],[127.1013706017497,36.9937497005695],[127.1017955011228,36.9950676995804],[127.1039692003388,36.996107600417204],[127.10373630015809,36.9973030011448],[127.10203570003121,36.9977078020329],[127.1012509997176,37.0000504017293],[127.0997278002631,37.000964500921604],[127.09972210026879,37.002384199501904],[127.1025401007122,37.003930000454794],[127.1012615005426,37.0031355016783],[127.10002109933481,37.0041025003294],[127.09863079944799,37.0006832017446],[127.09601880073339,37.0022349002724],[127.097508400776,37.0031379995974],[127.0968078003058,37.003218700487295],[127.0964804006648,37.004511199777205],[127.09747380030271,37.0059974008787],[127.0946644012438,37.0048142013555],[127.09386220039491,37.0076166003005],[127.0928780999855,37.0084589003067],[127.08827599939069,37.006802900231996],[127.0876198000469,37.0056977013372],[127.086427701239,37.0066647003702],[127.0870421996237,37.0076987001232],[127.08617479796389,37.0062568010821],[127.08336690077181,37.0050107023282],[127.0775270020447,37.0085621011818],[127.0789432010225,37.010062401362205],[127.0777953004941,37.0110636004373],[127.0751694001789,37.0104232010721],[127.072540400495,37.0112675002278],[127.0718170024648,37.020480999213596],[127.07489799938381,37.0205467991478],[127.07525560012411,37.0192111983209],[127.076909799503,37.0216101996948],[127.0789374993406,37.0198858991502],[127.078616599773,37.016671797253],[127.0875743981098,37.0167061961718],[127.086376201196,37.0171192999741],[127.08756340113379,37.0194709000097],[127.0868203007472,37.019141000756896],[127.08633180124279,37.0207679999796],[127.0855877004805,37.02076370043871],[127.0859443016321,37.021615399942505],[127.0843165016401,37.0215130010667],[127.0826254010239,37.0246324012054],[127.08057459925051,37.022189002088396],[127.0788897988884,37.0235936008898],[127.07702810075011,37.0216543028291],[127.07620440157379,37.021845502637895],[127.0753565023195,37.0245881009849],[127.0725948026578,37.025355600037095],[127.07577690087969,37.0296429008252],[127.0736673018171,37.028732502575494],[127.0708772032976,37.0301075021362],[127.0705372998228,37.033202001640106],[127.0708877973262,37.028429098968495],[127.06766829681119,37.0253997001424],[127.0645640966159,37.0248915992156],[127.0615558996241,37.0215048026024],[127.05925530192471,37.0226060015012],[127.0580704000739,37.0213016018961],[127.0570955992862,37.0219747006985],[127.0577262957431,37.020796299946]]],[[[127.1290401993961,36.799463700114394],[127.1302054991558,36.7998053994951],[127.1311913004872,36.7988206997759],[127.1324567000224,36.7993862996475],[127.1324225002533,36.800160999474805],[127.13542620033719,36.8012477995331],[127.1356452013236,36.802334199647795],[127.1380230990372,36.802531199340194],[127.1385947008705,36.8012337990415],[127.1395821005616,36.8023176989682],[127.1402528005331,36.8017301995621],[127.14204639977889,36.8026778986247],[127.1426953000395,36.8013355992973],[127.1466158995285,36.8007792991008],[127.14737740033469,36.7984849996932],[127.1489074002082,36.8005572991491],[127.15006800029451,36.7993179988361],[127.1519165013364,36.8011447994755],[127.154068300096,36.8017613996445],[127.155880800492,36.8039571995715],[127.1551634005072,36.803543600397],[127.1560980995333,36.8063508978355],[127.1588083006131,36.8062955990344],[127.15801970073609,36.806907099996096],[127.1586475006484,36.8070466002046],[127.1566961006397,36.8085607994753],[127.1573846005932,36.8093310997287],[127.1561121006947,36.8095177996978],[127.15626070193501,36.812430000964],[127.1548219019891,36.8142464002811],[127.153103201804,36.814867000477],[127.1531662006368,36.8169735009278],[127.1528073003498,36.8176360004283],[127.1520553006135,36.8170317008371],[127.1515131011557,36.8177446001242],[127.1521441005986,36.8187062000724],[127.1514182000214,36.8185750000599],[127.151513099865,36.8177446008271],[127.1504882996704,36.818187700386304],[127.1496379996235,36.816565600717],[127.147554099733,36.8154048009972],[127.1460325994304,36.8158551003228],[127.1467438999189,36.814109799776894],[127.1483191996805,36.8148024988633],[127.1494903985093,36.8135882000776],[127.1480425986989,36.8133216996774],[127.1490284983597,36.8121990986835],[127.1486750987131,36.8111101997724],[127.1468299996932,36.8100100001291],[127.1477269990351,36.8082272995161],[127.1472122995498,36.806641401102],[127.14575960078531,36.8071595006139],[127.1453490991401,36.8088384015823],[127.1423810002371,36.807853300838495],[127.1410791994211,36.808236600752004],[127.1407048994062,36.806826900564495],[127.1399848991222,36.8068737993505],[127.142647999305,36.8057336994954],[127.1426133992756,36.8027905011081],[127.1420463998426,36.8026779012207],[127.139577500806,36.8051699004708],[127.13932609953581,36.804104001168405],[127.1373410982311,36.8038013010293],[127.13391780014841,36.805726300394106],[127.1329891994088,36.8044895007191],[127.13140729875511,36.8042516006197],[127.1311707987531,36.8029022006575],[127.1298258984285,36.8030945006989],[127.1310703986406,36.8023869001928],[127.1308228985893,36.8009898002308],[127.1290401993961,36.799463700114394]]],[[[127.1018233969258,37.2579123994455],[127.103570098736,37.2573111987727],[127.1036340986836,37.2553425982939],[127.10499919862049,37.2549292984109],[127.1051736995442,37.253689599549205],[127.10499920058069,37.2549292988671],[127.1081746008566,37.256675199936396],[127.1095822012317,37.2605559974553],[127.111417102381,37.2618934972227],[127.1128793020185,37.2645420963466],[127.1162471063013,37.266337293543806],[127.11081940144899,37.2658501031719],[127.110163402105,37.267226301795695],[127.1108298014386,37.269397499624496],[127.1093333020514,37.2705838000823],[127.1106885006962,37.272681397984705],[127.11244789982051,37.271157697864304],[127.1150729011283,37.271861298892],[127.1209011001777,37.270102398351],[127.119959601162,37.2706226008219],[127.12200489911669,37.2730660983784],[127.1223576993733,37.2717979978316],[127.1251021977799,37.271490497501595],[127.1276037016437,37.26846840015801],[127.1277871001555,37.2716666000519],[127.1251022005335,37.271490500335],[127.1253302004909,37.272052099997104],[127.122589704171,37.2739577031181],[127.1217654061503,37.2786376001399],[127.1201651009402,37.2790484001666],[127.11886170132719,37.2809836063368],[127.1199113002776,37.2873568999635],[127.1191980002255,37.2882409999352],[127.1198266006089,37.2881076998955],[127.1200219010023,37.289264600371304],[127.1188120000474,37.2903440023521],[127.1156940977221,37.2893063020249],[127.1122031012131,37.2892449020863],[127.1099504991841,37.2901350003562],[127.1080753999416,37.2884939005382],[127.1077243000596,37.2895266001421],[127.1069617008222,37.2892660004027],[127.10780179927231,37.290025800848206],[127.1067115983108,37.2889199010402],[127.10749649789689,37.2870704996065],[127.1059774994159,37.2859637007133],[127.1051749997615,37.2868087004268],[127.10426789926619,37.2851391009715],[127.1050048992017,37.2830233999195],[127.106237299512,37.2826812995607],[127.1071103000088,37.2811301997016],[127.10785779926131,37.281770599061204],[127.109507298327,37.2807035989372],[127.1096134982208,37.2796037000371],[127.10889659893769,37.2786009010399],[127.1078312994783,37.2787711001863],[127.1083913991835,37.2777201006542],[127.1062297995135,37.2777798000063],[127.1071562993367,37.2773427994466],[127.1075202994506,37.27596029958],[127.1074044995664,37.2751886003517],[127.10569989914471,37.2751922000066],[127.10643869923899,37.2751921995343],[127.1064570992206,37.274108500618],[127.1056493989638,37.2741220998436],[127.1064570991675,37.274108498896794],[127.1070706985587,37.2729004996811],[127.1042743991186,37.2692871004117],[127.1052486986884,37.2659419006445],[127.1042361984436,37.2642099009269],[127.1032038994759,37.2642279009089],[127.1050401990463,37.2638350998744],[127.1042618997152,37.2615067005176],[127.10125439957,37.2632497989353],[127.1042618994622,37.261506698679895],[127.10492939879471,37.260227999958595],[127.1043783993457,37.2590568011298],[127.1018233969258,37.2579123994455]]],[[[126.9730861995702,37.4760280998945],[126.974380999357,37.4763129992567],[126.973948499886,37.47542639988141],[126.9750211993091,37.4755934992785],[126.9752015996853,37.4741260997375],[126.9763098002376,37.473121799531704],[126.9770009995464,37.473575499078],[126.97771329978501,37.4718435994476],[126.9786026000272,37.4724429990983],[126.9814194015586,37.4714076985858],[126.9824164005616,37.4717413982521],[126.98522289564539,37.466822100470104],[126.9863224999335,37.4679953995277],[126.98809969983341,37.4673458988961],[126.9884371995754,37.464687501236895],[126.9874359988906,37.4609115005692],[126.9886868988555,37.459392799438305],[126.9878057997366,37.458721900109204],[126.9882453992238,37.4581947986294],[126.9887375013936,37.4599791989672],[126.9935692032369,37.4636874983507],[126.99332910299,37.466292600455205],[126.9920385023682,37.4685549003749],[126.9929963009948,37.4695385016963],[126.9920384992408,37.4685549027589],[126.9904871007922,37.4684080029058],[126.9882530000539,37.470207500853704],[126.9860797007116,37.4704958008882],[126.98530890071511,37.473602999612794],[126.9862742004238,37.475622297586],[126.9895242987826,37.474894396166796],[126.98879130104321,37.4758249997087],[126.9893190017345,37.478610997733604],[126.98719790025339,37.479207200338095],[126.982675801424,37.482745299939594],[126.9827663013335,37.4839262987586],[126.9842397014979,37.483891899263206],[126.9852818004558,37.4847596983954],[126.9852546001816,37.485763899007104],[126.986001701282,37.4858222001477],[126.9824502005695,37.4881471002235],[126.9838130009816,37.490659199327204],[126.9850797004249,37.490856799687705],[126.98373980067,37.4923161003371],[126.98333099995851,37.491788100674],[126.9826020000374,37.4927541010128],[126.981092299895,37.491106701067004],[126.9800000995434,37.4918093004199],[126.9794073002882,37.4900599010782],[126.9785143992053,37.4910143001086],[126.97940729895801,37.4900599007542],[126.9791482996041,37.4888380003756],[126.9785491000019,37.4886604003892],[126.9778762002603,37.4900459002249],[126.9765124998151,37.489882200356],[126.9773102994369,37.4894543999638],[126.9758840998072,37.4882208998325],[126.97681419899871,37.4885819994552],[126.97655929843981,37.4867954006924],[126.9774696998857,37.4860793984636],[126.9775751997802,37.4847074998355],[126.9786277993311,37.4850167997383],[126.978043499602,37.4840047997097],[126.98000429999401,37.4834699993233],[126.9800641999341,37.482279000514296],[126.9778346994929,37.4818447010622],[126.9780560994084,37.4806881001768],[126.9763040999207,37.48036480100949],[126.9761170994552,37.4795045005803],[126.974056100235,37.479671700769195],[126.9742268985194,37.4768799002487],[126.9730861995702,37.4760280998945]]],[[[126.86490069948151,37.26834629895],[126.8664653979168,37.2682275990687],[126.8662359979019,37.2659244989608],[126.8697386974851,37.262509998450696],[126.8688184984985,37.2594019003194],[126.8703330978198,37.2574531008697],[126.8709419004232,37.258517598484495],[126.873292098073,37.257620599381504],[126.8717476997069,37.2550391991136],[126.8736744999951,37.257495496706],[126.8758643987595,37.256678397835095],[126.876886001154,37.258348297496305],[126.8790379011482,37.2575456974764],[126.8809873003805,37.2595118975486],[126.8843556996551,37.2567902981556],[126.8849735008243,37.2576604988317],[126.88688759891019,37.2570237994684],[126.8899475991127,37.253586199438104],[126.89194759711269,37.2525278004965],[126.89013729892301,37.2497705032538],[126.8874398959222,37.2491377986448],[126.8891300978905,37.245530800347396],[126.88796789883281,37.2443915996666],[126.8903222997288,37.2443726992478],[126.8912359990357,37.2432872980428],[126.8911883006368,37.2438576991906],[126.8935532982718,37.2439877990605],[126.89267589986311,37.2413828982524],[126.89355330042119,37.243987797334796],[126.8966471004465,37.24376259755989],[126.8979887991048,37.24201879930369],[126.89944709937801,37.2441646972815],[126.9006476981774,37.243018198428004],[126.9021221002747,37.2388506992928],[126.90140780201641,37.242187996837195],[126.9076039993557,37.2472902935144],[126.9097137972459,37.2453814954232],[126.9108251011063,37.2426817923615],[126.9133368004588,37.246702495585396],[126.9173370028794,37.24639109449409],[126.9236035008987,37.2426651972624],[126.9269422000692,37.243646499699096],[126.92437650251449,37.2428995009088],[126.9275010006706,37.246253697409294],[126.9306606011284,37.2462679999698],[126.928718801426,37.2477372004644],[126.92928500085979,37.249122899078706],[126.9304423028369,37.2491943047951],[126.9287546032434,37.2517162040538],[126.9249743025937,37.2530260018236],[126.9275849029056,37.256046104819596],[126.92359139949161,37.254338301321404],[126.9200940991216,37.2554625008551],[126.9153400038757,37.2515000048176],[126.916653702562,37.2587743975432],[126.9186435018832,37.2574953992031],[126.9185694039773,37.2599640976827],[126.9143380056635,37.2614376046242],[126.90679280447381,37.2614648023087],[126.905019804358,37.2629999050395],[126.9058180980973,37.2613052012246],[126.90515109876429,37.2590233035065],[126.9006855032299,37.2565529059769],[126.8978814013887,37.2589752064261],[126.8964514990308,37.2617452065849],[126.89040959946409,37.2581105055742],[126.8891670007067,37.258877504807195],[126.8856222991071,37.258671801995],[126.88353990118951,37.2602913003755],[126.8841352998475,37.2608588002889],[126.8825193007864,37.259293302319705],[126.8809873023184,37.2595119021011],[126.8820557013557,37.262645899080205],[126.8811592010419,37.264260198999004],[126.8836203005811,37.266131099865],[126.8839679002335,37.268042197953896],[126.8854873033654,37.2696206966515],[126.8885219003308,37.2707947954774],[126.8917704021375,37.2709737983901],[126.8910329012357,37.2718585029978],[126.8887484007734,37.2720225008511],[126.888006101837,37.274433200706596],[126.886648001643,37.275277101597695],[126.88640689806459,37.2727309030306],[126.8827178003144,37.2721796029484],[126.8814611989637,37.2692268035092],[126.8799483004766,37.2686356041004],[126.8779566024683,37.2717802009558],[126.87121689998679,37.272457401584504],[126.8687171024866,37.2713088027331],[126.86664519895719,37.2731208007437],[126.8681801982366,37.269053900391704],[126.8664561997788,37.2686493003622],[126.865859999691,37.2693432004828],[126.86490069948151,37.26834629895]]],[[[127.0451511984795,37.0748782006803],[127.0445148990781,37.0739732005141],[127.04561149944671,37.0726801994371],[127.0492440985722,37.070332099389304],[127.05306689888961,37.0658506988944],[127.0552271002512,37.0655007994568],[127.05491890067971,37.0664387990442],[127.05818219990401,37.067114599605],[127.0590261004283,37.0683303991875],[127.0595475008779,37.0678834995598],[127.0593123006809,37.069761499466296],[127.06085330080231,37.068620799596495],[127.0640187004454,37.0712733993573],[127.0624362009568,37.0718892000993],[127.0608501020966,37.0748973993691],[127.0641553996429,37.0756687995803],[127.06384369936991,37.0749380993775],[127.0644803006147,37.0751366998809],[127.0656903012679,37.078059001803005],[127.06439070015071,37.079561700374796],[127.0641695995935,37.078280800677305],[127.0631029006602,37.0779728009853],[127.0626630005504,37.0800848996004],[127.0637103006071,37.0803013001356],[127.0626630002142,37.080084900597505],[127.0624522004957,37.0808200006007],[127.05989080078791,37.0815460998354],[127.06055280012589,37.0816456997358],[127.0603881007828,37.0826874011185],[127.0586800004767,37.085218799737],[127.0576720002608,37.084537400625905],[127.0573511998693,37.0853075008265],[127.0566740001311,37.084077701318904],[127.05389409960809,37.084412401075596],[127.0525371994577,37.082366901095995],[127.0496887997786,37.0828074005464],[127.048974699364,37.0808148995889],[127.04981669838149,37.0777950007458],[127.0451511984795,37.0748782006803]]],[[[127.04299709775479,37.053000601352494],[127.043931199708,37.0492946997933],[127.0444430010872,37.0505993987204],[127.0465236997276,37.050606798724296],[127.0469579992933,37.0483048010263],[127.04564239988781,37.0483767009431],[127.0458893987028,37.0477209994459],[127.0471405998156,37.0472923992854],[127.0470596001136,37.0465777995688],[127.0476296002244,37.0472618988763],[127.0488460990079,37.04671819942],[127.0490616000074,37.0455220994023],[127.0508614006621,37.047728100002104],[127.05012310012819,37.0481797999155],[127.0537433006427,37.0500776990792],[127.0552721996396,37.0501687991744],[127.05787170009951,37.0479389987271],[127.0573381005711,37.048970599505594],[127.0586861997331,37.049027999606],[127.05934870031871,37.0499212996082],[127.060694000236,37.0535343998262],[127.0600597001142,37.0545040000339],[127.0597157000886,37.054039000481104],[127.05919709999411,37.056655100733],[127.05860949940781,37.056090701665696],[127.0571381008792,37.0568160009404],[127.05734870066861,37.0574747002817],[127.0558533998196,37.0573646006562],[127.0554412998348,37.0580079004134],[127.0543616000505,37.0570372008583],[127.0538166999457,37.057868900544804],[127.0533854997485,37.056962300533904],[127.05188490088021,37.057185000329895],[127.0498593000563,37.0593233003257],[127.0471198999991,37.0587258001331],[127.0463093985347,37.0578077999661],[127.0464703983737,37.0562753014986],[127.0436679999744,37.0550656018657],[127.04299709775479,37.053000601352494]]],[[[127.11759479961471,36.793295900527596],[127.11833280051411,36.7915435995181],[127.11885080001821,36.7920519994126],[127.1193064018236,36.7915306998007],[127.1201703009597,36.7927690985623],[127.12224950033199,36.7920490992477],[127.1227576000962,36.793611999386805],[127.1259230000449,36.7937829999405],[127.1229796010248,36.7954297999405],[127.1249251990792,36.795764199606104],[127.12583130021841,36.7945392997369],[127.1251887006674,36.795225800609394],[127.1257434001252,36.796418600014505],[127.12297960089269,36.7954298008772],[127.1217486006782,36.796661199969],[127.1226067013181,36.7972470001828],[127.12065989934891,36.7972532008709],[127.12114319937831,36.7961576007212],[127.1201664992778,36.794444100239],[127.11759479961471,36.793295900527596]]],[[[127.14690079949379,36.8351480997081],[127.1478271994246,36.835862299427305],[127.1483931995816,36.835108299071],[127.14923039976959,36.8355809995065],[127.150188698966,36.833360099818],[127.1487495999383,36.8327786996429],[127.1510429993048,36.8309466999711],[127.1498393991077,36.830626798862895],[127.1511765995101,36.8294059994797],[127.1510426008704,36.830476599094695],[127.1517250007656,36.830587298721596],[127.1510430008723,36.8309466999213],[127.15360230157701,36.8317991987113],[127.1519564999101,36.8324862007635],[127.1519315006732,36.8348705000315],[127.1501328999133,36.836614600877],[127.1490792999615,36.8370346004264],[127.14690079949379,36.8351480997081]]],[[[126.8919832982656,37.519384199482396],[126.8937229995738,37.519154497685896],[126.8946446986521,37.517273699566694],[126.8938553993395,37.514963400987696],[126.8921683998808,37.515737100066005],[126.8931644989331,37.515009500639195],[126.8924766990138,37.5143865009779],[126.8932531996187,37.513568099706504],[126.8957533998808,37.514290499667204],[126.8961826004827,37.5136955997596],[126.8962071006301,37.5152189991749],[126.8992168013234,37.5168504985882],[126.8980893002597,37.5169372015812],[126.89817890017011,37.5185347999836],[126.89671710148491,37.518947099737396],[126.8965020000654,37.520118000285294],[126.89386399897309,37.520410901298604],[126.8934572987795,37.519329800449],[126.8919832982656,37.519384199482396]]],[[[127.10212249854219,37.295599498781904],[127.10933739972491,37.2941931985918],[127.1102413016845,37.2956992014561],[127.1101990017268,37.2977069994483],[127.10886500112949,37.299404300045296],[127.108963600968,37.3019180995918],[127.1099572008437,37.3017122002448],[127.1073113008851,37.3014594018639],[127.1059333008332,37.3025974013844],[127.1027999998933,37.3022139000681],[127.10386959933909,37.3022047996532],[127.10503729817141,37.3004423014157],[127.1050524981078,37.2979200984753],[127.1045040986562,37.2958416005538],[127.10212249854219,37.295599498781904]]],[[[126.7813223971497,37.3267025998584],[126.7844433970371,37.3268316969411],[126.7857801965016,37.325935896984895],[126.7871761961608,37.3221900971188],[126.7918115017385,37.323890998543604],[126.7899340000764,37.326455100117094],[126.7865090013575,37.3276792998572],[126.78702200084449,37.3286660988704],[126.7882410008949,37.328728399538],[126.7878481007975,37.329972601333196],[126.78568699998739,37.327279600697594],[126.7813223971497,37.3267025998584]]],[[[127.05468739608591,37.107349404565994],[127.0580794015363,37.104628096913],[127.0619686014514,37.1085493993216],[127.0635586998613,37.1085036993673],[127.06376280007471,37.107498898799705],[127.06352600159539,37.1094562999377],[127.063558698832,37.1085037006254],[127.0607888012958,37.108596600561896],[127.0619285011931,37.1099733998456],[127.0625922005983,37.113967799954295],[127.05998420269161,37.1141930003322],[127.0600985002211,37.115155701861305],[127.0569508981999,37.1144629029682],[127.0565464998557,37.1106308019187],[127.0543180020842,37.110800501749004],[127.05455599740361,37.1126955024146],[127.05468739608591,37.107349404565994]]],[[[126.83543089837171,37.4887186006407],[126.8359036993124,37.4856959001315],[126.83770609932631,37.4851823985602],[126.83829609875329,37.4834035985089],[126.8389901004611,37.4843157977394],[126.8402206992305,37.4843652976899],[126.84164450044621,37.483378399746],[126.8400224023216,37.4846214022141],[126.8421139011147,37.488340500355],[126.8396875001278,37.4879079002675],[126.8391892006378,37.4889284994643],[126.8403568001269,37.490242300148196],[126.83543089837171,37.4887186006407]]],[[[126.8943035992778,37.5256259997402],[126.89615000061461,37.523145899416505],[126.8972840010151,37.523437099839],[126.8975297009445,37.5243658995931],[126.8985253006603,37.5241697995633],[126.89900210047631,37.5261348005542],[126.89809420098061,37.5266261004094],[126.89829310045171,37.5274354006334],[126.8962429990484,37.5282122004807],[126.89437740000939,37.526891500646094],[126.8943035992778,37.5256259997402]]],[[[127.1016573981602,36.7926590993978],[127.102037600802,36.791268798610496],[127.1063163009718,36.791385899598204],[127.10619439976391,36.792010401836905],[127.1063162993,36.791385900814305],[127.1041373007591,36.791564800758806],[127.104610000791,36.794199999987896],[127.1026048005019,36.7954942001476],[127.1028635997274,36.796637301093],[127.1015556005157,36.796413201155005],[127.100368999837,36.7976494003864],[127.1009866995291,36.7951361991808],[127.1015594005134,36.7953944978557],[127.1030441990286,36.793837599412605],[127.10277659931509,36.7924908006699],[127.1016573981602,36.7926590993978]]],[[[126.9245669991424,37.5127381002066],[126.92484409960281,37.5110171993846],[126.9262375003537,37.5136809990246],[126.9282813010789,37.5135815995979],[126.9296322010475,37.5145116986941],[126.92861440101031,37.513977500622005],[126.92742510219959,37.5151633994361],[126.9285507000356,37.5168924000736],[126.9264961984399,37.514591099849895],[126.9260346991984,37.5125795006578],[126.9245669991424,37.5127381002066]]],[[[126.8223052996394,37.4916921995654],[126.8225508996716,37.4909234992758],[126.8232348006769,37.491751298600995],[126.82480800024081,37.4916985992958],[126.82542650043281,37.4907701994788],[126.8238202008081,37.4919285007667],[126.82396470066361,37.4927545999406],[126.8253962016338,37.493155900165796],[126.8246086994788,37.4939655024187],[126.8233969995267,37.4924950005928],[126.823735999633,37.4919509002261],[126.8228619999548,37.491172500835],[126.8223052996394,37.4916921995654]]],[[[127.10808499818721,37.3157525991339],[127.10824580003171,37.3092855991287],[127.1083165005124,37.3141361001603],[127.1091459010335,37.315087699094796],[127.10808499818721,37.3157525991339]]],[[[126.80771109926481,37.3345281000422],[126.8097995000425,37.3329972995165],[126.81134070040551,37.333649599846304],[126.81193470093929,37.3351423012743],[126.81006309987349,37.3364890000815],[126.8099676994583,37.33535740051],[126.8084965999856,37.335496401149896],[126.80771109926481,37.3345281000422]]],[[[126.9365989999032,37.5045387999732],[126.9383280002652,37.5036533975349],[126.9392156999408,37.5044010993687],[126.93992850005169,37.502752898054595],[126.9405125006929,37.5048077992514],[126.94160390061211,37.504512500132996],[126.94090630105839,37.5067836004244],[126.9399015989628,37.5068657013003],[126.9386369006186,37.504620101365894],[126.9375201997155,37.5054428012883],[126.9365989999032,37.5045387999732]]],[[[126.7404603994475,37.3538007990037],[126.7411985994749,37.3535675989941],[126.7406557993029,37.3514878990956],[126.7420371996833,37.351682698876196],[126.7423072005497,37.350905999379705],[126.7435360001552,37.35230589907],[126.7452476003543,37.3512298000473],[126.7437432009699,37.3526906000708],[126.7438715002764,37.3537338003353],[126.7422459003753,37.354286501171],[126.7404603994475,37.3538007990037]]],[[[126.9013287998485,37.533845499377],[126.9024623003299,37.5340016994747],[126.9028846998016,37.536052100857496],[126.9013287998485,37.533845499377]]],[[[127.1228911982161,36.9177472018117],[127.1272954008096,36.9158686994179],[127.126372700231,36.9161217010739],[127.12626570074221,36.9182803989292],[127.12699770082601,36.9194175999146],[127.1250656004439,36.9205052002458],[127.12320629991531,36.9210836020231],[127.1240809970263,36.9205122990466],[127.1228911982161,36.9177472018117]]],[[[126.7655887980673,37.3387304999724],[126.76667979951061,37.3389927992128],[126.7671794997827,37.3378500995167],[126.7701085003374,37.336640498836104],[126.7694156018148,37.3369907000911],[126.770707001426,37.340181100836304],[126.7655887980673,37.3387304999724]]],[[[126.91103319907951,37.487130600465],[126.9124566998141,37.487616699442896],[126.9126023995447,37.4866428991055],[126.9135786994382,37.4866993993248],[126.91419690031229,37.4874983997701],[126.9123323999018,37.488869800532],[126.91103319907951,37.487130600465]]],[[[127.0030762989455,36.7815880000869],[127.0044778999971,36.7809856997752],[127.0042241000443,36.7815621004228],[127.0030762989455,36.7815880000869]]],[[[126.94363029953,37.513678299991],[126.9437108003309,37.5127634993357],[126.9445858006408,37.5138732003896],[126.94363029953,37.513678299991]]],[[[126.94138289968649,37.5135042004592],[126.9420740998101,37.5125020993339],[126.9430364001239,37.5136418000275],[126.94138289968649,37.5135042004592]]],[[[127.1060518985349,37.3241164998725],[127.1060412989714,37.3234071991986],[127.1071695005127,37.3240034001006],[127.10687530026439,37.325365600275695],[127.1057344993424,37.325052800037604],[127.1060518985349,37.3241164998725]]],[[[126.8460146990323,37.4951476005156],[126.8484767012644,37.4957469992582],[126.8491378011715,37.4963808998101],[126.8460146990323,37.4951476005156]]],[[[126.8723968990902,37.5100263007461],[126.8721983994909,37.5093543981962],[126.87297240083629,37.5091739988159],[126.8723968990902,37.5100263007461]]],[[[126.9694029997304,37.4854627992824],[126.970461299685,37.4838447997042],[126.9718021005786,37.4843888996678],[126.9694029997304,37.4854627992824]]],[[[126.73727229990921,37.3626916000378],[126.7378386996478,37.3620969996907],[126.7383399005963,37.3623171996358],[126.73727229990921,37.3626916000378]]],[[[127.1435515981094,37.274767000164296],[127.144071100592,37.27490110017],[127.1436001993407,37.2751641002561],[127.1435515981094,37.274767000164296]]],[[[126.8916327987663,37.4204434010429],[126.89224749898,37.4204551985271],[126.8925235995018,37.418519199071696],[126.8930872004692,37.4205719998656],[126.8922352011736,37.4209040000025],[126.8921274004176,37.422136700542104],[126.8916327987663,37.4204434010429]]],[[[126.9293322999682,37.4841213001112],[126.9297220000597,37.4838785994234],[126.9301531000998,37.484223399977495],[126.9293322999682,37.4841213001112]]],[[[126.9472901996329,37.5029705997871],[126.94754900045149,37.5020585994747],[126.94877510050891,37.5027390994192],[126.9472901996329,37.5029705997871]]],[[[127.1029929996444,36.7882427001626],[127.10419600022401,36.788424998345796],[127.1046197017563,36.789620201238804],[127.1041959990711,36.788425000050694],[127.1029929996444,36.7882427001626]]],[[[127.13465359943329,37.2677371001371],[127.1349044003313,37.26807260007941],[127.1344223999601,37.2682924005786],[127.13465359943329,37.2677371001371]]],[[[126.7610730990355,37.3413592999524],[126.7606276993269,37.341146199673496],[126.7622945023048,37.3409091012475],[126.7610730990355,37.3413592999524]]],[[[126.99732919883519,37.4819279003948],[126.9968672996752,37.4812026992157],[126.9980012008158,37.4808983987952],[126.99732919883519,37.4819279003948]]],[[[126.9638774991209,37.5299852000761],[126.9646091999581,37.528974399527904],[126.96445990064609,37.5304383004149],[126.9638774991209,37.5299852000761]]],[[[126.98955829894089,37.456601800601405],[126.99020800114829,37.456525298534004],[126.9897927004336,37.456804301284],[126.98955829894089,37.456601800601405]]],[[[126.8115171993468,37.485328199661595],[126.8120076005024,37.4860317008199],[126.8116076990509,37.4859085996815],[126.8115171993468,37.485328199661595]]],[[[126.8375128991041,37.3251373998325],[126.8373637997247,37.324601798656204],[126.8374448007274,37.324598099379],[126.8375128991041,37.3251373998325]]],[[[126.8839212982798,37.262000401258796],[126.88369880000481,37.2617756995604],[126.8841267019576,37.2620016028284],[126.8839212982798,37.262000401258796]]],[[[126.9790195993038,37.5055645988025],[126.97915449916891,37.5055246988424],[126.9793504006656,37.505615199945304],[126.9790195993038,37.5055645988025]]],[[[127.04644489981689,37.1777313999529],[127.04668580144771,37.1776766998448],[127.0465972007997,37.177844200933805],[127.04644489981689,37.1777313999529]]],[[[126.98231399957291,37.501876499800304],[126.9825358030583,37.5021375026269],[126.9824044992172,37.501986599948104],[126.98231399957291,37.501876499800304]]],[[[127.1091156989663,37.291142799865504],[127.1098043003248,37.291229299385996],[127.11012030044131,37.2920404002588],[127.1091156989663,37.291142799865504]]],[[[127.1257106969634,36.9112350016119],[127.12466689926259,36.910727398805996],[127.1266465002254,36.9122415027947],[127.1257106969634,36.9112350016119]]],[[[126.92269379992031,37.400835799979305],[126.9227879000354,37.4005827999461],[126.9227357999907,37.4008739001284],[126.92269379992031,37.400835799979305]]],[[[126.96348759929889,37.4769997002735],[126.9634876009482,37.4769996990145],[126.96356040062791,37.4771098005287],[126.96348759929889,37.4769997002735]]],[[[126.9755449996445,37.3389546996232],[126.9760792031019,37.3383561000229],[126.9761495002342,37.338705500392],[126.9755449996445,37.3389546996232]]],[[[126.8104609986832,37.3483423011767],[126.810461000512,37.3483422996157],[126.81048180045991,37.348691200982294],[126.8104609986832,37.3483423011767]]],[[[126.9736016998166,37.5226430996842],[126.9743664999848,37.5224061998091],[126.97442960038589,37.5225548999593],[126.9736016998166,37.5226430996842]]],[[[127.10755469951019,36.792203199632105],[127.1075853000746,36.7920982989351],[127.1077654008362,36.7922361021785],[127.10755469951019,36.792203199632105]]],[[[127.05328359949,37.0471987996013],[127.0533130003848,37.0467533985109],[127.05331300144411,37.0467533999671],[127.0533130000432,37.046753400382],[127.05328359949,37.0471987996013]]],[[[127.06198659899489,37.053029200313595],[127.0620087996762,37.052952599379395],[127.0619866001188,37.0530292003619],[127.06198659899489,37.053029200313595]]],[[[126.9087811989189,37.4855564992894],[126.90890879989391,37.4852886995553],[126.9087812010664,37.485556500666505],[126.9087811989189,37.4855564992894]]],[[[126.9110300993462,37.4862164003773],[126.9111879003904,37.4859392993352],[126.9110301001965,37.48621640045231],[126.9110300993462,37.4862164003773]]],[[[126.9800009988984,37.50338879997091],[126.9806456997883,37.5027276994918],[126.9800010002935,37.5033888004535],[126.9800009988984,37.50338879997091]]],[[[127.1078350999298,37.2893319999585],[127.1079244000926,37.289242199789896],[127.1079244000641,37.289242200153],[127.1078350999298,37.2893319999585]]],[[[127.1336297997172,37.267493800393396],[127.13362979968039,37.2674937996565],[127.1338652000998,37.267583800156494],[127.1336297997172,37.267493800393396]]],[[[127.1435054993193,36.8705875009744],[127.14350550066891,36.8705874994068],[127.1435055008921,36.870587500296196],[127.1435054993193,36.8705875009744]]],[[[126.84499649896469,37.4948542004111],[126.8449964992371,37.4948541988147],[126.84499650060559,37.4948541991236],[126.84499649896469,37.4948542004111]]],[[[126.94034549984,37.513655700235304],[126.9403455001661,37.513655699831205],[126.94034550072391,37.5136557003077],[126.94034549984,37.513655700235304]]],[[[127.0696724995302,37.189029499421295],[127.0696725005096,37.18902949958569],[127.0696724995759,37.189029500774296],[127.0696724995302,37.189029499421295]]],[[[127.0820530997805,37.272311799788696],[127.0825567003168,37.272605300624605],[127.0820530999945,37.272311800775],[127.0820530997805,37.272311799788696]]],[[[127.10870029919799,37.3243218998536],[127.1087003000123,37.32432189906],[127.1087003004362,37.324321900081],[127.10870029919799,37.3243218998536]]],[[[126.74392319932839,37.3511410994222],[126.7439232001853,37.3511410990372],[126.7439232001897,37.3511411003699],[126.74392319932839,37.3511410994222]]],[[[126.8113451989707,37.5062400979573],[126.81134520252911,37.5062400992201],[126.8113451998107,37.5062401008194],[126.8113451989707,37.5062400979573]]],[[[126.8693925994419,37.4906898991331],[126.86939260049749,37.4906898999865],[126.86939260012599,37.4906899006541],[126.8693925994419,37.4906898991331]]],[[[126.901863898779,37.5169002998405],[126.90186390025849,37.516900299674205],[126.9018639004636,37.516900300396905],[126.901863898779,37.5169002998405]]],[[[126.9339589977694,37.295742699932795],[126.9339590013388,37.295742700762496],[126.9339589975747,37.295742701604],[126.9339589977694,37.295742699932795]]],[[[126.9400691977429,37.2870712973016],[126.9400692007503,37.2870712968453],[126.94006920020169,37.2870713012349],[126.9400691977429,37.2870712973016]]],[[[127.0608231995546,37.0511518998783],[127.0608231998092,37.051151899424404],[127.0608232001839,37.0511519002901],[127.0608231995546,37.0511518998783]]],[[[127.10861799908601,37.3246788001345],[127.10861800008291,37.3246787997441],[127.10861800019121,37.3246788007817],[127.10861799908601,37.3246788001345]]],[[[126.8105454997726,37.485014100461804],[126.8105454998024,37.4850140995432],[126.8105455003879,37.4850140998405],[126.8105454997726,37.485014100461804]]],[[[126.8587827993547,37.277985800567805],[126.8587828003748,37.277985799703806],[126.8587827999646,37.277985800976104],[126.8587827993547,37.277985800567805]]],[[[126.8956069997855,37.521242200071704],[126.8956070001038,37.5212421992786],[126.8956070001214,37.5212421999815],[126.8956069997855,37.521242200071704]]],[[[126.919686899366,37.5196584000607],[126.9196868999672,37.5196583996204],[126.9196869010557,37.5196583997991],[126.919686899366,37.5196584000607]]],[[[127.08642759763089,36.789285298167],[127.0864276017453,36.789285300420104],[127.0864276005658,36.7892853011188],[127.08642759763089,36.789285298167]]],[[[127.1076693997867,37.324007299459396],[127.10766940071551,37.3240072994266],[127.1076694002289,37.3240073001682],[127.1076693997867,37.324007299459396]]],[[[126.8822595998431,37.501797100028895],[126.882259600132,37.5017970998831],[126.8822596000262,37.501797100092],[126.8822595998431,37.501797100028895]]],[[[127.05324259945421,37.0479753996144],[127.0532425999985,37.0479753993106],[127.0532425999245,37.0479754002375],[127.05324259945421,37.0479753996144]]],[[[127.06460589949221,37.2642069000774],[127.06460589996071,37.264206899376],[127.0646059002055,37.2642069001112],[127.06460589949221,37.2642069000774]]],[[[127.1099870998424,37.3097892999862],[127.1099871001745,37.3097892999424],[127.1099871001745,37.309789300191795],[127.1099870998424,37.3097892999862]]],[[[127.1482389996045,36.832857000119],[127.1482389999974,36.832856999945996],[127.1482390000433,36.832857000020994],[127.1482389996045,36.832857000119]]]]}}]}