{"type":"FeatureCollection","features":[{"type":"Feature","properties":{"interval":15,"stationId":"5902085994"},"geometry":{"type":"MultiPolygon","coordinates":[[[[126.608550797717,37.477166401675404],[126.6091098005011,37.4764416973127],[126.6125614982934,37.477176696920104],[126.6158782988717,37.4737262934224],[126.6159017004163,37.474987998495706],[126.6171900991279,37.4735418999418],[126.6168135979364,37.4730539940947],[126.6207429002365,37.470699597484405],[126.62232670149601,37.468347795246196],[126.6244178002028,37.4693021990794],[126.6260055003795,37.4688067997628],[126.62642960137829,37.4715466989811],[126.62789680011551,37.4716673991946],[126.6282667002701,37.4726454997572],[126.6267814009312,37.4744418997464],[126.62769110002151,37.4747906993976],[126.62791200061899,37.4762864003495],[126.62555880033739,37.4761267008616],[126.6246377012585,37.4773557996325],[126.625164200732,37.4795999973883],[126.62718009996121,37.478636698257105],[126.62809200105039,37.479382299307],[126.626384000573,37.4795088013492],[126.6259637009933,37.481192399665595],[126.6265245010982,37.4814681005623],[126.62515720208701,37.483346499170906],[126.6262630000029,37.4839646007128],[126.62213490185091,37.4818982030334],[126.6192362007188,37.4842406012751],[126.6180437965316,37.4829003025032],[126.61302870034051,37.4823003027529],[126.608550797717,37.477166401675404]]],[[[126.62981789972561,37.4787129000462],[126.6309310989286,37.4784190997972],[126.6300233993468,37.4780335994988],[126.6301159988732,37.4767622985856],[126.6317405997771,37.476768999253395],[126.63471829926151,37.4744914998748],[126.6341166997678,37.473365800921506],[126.633467898896,37.4736256006925],[126.6339059993132,37.4723127001492],[126.6332237993271,37.4721072995456],[126.637494900262,37.4715492999373],[126.637035601045,37.4726250994121],[126.6380680004024,37.472931899992496],[126.6370863012344,37.473363300059404],[126.63769770062301,37.4745600988626],[126.63853690006451,37.4739568000029],[126.63769770063391,37.4745600997236],[126.63779170092339,37.4762879998521],[126.6386198000829,37.476774700192],[126.6374445997546,37.4774970004813],[126.6368479997422,37.4766735002765],[126.63456270091301,37.476746900666804],[126.6345999008758,37.4777572996564],[126.6361294005375,37.4778657996011],[126.6355889004849,37.477780600213904],[126.6361820005672,37.479500100242106],[126.6342807006215,37.478374500812],[126.6340742008032,37.4796695006166],[126.6308656999378,37.478829600732],[126.6301454996562,37.4794092002847],[126.62981789972561,37.4787129000462]]],[[[126.6381861988837,37.4688337000218],[126.6418392984001,37.466699298686905],[126.6418281001371,37.4674519999788],[126.6448278004695,37.467894998195895],[126.6457656995316,37.4669440991468],[126.64678390069571,37.4672313990101],[126.6462057006307,37.4677818010124],[126.6457656995109,37.4669441009764],[126.6448681000804,37.467961000349504],[126.64272630083751,37.4671785009929],[126.64319639998,37.4715996003279],[126.6402561004143,37.4705389018755],[126.6393517005341,37.4709296017913],[126.6381861988837,37.4688337000218]]],[[[126.6533989991292,37.4669767999968],[126.6535878007163,37.4678033984203],[126.65555819874591,37.466984699239],[126.6590465016463,37.4673688001941],[126.65631709987579,37.4678324011275],[126.6555582001241,37.4669847010204],[126.65358780018809,37.4678034003937],[126.6533989991292,37.4669767999968]]],[[[126.6687449991728,37.4659023001953],[126.66874499927461,37.465902299358106],[126.66874500137,37.465902299249805],[126.6687449991728,37.4659023001953]]],[[[126.67001099983891,37.465808700115495],[126.670011000104,37.4658086993434],[126.6700110008427,37.4658087002765],[126.67001099983891,37.465808700115495]]]]}},{"type":"Feature","properties":{"interval":30,"stationId":"5902085994"},"geometry":{"type":"MultiPolygon","coordinates":[[[[126.5964545979914,37.4729790046535],[126.5971593999692,37.4710312998191],[126.597107900297,37.4724223986451],[126.5982882023975,37.47152369843],[126.5995312013771,37.473491096581796],[126.6020059005416,37.4750224974776],[126.6033057992417,37.4748797976203],[126.6054443997968,37.4719071978244],[126.6078988068512,37.4731175940311],[126.6066388018416,37.476396999780896],[126.6085507999296,37.4771663990115],[126.6091098005011,37.4764416973127],[126.6125614982934,37.477176696920104],[126.6158782988717,37.4737262934224],[126.6159017004163,37.474987998495706],[126.6209793981205,37.4681839986647],[126.62232670149601,37.468347795246196],[126.6256161982065,37.4658218977721],[126.625901001211,37.464801796854594],[126.62985839759091,37.4643637978252],[126.6314881981729,37.4607781976917],[126.63022389845351,37.457888297713204],[126.63311379863771,37.457770596615504],[126.6338699978815,37.454811099575004],[126.6327339993781,37.453254099175005],[126.6382331995191,37.4544544993691],[126.6387945997672,37.455199999094496],[126.6398514000436,37.4546983989467],[126.64154770079931,37.456752297562396],[126.6435874992802,37.455053799032],[126.6447430988872,37.4528402004782],[126.6438938981764,37.4510013004124],[126.64402199708461,37.446497001366204],[126.643180296621,37.4458645995422],[126.64667610102249,37.4466095977368],[126.6484449992536,37.4449721993742],[126.6481211988459,37.4433695990883],[126.6499052005352,37.4428541980187],[126.65320520054651,37.4445423971842],[126.6546057015137,37.4467791984065],[126.657497201103,37.445674599558295],[126.65537900227339,37.4472182009253],[126.656562601082,37.4489208995337],[126.65589840047039,37.449173700497504],[126.6562593993702,37.449784701004205],[126.6541191007629,37.450266500057],[126.65457100037081,37.4508684005071],[126.6519719993529,37.4503076006579],[126.6533031987985,37.4495876001013],[126.6524028996059,37.4484321011153],[126.650149299929,37.448723501406796],[126.6486557007323,37.4510137996708],[126.6507951006201,37.4531063003536],[126.6479702003305,37.454239702000805],[126.6474159008848,37.456592499647996],[126.64775930054141,37.4571627990777],[126.65040090049929,37.4563802987575],[126.6502225008106,37.457430000254405],[126.65191260028651,37.4593519993561],[126.6539106005268,37.4585874991155],[126.655108401414,37.460947199906],[126.6546575016754,37.4618637995296],[126.6559933003396,37.4629104984829],[126.6593138003906,37.4608500988015],[126.66049459920981,37.4609737986778],[126.6610222997299,37.459977798732794],[126.6639650992813,37.4600821992408],[126.66562359951111,37.458384198817996],[126.6656327998855,37.457333999388204],[126.6662490999041,37.4577278990373],[126.66729689885629,37.456844199921],[126.6688735005124,37.4575263990819],[126.67072999927261,37.4565868989109],[126.6728734989805,37.458122297646],[126.6744830987889,37.456839898894096],[126.675765899287,37.4573763994511],[126.6799073999784,37.453806299429694],[126.6807884999783,37.4543616994258],[126.6819692012005,37.4537565993856],[126.6820199012013,37.454948899356395],[126.68323200158031,37.4549129993553],[126.6874849002074,37.4580228991531],[126.6885669991253,37.457961499214505],[126.6895169007447,37.456010498569896],[126.69155599996641,37.4570020978819],[126.6924611990893,37.454908399429],[126.6929427005723,37.456913798991],[126.69594869997171,37.4555423995674],[126.6969407002587,37.456722299531805],[126.69903880028029,37.4558374988228],[126.700880799023,37.4564318994237],[126.7008689999406,37.4554551995417],[126.7024454006529,37.4552511989594],[126.70162880076569,37.4563896995254],[126.7028142999669,37.457240599330596],[126.7032283003934,37.4567275994216],[126.7026669003981,37.458885000025205],[126.7040257023234,37.4623577000919],[126.7030213009244,37.462344700860804],[126.7029945009512,37.4631677000378],[126.7043720000468,37.4661050993449],[126.7099680001309,37.470048599562496],[126.7104875005087,37.469775499757496],[126.7093854003519,37.4708274999116],[126.7085517002567,37.4736448002592],[126.70584810090689,37.474551601928795],[126.70542690060121,37.475801100617495],[126.7051822997229,37.4751487006598],[126.7039154009898,37.4751536006549],[126.7017108003899,37.4766779018498],[126.6964934998004,37.4759010023522],[126.6957754996046,37.4714119002491],[126.6966339997545,37.4690401001089],[126.6957030988643,37.4677465000664],[126.6961272984585,37.4646593000518],[126.6945989999868,37.464001700709396],[126.6923418011437,37.4649846007254],[126.6919835999742,37.466988001122],[126.6878258001752,37.468232202077004],[126.6865679001857,37.4718151001907],[126.6815717986139,37.4748002019969],[126.6769677993671,37.475847300731],[126.677405597207,37.474984500591],[126.6762179983946,37.4729137026618],[126.6744554001572,37.4734276021479],[126.67312009939941,37.4715901017886],[126.6703462992272,37.4706858021748],[126.66831050126301,37.472173800686804],[126.66848359984441,37.4734904017551],[126.6675071000918,37.4724752015374],[126.66585860119241,37.4725621017964],[126.6655263015247,37.4738198005387],[126.6638665005145,37.474102102090704],[126.6604167003044,37.4768382010862],[126.65804589907441,37.4749642012179],[126.65561340067659,37.4745704014165],[126.6551596000497,37.4761587001332],[126.6547981998614,37.4747489013359],[126.6525356010215,37.4748477013901],[126.65174870090969,37.477494499837796],[126.65267450021891,37.4785094004547],[126.6509175999956,37.478734800657],[126.6494320010709,37.4779092013509],[126.64822970050591,37.4796264003252],[126.6489181003829,37.4809147000992],[126.6479068008198,37.4818675004311],[126.6482669000432,37.483568700046696],[126.6470060995338,37.4826402014359],[126.6428289029887,37.4841551002621],[126.6456220012468,37.4869818057361],[126.64269609524099,37.4842346106448],[126.6400764978606,37.483013811865604],[126.633470104467,37.484565410314],[126.6312489066882,37.4875731073063],[126.626953998256,37.4904165064626],[126.6215995476373,37.4919681813006],[126.6152305985705,37.4889018127269],[126.61457539865971,37.4854035029395],[126.6133691963172,37.4850531979391],[126.61302869665771,37.482300300691996],[126.6091258005606,37.4785838044085],[126.6081901014963,37.482550300442],[126.60433807753681,37.4841331095965],[126.60338579748979,37.4811312003694],[126.6009855993578,37.4808921010559],[126.5990168961815,37.478844500106604],[126.5964545979914,37.4729790046535]]],[[[126.6565840991051,37.4293094001131],[126.6565841026465,37.4293094006913],[126.6565841003441,37.4293094013972],[126.6565840991051,37.4293094001131]]],[[[126.65836429917971,37.4276403001611],[126.6594480988187,37.4268838001926],[126.6592105992697,37.426134499487105],[126.6601107995435,37.4273001993096],[126.6606915993604,37.4264751994672],[126.6619148004102,37.4270981994445],[126.65836429917971,37.4276403001611]]],[[[126.6750176981168,37.4897109991874],[126.6750177003501,37.4897109981953],[126.67501770011779,37.4897110018146],[126.6750176981168,37.4897109991874]]],[[[126.6780947991462,37.4189212004827],[126.6789329996759,37.4172623990686],[126.67920360063849,37.418969600073794],[126.6780947991462,37.4189212004827]]],[[[126.68191799857469,37.4855792999112],[126.6833282983081,37.4825773012519],[126.6823915989526,37.4817750991032],[126.6845917006697,37.4836154975315],[126.6870031009609,37.4818265992621],[126.6863422006805,37.483192198777],[126.6870871006586,37.4858114005796],[126.6847243008272,37.4848579009871],[126.6833315995638,37.4854656003385],[126.6845916987297,37.4836155012699],[126.6833282997333,37.482577302288206],[126.6821573009043,37.484272500593],[126.6828708000671,37.4848796003912],[126.68191799857469,37.4855792999112]]],[[[126.6856226998338,37.4126240000583],[126.6865095007622,37.4127703006347],[126.685876199745,37.413417700371],[126.6856226998338,37.4126240000583]]],[[[126.6872583992404,37.4120775001413],[126.687401200007,37.412217499751996],[126.6875607999881,37.4121146997622],[126.68786000028071,37.4123600003066],[126.6872583992404,37.4120775001413]]],[[[126.7001434991756,37.4543710002893],[126.70028860023369,37.454313899428605],[126.7001434997307,37.454371001373204],[126.7001434991756,37.4543710002893]]],[[[126.7041139995077,37.4567322994169],[126.7047430003253,37.456562000220195],[126.70441270054671,37.4573153008652],[126.7041139995077,37.4567322994169]]],[[[126.70611099937221,37.4817588995213],[126.7061110008688,37.4817588987742],[126.70611100149131,37.4817589007108],[126.70611099937221,37.4817588995213]]],[[[126.7071410985352,37.457424199959796],[126.7086573030595,37.4569699985709],[126.70860900120779,37.457620901402905],[126.7079445000314,37.4569327008573],[126.70750550041859,37.4578441004234],[126.7071410985352,37.457424199959796]]],[[[126.7085140993175,37.4838821003326],[126.70909039933579,37.4836860999435],[126.7093885985357,37.4803286000582],[126.711014200303,37.4798856989462],[126.71190660181071,37.4818454000266],[126.7140026005873,37.4825274005131],[126.71116570162509,37.4856385997589],[126.7119230008678,37.4868390985584],[126.7137182001597,37.4872778006215],[126.7128639997799,37.4867505005764],[126.7109816992221,37.488148300552],[126.7094431001538,37.4873336003026],[126.7086075998282,37.4866321999049],[126.7094803998153,37.486394699733296],[126.7085140993175,37.4838821003326]]],[[[126.719340498874,37.455887800749],[126.7202217009834,37.4558248995976],[126.72012270016431,37.455832000642104],[126.719340498874,37.455887800749]]],[[[126.71943729928189,37.4907788003757],[126.7264231002368,37.490070098710696],[126.72731840078241,37.4905751005578],[126.7256359009498,37.4912881005436],[126.726026100616,37.4922059002501],[126.7250959999613,37.4928779005783],[126.72446030005631,37.492242600608094],[126.7229522998889,37.4932686007234],[126.71943729928189,37.4907788003757]]],[[[126.7222625992865,37.4986079995927],[126.7222626006146,37.498607999502596],[126.72226260076249,37.4986080002532],[126.7222625992865,37.4986079995927]]],[[[126.73955699970041,37.4875050004862],[126.7424684999477,37.4878498990418],[126.7424652006511,37.4886458999132],[126.7398355001628,37.48828980054439],[126.73955699970041,37.4875050004862]]],[[[126.7538583996024,37.4878169998861],[126.754083600412,37.487850899986796],[126.75409350040209,37.4879701998675],[126.7538583996024,37.4878169998861]]]]}},{"type":"Feature","properties":{"interval":60,"stationId":"5902085994"},"geometry":{"type":"MultiPolygon","coordinates":[[[[126.5786606979245,37.4915837983242],[126.5804168995211,37.4919182983026],[126.5810014004717,37.490501299109596],[126.5821440055136,37.4917298050713],[126.58090850079361,37.4926336996756],[126.5818749046827,37.493729604326],[126.5804168986272,37.491918301399004],[126.5788356995862,37.4925808011416],[126.5786606979245,37.4915837983242]]],[[[126.5948535747075,37.468999116708396],[126.6005959996033,37.466336999122305],[126.60398260017679,37.466385297706196],[126.60524120950879,37.4697315974171],[126.6078988068512,37.4731175940311],[126.6066388018416,37.476396999780896],[126.6085507999296,37.4771663990115],[126.6091098005011,37.4764416973127],[126.6125614982934,37.477176696920104],[126.6158782988717,37.4737262934224],[126.6159017004163,37.474987998495706],[126.6209793981205,37.4681839986647],[126.62232670149601,37.468347795246196],[126.6256161982065,37.4658218977721],[126.625901001211,37.464801796854594],[126.62985839759091,37.4643637978252],[126.63148819596111,37.4607782014108],[126.62869669841531,37.4587163029401],[126.6298942979198,37.458031597879796],[126.6276667001474,37.4541069018045],[126.6226372017665,37.4548918023295],[126.6110960006344,37.4593931016192],[126.6088092986176,37.457819900916796],[126.6100707994751,37.4551906991871],[126.6135293982978,37.454421099439095],[126.61308429874289,37.4537774000828],[126.6149656978619,37.453254200219504],[126.61336139856691,37.450634197676806],[126.6165074969035,37.446466799937504],[126.61909949372881,37.4409676013782],[126.61698779958941,37.437539099335204],[126.6199086033655,37.436255696103295],[126.62226430106409,37.4399145965719],[126.62551879780959,37.4385336979528],[126.6240040006112,37.4361362984268],[126.6267728012535,37.438001596721],[126.6282724015029,37.4402786973962],[126.6315496982256,37.438947498727394],[126.62985589982969,37.4341883992877],[126.6342764969311,37.4348436971596],[126.6347740964335,37.431834800168495],[126.6335468976607,37.431011300992004],[126.6353436994313,37.4306228998809],[126.63627669982729,37.4271338992192],[126.63965879742001,37.4261222995404],[126.64055119652761,37.4246344010283],[126.6373444982511,37.4216130005219],[126.6387751955919,37.417861700851205],[126.6416315976435,37.4206693956452],[126.6436095959301,37.421278994691995],[126.6462417932979,37.420622095348904],[126.6528581977684,37.414279796007705],[126.6546297959968,37.4112423990451],[126.65957059944449,37.4125832962984],[126.6609843980307,37.410226198655494],[126.6616479001691,37.4101564992353],[126.6624247018352,37.412216098934906],[126.6633493009106,37.4125663985846],[126.6661312981286,37.4112814998695],[126.6646353992673,37.410208599339896],[126.6661967985021,37.410626799335304],[126.66649489961901,37.4088043002193],[126.6647971999017,37.4091466008155],[126.663600998216,37.4084753009165],[126.6638897981863,37.4073491991183],[126.66566189619691,37.4063203989539],[126.666683098762,37.4018436001541],[126.666231099214,37.4008456011521],[126.6648893982381,37.4013483003592],[126.6650978988202,37.4003131998169],[126.667558498388,37.4000726982324],[126.6676628982836,37.397207101098005],[126.6658660000805,37.3956080026971],[126.6632055025881,37.3969127014201],[126.6621349004403,37.39656180151],[126.6616660000107,37.3977863007607],[126.657818803308,37.395067103156],[126.654191300103,37.3972195007257],[126.6535101995838,37.396259101267404],[126.6517565000678,37.3959331013459],[126.6525541978266,37.3953353993159],[126.6489807994579,37.3922454006294],[126.6467354015287,37.3924545003962],[126.647029099471,37.3932654006977],[126.6438998002755,37.3916283014911],[126.64100970097749,37.3929190000389],[126.6408942009748,37.3955094020676],[126.6390582010567,37.396768701938804],[126.6379291005739,37.3955488016003],[126.63618110064691,37.3977686004907],[126.63672120082019,37.3983814017061],[126.6348467999602,37.397522600351],[126.63069110070401,37.4050724002607],[126.6287492000363,37.4051458007982],[126.6272506008088,37.408676901592706],[126.6265708014886,37.4085829016867],[126.62686310119629,37.4114697987998],[126.6275251013481,37.4118424008144],[126.6247481994842,37.4114339001753],[126.62678819839589,37.405366802604604],[126.6248172998233,37.4045628999891],[126.6270044001529,37.4021232994807],[126.6291396980176,37.4014362001678],[126.6280975943415,37.3996720994787],[126.62824889419021,37.397004602146204],[126.6267331925861,37.392854300619206],[126.6298868977788,37.3877947996288],[126.6287077980538,37.3866978981765],[126.6298869004444,37.38779479779],[126.6319888983424,37.3870974984873],[126.6321790992852,37.379349599067496],[126.6316024998618,37.378440499976605],[126.6324984001904,37.3792087989452],[126.63288970072391,37.3784337001185],[126.6332858003557,37.3803610982275],[126.6356792993634,37.3790196990368],[126.63580810001261,37.377534999158705],[126.6366465006733,37.3783554979535],[126.63786069945911,37.3762903000187],[126.6369352003846,37.3753007010083],[126.6361592992164,37.375614299612906],[126.63693519913849,37.3753006987302],[126.6377346999289,37.3699698996931],[126.6397205036993,37.3719058960868],[126.6434540999657,37.3720547959379],[126.6465352995205,37.3694424969635],[126.6506922009791,37.3705661974741],[126.6522827019885,37.3686824987868],[126.6516942043871,37.372320697762206],[126.6576689020931,37.3782336959444],[126.6595686001934,37.378816095362005],[126.66246149730051,37.377027097151],[126.6626836020338,37.3753741966225],[126.6652068005622,37.377280399231],[126.66587699996559,37.376616899695605],[126.6670306001248,37.3774312990534],[126.6681838995696,37.377068298691],[126.6672471028796,37.3776529007359],[126.6677150024117,37.380226998161795],[126.6721273998183,37.3800369982471],[126.6740180027485,37.3820939982439],[126.6743134026628,37.383878601797406],[126.668120307709,37.3922240963093],[126.6700350057943,37.395378693154704],[126.67587359995571,37.3948625936708],[126.6865400994941,37.389406197842106],[126.6879776009535,37.3913446979142],[126.689806601488,37.3904522993208],[126.6915474997471,37.3928253969477],[126.6930174982771,37.3921063976667],[126.69269149909209,37.389135698767994],[126.69622129740131,37.3874548993019],[126.6961477993444,37.383826499329196],[126.6983412028596,37.3847436995227],[126.70147940048389,37.3888580957569],[126.70551280066499,37.3877528961533],[126.71008579881,37.388308096499706],[126.711153599466,37.386342296819905],[126.71271850137069,37.3882535977237],[126.7146320018781,37.387279998446196],[126.7163235001866,37.3885694971567],[126.71949189975899,37.3878704979699],[126.7203127991509,37.386445499131],[126.7249923004033,37.386668299177494],[126.7261483000546,37.386828699535],[126.7301269032932,37.3909695946861],[126.7346105988095,37.389306696348996],[126.7359265974935,37.3875544981012],[126.7345687997134,37.3824167003354],[126.7368243987971,37.3829303978983],[126.7382171974043,37.3808357999929],[126.7383723999518,37.3775876995908],[126.7383441009856,37.379413798103904],[126.7402651995339,37.379531697961404],[126.7409581003581,37.3819143984316],[126.7456012002713,37.383385397473305],[126.7464446998767,37.380774098363496],[126.74560120192079,37.3833853977687],[126.74747990004211,37.383724397429695],[126.7476129996998,37.3810661995258],[126.74932900026201,37.3794835863698],[126.75475059814619,37.378413087222604],[126.7622315006798,37.3791569989765],[126.7620718995848,37.3801998010155],[126.76036360129311,37.3790251021902],[126.7566048037536,37.3785893038223],[126.7576652013677,37.386106602053395],[126.7574359995552,37.384849100991296],[126.7566666989658,37.3853436005977],[126.75352400210849,37.384092801848496],[126.753167500971,37.3851705024192],[126.7507267012916,37.3866393007207],[126.74626860176089,37.391345299015995],[126.7494038986256,37.3948095955517],[126.749574099777,37.389792199595],[126.7510645003711,37.390197898846296],[126.7560773017869,37.388139400686],[126.7510645008268,37.390197905300596],[126.7494039024874,37.3948096006889],[126.7502607016306,37.3957155997829],[126.7441372051691,37.4010779964909],[126.7436530064139,37.4043027975894],[126.7443583060504,37.4054858972459],[126.7492903992657,37.4081482049131],[126.745965102591,37.4080739049874],[126.741738798191,37.4093231054357],[126.738256801673,37.4134503013085],[126.7365027014654,37.4128817016998],[126.73304459915249,37.414756102273095],[126.732603197427,37.4136402010433],[126.7298614992976,37.4142947002524],[126.7308704983529,37.411312802800694],[126.7283450008784,37.410359303754205],[126.72597210325131,37.4133554007581],[126.729555000351,37.416617599729506],[126.72895490002051,37.417235500342294],[126.72872509950281,37.4164519006103],[126.7275996005218,37.416873100202295],[126.7285435004305,37.4183008008461],[126.7265861000202,37.417445101482905],[126.72480399804921,37.41800500379],[126.7242085967244,37.416104403889705],[126.7209343980177,37.4146012052142],[126.7170792018729,37.4176160021994],[126.7161392007572,37.4207178011956],[126.7104362017653,37.423371501660405],[126.709954600288,37.4256543006112],[126.70996389986671,37.42440540127],[126.705547604283,37.424025701649704],[126.70622670274871,37.428433399873],[126.7090487999729,37.4292550991659],[126.70927330042771,37.4286403998902],[126.7099216998022,37.4295993990364],[126.7109753019665,37.4286821992066],[126.7098831011605,37.4297047996748],[126.7113038997397,37.431511997867595],[126.7110923005018,37.432244799483996],[126.711937399797,37.431916299760296],[126.7121480007938,37.430597797291],[126.71330709963469,37.430419897468894],[126.7134864005395,37.4314694993979],[126.71246170020561,37.432763801068795],[126.7084171009773,37.431805501823604],[126.7070711023233,37.4358338977952],[126.71007089932351,37.4388289948001],[126.7147926978746,37.4391171947154],[126.7165904998104,37.435021899705],[126.71718900021361,37.436248898440404],[126.7193132997619,37.434479498015605],[126.7204619023535,37.435360799710395],[126.7203400007018,37.4361517001655],[126.7195413005796,37.4354557010001],[126.71817230194861,37.4364798999759],[126.71790130221959,37.4380230984327],[126.7215582994835,37.437928198389],[126.7225070003084,37.436386898684304],[126.72284740083411,37.438637397377995],[126.7284343976079,37.4415466969007],[126.72901319702909,37.4392830991643],[126.7274382962432,37.4359709000445],[126.7321366981729,37.4326827990148],[126.73262000016379,37.4315167963036],[126.7360760021117,37.4333781996211],[126.73262000033729,37.431516801641294],[126.7322366007207,37.4356179975401],[126.73525260007399,37.4360679975648],[126.73864450083171,37.4394783984234],[126.7419691980672,37.441543097703196],[126.7434727963239,37.4379054999509],[126.7447575989593,37.4374356984936],[126.7444290988189,37.4357924984227],[126.74591439923461,37.4366789976115],[126.7515101986976,37.432251099946605],[126.75028249992529,37.4318825003152],[126.75000579982,37.4308881996251],[126.7510990004313,37.430279899386605],[126.75301800075219,37.431510399245],[126.7553165984536,37.431439599315794],[126.75728309582689,37.4284561004269],[126.75956099926431,37.427895698837304],[126.7605578977939,37.4264435994062],[126.7615530991592,37.426881599345805],[126.76207909954299,37.4263281986229],[126.76151660040979,37.427985199726805],[126.76297480225199,37.428443101207],[126.7612600039668,37.4291317005184],[126.7647960004308,37.4337765958735],[126.7659260993007,37.4313435983065],[126.7696321014726,37.4314269975399],[126.7711465006326,37.4335358983312],[126.7711889011096,37.4357963984136],[126.7731648991336,37.4356478985621],[126.77316770082041,37.4364565002388],[126.7724176022906,37.43940380084],[126.7692661019688,37.4414223018228],[126.77056860066631,37.4433306999144],[126.7702801007992,37.443977102781695],[126.7680769010679,37.4433312041684],[126.7654641036807,37.4471148003848],[126.7660551021654,37.448272703048495],[126.7643630978923,37.4470739031035],[126.76189219902841,37.4496223014812],[126.7584102989209,37.445452803483995],[126.7570918980854,37.446561102328495],[126.75332120162601,37.4452460035635],[126.75074720420001,37.4471073017022],[126.7529787019685,37.4502946985148],[126.7548116001356,37.4497753990341],[126.7559083007409,37.4502920000516],[126.7538789016442,37.456469897177804],[126.75614400030521,37.4559342989331],[126.75710890108901,37.4579338999036],[126.75566370108339,37.459359301320504],[126.75342379930039,37.4580860013327],[126.7520457001928,37.4583008008264],[126.7521980004646,37.4593473000712],[126.7509008011556,37.4593482018075],[126.7504503016061,37.4618091993465],[126.7525198015271,37.4631729993692],[126.7515104026987,37.465546700107],[126.75012069876189,37.4635359016323],[126.74297090514621,37.4630847033438],[126.7407664073507,37.4666728997556],[126.7495891986717,37.472263197077304],[126.7508266012957,37.4719566969598],[126.751813702681,37.4755842971572],[126.7545021999925,37.4746477980937],[126.7597857947089,37.476620596120895],[126.76549059632771,37.475117394785705],[126.7663345954837,37.4740222958808],[126.7659998996341,37.4700499963144],[126.76896420165,37.4728785989298],[126.7785005954918,37.4717542971964],[126.7836798996371,37.466102799404],[126.7884838022583,37.466589297893705],[126.7918252997807,37.4653067984133],[126.7967263987688,37.4682696947606],[126.7978205976746,37.4676485953817],[126.7988252976465,37.4623391952249],[126.8012774989966,37.4607740968622],[126.8013574989166,37.4586867989495],[126.80304309986259,37.4583607996574],[126.8042301045711,37.4604435980174],[126.80281810156839,37.4615625017346],[126.80186280032589,37.4611191020937],[126.8008859009064,37.4625360010518],[126.801801202637,37.4638997017494],[126.8012095032287,37.4672205984285],[126.8057316012066,37.470289597593],[126.8055640004661,37.4723098003006],[126.8045418009127,37.473081199903],[126.80512900038859,37.4741797992288],[126.8075945993438,37.4755931989087],[126.8068217998317,37.472736497583405],[126.80725700085951,37.4741514995283],[126.80853979993421,37.474757798983696],[126.8089255997119,37.4733977989611],[126.8091890006343,37.4769765988009],[126.8108815000433,37.475726899733],[126.8131792007993,37.4762814975631],[126.8163469998445,37.4752381990459],[126.8182888999652,37.476394299104],[126.8197441017293,37.4751584999727],[126.8185930008252,37.4766070002334],[126.8197241000442,37.4780452000227],[126.816662602998,37.4782043001808],[126.81777960231439,37.481802598182],[126.8209833995965,37.4816153980869],[126.8211710994088,37.4797253999769],[126.8204330996143,37.4789885997613],[126.8231152019251,37.4784608999677],[126.8233070022176,37.4806824998321],[126.8242129009061,37.481549599691604],[126.823310400605,37.4813714004518],[126.8232043007623,37.4826264996284],[126.82410850021489,37.482308699764],[126.8275501006774,37.4849532003632],[126.82669970055011,37.488941000056094],[126.8280921991576,37.4900289989681],[126.8298561973936,37.4895856994114],[126.829668897363,37.485268398051204],[126.8311459997262,37.4875351974595],[126.8332433993655,37.488281896268],[126.83430079830809,37.4878391967107],[126.8352160973928,37.4858273987225],[126.83770609932631,37.4851823985602],[126.8382960987363,37.483403600339],[126.837049399983,37.4819125018301],[126.83337889793209,37.482639797233205],[126.8358860958594,37.4821045974364],[126.8373035999994,37.4802290990181],[126.8414490988349,37.4797554988531],[126.8417297002257,37.478256699435],[126.84185520053529,37.4792983994711],[126.84635079987069,37.4805488981874],[126.8479355982859,37.4789607997755],[126.84744409867001,37.4780048998439],[126.84832899768651,37.4760962998025],[126.8496900993419,37.4756942986995],[126.8508058986767,37.4720058989869],[126.8542822008807,37.4726558993248],[126.8574892012373,37.474500898616306],[126.8593698003909,37.477533197420705],[126.8622026989314,37.4771687976792],[126.8639708987295,37.4758467979676],[126.8630941995457,37.473817099802396],[126.8641000001351,37.4726655995592],[126.8649757996578,37.4732618994316],[126.86563189971599,37.471505699671404],[126.8654678010038,37.4723526992896],[126.8663284001432,37.473002998639295],[126.8674258990457,37.472791098851204],[126.8670386997234,37.4709296993143],[126.8683380001888,37.4718816996513],[126.8697511005461,37.4709908994155],[126.8730382003748,37.4738937998954],[126.86990210108071,37.4744428007912],[126.87015770047779,37.4767708994171],[126.87254090047621,37.4754657992324],[126.87462170046881,37.4768360996251],[126.8746819003605,37.4778646000363],[126.8739541999368,37.478629200633],[126.8726216012694,37.4776875015747],[126.86885670174729,37.477759603448],[126.8677311999159,37.4809568033968],[126.8673308975836,37.477616601177495],[126.8612314006449,37.480191899981804],[126.8620590007132,37.481874899698404],[126.8603508018614,37.4846538975065],[126.8602284038679,37.488104097785],[126.8637927003036,37.488852797036294],[126.8644225016514,37.490805799886495],[126.8667135993603,37.4918104988818],[126.86653080011091,37.4902580990955],[126.86671360032109,37.4918104987355],[126.86800109961091,37.4918830989927],[126.86791909970499,37.4905271000297],[126.8693925994419,37.4906898991331],[126.8697765003907,37.4898630996427],[126.87014790024041,37.4906978988367],[126.87158429915179,37.490839598493004],[126.8721836004026,37.4880122983539],[126.8740128003344,37.4913099975849],[126.876445300708,37.4913470991566],[126.8772500027494,37.4937775009788],[126.8766034008322,37.4969895989952],[126.8788978012023,37.5009756987792],[126.8804095001195,37.502181998331295],[126.881499999029,37.501496599016704],[126.88099749915001,37.499605699677595],[126.8824636993213,37.498036399761496],[126.8849104004843,37.4991095995918],[126.88373130115379,37.4994060003593],[126.8836354012497,37.500461299304],[126.88500880078199,37.5008559005042],[126.8837602005684,37.5012252004976],[126.8836724999768,37.502386400689396],[126.8826049999086,37.5019165004824],[126.88324299914859,37.5013769003033],[126.8825137997603,37.5006674008556],[126.880165900574,37.5027869998591],[126.8826732002964,37.5050111988041],[126.8862257999083,37.5062549993291],[126.8868593003258,37.5053087993793],[126.8866486007308,37.5064748991538],[126.8877547011915,37.5083723008856],[126.8873471996061,37.5087542005911],[126.8857947000303,37.5072645010845],[126.8849794012936,37.5090986999471],[126.8851638995636,37.508344800737206],[126.88416720012599,37.5081168006429],[126.880437299572,37.5088943007063],[126.8804056999103,37.5080272007422],[126.8796027995517,37.5080181002369],[126.8802179992621,37.5066663007129],[126.87943389977049,37.5059887011975],[126.8777359998557,37.506994300531304],[126.8771968998489,37.5058407010281],[126.8763365007093,37.506129300739495],[126.87664120061369,37.5070305004187],[126.8760857998363,37.5062224007488],[126.875069699753,37.5070381002268],[126.8746890990591,37.5051610989833],[126.8758883991856,37.5048912988892],[126.8766173984566,37.5036110001695],[126.8750763978659,37.5027500994046],[126.8751694977728,37.499973402181304],[126.8710508008877,37.500590502382],[126.8700571987556,37.502861101189794],[126.86734239953469,37.5021274005371],[126.8675235989512,37.5013505007012],[126.86500870086131,37.499235801221],[126.86424069974859,37.5005398002977],[126.8650086995743,37.4992357996886],[126.8645900994402,37.497781599550905],[126.8678268978703,37.49581890000481],[126.8665730982661,37.4931793015772],[126.8651227990253,37.4928343017222],[126.8616582007725,37.49571429980001],[126.8627729004018,37.4957310999187],[126.86267960020801,37.496715600891804],[126.85966920173419,37.499107599736604],[126.85857230126021,37.5013165003816],[126.8591157004704,37.5019821006151],[126.8585722998494,37.5013165009565],[126.8582075995574,37.5020875003055],[126.85492190000349,37.501703200817104],[126.8545369000578,37.5009534008522],[126.8538022995919,37.501192800133],[126.85351970027861,37.499166701073506],[126.8526790003301,37.4997847007223],[126.8523037997912,37.4991001008636],[126.84946250014781,37.5012661007178],[126.848682300132,37.5009585007422],[126.8460745999314,37.5024132007918],[126.8448720996474,37.502022500682905],[126.8449555996123,37.5012215007034],[126.8442402995225,37.501558700108],[126.844414199042,37.5008101003822],[126.84351559923721,37.5004936998923],[126.8438866996099,37.499733300389906],[126.8429404998123,37.4999046004814],[126.8410205998453,37.4973354005163],[126.8406063992211,37.497860500528404],[126.8410205992427,37.497335400183694],[126.839565699535,37.495004101300104],[126.8359439004607,37.495322301132596],[126.83635029991481,37.496721300845394],[126.8345753009602,37.4955163018032],[126.8324129029529,37.4957346021991],[126.8323396030262,37.498903799029904],[126.8333290031081,37.5003125985274],[126.8319348010361,37.499971001001605],[126.83153500045181,37.5020392004509],[126.8296670023198,37.5021342003559],[126.8290691029177,37.5033532991368],[126.8281567009401,37.5034298014017],[126.8230285988123,37.5023649036029],[126.8209677972553,37.4993503046714],[126.8189162971651,37.498928602194596],[126.813193300452,37.4982442034534],[126.8093339979803,37.4996245025464],[126.8074660998482,37.4983242038467],[126.8057174976112,37.4982240032801],[126.8050709997205,37.495595802150994],[126.80442190036959,37.497025800721005],[126.8028581991189,37.497887500297196],[126.8031244980576,37.495582902352105],[126.7999705995761,37.4949990029898],[126.79883750070921,37.4980219999668],[126.79999020096369,37.499992200372304],[126.79673720084739,37.5020807999396],[126.7985933006283,37.503958000039],[126.79742130063269,37.504163100777],[126.7974131004207,37.5055260998874],[126.8010447990907,37.506187799676],[126.8048475984811,37.5038931976109],[126.8070570012544,37.5067455997159],[126.8084299009235,37.5066118004051],[126.80705700138991,37.5067456003862],[126.8070301992309,37.5081189016727],[126.8060455002156,37.506979802811806],[126.804642800743,37.5067949033119],[126.8032810021048,37.5101216999851],[126.80375720162861,37.5110319990748],[126.79960890030759,37.5142103025803],[126.8003161982595,37.5127619015366],[126.79867979989591,37.510615503683],[126.7939336974713,37.5097948004162],[126.7968890987095,37.5083175990536],[126.797523598075,37.5060653013059],[126.7969364986621,37.5055623018089],[126.790222204051,37.5056725029521],[126.7883162020643,37.5064677031943],[126.7863159001855,37.5060144016623],[126.7857850003293,37.507512401282405],[126.7855841994541,37.5058305015296],[126.7829355997971,37.502888701239996],[126.781319300085,37.5033799005123],[126.7802974999816,37.50468540069],[126.7781214996955,37.5045487014383],[126.7775794000893,37.5056528004269],[126.7774379997326,37.504976800733104],[126.7755723006226,37.5054777000225],[126.7770766003835,37.5064660011948],[126.7752236999152,37.5067303012894],[126.7749029979675,37.5081483011436],[126.7752236974459,37.5067303003352],[126.7741649985046,37.5054428016227],[126.7711224015472,37.505494401571106],[126.769489202028,37.5074746021952],[126.76495320009869,37.5081845004621],[126.7638783977563,37.508219101633195],[126.7636298979615,37.5070237014955],[126.76244269914869,37.5062449022743],[126.7604599000876,37.5065636020926],[126.75899440155311,37.5079319007243],[126.75938360061491,37.5093679000259],[126.7587284001436,37.5086962004168],[126.758502600056,37.509376000258406],[126.7568044011162,37.5092894006396],[126.7547587998862,37.5136313011309],[126.75510059905781,37.5121465004709],[126.7536349001564,37.5118290008283],[126.75336849974369,37.512712900949296],[126.7504076995549,37.5099926011591],[126.7472475998469,37.510403700300095],[126.7459982009953,37.5080143024217],[126.7451366007108,37.509395401173705],[126.74528380056509,37.514793599978795],[126.7434786991402,37.5124398017199],[126.741584000705,37.514021300696804],[126.74209660018249,37.5152361006417],[126.7388813996773,37.5134285006674],[126.73638029990859,37.513499501191404],[126.73487300073559,37.5144379008185],[126.7354529008146,37.5169585987652],[126.7363452007334,37.517349699138194],[126.7378036998624,37.5172476990452],[126.73844919964891,37.517967498861296],[126.7393239003044,37.5171747991682],[126.7410146002693,37.5175927985837],[126.7431638003697,37.5169273993212],[126.7444527004336,37.5177747996811],[126.7435317004076,37.5180931001673],[126.74428520010319,37.5191274997604],[126.7439054003129,37.5198338001773],[126.74345919970051,37.519171200928405],[126.7428100003497,37.519546900552704],[126.7417070999133,37.522372600420994],[126.7400728006235,37.5226871006739],[126.7403116006119,37.5237126000274],[126.7391449013359,37.5242455999125],[126.7414459019229,37.5256062999735],[126.7421433014254,37.5274355990122],[126.7436414008131,37.5273384992014],[126.7421408016264,37.5286549999811],[126.7448593004171,37.5308791997026],[126.7438380008028,37.530753000637795],[126.7418071013999,37.533626799562],[126.74264980064609,37.5359764994095],[126.7434612010304,37.5360983001893],[126.74080740095819,37.5375638002058],[126.7429297008663,37.538171499838],[126.7416112010837,37.5378974004572],[126.74174720107581,37.5392042997294],[126.74342080019339,37.5400517992533],[126.7448633987508,37.538322100983],[126.7439798995825,37.537054000430494],[126.7445526999389,37.5366261996614],[126.7452814005754,37.5370127992528],[126.7448634005775,37.538322099474904],[126.7467605995592,37.538277699134],[126.7493096007438,37.5406385992126],[126.7456342014431,37.5427395010121],[126.7454433008109,37.5459952987308],[126.7473491003377,37.547350199558494],[126.7462852013757,37.547971299930204],[126.74845500113851,37.549073298555705],[126.7478755015519,37.5524108995492],[126.7485369009518,37.5544775983853],[126.75179019988481,37.558545697645705],[126.7543117017413,37.5575262981314],[126.75297960018901,37.5576297001138],[126.7527206005422,37.558684299501],[126.7528395009182,37.559797499314804],[126.7544121005506,37.5593944000425],[126.753039797768,37.561459302622204],[126.7517901973551,37.558545702581306],[126.7488449003004,37.5575788035482],[126.7464436027017,37.5587571023699],[126.7482974008479,37.561885999241],[126.7490392017686,37.561726802354706],[126.7482974025104,37.5618860021955],[126.7478192029886,37.5654620986194],[126.74941780189461,37.565753800223405],[126.7478006010422,37.5674292001603],[126.7463887014159,37.5671435007535],[126.74520729948951,37.568891401180196],[126.74132469930291,37.5678453013753],[126.7402920003356,37.569966799253805],[126.74467150024489,37.570673401224695],[126.74118810225791,37.5730619016055],[126.7385822001051,37.573045801525204],[126.73755509985389,37.574359800206906],[126.7362699989722,37.57173999999],[126.7339191007069,37.5698229016417],[126.73011790185049,37.572607602879295],[126.72621890040581,37.571287505396995],[126.72635769920569,37.570421399051],[126.7281030980578,37.5693659000283],[126.7283529991138,37.5682487950506],[126.7291441005225,37.5700358980304],[126.733804899574,37.566638090693296],[126.7373255013045,37.5679719975415],[126.7413246973053,37.5678452976682],[126.74230279632721,37.5640788014347],[126.7420816965483,37.5592202062933],[126.7413139950829,37.5578742013686],[126.7399869964099,37.556169803073],[126.7361946971842,37.554221403110006],[126.73395069942819,37.554304103027306],[126.7349059978943,37.5527310999857],[126.73274550005479,37.5507361019807],[126.72991210195981,37.5503739025638],[126.7282482003815,37.553785702450796],[126.7244763015633,37.551921401962694],[126.7229792030604,37.5533770005071],[126.7227271005377,37.5548506011403],[126.7221981993595,37.5545561000224],[126.72262769893,37.5535454010331],[126.7204086986974,37.5527363018187],[126.7168813014102,37.5484710045611],[126.7145114957002,37.551099500667696],[126.716477198116,37.5477366977583],[126.7155230990701,37.545492000003],[126.7162746990247,37.5431264007893],[126.7146493999438,37.5440495014455],[126.71258570076121,37.5438244006611],[126.7130014987671,37.544451700634106],[126.7073017002092,37.540066506412],[126.70814659844841,37.537272900659396],[126.70574879551579,37.5356043988468],[126.70662029688249,37.533835599416705],[126.70473609851821,37.529329503797],[126.7007342993325,37.5277594997427],[126.7045605978974,37.5270140982648],[126.70489599758311,37.5234665003825],[126.70244959782279,37.5234498003716],[126.70177769850429,37.521817300684305],[126.69783269872711,37.519466700951504],[126.6990392000577,37.5203770982779],[126.70031319878369,37.5194443992106],[126.6988281992376,37.5143816028428],[126.69689609984451,37.5143790011607],[126.6963558002548,37.513702200834],[126.6948631018775,37.5156507998889],[126.6947076995387,37.5173113018962],[126.694863098089,37.5156508014943],[126.69382619912591,37.5144102027349],[126.6903161010614,37.5170527005471],[126.6896105010577,37.520329598481894],[126.69090510122119,37.5211536996886],[126.6912187009076,37.5226354982068],[126.6926880994382,37.5225904982518],[126.6947368009882,37.5211034985453],[126.6947124015684,37.5227661996875],[126.6957036005772,37.5237893986643],[126.69788970238271,37.5238047000167],[126.6957036021788,37.523789400667496],[126.6956940021884,37.5244365000204],[126.6978737008596,37.525241700208],[126.69575949967549,37.526928601650695],[126.690881004554,37.526995901583405],[126.6905646999259,37.529753801344704],[126.68903900032919,37.5284915023368],[126.68654570253149,37.5305758005992],[126.6836038054734,37.5351898959851],[126.6850992040832,37.5412878961665],[126.6872660019164,37.5411538963005],[126.6907071042093,37.5435019983034],[126.6934040007289,37.5529223999506],[126.6929399988896,37.553143500510394],[126.6925670992625,37.5516821019718],[126.6910274008022,37.5518346018193],[126.689821902123,37.555161401690505],[126.689517499753,37.5545489029235],[126.684965504305,37.5576536998187],[126.68664520483951,37.5592380045172],[126.68699470449,37.5637255000297],[126.6899443072785,37.5660625046894],[126.6881183017089,37.569489803233],[126.6854380004905,37.568091202164695],[126.6836529022756,37.5693954008605],[126.6812700019557,37.5691271010265],[126.67952690126509,37.5704610015834],[126.6762372985511,37.5706925019194],[126.6727153999616,37.5683837006466],[126.6696335949428,37.568390898531696],[126.67183429269,37.5618341993258],[126.6674001972457,37.5572858012343],[126.6644780996065,37.5580997999857],[126.6638577995112,37.5562130011429],[126.6618708983961,37.5554818001273],[126.6617663985006,37.552431503177594],[126.65844419823351,37.5525634018855],[126.6615565993825,37.550995400049],[126.6612650017408,37.5493738954068],[126.6642460991617,37.5483088991509],[126.66357629942951,37.5458067989739],[126.6641017998593,37.5446677997017],[126.66487600245401,37.5460680000689],[126.6637321003117,37.5461100000377],[126.664649000209,37.5467312997791],[126.66513789972011,37.5489264975839],[126.66617580118161,37.5494857966845],[126.6682639990934,37.5479434982268],[126.6674257971228,37.5407957024824],[126.6642974002512,37.5404240028541],[126.6633543995694,37.5424134011919],[126.6616894012344,37.5404340031713],[126.65939229956459,37.5403781998886],[126.6627910998541,37.5402937993288],[126.6630861995626,37.5382269006022],[126.66041769962139,37.5382310999941],[126.6619946014126,37.536987599189004],[126.6634420011402,37.538210797920904],[126.6633519010218,37.5394264994163],[126.66429740089889,37.5404239988202],[126.6675530975894,37.5398696984362],[126.669626898155,37.537915198315304],[126.6695542982276,37.5348073014232],[126.6659125998965,37.5331461002429],[126.66592629991139,37.532077100773],[126.6636175997384,37.5322728009765],[126.6629291000156,37.533237500195696],[126.6620794994571,37.531969600808196],[126.6609561995467,37.531822599996495],[126.6605216994847,37.5305262006505],[126.65933889943369,37.530731700541],[126.6591208995956,37.5292432998631],[126.6604111997306,37.5300411994316],[126.6617773989671,37.528969800018096],[126.661027999577,37.5273366006028],[126.6583460985281,37.5260180014804],[126.65477059840501,37.5266641007472],[126.6544494967888,37.5257006979348],[126.6554474000212,37.5263485989069],[126.6583460995633,37.5260179991822],[126.6600599979516,37.522755802282596],[126.6556327954389,37.5205141000531],[126.65402619704551,37.5181469024203],[126.6525342985374,37.5181667024005],[126.6525014987285,37.516846198547604],[126.6525343012754,37.5181666985647],[126.6542327003136,37.517786398622],[126.65563279993441,37.5205140989863],[126.65654479902241,37.520517898982504],[126.6570315985356,37.519303100197305],[126.65618049932131,37.518865699758],[126.6575978990344,37.517160698592896],[126.65908949937189,37.5180390982338],[126.66226249920919,37.5174530988259],[126.6618234931083,37.506879402860704],[126.6565111984206,37.5037937059464],[126.6540009992703,37.5041342046407],[126.6511792002441,37.5066197011743],[126.6512771002494,37.5077971024299],[126.6485230000683,37.5092427006075],[126.6482480987153,37.5069028023568],[126.64496130096681,37.5066813006571],[126.6449454987918,37.5073369019289],[126.6433908999896,37.503477103216596],[126.6416718017087,37.5034946031991],[126.64168140006049,37.5067071025643],[126.6416587934992,37.49914640757],[126.63793709055851,37.494879405935706],[126.6291149993806,37.4926276081875],[126.626953998256,37.4904165064626],[126.6215995993104,37.4919681060919],[126.6207993001107,37.4908701071899],[126.61323509434649,37.4883430115749],[126.6043380835914,37.4841331126961],[126.60338579748979,37.4811312003694],[126.6009855993578,37.4808921010559],[126.5988829963154,37.4787507002004],[126.5948535747075,37.468999116708396]]],[[[126.6253881993929,37.5952390996967],[126.62708539851239,37.5943252001267],[126.6261029995483,37.5937857962979],[126.6283211009863,37.5937949995086],[126.62890900125379,37.5946405002576],[126.6270853996462,37.5943252018744],[126.6253881993929,37.5952390996967]]],[[[126.6264518991812,37.5562263003736],[126.626451900483,37.5562262989615],[126.6264519009984,37.5562263030048],[126.6264518991812,37.5562263003736]]],[[[126.6396789974187,37.596048399661],[126.640477101515,37.5943758982783],[126.6439196000582,37.594915999475],[126.6469163010774,37.596807200560704],[126.64431499999341,37.5977193007758],[126.6417213995681,37.5968807019748],[126.6404771007538,37.5943759026527],[126.6396789974187,37.596048399661]]],[[[126.64534119936721,37.384239300165795],[126.64534119979831,37.3842392997153],[126.6453412001011,37.384239299985595],[126.64534119936721,37.384239300165795]]],[[[126.6505021996265,37.3966210002742],[126.6510311002717,37.396452599996906],[126.650750399906,37.3968407011697],[126.6505021996265,37.3966210002742]]],[[[126.6512497994074,37.6036310995644],[126.65254739937531,37.6033975994572],[126.6526393992696,37.6021093005915],[126.6517690991048,37.602245100136194],[126.65248439949211,37.601502499674005],[126.6518323998177,37.599510098148],[126.65396110006921,37.5997629974576],[126.6534012008087,37.6004768999248],[126.6555013998131,37.6016865989573],[126.6565495989233,37.5994971975761],[126.65856529690761,37.5980254990478],[126.6585489008383,37.5995298986613],[126.66080210007719,37.600153797766204],[126.66474499779,37.598092200034806],[126.6646670978679,37.5961363019907],[126.6620375997747,37.5954213004716],[126.6613058993087,37.5941634997328],[126.6671095978152,37.5921096976827],[126.6692141957824,37.585908598156905],[126.6682660956059,37.5838882954746],[126.6695616988521,37.583993193404304],[126.6726859957278,37.5809667964307],[126.6725269958868,37.578397499000005],[126.674021899521,37.5783897985202],[126.6768102002689,37.5722757999259],[126.6753418016193,37.5757822998056],[126.6786451030566,37.5819602952091],[126.6831294006255,37.5813776989149],[126.68327400048089,37.5822021980904],[126.6857958048232,37.5837482968272],[126.6832168027303,37.5867314995611],[126.6864987043872,37.5883396031777],[126.6823014058234,37.5909647037674],[126.6819758061339,37.5941256030503],[126.6759402003734,37.598765802931304],[126.675794597472,37.6010644047362],[126.67126359944031,37.598782705258],[126.66768470301919,37.5996343044064],[126.6636781031887,37.6044375020287],[126.6613818007905,37.6048186005535],[126.66064729949579,37.6068877005072],[126.65561889830819,37.6051085004052],[126.65412289926991,37.6031142014057],[126.65273220066061,37.6042832002367],[126.6512497994074,37.6036310995644]]],[[[126.6606913981185,37.568387900426394],[126.6606914002529,37.5683878991646],[126.6606913994528,37.5683879015181],[126.6606913981185,37.568387900426394]]],[[[126.6630837978605,37.568580498972004],[126.6630838000778,37.56858050021631],[126.66308379811609,37.5685805004208],[126.6630837978605,37.568580498972004]]],[[[126.6631364978078,37.566363101189395],[126.663136500385,37.566363098287795],[126.6631365000721,37.5663631011496],[126.6631364978078,37.566363101189395]]],[[[126.6637764993128,37.5697799999353],[126.6645287994342,37.5676147998764],[126.6662357018094,37.569307799969096],[126.6646168018799,37.571153802100696],[126.6637764993128,37.5697799999353]]],[[[126.7097729988824,37.4273183996092],[126.7098961999344,37.4269757986996],[126.709773000349,37.427318400496794],[126.7097729988824,37.4273183996092]]],[[[126.71135799825831,37.546807599123504],[126.7123048012055,37.5463963998818],[126.7119488995419,37.546758001208794],[126.71135799825831,37.546807599123504]]],[[[126.72595699814019,37.3619772011852],[126.72729790020709,37.3626082988755],[126.7280403994646,37.3612465002373],[126.7280182995254,37.3600777001778],[126.7273035995639,37.3600017002753],[126.7285680997106,37.359413499444905],[126.7279997007146,37.3606757996396],[126.7286330002883,37.361315699470396],[126.72997319918791,37.3605737996339],[126.7301575994595,37.3583022007251],[126.729552999682,37.3577967011326],[126.72868910054589,37.3583884005409],[126.7279204992595,37.3574353995292],[126.7285003992525,37.3565106994599],[126.73345689961509,37.3542571988838],[126.7340204990515,37.35322099992],[126.7334528997812,37.3529414997619],[126.7345406991174,37.3519745997662],[126.73408709956999,37.3510065997845],[126.7349422995054,37.3503471999514],[126.73429779955069,37.3496889991914],[126.7349579997156,37.3502113991942],[126.7354145004325,37.349390199918105],[126.73510190074511,37.3501271991811],[126.736454000632,37.3517633972773],[126.73861939846661,37.3504537985869],[126.7368249002611,37.3473665016742],[126.735296998934,37.3480797995724],[126.73572849997149,37.346230199263],[126.7364453009806,37.3469730986738],[126.73815000102151,37.3463963987024],[126.73948470031061,37.3477803992653],[126.74042309937221,37.347086699959],[126.7399524997211,37.3459008997166],[126.74066779961079,37.3466410990588],[126.74161549958329,37.346053999078904],[126.7439077007177,37.346946499111205],[126.7448954000704,37.34633619951121],[126.74712169968299,37.3472648990172],[126.7479115996884,37.3467804990125],[126.7501365018764,37.347819199823604],[126.7490624023122,37.3490041002248],[126.7505476010182,37.3510237983766],[126.7526283031405,37.350475498624505],[126.7488600006938,37.3513293029481],[126.7475779019759,37.353388700888694],[126.7479738024159,37.355254400631],[126.7466891008542,37.3603312025435],[126.7454227983791,37.3573616025154],[126.7426091011928,37.3572979025791],[126.74159469984289,37.3596609031395],[126.7394721986597,37.3566820023047],[126.73829139984049,37.3566226023641],[126.7361524005691,37.3588002010969],[126.7357228009987,37.360316499580605],[126.7382228007134,37.3617872001658],[126.7378939008997,37.3638082990228],[126.73952160005861,37.3662519971382],[126.7426899987476,37.3651732976271],[126.7439474009352,37.362240399624994],[126.7443341050806,37.3642732015579],[126.743319706095,37.3651554006757],[126.741515803813,37.3724331054458],[126.74104859748999,37.366853403818794],[126.73572080131629,37.3675597028738],[126.7350412002229,37.3685654031395],[126.7324865013147,37.3689703035959],[126.733592197906,37.3679528972728],[126.7323889991092,37.3646184006073],[126.7283647004288,37.3648969022912],[126.72778459938071,37.3660729020794],[126.7267207004446,37.3658428023095],[126.7262742997488,37.3653601997285],[126.7267207003277,37.3658427995192],[126.7284432981011,37.3641207005088],[126.72595699814019,37.3619772011852]]],[[[126.7310331997406,37.354035000158504],[126.7310331999844,37.3540349995973],[126.7310332005181,37.3540349999852],[126.7310331997406,37.354035000158504]]],[[[126.7357053994462,37.36408990023121],[126.7357054001571,37.364089899671605],[126.735705400372,37.3640898999082],[126.7357053994462,37.36408990023121]]],[[[126.73913759953001,37.515373499576],[126.7391376004311,37.5153735002891],[126.7391375995634,37.515373500455304],[126.73913759953001,37.515373499576]]],[[[126.74555259798089,37.5167599994886],[126.7455525996912,37.5167599986896],[126.745552600684,37.5167600005923],[126.74555259798089,37.5167599994886]]],[[[126.7480424990348,37.5442830994685],[126.7480425007545,37.544283100364304],[126.7480424993483,37.5442831003803],[126.7480424990348,37.5442830994685]]],[[[126.74831749936929,37.547066899841795],[126.748317501276,37.5470669005621],[126.7483174995996,37.5470669005337],[126.74831749936929,37.547066899841795]]],[[[126.74911879897141,37.5439419000599],[126.7496048996043,37.54372089959929],[126.7496049013122,37.543720900154696],[126.74911879897141,37.5439419000599]]],[[[126.7499897995787,37.3979960999381],[126.7514022004891,37.3975406979578],[126.7514022017806,37.3975407017899],[126.7499897995787,37.3979960999381]]],[[[126.7503030991243,37.5519934999666],[126.7508668004228,37.552154700083705],[126.7505869006495,37.5523247026965],[126.7503030991243,37.5519934999666]]],[[[126.7530088988209,37.5426869000393],[126.7530089001947,37.5426868992414],[126.7530089006959,37.5426869006961],[126.7530088988209,37.5426869000393]]],[[[126.75423979949349,37.4644107998121],[126.75423980387079,37.4644108011406],[126.7542398010168,37.464410801678305],[126.75423979949349,37.4644107998121]]],[[[126.75585939903081,37.5587410995832],[126.75585940039531,37.5587410995411],[126.755859400328,37.5587411004769],[126.75585939903081,37.5587410995832]]],[[[126.7589355993979,37.3427626002106],[126.75928659975929,37.3431923987705],[126.7601085989373,37.3413117006512],[126.7592278986657,37.33984759862],[126.7596405001979,37.340783098637004],[126.7622945010001,37.3409090979725],[126.7645992990568,37.3421565965463],[126.7655887980673,37.3387304999724],[126.76667979951061,37.3389927992128],[126.7671794997827,37.3378500995167],[126.7694155987178,37.3369907001818],[126.7690132990198,37.335355301693305],[126.7679745995636,37.3350681997709],[126.7701085003374,37.336640498836104],[126.77239160058551,37.3357889993041],[126.77181350121559,37.337448600541],[126.7727636010907,37.3383678013521],[126.7723428005652,37.340965201769],[126.7666798006384,37.3389928037523],[126.7645993027189,37.3421566005885],[126.7622945013851,37.340909102592],[126.75934920049811,37.3432769009713],[126.7589355993979,37.3427626002106]]],[[[126.7713094997108,37.4436896996597],[126.7713095003411,37.4436897001814],[126.771309499737,37.4436897003587],[126.7713094997108,37.4436896996597]]],[[[126.77167639892781,37.3353715999558],[126.7717453981087,37.3352303995296],[126.7717454011179,37.3352303971809],[126.77167639892781,37.3353715999558]]],[[[126.7793576991328,37.4386937995545],[126.779861598641,37.435864699959204],[126.78587929993401,37.4348718973105],[126.7872615985517,37.4328510993313],[126.7886826000946,37.4349184985117],[126.7900031009039,37.4340034997994],[126.794663900423,37.4384961996325],[126.793916200148,37.4395777003852],[126.7919753009031,37.4402331001011],[126.79194270005561,37.442284300049295],[126.7906938001285,37.4433934999961],[126.7911197003242,37.444070199759096],[126.793097200182,37.443186599565195],[126.79542910034631,37.4438493999915],[126.7948579004928,37.4445733995341],[126.7972944000461,37.4440614996807],[126.8011758012778,37.4453774994634],[126.8020937000532,37.447256000015],[126.8020509006802,37.4493114003714],[126.8006218021093,37.4503768993059],[126.8015154025743,37.4535361028827],[126.80009470027291,37.4521406016958],[126.7970590993311,37.452914902029406],[126.79385019894289,37.4562203009888],[126.7932602988289,37.4553436016038],[126.7912232987247,37.4560654010825],[126.7874478993938,37.454739000245596],[126.7869279989069,37.4516955991212],[126.7881927994687,37.4520994997238],[126.78800269947591,37.4514367999979],[126.7891407005179,37.4506862995402],[126.7887029006889,37.4514183002689],[126.7894939998978,37.4531470985401],[126.7922065971852,37.453309498377706],[126.7919003975781,37.450679400809896],[126.7903133991651,37.4504108010785],[126.7895456994357,37.4494208004788],[126.7899426991243,37.4485129004878],[126.7888787999811,37.4483056006015],[126.7885598001299,37.448922700257896],[126.7872581007087,37.4479781014504],[126.78603559957921,37.4481349004743],[126.7858163993839,37.4471454996618],[126.7871784991212,37.447258299338],[126.7866458991484,37.4462342993775],[126.7875184991654,37.4443859008968],[126.78458549981711,37.444548600609],[126.7845848987069,37.4427604016075],[126.7826147002093,37.4441593011937],[126.7819177991513,37.4430272002078],[126.7796583991626,37.4422042007563],[126.7795282987628,37.440499499904],[126.7805945992128,37.4403400996898],[126.7793576991328,37.4386937995545]]],[[[126.7844433970371,37.3268316969411],[126.78808929927689,37.3230433996596],[126.7899443024376,37.325963200602395],[126.78778960007689,37.3274188001177],[126.7859502003365,37.3276331007854],[126.7844433970371,37.3268316969411]]],[[[126.785602099282,37.408161699488204],[126.7893511019985,37.4074174006055],[126.7885569006098,37.4100148011014],[126.785602099282,37.408161699488204]]],[[[126.7969797990618,37.523442800561895],[126.7985325988116,37.5230967996272],[126.7991620009459,37.5219312988376],[126.8007922993156,37.5221291986397],[126.8009633991427,37.5206476992175],[126.8048427991265,37.518536599344294],[126.8048507992241,37.5178294989567],[126.8060953003919,37.5185413000005],[126.8057095003858,37.5198794989984],[126.80796580001261,37.5198968986495],[126.80875350069469,37.521425799177706],[126.8112467008728,37.522157299685404],[126.8121111013939,37.5247160001445],[126.81038700086131,37.525333501335304],[126.8103816000003,37.5266748014095],[126.8088075007916,37.5266858013849],[126.8087860996801,37.52805570096071],[126.80575330094621,37.5282229015067],[126.8048921018074,37.529392600337005],[126.8053065007062,37.5306552019615],[126.8021469999784,37.5276955020004],[126.80101329882079,37.527527301195306],[126.8010136984042,37.5259243007988],[126.7979377987783,37.5255967012763],[126.7969797990618,37.523442800561895]]],[[[126.79961509836299,37.4571772986951],[126.7996151007209,37.4571773001601],[126.7996150984048,37.4571772999086],[126.79961509836299,37.4571772986951]]],[[[126.799662899756,37.5618099998526],[126.8023581998404,37.5603912993802],[126.801433500702,37.5618272992118],[126.8025671000158,37.5623764990079],[126.803479700299,37.5618880002106],[126.8014995999591,37.5624615010477],[126.799662899756,37.5618099998526]]],[[[126.8030586977024,37.3211922002092],[126.8063660019331,37.319690098482404],[126.8059820993758,37.3205904023667],[126.80310940174509,37.321234799890696],[126.80473090001739,37.3217700015328],[126.8030586977024,37.3211922002092]]],[[[126.80376749966631,37.5602301997634],[126.8046720001525,37.5602279998786],[126.80447100030621,37.5608313994869],[126.80573150074919,37.561819299732804],[126.80410979979041,37.5622979008729],[126.804776599601,37.561115599868],[126.80376749966631,37.5602301997634]]],[[[126.8063002982466,37.381449501051705],[126.80630029886261,37.3814494980231],[126.80658230118651,37.381513500260596],[126.8063002982466,37.381449501051705]]],[[[126.80632399806251,37.4641643991327],[126.8063246006365,37.4638553987927],[126.8063240004713,37.464164400230004],[126.80632399806251,37.4641643991327]]],[[[126.8066034997204,37.5617289003864],[126.8070405000833,37.5616858996778],[126.8070031000796,37.5618136002982],[126.8066034997204,37.5617289003864]]],[[[126.81108609926909,37.507850999877405],[126.81183179938799,37.507731899511406],[126.8122231005238,37.5076847005109],[126.81183179971569,37.507731900617],[126.81108609926909,37.507850999877405]]],[[[126.8113451989707,37.5062400979573],[126.81134520252911,37.5062400992201],[126.8113451998107,37.5062401008194],[126.8113451989707,37.5062400979573]]],[[[126.8207483984253,37.3175568982107],[126.82145469993631,37.3159102993709],[126.8212199006964,37.317329899527394],[126.8225372016385,37.3177097991205],[126.8218144007176,37.3186093006699],[126.8217787997803,37.3177522001355],[126.8207483984253,37.3175568982107]]],[[[126.8216593994453,37.4769052996437],[126.8216594003842,37.476905299756396],[126.8216594003476,37.476905300594495],[126.8216593994453,37.4769052996437]]],[[[126.82751829941179,37.565621999684296],[126.82751830027469,37.5656220003635],[126.8275183001154,37.5656220009461],[126.82751829941179,37.565621999684296]]],[[[126.83900699827899,37.3157884001932],[126.8390069999533,37.3157883990242],[126.83900700066509,37.3157884002198],[126.83900699827899,37.3157884001932]]],[[[126.8647324996238,37.5014805998521],[126.86541610000221,37.5013208992071],[126.86549390042461,37.501766000011706],[126.8647324996238,37.5014805998521]]],[[[126.8726803982772,37.503237900925505],[126.8728493999947,37.5031981989723],[126.8729843007639,37.5031670009774],[126.8726803982772,37.503237900925505]]],[[[126.8759735997914,37.489582999919506],[126.8760210998284,37.489530099652605],[126.8760247999345,37.489606200461196],[126.8759735997914,37.489582999919506]]],[[[126.87659209967569,37.4786468006637],[126.87659209986789,37.4786467999636],[126.87662679995739,37.4785832999307],[126.87659209967569,37.4786468006637]]],[[[126.8783995973202,37.4812206988771],[126.8796215981958,37.478667297174496],[126.8823978993141,37.4782667978172],[126.883237801243,37.4763520974947],[126.8842091015546,37.476713498402205],[126.8833477011749,37.476797001219396],[126.882246700685,37.4802989002795],[126.8809178014102,37.481887699724204],[126.88142930028319,37.4837047004676],[126.879979799791,37.4839912002726],[126.88052659770679,37.4826014995021],[126.8783995973202,37.4812206988771]]],[[[126.8822595998431,37.501797100028895],[126.882259600132,37.5017970998831],[126.8822596000262,37.501797100092],[126.8822595998431,37.501797100028895]]],[[[126.8825899998017,37.4815900000278],[126.88258999989819,37.4815899996934],[126.88259000024699,37.4815900000881],[126.8825899998017,37.4815900000278]]],[[[126.8845694993497,37.4861521999359],[126.8852929999089,37.4839054993424],[126.8864187998349,37.4841519991864],[126.8867668001219,37.4834131997963],[126.8864188005922,37.4841519994406],[126.8872306000079,37.484886698873],[126.8893878007852,37.483926899048],[126.8903944010007,37.488809500786004],[126.88807060029181,37.489080800954305],[126.885330400021,37.488208800162],[126.8845694993497,37.4861521999359]]],[[[126.8898163994797,37.5114071999246],[126.8898164010108,37.511407199232],[126.8898164001374,37.5114072011466],[126.8898163994797,37.5114071999246]]],[[[126.8900334989129,37.5055354004524],[126.8918439991254,37.505748199504296],[126.891634399335,37.505227400025106],[126.89264850118161,37.5049053000527],[126.89305020077991,37.5070851978728],[126.8958485000267,37.5076559994667],[126.8958035004746,37.508480900221905],[126.89343650150731,37.508068900693395],[126.89161059942761,37.509523200831495],[126.89183759942391,37.5076386008904],[126.8907006994949,37.5074062003226],[126.8900334989129,37.5055354004524]]],[[[126.89058589892251,37.466659699946],[126.8918875984851,37.4654368993025],[126.8925098008557,37.4665381999881],[126.8914673997428,37.4675478005871],[126.89058589892251,37.466659699946]]],[[[126.89434279885211,37.5160416999094],[126.894842400332,37.5172543993988],[126.8959794991949,37.517143299509904],[126.89581009930531,37.5165808996723],[126.8959795013147,37.5171433003015],[126.8950065002162,37.519022800173204],[126.89434279885211,37.5160416999094]]],[[[126.894776099826,37.4915757998915],[126.8968692003874,37.4912047990579],[126.8970252001475,37.4922781991375],[126.8977912001843,37.4918451994255],[126.8976683006295,37.4933781995599],[126.8986584009245,37.4939952005761],[126.8967965996988,37.4937508008745],[126.8966837989803,37.4927669013076],[126.894776099826,37.4915757998915]]],[[[126.8962638992127,37.5257927004081],[126.89719380062749,37.5256215998946],[126.8968308005731,37.5259165005029],[126.8962638992127,37.5257927004081]]],[[[126.9064338997046,37.512120000251],[126.9094015003682,37.5109074993508],[126.91005940108879,37.512180799710706],[126.91145710031111,37.5124219999315],[126.9113838008014,37.513702700281904],[126.9097823001756,37.5155020001949],[126.9084875998681,37.5146486009657],[126.9076999992908,37.5152200011135],[126.9065257995121,37.5141752008119],[126.90718509924591,37.5125600000096],[126.9064338997046,37.512120000251]]],[[[126.91019199888639,37.5001035002621],[126.9101919990049,37.5001034991526],[126.91019200053209,37.500103499991],[126.91019199888639,37.5001035002621]]],[[[126.9188019994513,37.516974499960604],[126.9200026003284,37.516795699654004],[126.9189885003846,37.5171858015876],[126.9188019994513,37.516974499960604]]],[[[126.9262374997972,37.5136809988985],[126.9262375003537,37.5136809990246],[126.9262375000387,37.5136810003484],[126.9262374997972,37.5136809988985]]]]}}]}