{"type":"FeatureCollection","features":[{"type":"Feature","properties":{"interval":15,"stationId":"5902086894"},"geometry":{"type":"MultiPolygon","coordinates":[[[[126.7389904986969,37.4862655992855],[126.73941590016629,37.4852750993059],[126.74207820011449,37.4858885992203],[126.74235729987039,37.486716699138604],[126.7446578003862,37.486236998991004],[126.74583760026731,37.487457498439],[126.7465036013094,37.4870451993201],[126.7451614013789,37.487946000764],[126.74410420205409,37.4907021996406],[126.74592010023821,37.4916373987054],[126.7469631995704,37.4914657987217],[126.74793479859879,37.4897961003914],[126.74673969941861,37.488919901422896],[126.7476326010164,37.4883577989969],[126.7503186009342,37.4887263996042],[126.7532116999295,37.4878631993365],[126.7536642001704,37.488517199441496],[126.7536599999399,37.4875999996391],[126.75812380087581,37.488755298214905],[126.7596372993623,37.4875493994208],[126.76152959970331,37.4877013991134],[126.76483999989331,37.486559999741],[126.76513850025651,37.4875802990036],[126.7667547012151,37.4882092998424],[126.76619309874559,37.489159900637],[126.7651970996301,37.488418000757605],[126.764595500137,37.4891308001083],[126.7652127001989,37.4908461005526],[126.76265740013139,37.4924363006182],[126.7601712002052,37.495619300221904],[126.7596092992317,37.4956416999027],[126.75910979973061,37.4935797013627],[126.75864230016991,37.4948797005054],[126.75710080013701,37.494448400972104],[126.7557775008046,37.4952717004195],[126.75598770047681,37.4969574993083],[126.7571169001609,37.495917999720106],[126.75794860122821,37.4971009997406],[126.7580499999174,37.4978171004441],[126.75645830055491,37.497191200204],[126.75659210021671,37.4991777008135],[126.7556097994074,37.4972586002874],[126.754760100233,37.4974019001532],[126.754844699748,37.4985624002835],[126.7530031001805,37.4968226020065],[126.75145780003929,37.4976520008257],[126.7505948995088,37.4972080000038],[126.7506559994477,37.49546870174311],[126.74848449964651,37.4956077004193],[126.7476289996541,37.4941295009995],[126.7463725006292,37.494276501188],[126.7470791990266,37.4922835994574],[126.746508799597,37.4916294001116],[126.7440034999509,37.4923027007558],[126.7423275986978,37.490997400157696],[126.7421701979697,37.4887177010726],[126.7410026991372,37.4881294016609],[126.73997200005789,37.4890830006527],[126.7395569998833,37.4875049996506],[126.74070059873969,37.4872596998959],[126.7389904986969,37.4862655992855]]],[[[126.722570698371,37.4901748002158],[126.7246182007701,37.4901696001205],[126.7232332999226,37.4913586005656],[126.722570698371,37.4901748002158]]],[[[126.7373300989232,37.4881141000473],[126.73781480162549,37.4876848994707],[126.737873100401,37.4884632015455],[126.7373300989232,37.4881141000473]]]]}},{"type":"Feature","properties":{"interval":30,"stationId":"5902086894"},"geometry":{"type":"MultiPolygon","coordinates":[[[[126.68747819851541,37.4631926996705],[126.68895999925509,37.4630129990992],[126.6888868999099,37.4620783989668],[126.6905696999101,37.461562898882995],[126.6911970003238,37.4602831989756],[126.69486529932081,37.460102199263204],[126.6979950996618,37.4588960991552],[126.7002042004414,37.460364598270395],[126.7009587996868,37.4601142985207],[126.7001966010916,37.4615119002533],[126.702390800998,37.464277099616396],[126.7047107992349,37.464863298342195],[126.7081819000641,37.4642460991496],[126.7108927003226,37.4656929991179],[126.71164120057661,37.465315498982505],[126.7101700009417,37.466772600268],[126.7113752002291,37.4693435992119],[126.7119897009737,37.4690344995113],[126.7112621001489,37.4716545000402],[126.7104078007882,37.4709840008072],[126.7109818001278,37.4735171999843],[126.7103385005433,37.4724426011037],[126.7088084009127,37.4739040002644],[126.70924360047749,37.4745401996282],[126.71085760059239,37.4742934993044],[126.71151419993579,37.4754989980989],[126.7132241982258,37.476005097592804],[126.7151009028037,37.4755600983146],[126.7119019040875,37.4773949011286],[126.7113172046722,37.478831899691606],[126.7137173022721,37.481871996651506],[126.7175836003153,37.480717197421804],[126.7192323007898,37.4835914972681],[126.7222093007136,37.48282399786],[126.722352101271,37.484999298262295],[126.7238754997476,37.4851928980687],[126.72803120018061,37.4835403992464],[126.7285013998349,37.4826497998045],[126.7296821993541,37.4825620997347],[126.7294929985902,37.4808552992451],[126.733251201073,37.4845864988864],[126.7351730991511,37.4850967983761],[126.7350298991188,37.4836680994551],[126.73691769888791,37.4824307979648],[126.7392657013436,37.482729496953496],[126.7415644000222,37.4817653977334],[126.7448403978709,37.481684298074796],[126.7454087973025,37.4805862991728],[126.74396579874549,37.478867900891196],[126.7428895986519,37.47906570025],[126.7446669021715,37.4768612962021],[126.7488760024266,37.479947598790204],[126.7512102000924,37.4799486987891],[126.7529340006266,37.4824815982568],[126.7549390986215,37.4830488976895],[126.75529999826061,37.4811199996184],[126.7569391986317,37.4813125991703],[126.7603922993935,37.4793451972754],[126.7624614000331,37.4794122963279],[126.7638338986606,37.4785667971734],[126.7641789983155,37.4772767984634],[126.7659665010531,37.4764851980251],[126.7667091014014,37.478523798923895],[126.7705638004723,37.479547699014795],[126.7706412005291,37.4812489989074],[126.7730183005135,37.4822262989041],[126.773142201101,37.4839663992795],[126.7755157987274,37.4832021000438],[126.77918269968801,37.4782763989584],[126.78139879916121,37.4775072996343],[126.78144160002189,37.476835099670005],[126.7831157003904,37.47862309935],[126.78511520054231,37.4787620989245],[126.7868505988069,37.481060796625805],[126.7894562010722,37.481181898983905],[126.7917047999516,37.4829026994421],[126.7932359990903,37.4810708999769],[126.7932183989456,37.4795515998256],[126.7937023999785,37.479934098924105],[126.79411080001489,37.4787974991433],[126.7955262000004,37.4780832993424],[126.7968903999374,37.4784387990025],[126.79802149952191,37.4801303982323],[126.7991742006025,37.4797350986832],[126.7980568011651,37.4811097010143],[126.798090901131,37.4833645987594],[126.80101859964681,37.4820851986767],[126.8028094012315,37.4826782002174],[126.7998119007801,37.4839330003162],[126.80080360078979,37.484440899751405],[126.79924180042191,37.4861261004979],[126.7991638996115,37.485309501269796],[126.79598730275829,37.4853429013279],[126.79393400243119,37.4876297020735],[126.79270890022809,37.486299100704294],[126.7919239003093,37.4871319014279],[126.7903285995057,37.4867504998357],[126.78987949933689,37.4848612007085],[126.78907979931239,37.4849837000982],[126.78878709949669,37.4839236006968],[126.7875136987639,37.4841165005899],[126.78861049879801,37.48335380032071],[126.78814509926339,37.4827061009684],[126.7814085007988,37.4839021006063],[126.7803151008288,37.4832231010495],[126.78005620112751,37.4862987991508],[126.7813386010174,37.48610699986099],[126.78019160128099,37.4868654998259],[126.7804250012681,37.4878390998196],[126.7791460004407,37.488028600435],[126.778789900586,37.4892665001424],[126.7774979013407,37.489773899717804],[126.7777524011136,37.490894100150996],[126.776779700456,37.491032801203296],[126.7753557000811,37.493893000364],[126.7747536006832,37.4935786006784],[126.7728681029931,37.4950567015022],[126.7712828002303,37.4980995012151],[126.76809310342,37.4985091008055],[126.76840490005549,37.501139400041296],[126.7657375006648,37.5020165004992],[126.7661315004878,37.503125600568595],[126.7635400012343,37.504630000663695],[126.7634382003295,37.5061016001035],[126.7633132000325,37.505500500705395],[126.7604599011315,37.5065636019556],[126.7605475010439,37.508656199863],[126.7590755008023,37.508232500707095],[126.7594417002923,37.5095619010953],[126.7587284001436,37.5086962004168],[126.7580204987839,37.509434399855],[126.7587283996555,37.508696199778505],[126.7584143997567,37.5071558004034],[126.7573239994482,37.507942200748204],[126.753517800748,37.5076709006486],[126.7536559997733,37.508328700592],[126.7535177996258,37.5076709006362],[126.7523681993884,37.5078079008666],[126.75252999861459,37.5068797005287],[126.74849220007191,37.5061999004145],[126.74740419976101,37.5042348000871],[126.7467172992855,37.5048804994807],[126.7483058996133,37.5039005996533],[126.74810199981721,37.502566900987],[126.74339140041029,37.503620800998],[126.7417838976216,37.5004001015803],[126.7434379982469,37.5003054995281],[126.7426757990091,37.498056401777205],[126.73824350002259,37.49899520041971],[126.73891589888619,37.4975369010351],[126.737637100165,37.4969162016558],[126.7369998001683,37.4982154018311],[126.7342658000321,37.4961798007297],[126.73379330057901,37.4978856994049],[126.7348652004722,37.497812699978894],[126.73379330061461,37.497885700545496],[126.7339216009423,37.4991612003001],[126.728794201114,37.5034693996457],[126.7275348012741,37.503705499904605],[126.7276583012894,37.504846800086604],[126.72941070055731,37.5054153999645],[126.72951910049251,37.5064703994153],[126.732355300091,37.5070921000652],[126.7304903001548,37.5071504007107],[126.7290771001241,37.509478700088906],[126.7287938002032,37.508981100619],[126.72746570042709,37.5102941003043],[126.7259919009072,37.510357800723604],[126.7261131004189,37.5123932993974],[126.727567200517,37.513313899785],[126.7269467003124,37.513796299682],[126.7285596003035,37.513990499260096],[126.7299580000762,37.5178048006807],[126.72716509999839,37.519849900347594],[126.7265103997749,37.5197908000827],[126.7274383990259,37.519779299433004],[126.7271711993141,37.5184719004349],[126.72217650013981,37.5179895000773],[126.7217592006496,37.5194483993686],[126.7226142997945,37.5203031985138],[126.7245564002281,37.5203516994559],[126.72466800151709,37.521747099745],[126.72374839947871,37.522365101772],[126.72353389890681,37.5215525005865],[126.7219008005399,37.521084901054095],[126.7221394000194,37.523826400209295],[126.721900797499,37.5210849015615],[126.71923789686839,37.5210535001984],[126.71894659702309,37.5181882016565],[126.71582119683109,37.518383801679605],[126.715662796708,37.5168263997601],[126.71582120048299,37.5183837977245],[126.71878819735511,37.516629897904096],[126.7214399995755,37.516149999729606],[126.7204340955964,37.512229501462194],[126.7158922975185,37.512523200160096],[126.7154921976028,37.509264201932695],[126.71293869771479,37.5094514016383],[126.7132741984862,37.507399700415704],[126.71174189953611,37.5075165997805],[126.71349449996829,37.5047102995195],[126.71448189898089,37.504662999566804],[126.7134349991924,37.503702600053096],[126.7142853981588,37.5022680992099],[126.71613449819479,37.5010596988953],[126.7163828980727,37.4914214015756],[126.7149676994879,37.4907882022088],[126.7108562001517,37.4913029006967],[126.7045302992137,37.4889616998977],[126.7032293991248,37.4874250986632],[126.70430989956449,37.4879635974409],[126.7062290978419,37.485926299205005],[126.7040398986131,37.484109499225205],[126.7053263988802,37.4829709988947],[126.7032702977791,37.4795878011494],[126.70354379855691,37.4784208001069],[126.7024802996204,37.476336102191596],[126.6964934998004,37.4759010023522],[126.6949059993092,37.4767204997723],[126.6955143991964,37.4752317001591],[126.6945836996706,37.4749162000914],[126.69498189912551,37.4719344000948],[126.6942991994732,37.470729000154],[126.6958172991205,37.4688148992902],[126.6961272984585,37.4646593000518],[126.6954289991568,37.463962700748404],[126.6914783007494,37.464157700463],[126.6896953990059,37.465941700795604],[126.6898690997968,37.4641892006581],[126.68747819851541,37.4631926996705]]],[[[126.7156510993387,37.5305956999825],[126.7172816995115,37.5302121995204],[126.7169928997774,37.528911298999],[126.7202964999921,37.5268537985882],[126.7215198993823,37.5279645990439],[126.7224078984943,37.526873100135404],[126.7222396999264,37.52494729917],[126.7225086011658,37.5279758996327],[126.7239098999811,37.5279877995065],[126.7252005008576,37.526533998954],[126.7263470011103,37.528236799947],[126.72945870083329,37.530153898875305],[126.72795280027749,37.5319882005061],[126.72581510011011,37.53258000118],[126.7255854004329,37.533567300665204],[126.7242135007624,37.5332942010063],[126.7242260006078,37.535513098958305],[126.7254786000267,37.5357609989894],[126.7267512010058,37.5373371999118],[126.725036400658,37.5412192001842],[126.72347740113469,37.5411333008972],[126.7228425000764,37.5424921008633],[126.7202853994738,37.5421285003492],[126.7204679993905,37.5413480000829],[126.71845019976611,37.5398961001942],[126.7184495989013,37.5391443998082],[126.7206601968379,37.5333354989354],[126.7194721980259,37.5305411017298],[126.7174965000016,37.5319415003294],[126.7167974994781,37.53057910057559],[126.7156510993387,37.5305956999825]]],[[[126.6684298991081,37.4641476987144],[126.6700550004829,37.4632517987052],[126.6701921004548,37.4646647991014],[126.67161909902781,37.4647950989711],[126.671817200898,37.464063799529],[126.671619101414,37.464795099401506],[126.6757133002566,37.466634398627995],[126.67707259941331,37.4656319994358],[126.6771848009856,37.4665279987886],[126.6792082996095,37.4655041991592],[126.68583630078831,37.4646621005061],[126.68386960291829,37.4665422996992],[126.6841522026357,37.4672002990412],[126.6806549010324,37.4693637006767],[126.6802331008889,37.4709583028748],[126.67906340005861,37.469587801309],[126.6780291992018,37.4697795010534],[126.6778575989467,37.468842000559505],[126.6766886989191,37.4689678006495],[126.6754309000452,37.4673987017246],[126.6745841000548,37.4674628011444],[126.6734009993698,37.465826800794005],[126.6714942012766,37.465695800925],[126.6712740010746,37.4671956004902],[126.6700821988549,37.4668902005521],[126.67011499973489,37.465152100772094],[126.6686988006754,37.4645286014342],[126.6687450006292,37.465902300060506],[126.66801959989819,37.465260400837195],[126.6684298991081,37.4641476987144]]],[[[126.80739489953851,37.4850222998548],[126.80786489944249,37.484133499379496],[126.8129413002125,37.4863191994234],[126.8134466992928,37.4849967988726],[126.8144191994584,37.4854138989607],[126.8154471002575,37.4844821997829],[126.81587890092,37.4860444003927],[126.8102314004047,37.4886027007353],[126.8110614988438,37.4869776000382],[126.8096617993686,37.4867424999809],[126.8087040000389,37.4855996010269],[126.808218999907,37.486534400185796],[126.8087039995497,37.4855996000458],[126.80739489953851,37.4850222998548]]],[[[126.72472599891141,37.5434506000481],[126.7266313004794,37.541499499121],[126.7283367005588,37.541414998597],[126.72964229997399,37.5438010994359],[126.7313868006071,37.5424022007252],[126.7279554007545,37.544789600712704],[126.72472599891141,37.5434506000481]]],[[[126.6533989991695,37.4669768001475],[126.6535878007163,37.4678033984203],[126.65555819874591,37.466984699239],[126.6590465016463,37.4673688001941],[126.65631709987579,37.4678324011275],[126.6555582001241,37.4669847010204],[126.65358780018809,37.4678034003937],[126.6533989991695,37.4669768001475]]],[[[126.7373244992604,37.5460114990963],[126.7383422991694,37.5448898997316],[126.73789219944551,37.544292399150606],[126.7389326003875,37.5450842990507],[126.7396900006619,37.5447014996664],[126.73893260037009,37.5450843002355],[126.7392050005167,37.5457226007944],[126.7373244992604,37.5460114990963]]],[[[126.6416547994097,37.4687590999337],[126.64258700019431,37.4684467995592],[126.6419383999941,37.4692498000677],[126.6416547994097,37.4687590999337]]],[[[126.70146989974151,37.4568810003217],[126.70318860047061,37.4572580997241],[126.7022598998103,37.4580696003539],[126.70210719939391,37.4568274003556],[126.70146989974151,37.4568810003217]]],[[[126.8233969993772,37.4924949998434],[126.8253962016338,37.493155900165796],[126.8246086994788,37.4939655024187],[126.8233969993772,37.4924949998434]]],[[[126.7448668995226,37.553307797779],[126.7448669030086,37.5533077991031],[126.7448669004293,37.553307801074496],[126.7448668995226,37.553307797779]]],[[[126.68079739921781,37.4584380988323],[126.68079740100481,37.4584381006676],[126.68079740003971,37.4584381010548],[126.68079739921781,37.4584380988323]]],[[[126.84499649896469,37.4948542004111],[126.8449964992371,37.4948541988147],[126.84499650060559,37.4948541991236],[126.84499649896469,37.4948542004111]]]]}},{"type":"Feature","properties":{"interval":60,"stationId":"5902086894"},"geometry":{"type":"MultiPolygon","coordinates":[[[[126.59860809912641,37.4752927001992],[126.5992591990491,37.4747368999545],[126.59841080012059,37.473024599775],[126.6020059005416,37.4750224974776],[126.6033057992417,37.4748797976203],[126.6047619989957,37.4728469983784],[126.6069950982461,37.472587897143704],[126.6078988068512,37.4731175940311],[126.6066388018416,37.476396999780896],[126.6085507999296,37.4771663990115],[126.6091098005011,37.4764416973127],[126.6125614982934,37.477176696920104],[126.6158782988717,37.4737262934224],[126.6159017004163,37.474987998495706],[126.6209793981205,37.4681839986647],[126.62232670149601,37.468347795246196],[126.6256161982065,37.4658218977721],[126.625901001211,37.464801796854594],[126.62985839759091,37.4643637978252],[126.63148819596111,37.4607782014108],[126.62869669841531,37.4587163029401],[126.6298942979198,37.458031597879796],[126.6271428986872,37.453249298546105],[126.631057497016,37.450456499676704],[126.631224498684,37.4495529977298],[126.6319510004728,37.4507114981201],[126.63334379937781,37.4497616988573],[126.6353028995859,37.450778099222504],[126.6397787981316,37.4498191968927],[126.640733900401,37.451195398007606],[126.6420702990646,37.451413697789306],[126.6440216971132,37.450056799146196],[126.64402199708461,37.446497001366204],[126.643180296621,37.4458645995422],[126.64416029769569,37.446073495978695],[126.6448795969764,37.440639901412304],[126.6466317987025,37.4397097985456],[126.64999070159091,37.439311698149],[126.6528799020956,37.4402773981231],[126.65511000151129,37.443765197457004],[126.6571344014675,37.4429536984268],[126.6577828021104,37.444533798673],[126.6589536015374,37.4450867989174],[126.6622124997689,37.4437557996701],[126.6640832983712,37.4448906985218],[126.66480819894049,37.4437356994003],[126.6662557994707,37.4437604985777],[126.6670686011622,37.4455759979187],[126.6684456000861,37.4456215979382],[126.6702649992957,37.4442910993451],[126.6699627996526,37.4431408995288],[126.6713474990863,37.4428789996326],[126.6706096999643,37.4422044993789],[126.6715882000176,37.4416235994769],[126.67328610006089,37.4426972990688],[126.6735112993884,37.441187899516706],[126.6763550985669,37.4391114995879],[126.6757748998801,37.4379780998203],[126.6763551002328,37.4391114989167],[126.67690909964621,37.4366074999665],[126.6785219995651,37.4371461993821],[126.6783293993408,37.4353818004138],[126.6774096966922,37.4350834990109],[126.6795329000795,37.4361484992132],[126.6819248989051,37.4354159997608],[126.6830180976533,37.433692200531006],[126.6795669985145,37.4310107005326],[126.6826493986356,37.4309333964249],[126.6825244987605,37.427107300251],[126.68013119964921,37.4265456003878],[126.6783829005989,37.4270121009739],[126.676296598463,37.424717200986805],[126.6732638990348,37.4255796008913],[126.6729250997692,37.424867500768094],[126.67165950103481,37.4250137006219],[126.6695589004877,37.4260551014882],[126.6693155997241,37.425086800773],[126.668212700827,37.4255452003146],[126.66665589979169,37.429052400916106],[126.66551560093201,37.428859501109],[126.6646822017654,37.4300749998935],[126.6646840017277,37.431169601956995],[126.66220559908409,37.431114501393196],[126.6609928999989,37.4325123001634],[126.6601274003849,37.432053500633],[126.65974969957571,37.4327037002003],[126.6576735996793,37.4312070006715],[126.6592305976976,37.430000700705904],[126.6565840999877,37.4293094013254],[126.6570182998045,37.4285802001296],[126.6555739012489,37.428136600573204],[126.6544517997288,37.4294698012836],[126.65305419984129,37.427980600548196],[126.6520426995364,37.4291143004436],[126.6521464998391,37.4276535995783],[126.65298409957539,37.4277411996263],[126.6524871993563,37.427033399898],[126.6536269996275,37.4270779984732],[126.65453009886821,37.4256233998239],[126.6541440994225,37.424786800036],[126.65516459929691,37.423128500354],[126.6581843004807,37.421836498515496],[126.66146070069041,37.424013697812406],[126.66210870004241,37.4239578978682],[126.6622439982617,37.421762997807896],[126.6621087029783,37.4239578985731],[126.6646982010395,37.424993198575706],[126.6661945995431,37.4242615993073],[126.6670831999559,37.425657899209995],[126.6691591001829,37.424635098875605],[126.6701653995329,37.4250002993081],[126.6715065000176,37.424122098300096],[126.6721615993625,37.421774700647504],[126.6717720996726,37.42057170038851],[126.6705807002597,37.4206912004998],[126.6703399000861,37.4215644003648],[126.67006479953561,37.4197729996112],[126.6713399985241,37.4185518003314],[126.6710756987128,37.4178684998449],[126.6713400002142,37.4185517992386],[126.6721383997546,37.4183740993396],[126.6730880987089,37.415530699580295],[126.6725751993183,37.4147777991925],[126.6743672993718,37.4153591993771],[126.6751549995095,37.4143824997467],[126.67364529985781,37.4139332001086],[126.6738797997479,37.4125581001597],[126.6731528004749,37.4118826008352],[126.67214749974309,37.412539600168],[126.67263749946939,37.412219299501494],[126.67142130068561,37.410296001424804],[126.6687768999026,37.4116487004936],[126.667295699862,37.4106968000225],[126.6689935000371,37.4114875996127],[126.6707711984675,37.4094886989206],[126.6696058996328,37.408149600259705],[126.6682044003384,37.4078685008395],[126.6676716989238,37.4087895002968],[126.6666631994978,37.4075611000244],[126.66831479906911,37.4062863005731],[126.66698869910411,37.4021874006594],[126.6683092993435,37.4015285997435],[126.66835549930741,37.398238498968595],[126.669434898228,37.395932701274404],[126.66831499934791,37.3945453026618],[126.66586599992759,37.395608002724806],[126.663385498695,37.392189703639204],[126.6622155981527,37.3918957011731],[126.6605903997779,37.39178880128],[126.6578188020716,37.3950671045942],[126.6554886007196,37.393306102553694],[126.65400509950511,37.394174102085],[126.6540740975789,37.3918061997465],[126.6530021986508,37.3907198008329],[126.6510508997854,37.3911321999903],[126.6509525997586,37.3897731000802],[126.65190099965879,37.3889570998103],[126.65121499937179,37.388196497535496],[126.6534771981984,37.3840748014018],[126.6512719993227,37.3823247020339],[126.6499183991059,37.3830455022724],[126.6471300980094,37.3827243012303],[126.6457912993482,37.3812929026617],[126.64400730113219,37.3817538022008],[126.64277060236891,37.3828929010617],[126.64472720064431,37.384824099446],[126.6445373011853,37.3860245994471],[126.6457430001031,37.3858335999413],[126.6450217007685,37.3862878997634],[126.64587020025171,37.386509399341904],[126.64570190018631,37.3872020001968],[126.6439058019824,37.387420999977806],[126.6441399017483,37.389592397806396],[126.6452685015923,37.389952199923506],[126.6441245999344,37.3909091004553],[126.64327129939919,37.390147601086596],[126.64188840018839,37.390401100998496],[126.6425655994926,37.389535599992605],[126.64110640032129,37.388646900506],[126.6391368002989,37.3898715003757],[126.63903040040529,37.3913689988782],[126.6400989011126,37.3910926000917],[126.6390304010791,37.3913690009338],[126.6392033009062,37.392546799756],[126.640499400396,37.3924315003346],[126.6393923001377,37.3930632006322],[126.6389092000941,37.3947346002698],[126.6383349999597,37.3937024005981],[126.63761789976539,37.394311600491],[126.6368799005034,37.3936474011552],[126.6361021008833,37.3945378006727],[126.63588320110219,37.395251599958904],[126.6371239999992,37.3959956993471],[126.6373450000383,37.395122299680295],[126.6378585001944,37.395413599398296],[126.63739290111009,37.3962399009092],[126.6354885000345,37.3957693015688],[126.63477260075041,37.3974975998405],[126.6323348997889,37.3973788023473],[126.62948800167119,37.399132800219896],[126.6306823005827,37.402059797333806],[126.6321607012003,37.4021647980513],[126.6319661004938,37.4027808999866],[126.63068229854541,37.402059802302006],[126.6284105008172,37.4026565017053],[126.62826060086941,37.4037078008193],[126.62700439900891,37.4021233008859],[126.6291396980176,37.4014362001678],[126.6280975943415,37.3996720994787],[126.62824889419021,37.397004602146204],[126.6303570995086,37.3973808980859],[126.631367698498,37.395817199649606],[126.6282140998831,37.3931456000204],[126.6336046983842,37.3886375984599],[126.63443789752229,37.3841452003227],[126.6335837980507,37.383354598200995],[126.6370758995706,37.3803063980491],[126.6391741986008,37.3806977986679],[126.641801397216,37.3771766005173],[126.63891779897091,37.3754876006161],[126.6418013976194,37.377176597653],[126.64159449798079,37.3738606001142],[126.6427152988161,37.374365599319695],[126.64355289797851,37.3721530015323],[126.6399696996056,37.3728889010859],[126.6397204981129,37.3719058998322],[126.6434540999657,37.3720547959379],[126.6447205006437,37.3733433970486],[126.6472752993487,37.372366897165804],[126.6489134011535,37.372961097647895],[126.6504309002613,37.370988199578],[126.6486103004608,37.373467500201095],[126.6491917030773,37.3743479996389],[126.6481061002915,37.374164700282],[126.6469797012467,37.3756838997079],[126.6476397005867,37.377027398364405],[126.6489164997661,37.3767289984472],[126.6497033000805,37.377610398693804],[126.6526219001215,37.375283598509],[126.6513853012709,37.3761058992639],[126.65311750098549,37.378681997078395],[126.6550542990487,37.376800598959804],[126.6546578014235,37.3754213946615],[126.6576689020931,37.3782336959444],[126.6595686001934,37.378816095362005],[126.663582899463,37.3762936992143],[126.6635890013053,37.377989099487],[126.6656976997995,37.3783493992225],[126.6653267008992,37.3809884995548],[126.6699615997098,37.380839699433906],[126.6688439011579,37.381476999618094],[126.6692520007498,37.382268498826605],[126.6725134013477,37.383051699348805],[126.6724407033886,37.3864763020571],[126.668120307709,37.3922240963093],[126.6700350057943,37.395378693154704],[126.67587359995571,37.3948625936708],[126.6773685006662,37.3937389948772],[126.6788113003292,37.3956420972657],[126.6805559000805,37.394810497395596],[126.6822678997698,37.3971699969342],[126.6851785015687,37.395786697668605],[126.6868829007265,37.3981175965017],[126.689346398263,37.3969644976548],[126.6921627011005,37.3971607980032],[126.69105570282251,37.3992646002525],[126.6928011010771,37.401605097912],[126.6956049010532,37.4018341979257],[126.6973353010369,37.4041570979196],[126.699246701988,37.403235697491006],[126.7034070021564,37.4081965989865],[126.7105880012828,37.408488097079896],[126.711204701318,37.409379899474395],[126.7102253003471,37.4085548012578],[126.7091028014696,37.410218199594404],[126.70882000248591,37.4126481990255],[126.7105308007751,37.4129354987382],[126.7109787017225,37.416934399174],[126.71241500372419,37.418098702619105],[126.7125660035732,37.422303998413796],[126.71692640063411,37.422242100494195],[126.7125612044715,37.4229151007593],[126.7122015021128,37.42503190142],[126.710345902426,37.4271650993831],[126.71294179999589,37.4278887988485],[126.7145095000734,37.4272212995894],[126.714236800423,37.4282696995198],[126.71494869971109,37.4287265990629],[126.7159603012319,37.427344198271],[126.7162995003231,37.4294010995245],[126.71758990052369,37.429900199887],[126.71761470048129,37.433488800443],[126.7168001006025,37.433321801367505],[126.7162706001303,37.434403000323904],[126.7153621994396,37.4333897003487],[126.7084171009773,37.431805501823604],[126.7070711023233,37.4358338977952],[126.71007089932351,37.4388289948001],[126.71701150017749,37.439284296964594],[126.71790130221959,37.4380230984327],[126.7179815037832,37.4429034975982],[126.72043260133209,37.4445929959087],[126.7229418016624,37.4444124970289],[126.724707199897,37.4433519980894],[126.727162799137,37.444544997946295],[126.7290131984251,37.439283096687795],[126.7321925979157,37.438523598942304],[126.7322263000103,37.436079699538304],[126.7321926006574,37.438523597555104],[126.7348442004084,37.439417396650605],[126.7362294020064,37.437423897833],[126.74217330317731,37.441417997003],[126.742270601427,37.4450110993843],[126.743773599924,37.4445516998437],[126.7469607970171,37.4462665982596],[126.74941079456711,37.440915503610704],[126.74817349717709,37.439069599351406],[126.74939589812739,37.438391800008795],[126.7507196974051,37.4354296002776],[126.7534723011624,37.4351524985346],[126.7560205986141,37.438078595608495],[126.7588418957928,37.435721197965904],[126.7577069969277,37.432799800887295],[126.75894959833349,37.4319951964609],[126.7647960004308,37.4337765958735],[126.76525720121859,37.436127899181706],[126.7666256003912,37.4357407996962],[126.7695258000236,37.4378380988424],[126.767119700707,37.438333002212],[126.7665629979224,37.440476403352],[126.7624948019906,37.4381926056358],[126.7631565013289,37.4439301998982],[126.7638551006865,37.4439972999213],[126.7634750002577,37.444982001336705],[126.76282000021851,37.4443283004573],[126.7584102989209,37.445452803483995],[126.7570919002393,37.446561102375696],[126.75332120162601,37.4452460035635],[126.75074720420001,37.4471073017022],[126.7529787019685,37.4502946985148],[126.7548116001356,37.4497753990341],[126.7559083007409,37.4502920000516],[126.7538789016442,37.456469897177804],[126.75614400030521,37.4559342989331],[126.7562933008156,37.4579193000146],[126.75204570005789,37.4583008009085],[126.7511314009722,37.4592045000048],[126.7519441001123,37.459486001669696],[126.7509008011556,37.4593482018075],[126.7504503016061,37.4618091993465],[126.7542397999608,37.4644107998769],[126.7581106023889,37.4655513942823],[126.764141898105,37.4601907989493],[126.7631939000065,37.457966898772305],[126.76615719930119,37.458218096003804],[126.7705393027272,37.460019198266295],[126.7732785010935,37.4583909997685],[126.7732591012921,37.459421299439605],[126.77672709782411,37.4626683961925],[126.7787909987965,37.461164796974096],[126.78384779890351,37.4610712965617],[126.78628089647039,37.457889999742996],[126.786110395287,37.455958298268996],[126.78684169455569,37.45498459924271],[126.7858348967296,37.4508167992149],[126.7849305976339,37.4500089000228],[126.7862996989006,37.446596300211006],[126.7817852989266,37.4456898017166],[126.7814488994502,37.4442336004024],[126.7786000000016,37.4447222013999],[126.7773558000512,37.4431587014986],[126.7753232989588,37.443471599862804],[126.7764607994699,37.4420948002751],[126.7760198994821,37.438415301501],[126.7749871997482,37.4367746001234],[126.77520439915901,37.4358826998215],[126.7759874992079,37.436285399263404],[126.7777856994038,37.435382398960904],[126.77866919852029,37.4337102006331],[126.7777094991373,37.4325482988661],[126.7798087993576,37.4333030980991],[126.78144689858121,37.430923898365805],[126.7828426992581,37.4315886989543],[126.7850592988957,37.4306505994532],[126.784818400022,37.4296401981724],[126.7858133007034,37.432182397603405],[126.78769579882089,37.431937997847804],[126.7883750981416,37.4301382996475],[126.7892192996028,37.4299082986263],[126.7924401002077,37.431854399124],[126.7933475012472,37.4315377999244],[126.7939145009702,37.4334504988815],[126.7950312003843,37.4327434994897],[126.79543410057869,37.4339295997197],[126.7939145015318,37.4334505005412],[126.7935688021055,37.4341056005437],[126.7947161012873,37.4360747995103],[126.7958401001633,37.43652509906],[126.79613700073381,37.435979899207],[126.7992131007685,37.4386764996513],[126.7976704010332,37.4389240004349],[126.7973849013187,37.4401512992076],[126.79810500079931,37.4411615994119],[126.79906969998571,37.440892599649395],[126.79815210099919,37.4412485998723],[126.7986200005313,37.441959499161406],[126.8042666002773,37.4427027989007],[126.8037871012733,37.4455806975711],[126.80670170232,37.4481161976513],[126.80364820190229,37.447346601694406],[126.80273110161001,37.4496828010507],[126.803823100518,37.4519343987991],[126.8043025000386,37.451357699375805],[126.8042301045711,37.4604435980174],[126.8074284017904,37.462351899492205],[126.806795301433,37.4643943984953],[126.8086630005558,37.4634795983645],[126.8114284014229,37.46406909924681],[126.8116414016939,37.4663622999344],[126.8136072007062,37.4667785999777],[126.81622150056539,37.4708016970432],[126.81793299885389,37.4701374977074],[126.819293399963,37.4683993998467],[126.8199228000245,37.469569799321],[126.821679299046,37.4664014986699],[126.8265097002495,37.467720898565005],[126.82821270007169,37.4669865997353],[126.8274188008391,37.467570200312196],[126.82776850058791,37.4694352996961],[126.829776603455,37.469805099516904],[126.82742760270669,37.4711286011386],[126.8258877044498,37.4747840982769],[126.8276176027199,37.4782446948163],[126.8316174023234,37.4791993949183],[126.8373029966378,37.4792471948705],[126.8367360964955,37.4738884954335],[126.83945039919881,37.4700640004538],[126.8402311003123,37.4715579985585],[126.84167040079049,37.4711711989849],[126.84192690127071,37.473277798026395],[126.84463719856039,37.472236799067396],[126.8439718988571,37.4712914994435],[126.8472630971719,37.4686572989108],[126.847286699356,37.466342398182505],[126.84894540088371,37.467133496901404],[126.85068479914429,37.4661426978922],[126.8508314004908,37.4651109982781],[126.8543670036355,37.4663501997218],[126.8549408030617,37.4672714988005],[126.8585330000316,37.4675072987494],[126.8595520000858,37.4663956992203],[126.8629328968417,37.4658226996975],[126.8631191001041,37.465042999226604],[126.8630224011226,37.466340199586995],[126.86421489993009,37.4671958987313],[126.8714135997454,37.463469599205204],[126.87242450060269,37.4647424996266],[126.8715488010507,37.4675920972902],[126.87456320044299,37.4659427997418],[126.8764001001676,37.4674702993347],[126.8771438999539,37.4671058985567],[126.8792174003937,37.4681056995553],[126.87846550065301,37.468996501740705],[126.8787936003249,37.4708550998821],[126.88183220119461,37.4711432982767],[126.88242300060381,37.4722606971593],[126.88586989813871,37.470689598074],[126.8864338996104,37.4694110966064],[126.8883123995581,37.469318596944],[126.8890941987763,37.467543198719405],[126.8900883991891,37.4678212991442],[126.88950839940179,37.4666057003286],[126.8922256000866,37.4623740979337],[126.89353579965339,37.4643738990409],[126.8966809006657,37.4650811989146],[126.8967909007395,37.4664788994551],[126.8978568008064,37.466465200684],[126.8967909011549,37.4664789008614],[126.8962818006063,37.4681138000368],[126.8950463999263,37.467825601459],[126.8936612012696,37.4692261008552],[126.8925047001666,37.4684964018483],[126.8916744009969,37.4703940999506],[126.8903261002302,37.4711206012139],[126.888312400068,37.4693186012364],[126.8879517012666,37.4723750996047],[126.8888677007737,37.4727908999592],[126.88960590058821,37.4759664982384],[126.8907757005729,37.4745931993315],[126.8908330003168,37.4762988984855],[126.892125100878,37.4767948989944],[126.89197330092131,37.4778006993369],[126.89504370140901,37.4796379990819],[126.8953279007945,37.482872898664],[126.89758900060589,37.481032299572405],[126.8974911004852,37.4837400984665],[126.8994584002966,37.4833130999885],[126.89866769995841,37.4844359000796],[126.898429500092,37.483823600622],[126.8974822010393,37.4842220002236],[126.8985719003865,37.484618699858295],[126.8979291010271,37.485712299674006],[126.8992813996748,37.4860934992928],[126.9012953001404,37.4848089999118],[126.9004324005875,37.4871961986529],[126.9021318992247,37.4870883986218],[126.9021241997911,37.485389299485504],[126.9021319011853,37.4870883982258],[126.9054979985243,37.4857567994738],[126.9065164005096,37.4834685985165],[126.9111572996741,37.4828148989989],[126.9123871986525,37.4815007995964],[126.9135066989153,37.4823047990441],[126.9140173986877,37.481034899287394],[126.9168284007736,37.482922099378904],[126.9182574002134,37.4824271994534],[126.9177102012077,37.4830803002304],[126.9203179006615,37.4865269996055],[126.9200674009271,37.487428999706296],[126.92126020014011,37.4885752993937],[126.92206350004619,37.4882519995409],[126.92159180070921,37.4893875996229],[126.9225806001308,37.489913199979696],[126.9201178006714,37.4897728010153],[126.9190546017346,37.4906852001029],[126.9190152011097,37.4921011998094],[126.9178620012033,37.492186600096],[126.9188333000864,37.493684399676],[126.9199562002193,37.4934389997315],[126.92026310021,37.494113600018],[126.9194318004463,37.4945804997893],[126.9203183997873,37.4961607982109],[126.9226510981476,37.4953966991177],[126.9211324993471,37.4933298997964],[126.92316969930751,37.492426599328],[126.92287969951279,37.491186500232295],[126.9235492991101,37.4903991998496],[126.92452399983901,37.4909500993421],[126.9248369995196,37.490041400223305],[126.9243072995798,37.4900543993825],[126.9253683987337,37.4893557992754],[126.9262094992321,37.4898829991912],[126.9269925986182,37.4885672998777],[126.9252344992189,37.486917200366804],[126.9237672995928,37.486656200437096],[126.92255549922591,37.48261019984751],[126.9239306997346,37.482568198913306],[126.92420589945941,37.4815943998871],[126.9273873999216,37.4792602995513],[126.9303892997507,37.478688299533204],[126.9311822991035,37.4774302000349],[126.9326539984462,37.477075000041296],[126.9323795001269,37.4760246980245],[126.9348069000426,37.4760438994592],[126.9355041998523,37.4768929988485],[126.9360326004973,37.476361199304996],[126.93672290008041,37.476793400222],[126.93550760057829,37.4773097999796],[126.9362213998645,37.4776070996823],[126.9375033003019,37.4771824999955],[126.9367199005274,37.477484500136704],[126.9372041003116,37.478375400655196],[126.9341575004778,37.480411700561895],[126.9329785008837,37.4799145008607],[126.93285350051559,37.4815011998871],[126.93378229958681,37.482106399281896],[126.93404510013451,37.4812258995468],[126.9345495007249,37.482658399756495],[126.93668859975179,37.4841357995484],[126.93961200002519,37.4788498993524],[126.9431874000755,37.478957199540005],[126.9445513005977,37.479995899673696],[126.94536800011831,37.4797423996123],[126.9453351003813,37.4803876997208],[126.9466373000652,37.4807449998401],[126.9462282004465,37.4812729996705],[126.94829319931429,37.481781899324204],[126.9503707992149,37.4803782997214],[126.95222730106511,37.4777680990803],[126.956410201114,37.4799142994156],[126.9557319010879,37.48051430065],[126.9564220005429,37.4817933002045],[126.95584010029971,37.481523000828105],[126.9553881999085,37.483163501422204],[126.952429500265,37.4841110002222],[126.95088629916759,37.4835752001085],[126.95063689867531,37.482213800489795],[126.9473388004417,37.4818820003474],[126.9451505005636,37.483583000459305],[126.9452840000148,37.484257400620194],[126.943068600722,37.4843733005181],[126.9428997004361,37.4857466004824],[126.9420351003385,37.4845911004802],[126.9406193000346,37.485648900494404],[126.94048339975741,37.4849726005748],[126.9399050000216,37.485450600311204],[126.9378561998062,37.4841229005707],[126.93624010042831,37.4846009005217],[126.9368155005336,37.485342600121704],[126.9320078997535,37.4874354004724],[126.9297551999978,37.4907243014032],[126.9269315015502,37.491939100639605],[126.9268490997147,37.4928022009912],[126.924170401342,37.4928687012031],[126.92350670200571,37.493908400163406],[126.9244104014724,37.4957201992683],[126.926638599319,37.495412099704104],[126.92725899930481,37.4944502993431],[126.928418800637,37.4947205000418],[126.928459800596,37.4961795985827],[126.9294689995868,37.4950999996623],[126.9319455005336,37.4955335000574],[126.9316187004131,37.497985499475796],[126.93349880057339,37.4984610999171],[126.9336831007668,37.502105199477505],[126.9344112001343,37.5020322000817],[126.9319342003743,37.501981100809104],[126.9294936998104,37.5033042012611],[126.9266646008992,37.5028055018695],[126.92549560129541,37.5040583009978],[126.9262831999172,37.5063681991602],[126.9280332003263,37.5060456002696],[126.926283201633,37.5063682004254],[126.9262572018955,37.5085223989797],[126.92892190132561,37.5089087988972],[126.92625720269419,37.5085224011183],[126.926591200446,37.5127055994245],[126.92936020047101,37.5131794996527],[126.92950990032129,37.5140636987685],[126.9320527984457,37.5103025997874],[126.9319488008006,37.511603099454604],[126.9334325996919,37.511472699760596],[126.9390593993576,37.5091086999298],[126.9388643987106,37.508165999984],[126.9353547995086,37.505799800561796],[126.9360529990857,37.5058819993383],[126.9354029995133,37.5045232995378],[126.93587889898181,37.5029379998077],[126.936394599875,37.503255999147],[126.93686959991709,37.5023963994831],[126.939149199444,37.5036245975637],[126.9410544000796,37.5014687999157],[126.9404114007343,37.50276859974],[126.9443629006153,37.5052205995921],[126.9427216004451,37.5052079007044],[126.94227430127319,37.5069462997942],[126.9430374005101,37.5077278990126],[126.9467268994253,37.5086624987316],[126.9481420003265,37.5072705995799],[126.947585300478,37.508260299501806],[126.948469100558,37.508001500571496],[126.9473390014296,37.5089914999633],[126.9489034018562,37.509582599649704],[126.94827730177511,37.5105710998652],[126.953219999884,37.5128900017203],[126.9507925011713,37.512843601040096],[126.9496697017672,37.51396860045],[126.9497333998767,37.515315101291705],[126.94717480042709,37.5134810012366],[126.9440776006822,37.5152960002341],[126.94446119873531,37.516397901402],[126.9420184993945,37.515853300028404],[126.94320189930751,37.5160695989724],[126.9440775995676,37.5152959984021],[126.94340889975139,37.5131289005404],[126.9426760001494,37.513797100180795],[126.9392270009524,37.5137152002702],[126.93913020035829,37.5144439002129],[126.9383625999079,37.513099600264795],[126.9376676000766,37.5130788002582],[126.9373216005244,37.514139100150004],[126.9348802004718,37.5131473008133],[126.9344313009207,37.514895799064796],[126.9367397011063,37.5153779989111],[126.9363043006865,37.5184900004304],[126.93476530017969,37.5179152013801],[126.934359000586,37.5189442003511],[126.9342327012869,37.520645499796004],[126.9349162003968,37.5210781002343],[126.93294540037809,37.520047400767204],[126.9322368010867,37.5211360996785],[126.9327224992815,37.5214115013946],[126.9309686995331,37.5205881012836],[126.92751740213549,37.521850301317194],[126.9274120014492,37.5236486003254],[126.92813600005209,37.5240904004259],[126.9264292991672,37.523230900894],[126.9255666998845,37.5240979001645],[126.9230790004834,37.5235045014606],[126.9217739998936,37.5246877008919],[126.92154279973529,37.5237184007413],[126.9204522004884,37.5236594006184],[126.9179723996436,37.5245717010444],[126.9163489998577,37.5233915007855],[126.9151889998019,37.524939200476],[126.9163700979058,37.5228942997419],[126.9155783986975,37.5210260016102],[126.9137661005098,37.5217477008885],[126.9123003007568,37.5237389015812],[126.9113481000164,37.523601401114796],[126.9107623006022,37.5244773002389],[126.91124500037749,37.5256325003702],[126.90897439965451,37.5227243010949],[126.90831559964299,37.5236632002878],[126.9073837005749,37.5224928014582],[126.90593030158979,37.5239717008686],[126.9061803013398,37.524928299912],[126.9074010008373,37.5251606000597],[126.9069469011931,37.525950800219995],[126.9055618002264,37.526676500453],[126.9040890013954,37.5262840008597],[126.9038654001811,37.5288677000294],[126.9026419012419,37.529334499691394],[126.90760540015249,37.5307555995848],[126.9066791009799,37.532171499160796],[126.9080489002605,37.532037299776796],[126.9073356012234,37.533103400775104],[126.90507740037809,37.5343952007746],[126.90490460055089,37.5358248993449],[126.9057906000752,37.5365529988672],[126.90653120171531,37.5360770985822],[126.9063324042247,37.5366295073039],[126.90216419896271,37.5386337002091],[126.9041697993499,37.5373940987754],[126.9049627998681,37.5352325001587],[126.9034261999076,37.535479300149696],[126.90083210130051,37.5374820001014],[126.9003352004048,37.53884390042511],[126.89739539933099,37.5399867004753],[126.89778369986121,37.5382509003251],[126.8949266998236,37.536784700087296],[126.89701559866711,37.5328970000929],[126.8952831001405,37.530839701820504],[126.8941318999411,37.5319827015586],[126.8934481999018,37.530724600827796],[126.89232960102039,37.531265400287005],[126.892892800344,37.532009800441095],[126.8923295990618,37.531265400780704],[126.8911782995798,37.5315212007303],[126.8905088996608,37.5303826003829],[126.88940949912539,37.5306126000497],[126.89040799927449,37.5301039999514],[126.8909982987177,37.5282709014141],[126.8888925996612,37.527298201118],[126.8878304001869,37.527872500485],[126.8852045994084,37.5266452004171],[126.88499899911119,37.52580120072059],[126.8837896994653,37.5259938001195],[126.884998999535,37.525801199291195],[126.8858390996153,37.523893599208],[126.8860853005757,37.524953999104504],[126.8873036996909,37.5254448987262],[126.88931359921689,37.52424399990851],[126.8889143989863,37.522587600566],[126.88764109971879,37.5227682004715],[126.8863620994353,37.5215801008213],[126.8854179003795,37.5218349005665],[126.8856477999749,37.522735500227306],[126.88535120011841,37.5222746004805],[126.8843068998591,37.5232963013025],[126.8842073995791,37.5224531008104],[126.8829904001376,37.5226431005642],[126.88150469980769,37.5239219001762],[126.8810627998778,37.5233010999912],[126.8817364995506,37.523262899494],[126.88200899947479,37.5208586994453],[126.8836082985468,37.5207221995511],[126.883556098599,37.5198620004113],[126.8821014995634,37.5200764001399],[126.88161439995561,37.5186587011216],[126.8802927012773,37.5185287012516],[126.87842530043051,37.5214671004599],[126.87791969949711,37.5208378002297],[126.87747909974401,37.517879799773404],[126.8787980988283,37.5170210001025],[126.8773642993036,37.5166142996587],[126.87877319893789,37.5169304987665],[126.8794135982975,37.5140855016115],[126.87762209990909,37.5156110001825],[126.8764224997961,37.5148199005106],[126.8746738015448,37.5150549002756],[126.8734161019074,37.5171383996654],[126.876109700143,37.5178129002306],[126.87388940051649,37.519481900079406],[126.8733638993631,37.5189377001598],[126.8739735991829,37.5183511002761],[126.8726771993065,37.5178506003813],[126.8734069995344,37.5181346994613],[126.8734160995253,37.5171384004576],[126.8716879003192,37.516103800901504],[126.8712098001294,37.5170074004069],[126.8691465999675,37.5177393010185],[126.8667583002435,37.5165746010247],[126.8667721002252,37.5183075011156],[126.8625784001327,37.5168572006343],[126.8613364013747,37.5169718005197],[126.8610182993489,37.5179506007891],[126.8604965995186,37.515278600901205],[126.8591335998565,37.515665800225904],[126.8575299996978,37.513825600046296],[126.8582939989092,37.5125111998329],[126.8574119988661,37.5119888004024],[126.8576804977012,37.5106784000168],[126.8556793997023,37.5096044010908],[126.8546081996983,37.5099939001451],[126.8536330006735,37.5090103011287],[126.85322839890681,37.5103431010428],[126.853133898354,37.5092456019026],[126.8506760997708,37.5082609017738],[126.8488024988583,37.5088117013386],[126.8475905000976,37.5074270009405],[126.8466846010035,37.5077997005678],[126.8464994011614,37.5104196997306],[126.8470893007728,37.5106174002589],[126.8462892002404,37.510895400741],[126.8451610010586,37.5099713010817],[126.8428911005919,37.5114361007332],[126.84236830034651,37.5106984013124],[126.8414930995276,37.5121683014781],[126.8415995993382,37.5103962016005],[126.8397414979138,37.5078954005333],[126.83655110067279,37.506636401123295],[126.8333592018111,37.506540301217896],[126.8328163012184,37.5111351005556],[126.83172670021291,37.5120470008521],[126.82949909770281,37.5122595014088],[126.82907809753371,37.5105129023342],[126.825060801551,37.5084077044394],[126.82428570232611,37.5088128040343],[126.8215953039142,37.518295201698194],[126.8238707016388,37.5205611994322],[126.82212439861891,37.5211016016105],[126.8188326008427,37.5196585031835],[126.8171552025201,37.5226142002278],[126.8194261002492,37.5236564991855],[126.8243282011704,37.5240713001997],[126.8241028002745,37.5263007005486],[126.8220602003625,37.5288664011388],[126.8211480006199,37.528971600594296],[126.8215619006996,37.5311251004658],[126.8183486998699,37.5310712031518],[126.8161547020639,37.5320471021759],[126.81611710211659,37.5338627006404],[126.8147012014966,37.5341913020736],[126.8149934996537,37.537148703478806],[126.8119085005382,37.536198804605604],[126.81055860188809,37.5365378042666],[126.805215600051,37.5396856001356],[126.8023436988958,37.5370931022417],[126.8002704000577,37.5384954017413],[126.7991161984364,37.5375927030439],[126.7972406977305,37.53790510276551],[126.8001359968326,37.5373278978383],[126.7994939974746,37.532399502766694],[126.79749629945641,37.5312798008969],[126.7953134005259,37.531870300296404],[126.7949636000808,37.536185500334604],[126.7941433984373,37.5355660988198],[126.7954490971316,37.5330731013128],[126.7924971000356,37.5294755028578],[126.79060299980381,37.5306974014203],[126.79002320013639,37.532253500200504],[126.78936899993609,37.5317321000605],[126.7906029988534,37.5306974009864],[126.78985819915239,37.5293804007062],[126.7880308009798,37.5305144995721],[126.7886675004893,37.5314492002346],[126.787489799309,37.5300047002844],[126.78670289998719,37.5300859002772],[126.7883043991049,37.52873549929971],[126.7878662993089,37.526950299333],[126.7921749982498,37.5288185992063],[126.7958217991665,37.527994698733],[126.7979377982714,37.5255966999051],[126.7969797990618,37.523442800561895],[126.7958967991719,37.5237194004213],[126.7934328006788,37.522631101109496],[126.7923225005205,37.5236905007884],[126.7903317998353,37.5230403008334],[126.7874188006638,37.5239530005464],[126.7872972002618,37.5257610000398],[126.7859277012475,37.525553300729996],[126.785685100297,37.526613401051804],[126.7834424988811,37.5249052995393],[126.7838713997196,37.523844899641404],[126.78606029872141,37.5231688997605],[126.786069798604,37.5206693000085],[126.78467549892291,37.5201536000026],[126.7846791989089,37.5189765005415],[126.7795464007455,37.5195248006394],[126.7795301007618,37.520165999998206],[126.77613270114121,37.5221270999957],[126.7760483003567,37.5229540002669],[126.7719342009814,37.5237738003863],[126.7715299013857,37.5250179991421],[126.77360540121009,37.525800100168794],[126.7724358005854,37.5270821015202],[126.76952769919309,37.527948501679404],[126.7682577983925,37.5273240019481],[126.7666347000156,37.527755201516904],[126.764529500491,37.5295913021568],[126.7627315016613,37.5295803021106],[126.76138330183011,37.5319652015782],[126.7605775990995,37.531936700577305],[126.75882179977211,37.5291055007333],[126.757061898547,37.5280923000591],[126.7569426987476,37.5266693011093],[126.7555834996959,37.5256344019522],[126.7538437984836,37.525623101011],[126.7520527996861,37.5238338005125],[126.7510841003613,37.52162380176],[126.7505931009067,37.5230193010459],[126.7490581000345,37.522486101061],[126.74846460317261,37.528569501116706],[126.7483812994302,37.5274841011722],[126.74645540171531,37.53060519845079],[126.74780200051619,37.530842298340204],[126.7496875987085,37.5329613978235],[126.74862549969271,37.5306551985273],[126.7514055002317,37.5310869985992],[126.7519032997339,37.5298618998243],[126.7545087991762,37.529771598942496],[126.7545015998197,37.5288259991211],[126.7545746009338,37.5297684994932],[126.7553305018577,37.529732300158],[126.7536151007158,37.531073299928],[126.757295802148,37.5313181006046],[126.75603520015,37.532407201203],[126.7536150986172,37.531073301187405],[126.75142410033459,37.531548000659704],[126.7497563003625,37.5341137008489],[126.749687599023,37.532961401843],[126.74558889869171,37.53302760170779],[126.7441307001499,37.5344288003066],[126.7443604999201,37.5355611991742],[126.7458283010076,37.5355924992378],[126.7464988001539,37.536586398978095],[126.7470543007721,37.5361009994006],[126.7500058987069,37.538201698266604],[126.753368799971,37.5366244995708],[126.7560377975056,37.536685499509794],[126.7561236000616,37.5344355991746],[126.7560378024215,37.5366854989313],[126.7584026000567,37.5379934976233],[126.7599051010241,37.5375632986034],[126.7614143000763,37.5386749993936],[126.76255599954101,37.5379470987006],[126.7635677022914,37.5407717984421],[126.7613957988396,37.543295501859596],[126.76229209881339,37.5410794010915],[126.7593530997766,37.5418550009015],[126.7584403993353,37.541195001275],[126.7530089006959,37.5426869006961],[126.7527598990699,37.5404281022981],[126.7493095999603,37.5406386005989],[126.7456342014431,37.5427395010121],[126.7454433008109,37.5459952987308],[126.7473491003377,37.547350199558494],[126.7462852013757,37.547971299930204],[126.74845500113851,37.549073298555705],[126.7478755015519,37.5524108995492],[126.7485369009518,37.5544775983853],[126.75179019988481,37.558545697645705],[126.7543117017413,37.5575262981314],[126.75773770040011,37.557857399304005],[126.7598165997549,37.5591642989111],[126.7612608999313,37.558798398333],[126.76249880150391,37.562889600724496],[126.7606602996852,37.562653001365994],[126.7560926018978,37.564347601345396],[126.7558009992496,37.5737991014928],[126.7560836974973,37.570276501944],[126.7554964981271,37.568926700175496],[126.7533707002529,37.567738401363805],[126.75185050099671,37.567899302393],[126.7504947018667,37.5699841009502],[126.7481874014591,37.5700858006179],[126.74673870296239,37.5727140981436],[126.7467895046384,37.5747736003398],[126.7462508005457,37.5747438000854],[126.7468088009997,37.5772633009919],[126.7456320998289,37.5769160017623],[126.7449618988161,37.5787526012298],[126.7418946012407,37.5786906010344],[126.7417741998339,37.5798609016134],[126.7389517014797,37.5784779013003],[126.7407647991836,37.5816498005078],[126.7372637998184,37.580211503183094],[126.7352063009158,37.580916103012505],[126.7332108988722,37.5808274001069],[126.7326269997356,37.5795036004843],[126.7312398001654,37.5793932005919],[126.7308330993467,37.580082301017],[126.7301702994286,37.5779011000404],[126.7289150006839,37.5772241007174],[126.7285618963427,37.577788800779004],[126.7287835002388,37.5772049991635],[126.7310634979588,37.5776056987628],[126.72767230135,37.571356305012195],[126.7203728954921,37.5710666020691],[126.7210225991764,37.5671239982634],[126.72443299576601,37.5671537982336],[126.7249591952398,37.5631748022126],[126.7219825982164,37.5616033037841],[126.7190489988657,37.5647764002039],[126.712035200293,37.5560496031577],[126.7108669000746,37.5579034015974],[126.7066713970386,37.5571470035855],[126.7055689989647,37.554036099192],[126.7063674981662,37.5514194018087],[126.7036726947697,37.5510485039175],[126.7024230963103,37.5498305010571],[126.7033722963872,37.544332704761395],[126.6986100963063,37.5401590016464],[126.69554699558141,37.532175702463604],[126.6957594951215,37.5269286000673],[126.69273729941341,37.5240351004164],[126.6926880997422,37.5225905008881],[126.6907669001151,37.5242269010805],[126.68890620051401,37.523883800979],[126.6854388036002,37.5270922013993],[126.6852976037414,37.528978599512904],[126.68293130067251,37.5311478040421],[126.68035110325269,37.5369741982157],[126.6833084002954,37.5403830948068],[126.6862033010627,37.5419150992388],[126.6855517022021,37.547136201528495],[126.6841864008997,37.546753701163894],[126.684118100968,37.549577898339706],[126.6849592010216,37.5504967987316],[126.6865613994194,37.5501856990427],[126.6889355004746,37.5519350012041],[126.68562210370091,37.552745301391],[126.6839716003227,37.5557737022088],[126.6774621040923,37.5559223012042],[126.6794443023649,37.5594557022179],[126.6750253000142,37.5596945007503],[126.6725810996194,37.5568664013881],[126.6702994971007,37.5560409012449],[126.66851079883381,37.5522152039256],[126.6657853015593,37.5530346031062],[126.6653794999139,37.552221597278006],[126.6685107998948,37.552215199117796],[126.669456598949,37.5501491011839],[126.6688369996342,37.5499584004203],[126.66954299895481,37.548949800467405],[126.6689982996342,37.548549899729394],[126.66959769931219,37.5485688991519],[126.6691815997567,37.5471177004006],[126.6682711990862,37.5473187988515],[126.6679713966076,37.544059700305596],[126.6686937007033,37.5440472996773],[126.6688335004963,37.5451085993878],[126.6699976993321,37.5450521994442],[126.66962959988109,37.5422710000246],[126.6684484993403,37.5425306011431],[126.6674257971228,37.5407957024824],[126.6692555997477,37.541311699597],[126.6696510005599,37.5392168993188],[126.6709755992353,37.540486398049296],[126.6721104982401,37.5403415980243],[126.67265399900829,37.5381394983172],[126.6758068981413,37.537773097902104],[126.6764448975033,37.5370264986487],[126.676118897375,37.5298637028918],[126.6755144979794,37.529205103550396],[126.6702370999961,37.5297742025535],[126.66967789983009,37.5313221014936],[126.6671009988253,37.5300898019873],[126.66671729967331,37.5291632008448],[126.665940199931,37.5299824001428],[126.6653104991104,37.528179300244695],[126.66364490076289,37.528325501218],[126.661598499218,37.5261827002675],[126.6629070997023,37.5227030997504],[126.6650295975798,37.5210808013727],[126.66209549768361,37.520540901785],[126.6618546972257,37.5179468004807],[126.6590894992804,37.518039100022506],[126.66185469961701,37.5179467983322],[126.6621905981986,37.5155816993057],[126.6638160983198,37.514428799737495],[126.6637632983726,37.5137440004223],[126.6616894969832,37.512802799870904],[126.6615568980766,37.5013165016452],[126.6584829005998,37.500288102157],[126.65695759955359,37.5030002007935],[126.6554590985274,37.5014764008019],[126.65783999762449,37.5014311988478],[126.6613156985552,37.4966546971726],[126.661094898776,37.4930218008055],[126.65824869789151,37.4929481020035],[126.6581101972695,37.490137601723596],[126.6554076970579,37.490250101931],[126.6513635998968,37.4883395010298],[126.6501308011296,37.4890160003533],[126.65032620073019,37.490314801751],[126.6480893000482,37.4901361009449],[126.6476906991781,37.492035900682],[126.6470638998049,37.4884972042207],[126.64269609524099,37.4842346106448],[126.6400764978606,37.483013811865604],[126.633470104467,37.484565410314],[126.6312489066882,37.4875731073063],[126.626953998256,37.4904165064626],[126.6218101020511,37.4916081052122],[126.6183177969128,37.4886674002344],[126.6165438986867,37.4859643029375],[126.6180437965316,37.4829003025032],[126.61302870034051,37.4823003027529],[126.6091257990643,37.4785838039665],[126.60734510084501,37.4795710029793],[126.6062677997346,37.478841803062295],[126.60400270199969,37.4797660021381],[126.6033858009523,37.4811312030019],[126.60227689870871,37.478845502046596],[126.60108219990339,37.4785933022988],[126.60128279914491,37.4777283003675],[126.599807399563,37.4770184002507],[126.5994721992719,37.4751201009229],[126.59860809912641,37.4752927001992]]],[[[126.7901986966138,37.5765488995943],[126.7940359031409,37.5741402956235],[126.7977392013401,37.570204897315904],[126.7988997005788,37.571171499729296],[126.7996924003443,37.5756478961711],[126.80062629941041,37.572519199299805],[126.8025624988191,37.5723998983245],[126.803845399126,37.571147199273696],[126.8033780993776,37.5695627997475],[126.8043332988424,37.5680287006308],[126.802456799468,37.566965500185304],[126.80182379832189,37.564436301729394],[126.8001116000341,37.5643951017706],[126.79681789916259,37.5624330001926],[126.79655049940679,37.5613543996905],[126.8010809994952,37.5610990992378],[126.80223929993349,37.5595927991479],[126.80369469908699,37.559325898907595],[126.8037177990639,37.5583227999107],[126.8050387001578,37.5573117993449],[126.80657879877239,37.5569428995911],[126.80637989888,37.5561358999228],[126.80723329903789,37.5564599992315],[126.8136786999646,37.551323799662995],[126.8124478012992,37.552304799208905],[126.81692900147,37.556480100179805],[126.8143800019489,37.5584715006172],[126.8152090011199,37.560931098157596],[126.81982289795761,37.5603314986344],[126.8202815981174,37.558709897949996],[126.8229610988912,37.5590225993833],[126.82323919861311,37.5575781008278],[126.8221448994463,37.5571681992664],[126.8236166994987,37.5569553991597],[126.82388469980819,37.5559571980329],[126.826136098584,37.5556451988986],[126.8270086996957,37.554530199452905],[126.82834780104821,37.5553202999338],[126.8280496007786,37.5569042994467],[126.8287555000727,37.5573316990193],[126.82942839999279,37.556365099520704],[126.83041249980249,37.5576803985978],[126.8349296979224,37.556682599488205],[126.8363836992019,37.5551868994419],[126.83600249985771,37.5544199995907],[126.8368767006564,37.5542987994192],[126.8393702003398,37.555030199509794],[126.839557500179,37.5560824995491],[126.8403931001813,37.5556701998738],[126.8407237003543,37.5565176990836],[126.8418288006157,37.5564041996596],[126.84359480050621,37.558223599684],[126.8425023000844,37.5595182002852],[126.8420099995292,37.5588719005644],[126.8404914008864,37.559465000207105],[126.8414788002738,37.560227900866],[126.8404914003527,37.5594650013601],[126.83985560095881,37.5614771999063],[126.8403372004121,37.5617839005326],[126.8393559996355,37.561995701326495],[126.8385951990214,37.562041401412095],[126.8382239992188,37.5608415013056],[126.8334539992,37.5603397010098],[126.8325341001199,37.5592528020967],[126.83113730151669,37.5605583007912],[126.8320322006218,37.5615446998048],[126.8298904007946,37.5631569007038],[126.8300190007421,37.5646039005153],[126.8280309007769,37.566502900075605],[126.8282860006491,37.5681112986761],[126.83057620088499,37.5680536006024],[126.8297099017513,37.5681189005371],[126.82887460139031,37.5718678999062],[126.8268553988317,37.5710519004458],[126.8265094990549,37.5694892012118],[126.8251887988783,37.5695992007488],[126.8250198987285,37.568503800209506],[126.8218723008098,37.568497001489604],[126.82117240064669,37.5709453000776],[126.8222229995268,37.5714523011604],[126.8176916005392,37.5724857998535],[126.818593700876,37.5728285004917],[126.8181892012805,37.5760388972813],[126.8199900018007,37.575900000454396],[126.8181766013419,37.5804404017863],[126.8168942009732,37.580768501483796],[126.8151023004994,37.579951202138595],[126.8141115014902,37.5810707010191],[126.8140583003923,37.5826576007362],[126.80785240181851,37.5822694041016],[126.8094992981122,37.5805774012718],[126.8094179981935,37.5797520020972],[126.80594260166889,37.5801608016884],[126.8041325004684,37.58179350110721],[126.8040771996065,37.580967400735],[126.8017548012193,37.579508602054396],[126.80001780209031,37.58135420101],[126.7998425023148,37.583290999559104],[126.80053460273591,37.5843523001154],[126.799321199256,37.5859528016995],[126.7975013001215,37.586112801031604],[126.7969649996827,37.5847702010702],[126.7950664998264,37.585533701386396],[126.79695499925799,37.5843018977194],[126.79738659882639,37.5819208001005],[126.7984296986404,37.581064900109304],[126.79813849966139,37.5795593993005],[126.79930379958681,37.5798126991386],[126.79891689954789,37.577712100643],[126.7958203993537,37.577875000399295],[126.7954923997577,37.575665202439204],[126.79316130025819,37.5771305021091],[126.7901986966138,37.5765488995943]]],[[[126.9080711996218,37.548622200564395],[126.90892099928281,37.5485736988637],[126.9085247995936,37.5470775997834],[126.9093617995819,37.547317399545996],[126.9115232998828,37.545114999710805],[126.9160886999822,37.5462144997545],[126.9168409002276,37.5476721990572],[126.9172184006558,37.5469844998227],[126.9187244003685,37.5484150989152],[126.917680100588,37.549033000791],[126.9175232007493,37.5517936990673],[126.9186156003284,37.5529272002434],[126.9123837993504,37.5538241004429],[126.90875629993029,37.5514113000595],[126.9080711996218,37.548622200564395]]],[[[126.8327630997119,37.5493687004588],[126.8337508992101,37.5484163999538],[126.83333319944259,37.54796909974851],[126.8363250992263,37.547019999084505],[126.8365450994091,37.5459714992186],[126.8363200006148,37.5474976997976],[126.8377903993707,37.5477851995939],[126.83778459991011,37.5469472997642],[126.8397441999937,37.548433799082],[126.83924370049739,37.5490370998602],[126.8401298008545,37.548957200050594],[126.8393234001166,37.5505374001755],[126.8369617002398,37.550785100107596],[126.8363560002817,37.5526389009056],[126.8336032995729,37.550030400380294],[126.8329868000925,37.5502672003421],[126.8327630997119,37.5493687004588]]],[[[126.8379464997475,37.6136613003031],[126.8388309992743,37.6126695979538],[126.8459706995494,37.612640299791906],[126.845991199659,37.6110039999753],[126.8440104988067,37.6104248002422],[126.8455967996963,37.6090176988774],[126.8465860012044,37.612783898400494],[126.8484093009333,37.612886598509],[126.84761120086421,37.613962701017],[126.8480273001988,37.6153755002737],[126.8461182003722,37.6155384003526],[126.846556500309,37.6165700002835],[126.84577759974951,37.6167533004326],[126.8445749005101,37.61606610034],[126.8418123995581,37.6166678002962],[126.8379464997475,37.6136613003031]]],[[[126.8469847990977,37.5208248006598],[126.84810519902551,37.5211267992837],[126.8485891991769,37.5186708996403],[126.8505643998941,37.516551999438],[126.85280869944539,37.5170816989743],[126.8553315002601,37.5148481994265],[126.8551532013187,37.5164170987493],[126.8567985003431,37.517095900125604],[126.8562748011526,37.5180811995134],[126.85757480064879,37.5182842000294],[126.85731490080741,37.5192032992819],[126.8587075016373,37.5194027993809],[126.8584503014006,37.5207946001671],[126.8597816013697,37.5213497001308],[126.8582786007494,37.521724201095005],[126.8584262006018,37.522750600068605],[126.8577461005147,37.523135200457496],[126.8564727008505,37.5229931005588],[126.8569858003374,37.5236226999292],[126.8561954001926,37.5244939005547],[126.8544675996963,37.5247936005276],[126.85435579971819,37.5240718006695],[126.851328700025,37.525486901118796],[126.84945639948329,37.525041500463104],[126.8485531988851,37.5231579001222],[126.84735189970881,37.5232599011187],[126.8469847990977,37.5208248006598]]],[[[126.9212761988258,37.5548967989941],[126.9236504004572,37.5542539996471],[126.9251306003957,37.5553434989764],[126.92598869953501,37.5543003995342],[126.92655479998791,37.5545867991517],[126.9259881005944,37.5548814000449],[126.92660840034691,37.5556016994788],[126.92786140016909,37.5555023999098],[126.9277830000756,37.556150200072],[126.9269443006678,37.5559918002565],[126.9280950003075,37.556506999389306],[126.9272339009361,37.557694899230604],[126.9278624005017,37.5585122003471],[126.92655770003671,37.559634200620195],[126.9217436002555,37.5595477006147],[126.9212761988258,37.5548967989941]]],[[[126.8910003002228,37.454909700479],[126.8912098996944,37.454318999562695],[126.8935017990668,37.454876898681604],[126.8949567002945,37.4528494993802],[126.89305930044151,37.4566987998041],[126.8938259998872,37.4573477992144],[126.8942663000491,37.4559653998898],[126.8967645004122,37.4554080987795],[126.8969955003358,37.4566983999536],[126.8948367004478,37.456199500289294],[126.8946129005541,37.4568273998159],[126.895690600284,37.4571549003695],[126.89382599954871,37.457347801920804],[126.8910003002228,37.454909700479]]],[[[126.8128402965434,37.6178760002039],[126.8163424977767,37.6166111989969],[126.8153656987535,37.614672000936096],[126.8170567996771,37.6128971994994],[126.8185485992424,37.6159185964211],[126.81990219788881,37.6157782965614],[126.81916000005799,37.611907799257395],[126.8220843012333,37.612668499259],[126.82285400046361,37.6143520975754],[126.825009598308,37.6135331983943],[126.82447449884309,37.6108660010615],[126.8212168992405,37.6108080004894],[126.8207931998398,37.609945499940004],[126.8220948990263,37.6073099002519],[126.82074569897391,37.607146300628195],[126.821020499851,37.606600899612395],[126.8231102996793,37.607409499154606],[126.8238113993078,37.605593599443196],[126.8243980016636,37.6056545996744],[126.8247127024143,37.6090719978964],[126.8274409020681,37.6073665996383],[126.8274001005214,37.6090861036796],[126.82447450327989,37.6108660019965],[126.8251303014923,37.614887702709694],[126.8241335007171,37.6156448014971],[126.824465100266,37.6169779003231],[126.8238571002031,37.6154839017004],[126.81815089923761,37.620135101117796],[126.81427630311221,37.6175529037],[126.8126686020584,37.619569203929004],[126.8128402965434,37.6178760002039]]],[[[126.9626034992526,37.5266113992043],[126.9646900004363,37.5255488999509],[126.9662072003243,37.5271697983364],[126.96776160006411,37.5269800978917],[126.96752000077,37.5284456998471],[126.9687768008534,37.5287904990289],[126.9686646008192,37.5307198008737],[126.9679201989795,37.531151801978005],[126.9677661995544,37.529823900416794],[126.96678279993121,37.5295647003366],[126.9667300000648,37.5306300000353],[126.9660037991022,37.5308167000365],[126.96602089908511,37.5291716016816],[126.9647861003199,37.529175101678106],[126.96445989958309,37.5304383008836],[126.963614699942,37.5272467011616],[126.9630731993618,37.5275254009586],[126.9626034992526,37.5266113992043]]],[[[126.84318089911419,37.532203099935494],[126.8444639995832,37.5322650995791],[126.84374429957009,37.5308007999638],[126.844226599331,37.529986299958296],[126.8465349997898,37.529575299501],[126.8472424994033,37.5285833994821],[126.8482292996674,37.529128399784796],[126.8484338995795,37.5284076995082],[126.8508449005147,37.5321625997262],[126.8453174998724,37.534889800403604],[126.84378819940021,37.5331706001897],[126.8439617993115,37.5322408003644],[126.84318089911419,37.532203099935494]]],[[[126.6696335949428,37.568390898531696],[126.6709645938192,37.5653405986846],[126.67150099957391,37.5658493989722],[126.6723134991859,37.5643313995799],[126.6770508982293,37.5617631996122],[126.6785526032566,37.563826597847],[126.6817269000823,37.5643807972928],[126.68527950171519,37.5639073998181],[126.68402840168011,37.5641942007016],[126.68297120065729,37.5666796011122],[126.6830676001581,37.5689022012514],[126.6807433000487,37.5692536027908],[126.67952690126509,37.5704610015834],[126.6769594998687,37.5690161015975],[126.67595339883499,37.5704407021712],[126.6747933986067,37.5684268013683],[126.6696335949428,37.568390898531696]]],[[[126.9187725992584,37.405348800888795],[126.9203839996849,37.406056097725],[126.921672698958,37.4037875993312],[126.9230705987453,37.403286299314395],[126.92279189966811,37.4023903999396],[126.9242416995879,37.4010781995144],[126.92396909939339,37.399475299654796],[126.9247629997935,37.3985551993431],[126.925616500087,37.3999187993713],[126.9266714003531,37.3997691983864],[126.927433200534,37.4005953995348],[126.9261869992708,37.4028232063769],[126.9216727012888,37.4037876005326],[126.9223894004562,37.404572000537904],[126.9216726996852,37.4037876024344],[126.9203971006692,37.406163000441],[126.9187725992584,37.405348800888795]]],[[[126.7827830980912,37.409807900340894],[126.7840757985782,37.407250499807404],[126.7831963980228,37.40580499965],[126.78401809951849,37.406148799019796],[126.7858655957775,37.4029071909995],[126.7842693006671,37.405128699972096],[126.7845710004437,37.4059621992299],[126.7868828017309,37.4049513982183],[126.7860061004276,37.4050269001227],[126.78549770096669,37.406564298678],[126.78717599928841,37.4052717999705],[126.79010649870759,37.4048485994459],[126.7905149988176,37.40334369947],[126.79025160039211,37.4048394985266],[126.7912508014689,37.4063783990254],[126.792836600356,37.4054891997407],[126.7896764016732,37.406763901259],[126.7889153003379,37.4085114996127],[126.79053929871391,37.4104952976289],[126.7915301024147,37.410278002156396],[126.7891666992342,37.4111162037422],[126.7877495996884,37.4095448037193],[126.7846116028264,37.4088350044291],[126.7827830980912,37.409807900340894]]],[[[126.93513399991531,37.5556548999704],[126.93641670006849,37.554185599189196],[126.9385114006261,37.5554329998519],[126.9362999999751,37.5560086002482],[126.9357025997419,37.5549435006318],[126.93513399991531,37.5556548999704]]],[[[126.9689076992975,37.5413127005228],[126.9690472995713,37.5402176991589],[126.9720494007845,37.5409808985788],[126.97312249971141,37.540315299244405],[126.9729329995286,37.5395708978648],[126.9743412002999,37.5416696001319],[126.97406680035981,37.5426977001153],[126.9725923006968,37.5429026007601],[126.9724292006555,37.5437168007535],[126.97219099922299,37.5430696011108],[126.9706832999052,37.5434408007568],[126.9684667996519,37.5421324007232],[126.9692578997553,37.541901099903995],[126.9689076992975,37.5413127005228]]],[[[126.94595939960091,37.5040732999441],[126.9460428996986,37.5018176999036],[126.9485288994716,37.502304199229094],[126.94815709957031,37.501212299487],[126.94982420023389,37.50081299951],[126.9502277007562,37.502511600048095],[126.94958440012691,37.5042932005012],[126.94865870005539,37.5036929008808],[126.9463786999527,37.5047054001582],[126.94595939960091,37.5040732999441]]],[[[126.9318625980892,37.5273659995654],[126.9357385004164,37.5255355998196],[126.93564910041411,37.5272990996713],[126.93330619859451,37.5291063012178],[126.9325344998785,37.527525200694],[126.93115659950989,37.5292554998402],[126.93092089977671,37.528251000053295],[126.9318625980892,37.5273659995654]]],[[[126.7655477984025,37.6037542014957],[126.7680997976897,37.5997240988083],[126.7701082994633,37.6001842996196],[126.7712809995599,37.5989186987248],[126.7720276004111,37.5995590989224],[126.7728417010662,37.5990191987344],[126.7731741024219,37.6018355990372],[126.7719463003544,37.603754700765805],[126.7718998001187,37.6055614011719],[126.7655477984025,37.6037542014957]]],[[[126.8383589994054,37.5412048003721],[126.8404047998591,37.5400464991741],[126.841517899929,37.5402486990274],[126.8419778002796,37.540882000372505],[126.84097080103159,37.5415025998633],[126.84245299980441,37.5420588991956],[126.8423916006212,37.5426804001681],[126.8411950004031,37.5419328009222],[126.8406231002981,37.5427833001914],[126.83983690002529,37.5422948004529],[126.8392653002032,37.542862400636594],[126.8398368991376,37.5422948002928],[126.8383589994054,37.5412048003721]]],[[[126.9610594995366,37.477943700648],[126.96251000051359,37.4751176992116],[126.9642943009339,37.475600799234606],[126.9647109009086,37.4765226990315],[126.9658999009946,37.4760589989383],[126.9643892009329,37.47806040015389],[126.9646552000427,37.478740101184606],[126.9610594995366,37.477943700648]]],[[[126.80278259942381,37.3823493999146],[126.80454689943511,37.3825011970694],[126.8043852985606,37.3793642990099],[126.80693049806911,37.3797859986352],[126.8075054990809,37.378137097658],[126.80920520309809,37.379600698321596],[126.8089468005908,37.383445800958],[126.8079006002807,37.383196400956805],[126.80765960052169,37.3840419001113],[126.8051205003958,37.3853579003459],[126.805440099303,37.3842730010072],[126.8045468981242,37.3825012004792],[126.80278259942381,37.3823493999146]]],[[[126.9703783997666,37.5550539001053],[126.97303080063921,37.5540854997445],[126.9721855004462,37.5551915002543],[126.97243260027811,37.5567842001912],[126.97200719924989,37.5553657012382],[126.9703783997666,37.5550539001053]]],[[[126.9431141994683,37.3717884997478],[126.9449231005211,37.3701256990033],[126.9455054015639,37.371031100610004],[126.9442547010055,37.3720175011485],[126.9451942003482,37.37316720098],[126.94432650003401,37.3735943013337],[126.9434137997561,37.3733013000801],[126.9443721996689,37.371297700212196],[126.9434675005425,37.3710079004926],[126.9431141994683,37.3717884997478]]],[[[126.6718588977028,37.5845682994249],[126.67406390037779,37.5871770987064],[126.6754643989773,37.586341599541896],[126.6738541990616,37.5845769002813],[126.6736950994869,37.583307000347595],[126.674314899845,37.583780997728304],[126.6755101997979,37.581357598244594],[126.6769444013202,37.5838024984373],[126.6793771010514,37.5839243005611],[126.6783741020544,37.5866622978231],[126.6789397016846,37.5869691005954],[126.6777712009089,37.5865509016437],[126.676199899908,37.5878845023162],[126.6740638987114,37.5871771008143],[126.6718588977028,37.5845682994249]]],[[[126.8673396982293,37.6046125984804],[126.8681801994401,37.602275300464704],[126.8669611989678,37.6019036995441],[126.8683921999075,37.602241599837896],[126.86951310010451,37.601176799780596],[126.870776000776,37.602367598659804],[126.86913880078251,37.6033793001421],[126.86909720082829,37.6050117005367],[126.8683876002047,37.605417701672295],[126.8673396982293,37.6046125984804]]],[[[126.9327817990935,37.4720314994616],[126.9341818006574,37.4707561993069],[126.9358746004945,37.4719575999906],[126.9339817010314,37.4736125002927],[126.9327817990935,37.4720314994616]]],[[[126.8393508984136,37.5695156011342],[126.8412027982276,37.568034700217],[126.8400131994965,37.5666240983729],[126.84145240013419,37.566420799215905],[126.8427159014752,37.567665598927796],[126.84127290089461,37.5684941005436],[126.8418046008879,37.5709772002759],[126.8393508984136,37.5695156011342]]],[[[126.9068434974886,37.4178728025018],[126.90953540083089,37.4179341999863],[126.90696850057971,37.4197436008404],[126.9070284992667,37.4209760011404],[126.9068434974886,37.4178728025018]]],[[[126.96079789953501,37.5393973993532],[126.96090729973601,37.5383650995838],[126.9625309002855,37.538759899927804],[126.96079789953501,37.5393973993532]]],[[[126.9530231994389,37.495746900148],[126.9544453003907,37.4953842995891],[126.95317629955909,37.4967034005158],[126.9530231994389,37.495746900148]]],[[[126.9450496995817,37.538845499688904],[126.9471222007262,37.5403189005835],[126.9468275001322,37.5396926007429],[126.9461511993395,37.5400555013828],[126.9450496995817,37.538845499688904]]],[[[126.6710418992278,37.5936831995678],[126.6721422981908,37.5918360990711],[126.6744261016822,37.5926877996491],[126.6729106004283,37.5948871004937],[126.67106669944239,37.594373600801696],[126.6710418992278,37.5936831995678]]],[[[126.70736389736861,37.3989467999901],[126.7085106004747,37.4004984984421],[126.710343600841,37.400616398342095],[126.71120260030389,37.401814100451105],[126.70956790123239,37.4030617016853],[126.70788469916879,37.4028407013667],[126.7073538974991,37.4020655001672],[126.7085105980452,37.4004985009268],[126.70736389736861,37.3989467999901]]],[[[126.9767721989697,37.503155999556995],[126.97751489956501,37.5025998987964],[126.9788994011016,37.503359700029094],[126.9767721989697,37.503155999556995]]],[[[126.78731579940231,37.6434663997753],[126.7879853993754,37.6428381994572],[126.7883187002612,37.643066299433],[126.78731579940231,37.6434663997753]]],[[[126.9010959997986,37.4355550999596],[126.90214570003731,37.434135198851],[126.90194890084389,37.435259900594296],[126.9010959997986,37.4355550999596]]],[[[126.7914135973658,37.5804773992682],[126.79463230180791,37.580977399667205],[126.7921119986424,37.5824919011852],[126.7914135973658,37.5804773992682]]],[[[126.8547241993412,37.5613508997149],[126.8554672008493,37.5609614995197],[126.8546793002304,37.5619027008707],[126.8547241993412,37.5613508997149]]],[[[126.66398259989009,37.5685655989237],[126.6645287994342,37.5676147998764],[126.6651276002821,37.568667000232495],[126.664610500106,37.567790300667596],[126.66398259989009,37.5685655989237]]],[[[126.6670403993276,37.597745499942704],[126.6672846002302,37.596841499185395],[126.6683866003799,37.5977626998855],[126.6670403993276,37.597745499942704]]],[[[126.9630740988896,37.5319967010122],[126.96358640045659,37.5315945997273],[126.9630883998757,37.5328548003827],[126.9630740988896,37.5319967010122]]],[[[126.7235758997065,37.4009901002058],[126.72444330090751,37.4009094986916],[126.72535570122889,37.401312298164804],[126.7235758997065,37.4009901002058]]],[[[126.6253306966862,37.408526201067595],[126.6254846013036,37.4081735971932],[126.6272506008088,37.408676901592706],[126.6253306966862,37.408526201067595]]],[[[126.909057999824,37.4919917003427],[126.9095337005608,37.492092999733295],[126.9089647984847,37.4924379004632],[126.909057999824,37.4919917003427]]],[[[126.917053799561,37.5286105002025],[126.9179806997256,37.5276885982005],[126.9182647004196,37.5274061991312],[126.917053799561,37.5286105002025]]],[[[126.8963493995426,37.5783323000339],[126.89667699995509,37.577936899223495],[126.8969114019876,37.5784443003893],[126.8963493995426,37.5783323000339]]],[[[126.7312858994273,37.6130078998882],[126.7314146995646,37.6124360993436],[126.7321118014724,37.6125097988638],[126.7312858994273,37.6130078998882]]],[[[126.8741138993553,37.524586400095494],[126.87504550028329,37.5245677988927],[126.87515630028,37.5249690007818],[126.8741138993553,37.524586400095494]]],[[[126.92933069962069,37.509811699829],[126.9293833996968,37.5097707997678],[126.9300243004507,37.5093194996333],[126.9293834007026,37.509770800633795],[126.92933069962069,37.509811699829]]],[[[126.7661671981194,37.5573753993249],[126.76670590063381,37.557046296243804],[126.7679940016119,37.556833701243],[126.7661671981194,37.5573753993249]]],[[[126.8166210993686,37.6307512000012],[126.8166196010605,37.630711797812204],[126.8166234008342,37.630795402375895],[126.8166210993686,37.6307512000012]]],[[[126.9458623996173,37.556427300257404],[126.9464847001447,37.5567329006551],[126.9458525000162,37.556850900249],[126.9458623996173,37.556427300257404]]],[[[126.66943709978429,37.4208351993984],[126.6695141001563,37.4210538000397],[126.6694381992723,37.4210794008896],[126.66943709978429,37.4208351993984]]],[[[126.7113798995272,37.4101736999328],[126.7115587004663,37.410109399508606],[126.7115673004155,37.410138599823405],[126.7113798995272,37.4101736999328]]],[[[126.7503030991243,37.5519934999666],[126.7508668004228,37.552154700083705],[126.7505869006495,37.5523247026965],[126.7503030991243,37.5519934999666]]],[[[126.80859220142841,37.3695903990792],[126.8085921993694,37.369590400714],[126.80859219912121,37.3695903992348],[126.80859220142841,37.3695903990792]]],[[[126.74911879897141,37.5439419000599],[126.7496048996043,37.54372089959929],[126.7496049013122,37.543720900154696],[126.74911879897141,37.5439419000599]]],[[[126.8858018992727,37.4654288998873],[126.8860424004273,37.4655553001982],[126.8857518998954,37.465508800503805],[126.8858018992727,37.4654288998873]]],[[[126.64495989980071,37.3912308999349],[126.644959900252,37.3912308998425],[126.64488349996981,37.3912771000182],[126.64495989980071,37.3912308999349]]],[[[126.67117989937209,37.3817029006092],[126.67115979913069,37.3816798995081],[126.6711799010095,37.3817028997914],[126.67117989937209,37.3817029006092]]],[[[126.6767044973883,37.5936900008598],[126.6767045001282,37.5936899986115],[126.6767045003091,37.5936900017951],[126.6767044973883,37.5936900008598]]],[[[126.808740599221,37.3705644997399],[126.80874060110659,37.3705644997874],[126.8087406001979,37.3705645021524],[126.808740599221,37.3705644997399]]],[[[126.8128106998163,37.631237599904],[126.8128107005889,37.6312375998565],[126.812810699896,37.631237600892],[126.8128106998163,37.631237599904]]],[[[126.9104517996243,37.525506400044996],[126.9104517998318,37.5255063996772],[126.9104518003041,37.5255063999384],[126.9104517996243,37.525506400044996]]],[[[126.62645189966591,37.5562262995041],[126.626451900483,37.5562262989615],[126.6264519009984,37.5562263030048],[126.62645189966591,37.5562262995041]]],[[[126.65770519928449,37.602103900785806],[126.6577051994,37.602103898980005],[126.65770520032059,37.60210390010781],[126.65770519928449,37.602103900785806]]],[[[126.8089474995713,37.6317545998859],[126.808947500683,37.6317546001694],[126.80894749988221,37.6317546011367],[126.8089474995713,37.6317545998859]]],[[[126.87707419977039,37.5173539000128],[126.8770742000944,37.5173538998052],[126.8770956001275,37.517412200241004],[126.87707419977039,37.5173539000128]]],[[[126.97708399979871,37.5649238000115],[126.9770840000708,37.5649237998026],[126.97708400010761,37.564923800156706],[126.97708399979871,37.5649238000115]]],[[[126.7142621976372,37.5706998986249],[126.7142622013089,37.5706998984757],[126.7142622012923,37.570699902780504],[126.7142621976372,37.5706998986249]]],[[[126.7391375995634,37.515373500455304],[126.73913760037,37.5153734994224],[126.7391376004311,37.5153735002891],[126.7391375995634,37.515373500455304]]],[[[126.79677799964891,37.5812023000949],[126.7967780001816,37.5812022991959],[126.79677800029211,37.5812022999719],[126.79677799964891,37.5812023000949]]],[[[126.8371339988676,37.509366198888],[126.8371340005213,37.509366199062505],[126.8371340013786,37.509366201866904],[126.8371339988676,37.509366198888]]],[[[126.9789039994247,37.4766134999122],[126.978904000089,37.4766134992658],[126.9789040004144,37.4766135001691],[126.9789039994247,37.4766134999122]]],[[[126.9788764991352,37.5023019997645],[126.9788764995067,37.5023019990808],[126.9788765006536,37.502301999884104],[126.9788764991352,37.5023019997645]]],[[[126.66657589971649,37.4060610997945],[126.666575900911,37.4060610996087],[126.666575900808,37.406061100798304],[126.66657589971649,37.4060610997945]]],[[[126.6675530990405,37.5499502000445],[126.66755310021671,37.549950199613],[126.66755310091811,37.5499502004285],[126.6675530990405,37.5499502000445]]],[[[126.6709525004226,37.412391999460894],[126.6709525000493,37.412392000315194],[126.6709524996321,37.412392000104994],[126.6709525004226,37.412391999460894]]],[[[126.7480424990348,37.5442830994685],[126.7480425007545,37.544283100364304],[126.7480424993483,37.5442831003803],[126.7480424990348,37.5442830994685]]],[[[126.8110299996485,37.631629999831404],[126.8110300009419,37.6316299991838],[126.8110300009458,37.631630000399],[126.8110299996485,37.631629999831404]]],[[[126.90074319984889,37.539495100275005],[126.9007431999968,37.5394950997739],[126.90074320022059,37.539495100120405],[126.90074319984889,37.539495100275005]]],[[[126.9398423998435,37.5146865000027],[126.9398424001627,37.5146865000014],[126.9398424000863,37.5146865001796],[126.9398423998435,37.5146865000027]]],[[[126.944086399575,37.4852825002312],[126.9440863998332,37.4852824997858],[126.9440864004855,37.485282499852794],[126.944086399575,37.4852825002312]]],[[[126.67211379951671,37.413221399656095],[126.67211380025,37.4132213999303],[126.6721137997843,37.4132214002425],[126.67211379951671,37.413221399656095]]],[[[126.74831749936929,37.547066899841795],[126.748317501276,37.5470669005621],[126.7483174995996,37.5470669005337],[126.74831749936929,37.547066899841795]]],[[[126.7964663996663,37.581487200495],[126.7964663999605,37.58148719981],[126.7964664003036,37.581487199984394],[126.7964663996663,37.581487200495]]],[[[126.8015197992218,37.6332121006375],[126.8015197999234,37.6332120997768],[126.80151980036469,37.6332121010689],[126.8015197992218,37.6332121006375]]],[[[126.8325341999408,37.5498477999797],[126.8325342001318,37.5498477999406],[126.8325342000274,37.5498478001665],[126.8325341999408,37.5498477999797]]],[[[126.8822595998431,37.501797100028895],[126.882259600132,37.5017970998831],[126.8822596000262,37.501797100092],[126.8822595998431,37.501797100028895]]],[[[126.9726499989262,37.5531100008239],[126.9726499998013,37.553109999405294],[126.9726500001257,37.5531100000524],[126.9726499989262,37.5531100008239]]],[[[126.93809159965261,37.513465199871796],[126.93809160005921,37.5134651999806],[126.9380915997544,37.5134652008239],[126.93809159965261,37.513465199871796]]],[[[126.9546666999131,37.495713700045904],[126.9546667000148,37.4957136998346],[126.9546667000474,37.4957137000257],[126.9546666999131,37.495713700045904]]]]}}]}