{"type":"FeatureCollection","features":[{"type":"Feature","properties":{"interval":15,"stationId":"5902086062"},"geometry":{"type":"MultiPolygon","coordinates":[[[[126.6885338997428,37.4636839994996],[126.689782799933,37.4629738990627],[126.6898236008271,37.463533999409904],[126.6914375999821,37.4634565994608],[126.6924855988896,37.4622682002167],[126.69175059947901,37.461875598755],[126.69312169909341,37.462317299554705],[126.6936259985891,37.4616919001801],[126.6918254000258,37.4607026987186],[126.6987558002646,37.460844998433096],[126.6991849010068,37.4622375000067],[126.7009735002922,37.4632276993105],[126.7023940006273,37.462324600020104],[126.70400189994379,37.4646845985209],[126.7062240001251,37.4645881978614],[126.7063484009712,37.4654058993986],[126.7080764007961,37.465747399407],[126.7083215004871,37.4668650989206],[126.70941549945701,37.4663135988408],[126.7116042997735,37.468555498824],[126.71258360007491,37.4680592992117],[126.7121264050745,37.4721185005061],[126.71146560062729,37.471942301116904],[126.7114500017742,37.4735979024072],[126.71033849957571,37.4724426016492],[126.7088084009127,37.4739040002644],[126.7107879007263,37.474554000945],[126.70939200087639,37.4753182004171],[126.7097633000271,37.4758499006625],[126.7083801007706,37.4753541007317],[126.7073043994721,37.4769527014221],[126.7060281007484,37.476418601956205],[126.7032703018937,37.4795878014115],[126.70482650000869,37.4814103000732],[126.7032702996477,37.4795878018117],[126.7010494001797,37.4807372016325],[126.7005263986965,37.479689900493895],[126.6984483005332,37.4788997012202],[126.69729249774551,37.4800075016316],[126.6978662984276,37.4786719995812],[126.6964934998004,37.4759010023522],[126.6949060013879,37.4767205015327],[126.694727300872,37.4776767012888],[126.6932970002311,37.4774660019327],[126.6918999997153,37.4783466005141],[126.6920591994548,37.4769634995566],[126.6932969992682,37.4774659982763],[126.6940622985029,37.476126699615605],[126.6923606984151,37.4719837994102],[126.692921498977,37.471535999210204],[126.6924939977897,37.469202799268096],[126.693328899755,37.4699137989637],[126.6943119987719,37.4694496994278],[126.69384499896469,37.468582498421895],[126.6957030988643,37.4677465000664],[126.6961272984585,37.4646593000518],[126.6954289991568,37.463962700748404],[126.69149539929069,37.4644525006048],[126.6909269998591,37.4636602013971],[126.6898759001609,37.4644614006318],[126.6885338997428,37.4636839994996]]],[[[126.6740210993799,37.466097299729505],[126.6757133002566,37.466634398627995],[126.67707259941331,37.4656319994358],[126.6771848009856,37.4665279987886],[126.6792082996095,37.4655041991592],[126.6836011008253,37.4649062989725],[126.6836918017936,37.465453699238594],[126.68325330050381,37.466605900715095],[126.6812871999067,37.4668079007001],[126.6808983002956,37.468108799399204],[126.681570500484,37.468044800122804],[126.6798794001557,37.4694379008799],[126.6774834992052,37.4684577005101],[126.6771847985523,37.466528000382695],[126.6740210993799,37.466097299729505]]],[[[126.6701149985838,37.465152099376496],[126.6703124997425,37.4639039993478],[126.6701921004548,37.4646647991014],[126.6714753019257,37.4652733005535],[126.6713762013946,37.466338800282],[126.6700109999543,37.4658087003534],[126.6701149985838,37.465152099376496]]],[[[126.6555581980296,37.4669847008187],[126.6572920005255,37.467269100602],[126.65631709987579,37.4678324011275],[126.6555581980296,37.4669847008187]]],[[[126.7047062995003,37.4815719002938],[126.7058725009183,37.4825407004431],[126.7058724997054,37.482540700982],[126.7047062995003,37.4815719002938]]],[[[126.70851409938331,37.4838820999212],[126.70851410057631,37.483882099804],[126.70851410034341,37.483882100819805],[126.70851409938331,37.4838820999212]]],[[[126.64258699989871,37.468446799686404],[126.64258700019431,37.4684467995592],[126.6425870003172,37.4684468003776],[126.64258699989871,37.468446799686404]]],[[[126.6687449991728,37.4659023001953],[126.6687449999538,37.465902298626304],[126.6687450006292,37.465902300060506],[126.6687449991728,37.4659023001953]]]]}},{"type":"Feature","properties":{"interval":30,"stationId":"5902086062"},"geometry":{"type":"MultiPolygon","coordinates":[[[[126.62555879907889,37.4761267012291],[126.6277125994573,37.4741882995335],[126.6286486997284,37.474485299390295],[126.6292110992257,37.4727677004258],[126.6282666993681,37.4726455004628],[126.6285950997212,37.4717036995902],[126.62991189940969,37.4728379989654],[126.6299196992465,37.4716328981375],[126.63197199920691,37.470571599275],[126.6311035998087,37.4685579990555],[126.6319988989134,37.4680781995353],[126.63163919903859,37.4670582986234],[126.63357849860999,37.466564398848504],[126.6333502982326,37.463585000754705],[126.6363547011581,37.4617017978904],[126.637722802151,37.4598709985655],[126.63953460058191,37.4604846993428],[126.64340270001469,37.4598329992977],[126.6444651002685,37.461503398950796],[126.6457381994627,37.4609953992567],[126.6452442996488,37.460233899744196],[126.64573820017209,37.4609953992602],[126.6481640005581,37.4602673997821],[126.64941060095009,37.4612501003609],[126.6489571011859,37.4619677000041],[126.65224760066779,37.4634036995539],[126.6543095006338,37.465906999743],[126.6534504008537,37.4659020003217],[126.6535878007163,37.4678033984203],[126.6563169990413,37.46627019964269],[126.65769709943989,37.4639250998383],[126.6571274995128,37.463378199788],[126.6601023998696,37.4620952989153],[126.664358098987,37.4560535991689],[126.6655182991198,37.4567221988655],[126.6674527005401,37.4552443995549],[126.6690586989341,37.4565961982031],[126.669382999981,37.4546090987493],[126.6700026000415,37.455497798822904],[126.6710871007345,37.4552019993779],[126.6700026011067,37.455497800406405],[126.67129509981419,37.457432998471205],[126.6728734989805,37.458122297646],[126.6732461985919,37.4551525000323],[126.6743401989762,37.4539291992652],[126.679041399682,37.453827999318904],[126.680673598975,37.4526804999232],[126.67899000018299,37.4508364012091],[126.67724699996009,37.4517303004206],[126.67978019913349,37.450230399565],[126.6795474992424,37.4496283990989],[126.68472750144,37.452152999926604],[126.6847660014216,37.4531050994492],[126.6897187964688,37.4529488996054],[126.6896534999404,37.4507746997314],[126.69165430008269,37.4522760988458],[126.6933368993367,37.4505429004228],[126.6925055991807,37.450466499520495],[126.6948913992432,37.448664400023695],[126.6943609992363,37.445037699829],[126.6955877995745,37.4456349988612],[126.69604489911741,37.444576399919804],[126.69473949938799,37.443365899889606],[126.6974990988213,37.442806799893496],[126.6963671999532,37.4424405002598],[126.6973327995396,37.4418718998838],[126.69674759993819,37.4401696006868],[126.6954650002656,37.43963850104],[126.6955820001486,37.4406031000754],[126.6951677993294,37.4403034005622],[126.6940238980343,37.4375017994772],[126.6958492989889,37.4371346994051],[126.6963408984973,37.435572200967606],[126.6949645998736,37.4355981009417],[126.6935421990853,37.4335895012889],[126.6918547986246,37.433670099311],[126.6957758001202,37.4337234979669],[126.6969805994922,37.4322556992313],[126.69694119956169,37.4300395002323],[126.69536769918281,37.4291082000188],[126.69561519888721,37.4258912001765],[126.69659709925371,37.424091599912295],[126.6972941993177,37.4244000993209],[126.6975014002817,37.423369199294804],[126.6989408005451,37.4231615992499],[126.6992850007091,37.424730599506],[126.70083960034559,37.424614299061],[126.7024373022862,37.425554400055304],[126.70032640283989,37.4271502008638],[126.7005525028438,37.4297809991551],[126.6985772025451,37.432134600894095],[126.70116760104641,37.433205899613995],[126.7022789000343,37.4348682979644],[126.703071601489,37.4346278984312],[126.7013774032995,37.435947902632904],[126.7025004008446,37.4397322007582],[126.7046861001637,37.442875599129],[126.7066819003365,37.4429475994277],[126.704854200604,37.4446612999434],[126.7054526011416,37.4456280998753],[126.70884990084501,37.4478336998941],[126.7091009004872,37.4496566000807],[126.7077109008274,37.4502682998124],[126.70819280053391,37.4537887986399],[126.7098510005042,37.4529045994368],[126.71148339939771,37.454475698360305],[126.7120626024601,37.4540090996975],[126.7117168026685,37.4555408989655],[126.7146825001165,37.455311799161194],[126.7162298985691,37.4561831982898],[126.7173941974048,37.455038699434304],[126.71646199806071,37.45356490014171],[126.71773759973321,37.4542518981083],[126.7193694009926,37.451645998873296],[126.7239469009631,37.4544014996562],[126.7244572005888,37.456161999037],[126.725079600639,37.455478100606],[126.7235495003683,37.4568684004121],[126.72168549934351,37.456962000569696],[126.72166009966189,37.4563581005886],[126.71815580180801,37.457438700266195],[126.7180895018743,37.4583442993606],[126.7192475008237,37.4589351992111],[126.7217407004656,37.4584154995321],[126.7208455003223,37.4593408001488],[126.721976001051,37.4606433998522],[126.7219224015731,37.4638754989896],[126.7240682009629,37.463988400990495],[126.7228624012807,37.465362600228296],[126.7232773003553,37.467084900436504],[126.7213191005632,37.4681228004832],[126.7186754001154,37.466692101849404],[126.7174536013372,37.4669290016125],[126.717277800887,37.470813899603705],[126.72042040294579,37.4722886006722],[126.7198533019439,37.4730120018993],[126.7208761009211,37.475850299060994],[126.7222139017861,37.476955699142195],[126.7208761004507,37.4758503010238],[126.7178989017128,37.478139002537496],[126.7176776019341,37.4811845994919],[126.7192323007898,37.4835914972681],[126.72220929879761,37.4828239979524],[126.7229228992452,37.480683996641396],[126.7236231009207,37.483261597391596],[126.72643100042801,37.4842800965938],[126.72748570009361,37.4856578992129],[126.72928590028309,37.4851900996472],[126.72969430018851,37.4859232992379],[126.7308739999261,37.4858423993165],[126.7339868996403,37.4882653993831],[126.7345805990466,37.486974500674],[126.7335762993058,37.4870264994287],[126.7345805989451,37.486974499432705],[126.7355450994848,37.483683299984804],[126.73691769888791,37.4824307979648],[126.73926570229871,37.4827294990359],[126.74158130325911,37.4819269997573],[126.7434002015526,37.483721998956604],[126.7472368006265,37.4847395998605],[126.74610490170811,37.485896500468805],[126.7465306004413,37.4873530004785],[126.7451614013789,37.487946000764],[126.74410420205409,37.4907021996406],[126.7457594001607,37.4916311000063],[126.7440835016235,37.490994600734],[126.7436285003345,37.4930197002868],[126.7414089993904,37.4936945003956],[126.7407035997284,37.4922662011573],[126.7391534993173,37.4917831012425],[126.73901409926,37.4888870011217],[126.7374084008657,37.488973101035604],[126.73800700022329,37.490208100613195],[126.736282500722,37.4885590011152],[126.73228040063209,37.492875899496],[126.73373950023179,37.4928994996658],[126.73332770001531,37.4933624000652],[126.7307780007486,37.4940508008093],[126.73089570005621,37.495285800590295],[126.7294666008381,37.496056500728905],[126.7289290008638,37.498201999949096],[126.7263928003692,37.5008787004205],[126.7244400004859,37.5025678999769],[126.7224665004979,37.5024664004368],[126.72154570070829,37.5037227003619],[126.7236100007558,37.505472099952],[126.7227899000401,37.507376899575895],[126.7243122999074,37.5085120006835],[126.7228591999184,37.5086785001138],[126.7205478993733,37.507501700311096],[126.7184609970312,37.5084981007661],[126.7165954998528,37.5069382994732],[126.71815849910651,37.505791300052095],[126.7187037986253,37.504248899690204],[126.7200342000348,37.5057340993149],[126.72049369966301,37.503935400025405],[126.7215456992665,37.503722699958296],[126.7189071971969,37.5010931011465],[126.71895639720489,37.499377200644],[126.7161865981427,37.4990403009147],[126.7191120971346,37.4979712987365],[126.71869409908079,37.495610300343905],[126.7177736997668,37.4954461002173],[126.7187255988582,37.4944669999618],[126.7179064996773,37.4938926005362],[126.7165199999868,37.494594900905305],[126.7159859984696,37.4938852991117],[126.7163828980727,37.4914214015756],[126.7118379016624,37.4907788007022],[126.70626419968,37.4924743012851],[126.707811298592,37.491925300045295],[126.7063165000868,37.4909170010536],[126.7053065995004,37.492429300963096],[126.7039777999274,37.490351800786996],[126.70257509950261,37.4901568007307],[126.7012013989193,37.488383502667695],[126.69767739992551,37.4884511017669],[126.6966264995707,37.4896635005868],[126.6966634944645,37.486461501090794],[126.6926192985087,37.48267830487401],[126.68989570123229,37.4870800004723],[126.68806000015019,37.4876351006626],[126.6880795003934,37.488623001768794],[126.6850880996974,37.487272000495096],[126.68440029984129,37.488494200761],[126.682917200293,37.4887176008607],[126.6810695997512,37.4885194002228],[126.6804263000243,37.4873819002987],[126.6801417983573,37.4887617008393],[126.6797254986517,37.4867980010004],[126.6783139983937,37.4868642009897],[126.6782660983215,37.4859716000597],[126.6797887981176,37.4795474013966],[126.6763349000391,37.4765783030732],[126.6747710995623,37.478450300953696],[126.6746216995628,37.475747401320206],[126.6726032990358,37.4747741016145],[126.66988389892781,37.475779700343],[126.6678573994179,37.4754285004961],[126.6670509996018,37.474358500936],[126.6662495993537,37.4748643004079],[126.66552630007699,37.4738198014524],[126.6618359000386,37.4741280007028],[126.66006260035411,37.4755887012495],[126.65964219877209,37.4746660003969],[126.6556134024325,37.474570400393795],[126.6555006996589,37.4758900002687],[126.6547981998614,37.4747489013359],[126.65249739945911,37.4749418012219],[126.6511544996323,37.4731219019838],[126.6497978002751,37.4745857004424],[126.6487035005362,37.4743287004399],[126.6475319009686,37.4754092003725],[126.6487389005469,37.4766244006037],[126.6482985999786,37.47613840084281],[126.6450105001701,37.4777269001137],[126.6454095003894,37.4786723008939],[126.6449598990764,37.4781573006932],[126.640066800617,37.479154701842205],[126.63934060134319,37.479997000999894],[126.6403145997619,37.4820803009335],[126.6394226006539,37.481632501381306],[126.63618299937231,37.4825425003745],[126.63602369981889,37.4816603006948],[126.6344976007139,37.4819874003241],[126.63443540041911,37.4826403005486],[126.6321169998306,37.4822068007871],[126.63009810006609,37.4830357010566],[126.6293186993049,37.481578301543],[126.627244198968,37.4825174013346],[126.625963698897,37.481192400841195],[126.6271412987549,37.4768938000945],[126.62555879907889,37.4761267012291]]],[[[126.74673969941861,37.488919901422896],[126.7476326010164,37.4883577989969],[126.7493532993405,37.4887879987097],[126.749180400759,37.4876974993562],[126.74969880061,37.4887659985869],[126.7548266000235,37.4878090983126],[126.75812380087581,37.488755298214905],[126.7596372993623,37.4875493994208],[126.7606299000589,37.4882801992064],[126.7638912990588,37.487103499846704],[126.7641013988162,37.484892101918106],[126.7615105993623,37.4851397984856],[126.7618463994953,37.483690099966495],[126.7637359981559,37.4838155993997],[126.7638447991749,37.482619299270006],[126.7637360011742,37.483815598930796],[126.7656028009249,37.4839518004626],[126.7641014021914,37.4848921002835],[126.76513850025651,37.4875802990036],[126.7666095987854,37.4876194989644],[126.7666545987404,37.486711799872104],[126.7676109990239,37.4863698989314],[126.7678635014541,37.4874186991492],[126.7694639011039,37.4871624998233],[126.7680258016003,37.4880426997612],[126.76774649987141,37.4891959011649],[126.76636710032099,37.488955200839],[126.7662083999868,37.4908260013871],[126.766315698623,37.4894475003494],[126.7652967995304,37.4884135007621],[126.764595500137,37.4891308001083],[126.76501759865529,37.4903039007264],[126.76062989995499,37.488280200660796],[126.7584980005109,37.4906355002932],[126.7574645006674,37.490673900663595],[126.75755870024321,37.4916091012309],[126.75598599986749,37.491405101656305],[126.7549815004671,37.4933142006121],[126.7526938996192,37.4928547001667],[126.7523906998737,37.4911039006489],[126.7503265992216,37.4914568000074],[126.74673969941861,37.488919901422896]]],[[[126.728060899057,37.4552653007033],[126.72911350043779,37.4557998990091],[126.7298465997047,37.4552705995384],[126.730458399061,37.454361400093106],[126.72946259996081,37.4538235995643],[126.7313403990794,37.453293299649296],[126.73166309991271,37.452056799368],[126.7351683009742,37.4536143995394],[126.73336350041549,37.4550526001071],[126.7350540996413,37.4554667990406],[126.7353285006497,37.456427999790805],[126.7338032999142,37.456080300357705],[126.7335618999018,37.4566083009824],[126.7326472999571,37.455339801296695],[126.7305210995471,37.4567797004726],[126.728060899057,37.4552653007033]]],[[[126.6125614965643,37.4771767014071],[126.6151747995362,37.476534598276004],[126.6158782988717,37.4737262934224],[126.6159017004163,37.474987998495706],[126.6171900991279,37.4735418999418],[126.6168135979364,37.4730539940947],[126.6195888998809,37.471354898105304],[126.620267900475,37.472196098503495],[126.6214825012544,37.4715383992941],[126.6237536014059,37.4741452994173],[126.62269540227919,37.4755162001586],[126.6230111016266,37.4779622993935],[126.62184030100761,37.478171100319095],[126.6216537000217,37.4804042011769],[126.6213396000699,37.4795823006123],[126.62056009981531,37.480509300769],[126.61831169893411,37.4788719017333],[126.6142235988051,37.4784884038119],[126.6125614965643,37.4771767014071]]],[[[126.67126159969759,37.5008904000044],[126.6726608990975,37.4992439990072],[126.6731706999482,37.5008230984362],[126.67375179995011,37.4991753991704],[126.6755469981549,37.4984385999072],[126.6756294001245,37.4971856999892],[126.67595250030489,37.502970500079705],[126.6751702007136,37.5039015007344],[126.6744359996287,37.5024241002088],[126.6729628997394,37.502278100474896],[126.6726012993899,37.5012889003709],[126.67126159969759,37.5008904000044]]],[[[126.71878819735511,37.516629897904096],[126.7209986000169,37.5165118993677],[126.7212521003972,37.5146471996162],[126.72218320000681,37.5155046990548],[126.72287730049969,37.5149595994506],[126.7221914011572,37.5155929996325],[126.7227652006881,37.516239599045],[126.72396760032859,37.5156488995992],[126.724221800539,37.517226800151704],[126.7236919999762,37.516498601062096],[126.7215187010195,37.5169201003304],[126.72161220092599,37.5179027993477],[126.7224322003039,37.5180397995657],[126.72175919747869,37.5194484016051],[126.7208454981011,37.5165200016682],[126.71878819735511,37.516629897904096]]],[[[126.6914491979109,37.4170381000593],[126.6951987999202,37.417253298327196],[126.6964085007262,37.4165241977872],[126.69678190209811,37.418396299943694],[126.6951976005542,37.4184121005125],[126.6936860997276,37.4198574004556],[126.6921998990108,37.4189394010578],[126.6924265985336,37.417992999804405],[126.6914491979109,37.4170381000593]]],[[[126.7211709989498,37.5302799999525],[126.7218720000086,37.5305419995442],[126.72252379899611,37.529568098396496],[126.723781200225,37.5302428999755],[126.7222546005433,37.530608600079],[126.7225645000059,37.5310950006863],[126.7211709989498,37.5302799999525]]],[[[126.7794574988365,37.4832764002052],[126.78190680025101,37.4811669988769],[126.78217280023439,37.4824041986998],[126.78458480056631,37.482208698941804],[126.78474130129659,37.482968099934],[126.78611580129271,37.4832530004215],[126.7814085007988,37.4839021006063],[126.7794574988365,37.4832764002052]]],[[[126.6693454983712,37.489951400059205],[126.67120509808619,37.4889895000846],[126.6711417999073,37.4879968980876],[126.6747365002761,37.4878929994058],[126.67524230044579,37.493337999975104],[126.6743237007349,37.4933605007246],[126.6743532005028,37.4941021016185],[126.6743236991264,37.4933605007929],[126.6734023980734,37.493358699972404],[126.6732969981214,37.4916044009607],[126.67137009814161,37.4916646009728],[126.67126379813621,37.4898889009438],[126.6693454983712,37.489951400059205]]],[[[126.79442779920609,37.4829540999712],[126.79518830033531,37.4822325987474],[126.79555829983019,37.482987799240995],[126.797025000651,37.483017600359],[126.7963816000374,37.483803800327394],[126.79442779920609,37.4829540999712]]],[[[126.68658619905479,37.4107935994939],[126.6893026005231,37.4123351993645],[126.6886159016919,37.4133438998139],[126.68658619905479,37.4107935994939]]],[[[126.6754432997968,37.5174782000059],[126.6766959002039,37.5174274995399],[126.6767867006586,37.518239700693],[126.6754432997968,37.5174782000059]]],[[[126.6857196992854,37.4132592000118],[126.6865095006295,37.4127702998837],[126.68655000002569,37.413110000733404],[126.6857196992854,37.4132592000118]]],[[[126.67225449963789,37.5063956006382],[126.6729988006623,37.506364499392696],[126.67303660082611,37.5070101008397],[126.67225449963789,37.5063956006382]]],[[[126.6806079996805,37.4049146002761],[126.6807439997754,37.404964499524695],[126.6809062001916,37.4051385001958],[126.68074399990431,37.4049645001682],[126.6806079996805,37.4049146002761]]],[[[126.7355779984224,37.4472642999758],[126.7360457014463,37.4477767995551],[126.73608199965369,37.4481421006024],[126.7355779984224,37.4472642999758]]],[[[126.67451669890029,37.485587499732404],[126.67454389999381,37.485402199146904],[126.67451670092059,37.4855875004921],[126.67451669890029,37.485587499732404]]],[[[126.6751657990568,37.5062756006916],[126.6751657999188,37.5062755994279],[126.6751658001827,37.5062756006509],[126.6751657990568,37.5062756006916]]],[[[126.69590989904411,37.41985880029],[126.69590990024581,37.4198587991108],[126.6959099010503,37.4198588008046],[126.69590989904411,37.41985880029]]],[[[126.72069559964599,37.5105371998291],[126.720695601236,37.5105372002582],[126.7206955997385,37.5105372016923],[126.72069559964599,37.5105371998291]]],[[[126.7226144000076,37.5385222005166],[126.7226143997959,37.538522199170906],[126.7226144010706,37.538522200169304],[126.7226144000076,37.5385222005166]]],[[[126.6226139996749,37.479751999799895],[126.6226140005423,37.4797519994695],[126.62261400058689,37.479752000348],[126.6226139996749,37.479751999799895]]],[[[126.6766340992916,37.516374200366805],[126.6766341004776,37.5163741996705],[126.6766341002657,37.5163742005932],[126.6766340992916,37.516374200366805]]],[[[126.6778343996468,37.4531670995482],[126.67783440073799,37.4531670998203],[126.67783439969989,37.4531671000181],[126.6778343996468,37.4531670995482]]],[[[126.7228770998134,37.5090157000636],[126.72287710017521,37.5090157000515],[126.72287710009691,37.5090157002587],[126.7228770998134,37.5090157000636]]],[[[126.67728739981379,37.5061955998807],[126.6772874004969,37.5061956006438],[126.67728739986279,37.5061956006752],[126.67728739981379,37.5061955998807]]],[[[126.7228955998067,37.509362899898],[126.7228956000784,37.5093628999115],[126.7228956001389,37.509362900375],[126.7228955998067,37.509362899898]]],[[[126.6410651996186,37.481123699873194],[126.6410652001308,37.4811236998625],[126.6410652001435,37.4811236999907],[126.6410651996186,37.481123699873194]]],[[[126.6581763998695,37.474946100018094],[126.6581763999813,37.474946099933995],[126.6581764002379,37.474946100116796],[126.6581763998695,37.474946100018094]]]]}},{"type":"Feature","properties":{"interval":60,"stationId":"5902086062"},"geometry":{"type":"MultiPolygon","coordinates":[[[[126.59485357312879,37.4689991152044],[126.6028711012883,37.4658996981918],[126.60398260017679,37.466385297706196],[126.60524120950879,37.4697315974171],[126.6078988068512,37.4731175940311],[126.6066388018416,37.476396999780896],[126.6085507999296,37.4771663990115],[126.6091098005011,37.4764416973127],[126.6125614982934,37.477176696920104],[126.6158782988717,37.4737262934224],[126.6159017004163,37.474987998495706],[126.6194697974841,37.4694601980386],[126.62097940284329,37.46818399541],[126.62232670149601,37.468347795246196],[126.6256161982065,37.4658218977721],[126.625901001211,37.464801796854594],[126.62985839759091,37.4643637978252],[126.63148819596111,37.4607782014108],[126.62869669841531,37.4587163029401],[126.6298942979198,37.458031597879796],[126.6276667001474,37.4541069018045],[126.6226372017665,37.4548918023295],[126.61734979507,37.4570996019034],[126.6203504990931,37.4480906971936],[126.6222232972203,37.4470439982403],[126.62154939925671,37.444127899147595],[126.6243672011516,37.443182695351],[126.6258713022839,37.445618196123796],[126.6325026964642,37.4435239978896],[126.6334617005179,37.4392136973348],[126.63673660031611,37.4461982964246],[126.6372500002308,37.4460760968219],[126.638517799685,37.443829596988],[126.6466317987025,37.4397097985456],[126.64958399877311,37.439344398640905],[126.64952989882721,37.436990800994494],[126.6471881981461,37.4360039022515],[126.64606259540939,37.4335702000082],[126.64616729990941,37.4305630997035],[126.6472270988496,37.4307387995278],[126.64698609847201,37.4276837002185],[126.64813769893561,37.4265080995791],[126.6474898995405,37.4254982003981],[126.64967999837731,37.4251039998288],[126.6494670985902,37.424459800473],[126.6480432994167,37.424432599974004],[126.6495079985226,37.4231550999368],[126.6487562992671,37.4221410003133],[126.6495855996854,37.4213946992485],[126.65358520010959,37.419441299740505],[126.6537591000822,37.4214808989178],[126.6551630002362,37.422123497190995],[126.65734809805109,37.422070397244106],[126.6586649967342,37.4203519989625],[126.6605057016713,37.419570896907096],[126.6646534975235,37.4214467950312],[126.664544997632,37.416255000222996],[126.6622994977555,37.4149885006186],[126.6598240998008,37.414633800922296],[126.65940759969139,37.4155190004136],[126.6581435991893,37.414884800804906],[126.66074569976661,37.4096419997526],[126.6617343000827,37.4102811991106],[126.6634830983339,37.409481899909906],[126.6638897981863,37.4073491991183],[126.66566189619691,37.4063203989539],[126.666092795766,37.4028468024275],[126.6631274987313,37.4017075035668],[126.6633178979926,37.400610200532306],[126.6616766994639,37.39854700223],[126.6578188020716,37.3950671045942],[126.6565475033429,37.396112303548996],[126.65667670309321,37.3991342012609],[126.6556106020198,37.401609602425204],[126.6543392996908,37.4013934002501],[126.6533661006781,37.3996106016258],[126.6506290004587,37.4009445005859],[126.6500701996298,37.3996266004802],[126.6464689999394,37.3995983025001],[126.6446926000856,37.3980522025588],[126.63910799968019,37.4018674005192],[126.6348070002387,37.3978736022584],[126.6316190008409,37.4030430997244],[126.6323103001496,37.405200897566594],[126.6345641028155,37.4060967985766],[126.6346841102993,37.407794801852894],[126.6324414019257,37.4084322102807],[126.6290760052911,37.4128484058645],[126.6288735022932,37.416501802178],[126.6264251019367,37.414837703818],[126.6234031997806,37.4190295018072],[126.6207945976161,37.415383100123],[126.6181041996134,37.4141129000056],[126.6192684990684,37.4144209994142],[126.6190836001411,37.4116590989712],[126.6192685002191,37.4144209978028],[126.62048689900071,37.4146165976072],[126.6213818998249,37.4134104992852],[126.621497900059,37.414671998723605],[126.6231125984443,37.414818498577105],[126.6238527007418,37.4134805981233],[126.6259501986443,37.4138121977917],[126.6247481993474,37.411433899436],[126.6253306987917,37.408526202140294],[126.6248172998233,37.4045628999891],[126.62700439900891,37.4021233008859],[126.62824889419021,37.397004602146204],[126.62673319472701,37.3928543034146],[126.622408296911,37.3868934065801],[126.62345979946231,37.3847360987073],[126.62545709936501,37.3836828977543],[126.6264383983837,37.382082199355],[126.626089398963,37.3813453996592],[126.63059249976381,37.381438897454],[126.6321582983929,37.3794943993356],[126.6282341998346,37.3753240996324],[126.63161679941571,37.3738398998226],[126.6312240998366,37.3730198998009],[126.6329720995601,37.3709857998404],[126.63217009709679,37.370023084459596],[126.6349705026931,37.3713622983007],[126.6377346999289,37.3699698996931],[126.638757000133,37.3709035958543],[126.64341979547021,37.3679926987652],[126.64123069611739,37.365816181692495],[126.6434198000782,37.3679926970401],[126.6486633991361,37.3648167982745],[126.6506695004504,37.3669922963137],[126.6528263002913,37.365038997048],[126.6553533020638,37.3668112975958],[126.6577091997079,37.3653833990237],[126.65711550235591,37.3695234997096],[126.6608571020402,37.3734761966213],[126.6663852985458,37.370953098815704],[126.6680467999495,37.372135397837596],[126.6687991002662,37.3708015970586],[126.6695785035132,37.371365597815995],[126.66608880135169,37.3734797005759],[126.6702746002123,37.3766962958524],[126.6741654011881,37.3761163954158],[126.67497950076071,37.3779165971988],[126.6768987020829,37.3792437993058],[126.6769716005621,37.380398299057504],[126.6791989015496,37.381360199061206],[126.6815272006276,37.3839291008828],[126.6805303016245,37.3846113002006],[126.6793371028177,37.388245396566504],[126.6820612017852,37.391528396102196],[126.6863088989156,37.3895197983857],[126.6879776009535,37.3913446979142],[126.689806601488,37.3904522993208],[126.6915474997471,37.3928253969477],[126.6943866983048,37.391435697700004],[126.6946572980342,37.388176800958895],[126.69622129740131,37.3874548993019],[126.6960217969168,37.385139000986605],[126.6968122993355,37.3846057992207],[126.6983412028596,37.3847436995227],[126.70147940048389,37.3888580957569],[126.70551280066499,37.3877528961533],[126.71807300043291,37.3885759970613],[126.7215232987895,37.3868575995879],[126.72006060165539,37.3898072982302],[126.7217591999568,37.3898400981974],[126.72248960235281,37.3884162983567],[126.7253043998173,37.3896648972768],[126.7283920010338,37.3891638950937],[126.7301269032932,37.3909695946861],[126.7346105988095,37.389306696348996],[126.7359265988655,37.3875544973538],[126.7389077979823,37.3880659962509],[126.73682439808711,37.382930399555],[126.73821719716729,37.3808357992371],[126.7396759986681,37.3806440987697],[126.7402651990645,37.379531697986],[126.7409581003581,37.3819143984316],[126.7456012002713,37.383385397473305],[126.7464446998767,37.380774098363496],[126.74560120192079,37.3833853977687],[126.74747990004211,37.383724397429695],[126.7476129996998,37.3810661995258],[126.74932900026201,37.3794835863698],[126.75475059814619,37.378413087222604],[126.76036359878101,37.3790250914985],[126.7566048037536,37.3785893038223],[126.7571243003359,37.3859002001755],[126.7574359995552,37.384849100991296],[126.7566666989658,37.3853436005977],[126.75352400210849,37.384092801848496],[126.753167500971,37.3851705024192],[126.7507267012916,37.3866393007207],[126.74626860176089,37.391345299015995],[126.7494038986256,37.3948095955517],[126.749574099777,37.389792199595],[126.7510645003711,37.390197898846296],[126.7560773017869,37.388139400686],[126.7510645008268,37.390197905300596],[126.7491790000574,37.3961799003421],[126.74940389577081,37.3948095985316],[126.7435180995339,37.389761401539594],[126.7423741006779,37.3902785010225],[126.7397186021155,37.395158197433396],[126.7425722063825,37.395819600746805],[126.74223690671779,37.3966354999309],[126.7441372054313,37.401077996856195],[126.7436530064139,37.4043027975894],[126.7443583060504,37.4054858972459],[126.7492903992657,37.4081482049131],[126.745965102591,37.4080739049874],[126.741738798191,37.4093231054357],[126.738256801673,37.4134503013085],[126.7348015005354,37.411178202154304],[126.7325842027527,37.412310501022],[126.7328920001526,37.4141258006303],[126.7318283980331,37.4118284024663],[126.7283450008784,37.410359303754205],[126.72597210325131,37.4133554007581],[126.72872510040641,37.4164519003576],[126.7275996005218,37.416873100202295],[126.72806530047819,37.417632900667904],[126.7273868001244,37.4179264008945],[126.72694440007909,37.4172056008745],[126.72480400180231,37.418005000923],[126.72173770255881,37.4255182024875],[126.7225164017801,37.4280699999357],[126.7240934010844,37.4282449012831],[126.7220946017549,37.4283808009353],[126.7230809006963,37.4313597982456],[126.7246522008397,37.4299414001653],[126.7235350019569,37.431881698225],[126.7296364985959,37.4311273972494],[126.73262000016379,37.4315167963036],[126.7344888981075,37.427375799082704],[126.7382566009898,37.4281347976187],[126.7342944037317,37.428234502091904],[126.7354027000972,37.4334174995426],[126.7360760021117,37.4333781996211],[126.73262000033729,37.431516801641294],[126.7322366007207,37.4356179975401],[126.73525260007399,37.4360679975648],[126.73864450083171,37.4394783984234],[126.7419691980672,37.441543097703196],[126.7434727963239,37.4379054999509],[126.7418214979752,37.4362187016377],[126.7401372996093,37.4360383994894],[126.7437168980935,37.435929298939996],[126.7423766991887,37.4341576998717],[126.7434068002448,37.4329189995866],[126.747625497901,37.4354115985278],[126.746256297921,37.4329282997161],[126.7487472014606,37.4342245979731],[126.7515101986976,37.432251099946605],[126.74995900024881,37.4312729009248],[126.74802269859931,37.4313041009506],[126.7468408983373,37.4299272964989],[126.7484318994471,37.429497398401004],[126.7488079999212,37.428273099032],[126.7531099995693,37.4288829963109],[126.7577617949175,37.4262772989166],[126.75766059501869,37.425189700004196],[126.7596249985494,37.424072897453],[126.76297250175071,37.4256371961527],[126.7664146999964,37.4261659955156],[126.7654067030176,37.4296119991539],[126.76847910107249,37.4291572992787],[126.7696321005662,37.4314269974869],[126.7717790993256,37.4318670970998],[126.7739627001092,37.429825699314],[126.7737324011074,37.434618899528296],[126.77436340064929,37.435704200988205],[126.77316770082041,37.4364565002388],[126.7724176022906,37.43940380084],[126.7692661031129,37.4414222994634],[126.7719027004763,37.442827698058004],[126.77457959971629,37.4420767991447],[126.7753233005183,37.443471598966404],[126.7762091004756,37.4430401998299],[126.77173380332721,37.4443717021789],[126.77107930342619,37.4467588013282],[126.7722514022541,37.449203498883506],[126.76978720177999,37.453210501219395],[126.7682204959953,37.4513212019966],[126.7634318997885,37.4524845013423],[126.7626357991039,37.4510302011528],[126.7606413997339,37.4516156007616],[126.757064298113,37.448670300219305],[126.7567936981535,37.446020002789496],[126.75332120162601,37.4452460035635],[126.75074720420001,37.4471073017022],[126.7529787019685,37.4502946985148],[126.7548116001356,37.4497753990341],[126.7559083007409,37.4502920000516],[126.7538789016442,37.456469897177804],[126.7559279995951,37.4558605977871],[126.75700710001489,37.4578488979212],[126.75799040039449,37.457627100181604],[126.7564166003305,37.459330301349496],[126.75342379930039,37.4580860013327],[126.7520457001928,37.4583008008264],[126.7519441001123,37.459486001669696],[126.7509008011556,37.4593482018075],[126.7504503016061,37.4618091993465],[126.75423980387079,37.4644108011406],[126.7552566017225,37.4660890999987],[126.7542090999855,37.465653701577],[126.7517686010276,37.466949500932095],[126.75212230260459,37.4689165026882],[126.7508266039003,37.471956699648],[126.7544947004583,37.4727414986855],[126.7597857951672,37.4766205948064],[126.7591447958082,37.4696389017881],[126.7571188998075,37.4692789968716],[126.7659998965502,37.4700499982075],[126.7660651980767,37.4651143950764],[126.7675559037842,37.4652148991933],[126.7658730047409,37.466397201251105],[126.7663725042414,37.4700047976435],[126.76896420165,37.4728785989298],[126.778923395069,37.4716257973249],[126.7794211946992,37.4646226020026],[126.7788488990098,37.4635028991929],[126.7838477961492,37.4610712966473],[126.7859941027109,37.4632503999905],[126.7849523033711,37.4640018002953],[126.7844267038967,37.4661506981464],[126.7884837998396,37.466589297707806],[126.7907420975813,37.4644829998141],[126.7898664988385,37.4633920998488],[126.7911932994582,37.463683199216895],[126.7916005993574,37.4627576992094],[126.7930884024068,37.4657543972759],[126.7967263987688,37.4682696947606],[126.7978205976746,37.4676485953817],[126.7988252976465,37.4623391952249],[126.80088590039159,37.4625359982381],[126.80252019958151,37.4588949998389],[126.8037204005097,37.4599439004997],[126.80281810156839,37.4615625017346],[126.80186280032589,37.4611191020937],[126.8008859009064,37.4625360010518],[126.801801202637,37.4638997017494],[126.8012095032287,37.4672205984285],[126.80345580098239,37.468550097099005],[126.8094284991638,37.4678783984983],[126.8096011006203,37.470277097880995],[126.8115752004771,37.4721290979046],[126.8129063991459,37.471334398699305],[126.8127140005571,37.470280599413904],[126.8148919992304,37.471367197237704],[126.8176493020485,37.4742474969587],[126.8207396989581,37.4737447974614],[126.8241362995182,37.469850299304994],[126.8236065007193,37.4701919006121],[126.8246761016823,37.4732416982608],[126.82381680207091,37.475702399081705],[126.8276176027199,37.4782446948163],[126.8262461044855,37.4816247977032],[126.8270319042791,37.4833195965534],[126.8305117007993,37.4849576949153],[126.8333788983666,37.4826397969012],[126.8358860958594,37.4821045974364],[126.8385784987245,37.4796243996228],[126.8391372992515,37.4773176000875],[126.8401462987981,37.4766419998354],[126.84000399985749,37.474764298900894],[126.8419194029858,37.475044899372904],[126.8428377020675,37.476634197783596],[126.84581819908699,37.476539197878594],[126.8458367990684,37.4743277000901],[126.8476110988922,37.4746842990628],[126.8472459990945,37.4738782990646],[126.8484628981642,37.4725879996247],[126.848309799786,37.4688860994922],[126.8491683004966,37.4700348990912],[126.85198319956311,37.4685169993584],[126.8536174002524,37.469143699558195],[126.8533851010115,37.471982698164],[126.8553168001643,37.471646099045],[126.8558302002187,37.4738189979871],[126.85742739862151,37.4729107988953],[126.8563344002684,37.4711421994636],[126.8593113015833,37.4729788992436],[126.8616668992277,37.4726825995399],[126.8625057006185,37.4712751986114],[126.86448309968,37.4717940992014],[126.865142499027,37.470669998896796],[126.8644124997436,37.4692142997462],[126.8654585003572,37.4685516993994],[126.86717609946159,37.469630799532496],[126.8670840993824,37.468619999478705],[126.8686112993275,37.468392399421596],[126.86860979932901,37.4674873003267],[126.8675536998827,37.4672488999812],[126.86868220038309,37.4668898991427],[126.8696097994555,37.4683834976491],[126.870840800708,37.4685324990596],[126.87076890030811,37.4701599990805],[126.8723609005839,37.469511099170596],[126.8755202,37.4710767996112],[126.87496540074709,37.4716717998826],[126.8762609006154,37.47162869977549],[126.8766941999437,37.4747433996747],[126.8825372995986,37.4761500967482],[126.8848771009928,37.4729459977436],[126.8863698011706,37.4770308980967],[126.885290201553,37.4782194003853],[126.8854678013754,37.4812134973912],[126.8892000006072,37.4802699990719],[126.8888318006029,37.4807390997328],[126.8899651004523,37.480577200179496],[126.88961070074181,37.4816973998657],[126.8934877014936,37.4823217991497],[126.8934542010618,37.4854771011792],[126.8913366003707,37.4865530001646],[126.89122570048161,37.4875752991423],[126.8926268005089,37.4883970989618],[126.8931016002976,37.4878955996188],[126.8945782010377,37.4896781981249],[126.8962713993445,37.4890569987461],[126.8959898008546,37.4880032984721],[126.8975329004095,37.4885696990591],[126.8980349007176,37.487707999250496],[126.8977263005959,37.48865039933],[126.8984550000712,37.4889513992203],[126.899870800379,37.4883482996406],[126.899668000602,37.489195299582],[126.90137610058869,37.4907130997263],[126.9018660003141,37.4935926003502],[126.90079610092009,37.4937560006407],[126.9021893004811,37.496236000308706],[126.89898000067389,37.4969900002855],[126.899511000518,37.4986628003525],[126.8988835009782,37.5023075999905],[126.9008963004431,37.503250599768],[126.8998240004009,37.503180200962504],[126.89851210171281,37.5043754997672],[126.8991476010773,37.5057671983755],[126.9015795003093,37.506410899520596],[126.90165190053301,37.507398799667094],[126.9033925996062,37.5081540992646],[126.90533309918399,37.507161599659405],[126.90617549948381,37.507563699329395],[126.906201099384,37.5068720996805],[126.9070996998736,37.5071089992759],[126.908229500152,37.5058899973781],[126.91068129951789,37.5063099990399],[126.91078829973439,37.505269999457006],[126.9127096999147,37.506419199406906],[126.9148000998091,37.506537799521595],[126.91432720073671,37.5067109002305],[126.9158435005122,37.5089342999492],[126.9148866003349,37.5094624997295],[126.91687070008041,37.5101890994467],[126.9175940009304,37.512684300477495],[126.9186481998762,37.5138895992722],[126.9189849997289,37.513204999073196],[126.9192464002283,37.5140147991131],[126.92050720008011,37.513698499315396],[126.9197830006255,37.514289399972604],[126.9217397996419,37.515824598803704],[126.9240509995799,37.5137765991861],[126.92370939970921,37.5129446994887],[126.9250208997104,37.5120231992071],[126.92484409960281,37.5110171993846],[126.9259406985062,37.510908799493],[126.92526459915561,37.508788101552],[126.924306200114,37.5097107006294],[126.9239452986882,37.5091755998794],[126.92526459955151,37.508788096994294],[126.9259407003165,37.5109087976136],[126.9266165023349,37.5109960986446],[126.9270015003229,37.5136845993027],[126.9295099011698,37.5140636991421],[126.92913060213249,37.516966198034396],[126.93023420231,37.5181942997513],[126.9282734001455,37.517614701274404],[126.9275469997259,37.5183604015122],[126.92382749957301,37.5155092008863],[126.922543500857,37.5154744009211],[126.92022810167481,37.5167130003867],[126.9209798003434,37.5194849026793],[126.919052899558,37.519719100783405],[126.9172840993872,37.518130902468805],[126.91533000007969,37.5201256007147],[126.91476299979189,37.51956410053219],[126.91255820021841,37.5207591007555],[126.9120358995526,37.5187963003325],[126.9106729990321,37.5188974001961],[126.911443699078,37.518475699837104],[126.9101669991676,37.5157501014262],[126.9084875998681,37.5146486009657],[126.9076999992908,37.5152200011135],[126.90294730093359,37.5124200013209],[126.90261480036199,37.512911701265196],[126.8998511980728,37.5117881002285],[126.8981695986634,37.510137901377696],[126.8952072992324,37.5101719003896],[126.89494379897829,37.5087623011713],[126.8934365004856,37.508068901864696],[126.8929588009633,37.50994509998851],[126.8937178007219,37.5102610003005],[126.8939457001568,37.512162499941404],[126.89244840066671,37.5129486996164],[126.89349029966179,37.5134539991613],[126.8935810000623,37.5124603998593],[126.8950527001137,37.5131186994852],[126.8973487003919,37.512671699257396],[126.8992168013234,37.5168504985882],[126.9028966012537,37.5165005001554],[126.9015203005878,37.5185244002763],[126.90175019896229,37.517201200421],[126.89921680149571,37.516850500771696],[126.8996300008674,37.51865940064],[126.8972694002653,37.5211623999594],[126.8970707010232,37.5225539995632],[126.8982964008488,37.522499399239],[126.8995661010888,37.523557099856795],[126.89881170049459,37.5253498006081],[126.89981190083151,37.5273769998681],[126.8980730008269,37.5296151007959],[126.89503859986701,37.5288168011924],[126.89438680010271,37.5275376007566],[126.8935222999026,37.5283883001182],[126.894386799125,37.5275376007015],[126.8925236988984,37.5272565000799],[126.8920908987866,37.5254968995138],[126.8932816998989,37.5240801995658],[126.8945992985813,37.524208299437696],[126.89386399897309,37.520410901298604],[126.89245650027459,37.5206314010954],[126.892236799461,37.5197788009734],[126.8907899988163,37.5197536006863],[126.8919832982656,37.519384199482396],[126.8920521981967,37.5170363018303],[126.89058259898451,37.516374000614796],[126.891715198974,37.5138223004841],[126.8905626998508,37.5126821000011],[126.8917138989478,37.5132092989538],[126.8908272000717,37.5106392010709],[126.8892961006577,37.511331801222],[126.8881483004625,37.5131439004828],[126.88670170067151,37.5125383016097],[126.8862509006261,37.515815799653296],[126.88432860112141,37.5167281010212],[126.88449800017169,37.518073200670905],[126.8822530998484,37.519110600965796],[126.8831257988186,37.518125399652],[126.8810541981882,37.5156235015537],[126.8787980989231,37.5170210007641],[126.8810541983594,37.515623498462],[126.8798886993548,37.5128264010637],[126.878190898444,37.5124097016927],[126.8774153981365,37.5099030026502],[126.876105198392,37.5092578026596],[126.8740480992019,37.5115121017838],[126.87047599921179,37.5110838000404],[126.8711812996856,37.511117299508506],[126.8721983986733,37.5093544006489],[126.8700352987523,37.5049266020445],[126.8688127990533,37.5040509024287],[126.8668614996469,37.5059161012439],[126.8655652997856,37.504760501151004],[126.86406530033689,37.506510601070495],[126.8605026003345,37.5060401010133],[126.85828699929121,37.5074970004832],[126.85831859878401,37.506481901030696],[126.8568240995134,37.5054989014669],[126.85432319943699,37.5073268006325],[126.8534279000339,37.505068600404904],[126.8513926998515,37.5052854014098],[126.8507570999423,37.5063982004712],[126.8505670994101,37.5057291006514],[126.8480454998811,37.5060909006792],[126.8454386993811,37.5074726010642],[126.8438068983187,37.5069172013816],[126.8413534969005,37.5037522033298],[126.83819369634081,37.5020909014469],[126.8338097007248,37.5026650008728],[126.8329708990159,37.500972601517496],[126.83185969974889,37.5011213009586],[126.83153500045181,37.5020392004509],[126.8296670023198,37.5021342003559],[126.82909680289,37.5048314976586],[126.8317462002406,37.506484396005696],[126.8337001014702,37.5065521012061],[126.8317461989425,37.5064844037734],[126.82906760062001,37.5097571007784],[126.8282092968515,37.5063499020578],[126.8225653016423,37.5060002021993],[126.8212983029874,37.5072747015381],[126.81973209992229,37.5071972012228],[126.8170635025909,37.5057288026912],[126.8145825050719,37.510450597969395],[126.815588802952,37.514396298618],[126.8142588016193,37.5145163004848],[126.813669802424,37.5159943013682],[126.8143472017466,37.518272999089504],[126.8165428003461,37.5181482999805],[126.8161540008859,37.5219284977528],[126.81715520167741,37.5226141970443],[126.8174842019419,37.5251856984708],[126.81883090059519,37.5260079976485],[126.81991010106461,37.5256331996302],[126.8152171008721,37.5293153002396],[126.81521360087561,37.5303027992521],[126.8161224000323,37.5305439015032],[126.8118758012143,37.530149002994904],[126.8096516034385,37.5321390010049],[126.8103068017578,37.5353998005012],[126.8098380995817,37.5336581013989],[126.8070522001694,37.5363284019029],[126.80638169880861,37.5342177019767],[126.8042332009571,37.533989002205395],[126.80320320046489,37.532873201413295],[126.799494000642,37.5323995049284],[126.79749629945641,37.5312798008969],[126.7953134001357,37.5318703012028],[126.7956998986027,37.5306536013348],[126.79468099962159,37.528923503064895],[126.7919903990288,37.5296693007808],[126.7921749993339,37.5288185987706],[126.7924970998995,37.5294754988755],[126.7946809977156,37.5289234994275],[126.7979377982714,37.5255966999051],[126.7969797990618,37.523442800561895],[126.7958967991719,37.5237194004213],[126.7934328006788,37.522631101109496],[126.7923225005205,37.5236905007884],[126.7903317998353,37.5230403008334],[126.7889916984271,37.5237558001972],[126.7888736985524,37.523223099770206],[126.79166669857459,37.5228701997611],[126.7912097986389,37.5208757992979],[126.7951561987109,37.5187654],[126.793868798685,37.518300000005105],[126.79387239938269,37.5172822995365],[126.7953016985214,37.5175999992182],[126.79857569524741,37.5142985025197],[126.79314050068261,37.5125769042413],[126.7898611999981,37.516674800541594],[126.7899923986029,37.5143792014523],[126.7868677000222,37.513677201467296],[126.784689899553,37.51559670034511],[126.7846934988197,37.514464100672],[126.7827659989985,37.5140524010882],[126.7827659983208,37.5126311006438],[126.77953499763059,37.5126394024052],[126.7760734010922,37.5114831035615],[126.7752780018876,37.5146395004051],[126.7765538010604,37.515565700387704],[126.77531569999509,37.5162661010824],[126.7744108999982,37.5154644008098],[126.7737686996804,37.5158397004013],[126.77413109932121,37.5153654000073],[126.7724187997942,37.5141282007594],[126.7716871005259,37.513879401008204],[126.7712801996267,37.5145866005139],[126.77142759945329,37.5137912006666],[126.77045940042149,37.513462000995794],[126.7705937997498,37.5144406006579],[126.768645599527,37.5154601006613],[126.7663185000521,37.515087800849905],[126.764794399428,37.516578701396],[126.7633809000442,37.5150778028972],[126.7623866010385,37.515079502895496],[126.7610146024105,37.5173933005817],[126.75896110004359,37.5153301029075],[126.75718540174229,37.5173593022901],[126.7494647002497,37.5187539003217],[126.7491548009672,37.520050199412],[126.750051000493,37.5214720000056],[126.74845260060549,37.521144301341806],[126.7486972003609,37.5225822999038],[126.74751380129479,37.523203201478594],[126.7470232017854,37.525556699125104],[126.7482337005749,37.5255684991133],[126.74846460317261,37.528569501116706],[126.7483812994302,37.5274841011722],[126.74645540171531,37.53060519845079],[126.74780200188559,37.530842302119105],[126.7465223012843,37.532871201976405],[126.7441307001499,37.5344288003066],[126.7443604999201,37.5355611991742],[126.7458283010076,37.5355924992378],[126.7464988001539,37.536586398978095],[126.7470543007721,37.5361009994006],[126.7500058987069,37.538201698266604],[126.75160580149509,37.537895997713804],[126.7527599033026,37.5404280983166],[126.75525250081,37.542138296606396],[126.7568665015361,37.540547697445795],[126.7589582007854,37.541041798667],[126.7593531005484,37.5418550006728],[126.7584403993353,37.541195001275],[126.7530089006959,37.5426869006961],[126.7527598990699,37.5404281022981],[126.7480480012219,37.5410041002334],[126.7456342014431,37.5427395010121],[126.7454433008109,37.5459952987308],[126.7473491003377,37.547350199558494],[126.7462852013757,37.547971299930204],[126.74845500113851,37.549073298555705],[126.7478755015519,37.5524108995492],[126.7485369009518,37.5544775983853],[126.75179019988481,37.558545697645705],[126.7529795992351,37.557629698805],[126.75773770040011,37.557857399304005],[126.75857070026511,37.5588643991486],[126.7612608999313,37.558798398333],[126.7618101011959,37.560465300222596],[126.75917840090659,37.5621478001765],[126.7596514002726,37.5628353005223],[126.756092600163,37.5643476026723],[126.75323609914349,37.5630873025154],[126.75080780157181,37.5640815015212],[126.7521833001121,37.5678546987224],[126.7533707021258,37.5677384011883],[126.75185050099671,37.567899302393],[126.7504947018667,37.5699841009502],[126.7481874014591,37.5700858006179],[126.7465356002539,37.5732882014854],[126.74478710103169,37.5731930016057],[126.74344600222261,37.574667401701],[126.741459400578,37.5745667027374],[126.7400663006178,37.5767185004104],[126.7414593972279,37.5745667000043],[126.7385822001051,37.573045801525204],[126.7369446004859,37.5751902003382],[126.73718100084241,37.577002798724806],[126.738432101532,37.5778860989937],[126.7370236012955,37.5772304010738],[126.7358812995816,37.5786441006899],[126.7328577997396,37.577687701536696],[126.7337002990315,37.5761315007747],[126.7300416989806,37.575269501098994],[126.7319683981445,37.5754868995161],[126.729831900281,37.572288802714205],[126.7276723024406,37.571356303646695],[126.7203728954921,37.5710666020691],[126.7210868999357,37.5674545996694],[126.7244329965896,37.5671537999702],[126.7249591970234,37.5631747984285],[126.7274667979979,37.5632993975822],[126.7286296969627,37.5562365006468],[126.72700419858819,37.5546681022152],[126.7227620005028,37.5546868013041],[126.72102920127081,37.5555004004984],[126.7200261001073,37.557821001756295],[126.7147641036849,37.55612380336],[126.712035200293,37.5560496031577],[126.7123831963294,37.5533780028441],[126.7102116985009,37.5517672044549],[126.70960689676059,37.550058401361],[126.70684849941301,37.548690202604206],[126.70535839831429,37.549009502039],[126.7068484997344,37.5486901988487],[126.708119799317,37.5472929998542],[126.7072614965583,37.5469155977127],[126.70621009760971,37.5403111043172],[126.7038804999393,37.5417079029204],[126.7033722990508,37.5443327054978],[126.7011787974313,37.540559999599],[126.70557309569149,37.5394560949951],[126.70574879551579,37.5356043988468],[126.70662029688249,37.533835599416705],[126.70473609851821,37.529329503797],[126.7013693000697,37.5309807013999],[126.6994080007054,37.5333477006615],[126.69846119911969,37.5319013018193],[126.69693580064511,37.5322008015198],[126.6956386999083,37.5297701024056],[126.6910849000435,37.531386003253296],[126.6890772020512,37.5311750034643],[126.68918240194601,37.5374543971849],[126.6905597005687,37.5407759938633],[126.69491640233049,37.5418053937304],[126.6940680030531,37.546886202717204],[126.69594830117279,37.5511332984701],[126.6974699007001,37.5497673991131],[126.69873340493929,37.550887600160905],[126.69719290033261,37.5522739011823],[126.6959482991748,37.551133301239894],[126.6925671015658,37.5516821011909],[126.693627804434,37.5549839007218],[126.69148470524631,37.5637552007842],[126.6881183017089,37.569489803233],[126.6854380004905,37.568091202164695],[126.6836529022756,37.5693954008605],[126.6812700019557,37.5691271010265],[126.6805356038643,37.5753144020069],[126.6817017026982,37.5771694001519],[126.68416950113689,37.5781257999394],[126.6837549015515,37.5802925977726],[126.68579580141079,37.5837482945535],[126.6908061019031,37.587474398598296],[126.6917149006016,37.5872702014936],[126.6864987043872,37.5883396031777],[126.6823014058234,37.5909647037674],[126.6819758061339,37.5941256030503],[126.6759402003734,37.598765802931304],[126.675794597472,37.6010644047362],[126.67126359944031,37.598782705258],[126.66768470301919,37.5996343044064],[126.6658365048674,37.6021164019243],[126.6674938032101,37.607138196902504],[126.66686680015559,37.6064662005344],[126.6631450004138,37.6085354009799],[126.6630299003284,37.609689000393104],[126.6619181998346,37.6098013010377],[126.6601431011558,37.607394903074805],[126.6577937994898,37.607304504326095],[126.6558176995713,37.6058254047513],[126.6515052997554,37.6071085013927],[126.646745099631,37.605268300355],[126.6500364979806,37.600259700364106],[126.6459398004874,37.598534902537395],[126.6412895018944,37.5988555016203],[126.6396702996591,37.6021011021374],[126.6400253984325,37.5988376020508],[126.6394690980213,37.5976987009862],[126.6373293001611,37.5975348011501],[126.6367625993174,37.5947551003335],[126.63594309960371,37.5948389000316],[126.6361275991284,37.5934831003938],[126.6340561993173,37.593127800110494],[126.63612759880249,37.5934830975449],[126.6369768014623,37.5910104981223],[126.63738560130601,37.5935140987985],[126.6439196000582,37.594915999475],[126.6445974993803,37.595731898659096],[126.6461240978537,37.5952842991067],[126.6491740975771,37.5936193970798],[126.64727290016491,37.589156891966496],[126.6486560032943,37.5895883985867],[126.6475792017812,37.5899177998916],[126.6491741027036,37.5936193991719],[126.6486618016719,37.5964995976365],[126.6518517997617,37.5970994976166],[126.6523160012804,37.596083400034296],[126.6516501023802,37.597658099562494],[126.6519518020785,37.5996003976202],[126.6565495989233,37.5994971975761],[126.65856529690761,37.5980254990478],[126.6567278983111,37.594964897221004],[126.6576623990655,37.5924517975521],[126.6619198987983,37.5931889962121],[126.6649247989876,37.5897923997041],[126.6646527978568,37.5842636032523],[126.6616784996434,37.5838673019645],[126.66120819858621,37.5831530960957],[126.6619501978442,37.582667696581105],[126.66499659887539,37.5840654952974],[126.6695616988521,37.583993193404304],[126.6726859957278,37.5809667964307],[126.6725269958868,37.578397499000005],[126.66969839865651,37.5762721992637],[126.6699773011065,37.5768939993781],[126.67473319982001,37.5769244980258],[126.6757594987937,37.5748854000649],[126.674578097242,37.5740048996165],[126.6767609980274,37.5720867005252],[126.6762372985511,37.5706925019194],[126.6740299993701,37.5690900007051],[126.6711670003905,37.5682616007202],[126.6698385007583,37.5684330018154],[126.6687112991906,37.5708123035604],[126.66461679903871,37.5711538021178],[126.6637764993128,37.5697799999353],[126.6645287994342,37.5676147998764],[126.6670302009437,37.5703698000343],[126.6684958996804,37.570791399619495],[126.6711822936015,37.564353999671205],[126.6637613997601,37.561196903454],[126.66063699588919,37.5571561009467],[126.6565632999629,37.5564336016692],[126.6560523991607,37.555061500303],[126.65740619927149,37.5554537989951],[126.65844419823351,37.5525634018855],[126.6561078005699,37.5519316025173],[126.6552087994299,37.5540671005396],[126.6544989991722,37.551842399909795],[126.6560245989009,37.549933101021296],[126.65521609891411,37.5487944996975],[126.6575868979074,37.5500417981982],[126.6638365995712,37.548517798942],[126.6642278002222,37.5439620993369],[126.66778879688479,37.5436737002073],[126.6674257971228,37.5407957024824],[126.6659978985507,37.5402288030493],[126.6642974002512,37.5404240028541],[126.6635732004911,37.5424062014416],[126.6616894012344,37.5404340031713],[126.6599770029468,37.540494003111306],[126.65648129723229,37.540743006292],[126.6530173983213,37.5429966032369],[126.6573936995336,37.54079689985959],[126.65590089990401,37.5404773002787],[126.6560638999443,37.539781900593304],[126.6546139988814,37.5406714001056],[126.6563506997027,37.538911999979405],[126.6564323996073,37.5375105994683],[126.6571579000561,37.5380939993394],[126.65795149996259,37.536146099558906],[126.6598802994147,37.535181599641604],[126.6597154995985,37.534250500156496],[126.6590244993325,37.5342481000037],[126.65948999928561,37.5326960004042],[126.6590325992249,37.5318112011028],[126.6551833981758,37.5311951006918],[126.6562218990032,37.5300864002907],[126.6552077996903,37.5293554003795],[126.6552979991829,37.528237899664],[126.65613209926829,37.528803099139495],[126.6564730989273,37.528017599925],[126.65586829953209,37.5264612014814],[126.6532932001348,37.5280781001916],[126.65477059840501,37.5266641007472],[126.6544494987261,37.525700701710605],[126.6515907006225,37.5266401008385],[126.6486347989659,37.5260192006061],[126.6495138994506,37.525154298584496],[126.651590699647,37.5266400983772],[126.65444949685819,37.5257006993166],[126.655606295632,37.5236357999997],[126.65568619547291,37.5216337005469],[126.65107169839071,37.5205672003025],[126.6498887995671,37.5182132025174],[126.649170698876,37.5182304001918],[126.6498887989094,37.5182131983819],[126.6490547999606,37.5156885990739],[126.6512300015461,37.5153938001778],[126.6525015013082,37.5168461998852],[126.6525343012754,37.5181666985647],[126.6542327003136,37.517786398622],[126.65618050003751,37.518865698799296],[126.6575978990344,37.517160698592896],[126.65908949937189,37.5180390982338],[126.6621905981986,37.5155816993057],[126.6618234931083,37.506879402860704],[126.6565111984206,37.5037937059464],[126.6540009992703,37.5041342046407],[126.65209520117611,37.5058361029388],[126.64931990001429,37.5048559017888],[126.6486806996554,37.506514800138],[126.6481862985612,37.5014060020369],[126.6467281000194,37.499127804315094],[126.6416587934992,37.49914640757],[126.6312488978661,37.4875731050545],[126.626953998256,37.4904165064626],[126.6215995993104,37.4919681060919],[126.6207993001107,37.4908701071899],[126.61323509434649,37.4883430115749],[126.6043380835914,37.4841331126961],[126.60338579748979,37.4811312003694],[126.6009855993578,37.4808921010559],[126.5988829963154,37.4787507002004],[126.59485357312879,37.4689991152044]]],[[[126.7798333986694,37.4374025999888],[126.78090080005829,37.4359344988744],[126.78587929993401,37.4348718973105],[126.7868549989583,37.4336081985742],[126.7899756000275,37.435884498119],[126.7915486993583,37.435424898378],[126.7910843024478,37.4362963008964],[126.7919938015383,37.4378375993551],[126.79356660056061,37.4381361004526],[126.7930506002494,37.4391586004207],[126.7905579012746,37.4390143006137],[126.791607300368,37.4400584001747],[126.7902839008358,37.444466199604],[126.79222130038619,37.445888097959],[126.7929781001684,37.4436865998485],[126.7939579000993,37.4447360998381],[126.7957553000434,37.4445092996818],[126.800354299563,37.4459370991798],[126.800958699432,37.4454302986095],[126.8008962007643,37.4467659006174],[126.7995270021335,37.4476133997699],[126.8015154025743,37.4535361028827],[126.80009470027291,37.4521406016958],[126.7970590993311,37.452914902029406],[126.79385019894289,37.4562203009888],[126.7922065990167,37.4533095027559],[126.78949400172931,37.4531471029183],[126.7875247993169,37.454348600636],[126.7885497987802,37.453910099866505],[126.7875701994982,37.4519077998455],[126.7887028996605,37.4514182993711],[126.7894939998978,37.4531470985401],[126.7922065972719,37.453309498179806],[126.7919003975781,37.450679400809896],[126.7903133991651,37.4504108010785],[126.7895456994357,37.4494208004788],[126.7899426991243,37.4485129004878],[126.7888787999811,37.4483056006015],[126.7885598001299,37.448922700257896],[126.7863798996557,37.447750200384704],[126.7892342987958,37.444762400447004],[126.78871599908709,37.4439195009332],[126.78751849990411,37.444385901062],[126.78621729998041,37.4434854009868],[126.78514289944259,37.4441484004002],[126.7845849000006,37.4427604017882],[126.7824111998011,37.44318990041],[126.7805945992145,37.4403401001803],[126.781158398663,37.4382477000008],[126.7798333986694,37.4374025999888]]],[[[126.79658169934801,37.561461700198905],[126.8010809994952,37.5610990992378],[126.80223929993349,37.5595927991479],[126.80369469908699,37.559325898907595],[126.8037177990639,37.5583227999107],[126.8050387001578,37.5573117993449],[126.80657879877239,37.5569428995911],[126.80637989888,37.5561358999228],[126.80723329903789,37.5564599992315],[126.8092432002735,37.5548605996136],[126.8123339003993,37.5574619999977],[126.8134415009385,37.5602009982705],[126.8152090011851,37.5609310997384],[126.8142004008636,37.5610496006845],[126.8146677005214,37.562190100935204],[126.8136652008827,37.5622849003097],[126.81440760077919,37.563068600189304],[126.81248700050611,37.564803599927195],[126.81266760042939,37.566060800539304],[126.8100951004924,37.5658137007823],[126.8094533995089,37.5665272004671],[126.80862530025121,37.5657509006936],[126.8075727007375,37.5659834005438],[126.8078042999591,37.5671465006457],[126.80635110021,37.5669070008849],[126.80616100040011,37.5677918000001],[126.80753299902811,37.569374898417],[126.80756740019599,37.568588399203804],[126.8075330011554,37.5693748996831],[126.8088350007314,37.5693697996565],[126.8093663006414,37.5705015996461],[126.8101916002658,37.570470099664604],[126.80949380070629,37.570771699908605],[126.81013030082839,37.5722563993127],[126.81150259945609,37.5722917992773],[126.8115298005491,37.571675399749196],[126.81290680106859,37.5743424991086],[126.81397430162549,37.5742914999787],[126.8138861016254,37.5751174999575],[126.8159373007074,37.5766798994615],[126.8139883012808,37.5784690008166],[126.8144285996829,37.5799589011118],[126.81381999991001,37.58027000063],[126.8124399999507,37.5788300007898],[126.8119937993406,37.5795114004311],[126.81166829978069,37.578604299711905],[126.8127988991025,37.5787381994777],[126.81257549932589,37.576949401266496],[126.81170849974049,37.5773076010086],[126.8092387000129,37.5762510009822],[126.8096148989994,37.5747807005548],[126.8087339998803,37.5740780012575],[126.8070640015503,37.5742598010757],[126.8069511005343,37.576401501312404],[126.8055496005057,37.5749774019565],[126.80213589900859,37.574724800209],[126.80200619927989,37.5731981998828],[126.803845399126,37.571147199273696],[126.8039016997128,37.5699804999041],[126.8044728996121,37.570227899667096],[126.8051336992204,37.5680940008717],[126.8040820002513,37.5670516009771],[126.8028782001896,37.567526900537295],[126.80182379832189,37.564436301729394],[126.8001116000341,37.5643951017706],[126.79681789916259,37.5624330001926],[126.79658169934801,37.561461700198905]]],[[[126.7267322993053,37.3624029018438],[126.72790259960239,37.3616885997952],[126.7280182996824,37.3600776996734],[126.7286330002883,37.361315699470396],[126.72997319918791,37.3605737996339],[126.7301575994595,37.3583022007251],[126.729552999682,37.3577967011326],[126.7286890997176,37.3583883998467],[126.7292915998149,37.356221098609296],[126.7314129996532,37.355510599302605],[126.7318730999812,37.3559945994971],[126.7323458995084,37.3553860001057],[126.7317024000392,37.354736199474495],[126.7331101006847,37.3549376995742],[126.7331320003875,37.3559181995592],[126.73482369916421,37.355208599646595],[126.7340204990515,37.35322099992],[126.7363523994486,37.3519412998971],[126.7354497999465,37.351284800421],[126.7346924998482,37.3517779001967],[126.73486299943481,37.3502661994228],[126.736454000632,37.3517633972773],[126.73861939846661,37.3504537985869],[126.7368249002611,37.3473665016742],[126.73594099995229,37.3476975001629],[126.73610599962251,37.3469877992424],[126.7380022013207,37.3485764987618],[126.740990199613,37.346441899058],[126.74243129954151,37.347414099029905],[126.7436401996558,37.3466666986404],[126.7448956002607,37.347456199149],[126.74860630096201,37.3475026996836],[126.74837410068831,37.349924199079894],[126.7496194994429,37.351191797812305],[126.7505476025436,37.3510238013224],[126.7488600006938,37.3513293029481],[126.7475779019759,37.353388700888694],[126.7479738006448,37.3552544023412],[126.7449581016797,37.3553281006895],[126.74529850131171,37.3570345992408],[126.74724349936669,37.3567378995375],[126.74704569964341,37.3574804028508],[126.7426091011928,37.3572979025791],[126.74159469984289,37.3596609031395],[126.7394721986597,37.3566820023047],[126.7363927006931,37.3576734005212],[126.7357228009987,37.360316499580605],[126.7382228007134,37.3617872001658],[126.7378939008997,37.3638082990228],[126.73952160005861,37.3662519971382],[126.7426899987476,37.3651732976271],[126.7440047999426,37.3635525986878],[126.7443341050806,37.3642732015579],[126.743319706095,37.3651554006757],[126.741515803813,37.3724331054458],[126.74104859748999,37.366853403818794],[126.73572080131629,37.3675597028738],[126.7350412002229,37.3685654031395],[126.7324865013147,37.3689703035959],[126.733592197906,37.3679528972728],[126.7323889991092,37.3646184006073],[126.7272801994405,37.365515400327396],[126.7284432981011,37.3641207005088],[126.7267322993053,37.3624029018438]]],[[[126.9383625993816,37.513099600237396],[126.93970079915469,37.513434099306295],[126.9394725997416,37.5119178994595],[126.943367999425,37.510987898931006],[126.9475760008064,37.5133928005368],[126.9459162988435,37.5143340011961],[126.943239299921,37.513091100578194],[126.9426760001494,37.513797100180795],[126.9383625993816,37.513099600237396]]],[[[126.9087811989189,37.4855564992894],[126.9103763003708,37.486593699289],[126.91403830001511,37.4848290999361],[126.9158841003243,37.4871247995834],[126.9154772002842,37.4883017992778],[126.9164027003634,37.4879102998417],[126.9171720004798,37.489249700053],[126.9162515002167,37.4888784003988],[126.9156255985501,37.4895062002859],[126.9147111994645,37.48781850197361],[126.9111266995079,37.489685601763505],[126.9114278989777,37.4884871999871],[126.9096031993657,37.4884406001078],[126.9099583991994,37.4865561002524],[126.9087811989189,37.4855564992894]]],[[[126.7596404986801,37.340783101186005],[126.7622945010001,37.3409090979725],[126.7645992986953,37.342156596725005],[126.7655887980673,37.3387304999724],[126.76667979951061,37.3389927992128],[126.7671794997827,37.3378500995167],[126.7694155987178,37.3369907001818],[126.7690132989613,37.3353552997129],[126.7701085003374,37.336640498836104],[126.77187340045231,37.3362879997021],[126.7708163019473,37.3396758986919],[126.7723428005652,37.340965201769],[126.76721190082371,37.3389241038091],[126.7645993027189,37.3421566005885],[126.7622945013851,37.340909102592],[126.7610730987742,37.341359302888904],[126.7596404986801,37.340783101186005]]],[[[126.7958203993537,37.577875000399295],[126.7999230007033,37.575507197011994],[126.8014877005319,37.5766266992281],[126.8023151014751,37.5793210004538],[126.7998196993599,37.5812702006322],[126.798955600224,37.5809036009988],[126.797753900724,37.581619600590905],[126.7985035988171,37.580726399299806],[126.79813849966139,37.5795593993005],[126.79930379958681,37.5798126991386],[126.79891689954789,37.577712100643],[126.7958203993537,37.577875000399295]]],[[[126.862141698742,37.5112469993383],[126.862528900128,37.5105631997762],[126.8636121998302,37.5124707991138],[126.8639011997449,37.5118597985899],[126.86690130010369,37.512515199817805],[126.8676428008014,37.5146172015758],[126.8639802001388,37.5131515009192],[126.86273829961941,37.5143560006926],[126.8633995987578,37.5131278999681],[126.8627241994332,37.512052701043295],[126.8620038992091,37.512683300298896],[126.862141698742,37.5112469993383]]],[[[126.9055616990267,37.5005215996161],[126.908236299855,37.4973812993206],[126.9128070015299,37.4981382984964],[126.9138712010666,37.5000372997912],[126.91493490031611,37.500022799993005],[126.9127780011672,37.5021128025617],[126.910299801665,37.5020941004109],[126.9103376998436,37.5030897007565],[126.9089947976607,37.5026390997862],[126.90805779846549,37.500148001944105],[126.9063659001574,37.5009567011354],[126.9055616990267,37.5005215996161]]],[[[126.8996005995083,37.535057800111296],[126.9009831987124,37.5342586989403],[126.9013340992712,37.5328207991544],[126.9020809002367,37.533566298762494],[126.9033779005535,37.5331829986872],[126.9039162004554,37.5338234998029],[126.9034262005478,37.5354792996659],[126.9041289003239,37.5355342999978],[126.90147999981231,37.536682500475195],[126.90118819995881,37.5349059004177],[126.8996005995083,37.535057800111296]]],[[[126.78566269897371,37.3262569004701],[126.787808100068,37.3238174998126],[126.7875798005146,37.324445699769896],[126.78965770022491,37.3254140002984],[126.78778960007689,37.3274188001177],[126.786387000122,37.3273949002844],[126.78566269897371,37.3262569004701]]],[[[126.6218720977552,37.5940987986396],[126.62397039852621,37.5936083971617],[126.6241611006287,37.591220498194495],[126.6261029995483,37.5937857962979],[126.62805319759809,37.5929857970979],[126.6293073993381,37.5933035992774],[126.6301628012363,37.594898098747905],[126.6321543012192,37.5940528991854],[126.63266980158531,37.5961423005271],[126.6324199998147,37.595156101063],[126.6311200011147,37.595395700823396],[126.63196980086569,37.5969496026136],[126.6254732003088,37.5983810010704],[126.6238355015765,37.5979085024652],[126.6242499994208,37.5969921009504],[126.62244229970581,37.5957426024531],[126.6218720977552,37.5940987986396]]],[[[126.927614799725,37.4839007999656],[126.9293262994947,37.4834403996043],[126.9298664004819,37.4824830997926],[126.9297220008221,37.483878599627495],[126.9320097005014,37.4844590002036],[126.9294510005601,37.4858981006141],[126.92957489954131,37.485258300553895],[126.9283247998716,37.4850231009056],[126.927614799725,37.4839007999656]]],[[[126.9185845990031,37.5004529992916],[126.92005809966791,37.497607099320206],[126.9209181015458,37.4993510995383],[126.9224784007643,37.499315099557194],[126.9226591013863,37.5004668998508],[126.9209375006308,37.4999035016806],[126.9207887007796,37.5014288001553],[126.9198987986215,37.5017076015811],[126.9199958986179,37.5008526004474],[126.9185845990031,37.5004529992916]]],[[[126.8161814991376,37.5686863004162],[126.8166810995742,37.5689208992296],[126.8166310996991,37.5666011005042],[126.8158744997542,37.5661332998424],[126.8178240008373,37.5665127997991],[126.8166575007356,37.5675257998909],[126.8166811015096,37.5689209007094],[126.8161814991376,37.5686863004162]]],[[[126.8514621995271,37.520741899928495],[126.85346460035029,37.5189630992179],[126.85410370023419,37.520776300209],[126.8522126005158,37.5213014008099],[126.85195139983901,37.5203317005537],[126.8514621995271,37.520741899928495]]],[[[126.6191995991677,37.4031092009958],[126.6211863987786,37.4006943980652],[126.6218126042007,37.4009719020373],[126.6212823033583,37.4030179015341],[126.6199810006457,37.4023097014444],[126.6191995991677,37.4031092009958]]],[[[126.8260965991043,37.559685199412094],[126.8267725011206,37.5589307990046],[126.8283107016245,37.5596585998439],[126.82710359832541,37.561303000753306],[126.8268891997715,37.5599103002706],[126.8260965991043,37.559685199412094]]],[[[126.9130174998658,37.5493934999825],[126.91383590032339,37.5491404996384],[126.9137444000513,37.5498393008285],[126.9130174998658,37.5493934999825]]],[[[126.6532913998752,37.529858599883994],[126.65347390058339,37.5300613993135],[126.6547877001104,37.5298577998771],[126.6534739012304,37.5300614003362],[126.6532913998752,37.529858599883994]]],[[[126.9274258992093,37.5006437996246],[126.9282696983574,37.499746100003506],[126.9280987998987,37.4985200990984],[126.9294391008732,37.4997256000244],[126.9274258992093,37.5006437996246]]],[[[126.8144978994254,37.567914199642495],[126.8148702999077,37.5670272996718],[126.8157859005443,37.5669998001055],[126.8152706000485,37.5683032007993],[126.8144978994254,37.567914199642495]]],[[[126.7486254997706,37.5306552001297],[126.7518609005564,37.531145700044505],[126.7515528002059,37.531547100660596],[126.7486254997706,37.5306552001297]]],[[[126.7868554986422,37.4082375983267],[126.7878086994871,37.4076260976532],[126.7890695001837,37.408003200121],[126.7877495996884,37.4095448037193],[126.7875717993329,37.408181800647],[126.7868554986422,37.4082375983267]]],[[[126.66094429191399,37.567552494396395],[126.663136500385,37.566363098287795],[126.6609443022643,37.5675524999602],[126.6630837995691,37.568580500619206],[126.6609443002556,37.567552501448795],[126.66069139869461,37.568387901270896],[126.66094429191399,37.567552494396395]]],[[[126.8185485979093,37.6159186009239],[126.8199021992578,37.615778296129506],[126.8186825022453,37.6161667017151],[126.8199542010309,37.6186806009218],[126.8185485979093,37.6159186009239]]],[[[126.83744369927619,37.5586044001948],[126.83822640017719,37.5585173999822],[126.8380627000507,37.5586705001406],[126.83744369927619,37.5586044001948]]],[[[126.82101589964121,37.3173414984756],[126.8217489001731,37.317312699636105],[126.82177880075841,37.3177521999576],[126.82101589964121,37.3173414984756]]],[[[126.80507499798371,37.3205295006627],[126.8063660014488,37.3196900975231],[126.8059820993758,37.3205904023667],[126.80507499798371,37.3205295006627]]],[[[126.843137898751,37.6128071000068],[126.843576300829,37.6126206001945],[126.8433385006056,37.6129594010604],[126.843137898751,37.6128071000068]]],[[[126.82238739882949,37.6108194999885],[126.8240690997178,37.6108659981945],[126.82447450327989,37.6108660019965],[126.8240690992485,37.6108660010615],[126.82238739882949,37.6108194999885]]],[[[126.9638774991209,37.5299852000761],[126.9646091999581,37.528974399527904],[126.96445990064609,37.5304383004149],[126.9638774991209,37.5299852000761]]],[[[126.8804698999614,37.4885575998126],[126.8806752003031,37.4886731003693],[126.8805742000239,37.4887025008764],[126.8804698999614,37.4885575998126]]],[[[126.6267663999185,37.3742922998877],[126.6267875999585,37.374277599858196],[126.626833801235,37.3742456007109],[126.6267663999185,37.3742922998877]]],[[[126.7503030991243,37.5519934999666],[126.7508668004228,37.552154700083705],[126.7505869006495,37.5523247026965],[126.7503030991243,37.5519934999666]]],[[[126.8280019984371,37.5674288008329],[126.82816670076839,37.5674165993708],[126.8280173984217,37.567533100728596],[126.8280019984371,37.5674288008329]]],[[[126.5234745995903,37.5118207998833],[126.5234746005001,37.511820798897006],[126.5234746006217,37.5118207999714],[126.5234745995903,37.5118207998833]]],[[[126.74911879897141,37.5439419000599],[126.7496048996043,37.54372089959929],[126.7496049013122,37.543720900154696],[126.74911879897141,37.5439419000599]]],[[[126.891466899119,37.4665454001143],[126.8917533001027,37.4665486993989],[126.8918600006498,37.466547199991],[126.89175329971411,37.4665487009991],[126.891466899119,37.4665454001143]]],[[[126.9223462993308,37.5052837998468],[126.9223463002369,37.5052838001467],[126.9224905003116,37.5056277003846],[126.9223462993308,37.5052837998468]]],[[[126.6324117950385,37.5577764014547],[126.6324118001489,37.5577763935725],[126.6324118031027,37.557776400332],[126.6324117950385,37.5577764014547]]],[[[126.6571515995618,37.4130401999851],[126.6573265004531,37.413058899156205],[126.6573265004991,37.4130589004481],[126.6571515995618,37.4130401999851]]],[[[126.91692039942089,37.5211333003593],[126.9169203998074,37.521133299501905],[126.9169204004552,37.521133300109604],[126.91692039942089,37.5211333003593]]],[[[126.94164409951641,37.482362299559895],[126.9419668004162,37.4822940993499],[126.9416440989674,37.4823623005228],[126.94164409951641,37.482362299559895]]],[[[126.8530315998749,37.5069715005704],[126.85312930039751,37.506943799446404],[126.85312930027101,37.5069438006239],[126.8530315998749,37.5069715005704]]],[[[126.92279189966811,37.4023903999396],[126.92279189994491,37.4023903988647],[126.92320670038329,37.4025983001921],[126.92279189966811,37.4023903999396]]],[[[126.62645189966591,37.5562262995041],[126.626451900483,37.5562262989615],[126.6264519009984,37.5562263030048],[126.62645189966591,37.5562262995041]]],[[[126.6606890997964,37.408932200056505],[126.6607913996845,37.408885199332],[126.66079140035929,37.4088852003413],[126.6606890997964,37.408932200056505]]],[[[126.8089474995713,37.6317545998859],[126.808947500683,37.6317546001694],[126.80894749988221,37.6317546011367],[126.8089474995713,37.6317545998859]]],[[[126.9145518001354,37.520250200118],[126.9145517999599,37.5202501998481],[126.9146188001929,37.520285899966],[126.9145518001354,37.520250200118]]],[[[126.7357053995402,37.3640898998986],[126.735705400372,37.3640898999082],[126.7357053994462,37.36408990023121],[126.7357053995402,37.3640898998986]]],[[[126.7391375995634,37.515373500455304],[126.73913760037,37.5153734994224],[126.7391376004311,37.5153735002891],[126.7391375995634,37.515373500455304]]],[[[126.7499897995787,37.3979960999381],[126.7499898014124,37.3979960995446],[126.7499898002572,37.397996102587],[126.7499897995787,37.3979960999381]]],[[[126.79677799964891,37.5812023000949],[126.7967780001816,37.5812022991959],[126.79677800029211,37.5812022999719],[126.79677799964891,37.5812023000949]]],[[[126.8237412994159,37.5601016000558],[126.82374130172599,37.560101600246],[126.8237413003842,37.560101602062105],[126.8237412994159,37.5601016000558]]],[[[126.7480424990348,37.5442830994685],[126.7480425007545,37.544283100364304],[126.7480424993483,37.5442831003803],[126.7480424990348,37.5442830994685]]],[[[126.7899339995336,37.3264550997203],[126.7899340000103,37.326455099508095],[126.7899340000764,37.326455100117094],[126.7899339995336,37.3264550997203]]],[[[126.8013970998463,37.5741132999314],[126.8013971003476,37.574113299980404],[126.8013970996642,37.5741133005755],[126.8013970998463,37.5741132999314]]],[[[126.8697495996514,37.514058400120604],[126.8697496002985,37.5140583999894],[126.8697496000088,37.5140584004128],[126.8697495996514,37.514058400120604]]],[[[126.74831749936929,37.547066899841795],[126.748317501276,37.5470669005621],[126.7483174995996,37.5470669005337],[126.74831749936929,37.547066899841795]]],[[[126.7964663996663,37.581487200495],[126.7964663999605,37.58148719981],[126.7964664003036,37.581487199984394],[126.7964663996663,37.581487200495]]],[[[126.8822595998431,37.501797100028895],[126.882259600132,37.5017970998831],[126.8822596000262,37.501797100092],[126.8822595998431,37.501797100028895]]],[[[126.93809159965261,37.513465199871796],[126.93809160005921,37.5134651999806],[126.9380915997544,37.5134652008239],[126.93809159965261,37.513465199871796]]]]}}]}