{"type":"FeatureCollection","features":[{"type":"Feature","properties":{"interval":15,"stationId":"5902086070"},"geometry":{"type":"MultiPolygon","coordinates":[[[[126.69729249774551,37.4800075016316],[126.6978662986272,37.478671997229],[126.70052639933981,37.479689898811394],[126.70486599772839,37.4777407985732],[126.7049759976184,37.476667399646594],[126.7033425999368,37.4754256989653],[126.7049052002771,37.4758084993402],[126.7050562009719,37.4775433988752],[126.70677650171301,37.478374799397095],[126.7079243007856,37.4803867983134],[126.709392899317,37.4791882995119],[126.709948799703,37.4769867995528],[126.7119019013535,37.4773948991379],[126.7113172046722,37.478831899691606],[126.7137173022721,37.481871996651506],[126.71654080030271,37.4812101998216],[126.7155641010374,37.4824773990304],[126.7164262017184,37.4844915974454],[126.71887890008581,37.4852554999856],[126.71480780169,37.4868468007713],[126.71516220133559,37.4888318987862],[126.7173736996477,37.4887446989066],[126.7174843000573,37.4876805994483],[126.71737370073579,37.4887446991602],[126.7182051012337,37.48944500105291],[126.7172473003194,37.48934860122],[126.7163917004591,37.491078200354494],[126.7098753011326,37.4910328009668],[126.7097525003738,37.4943324008686],[126.7079106991337,37.493094301911405],[126.7046813011448,37.494618000748005],[126.7027520002517,37.493875701516494],[126.7036127990891,37.4941263993573],[126.7041047985971,37.493160700322996],[126.7030493996525,37.4924245010592],[126.7022889969621,37.49280859901079],[126.7012013989193,37.488383502667695],[126.6976773989491,37.4884511012124],[126.69894529771821,37.4868435996179],[126.6982224984293,37.485538900373804],[126.7008158977764,37.4837204995754],[126.6997944987978,37.4823798009161],[126.6975836988523,37.4818332004918],[126.69729249774551,37.4800075016316]]],[[[126.70190579951121,37.47126630012011],[126.7026137000212,37.471015499878],[126.7027327004347,37.4721033001877],[126.70190579951121,37.47126630012011]]],[[[126.7235467995658,37.4905628002385],[126.7235312997842,37.4902747993367],[126.7237689005557,37.4904366003173],[126.7235467995658,37.4905628002385]]],[[[126.7008423977498,37.4763401996615],[126.7015032004504,37.476279999126604],[126.7008423991473,37.476340201725],[126.7008423977498,37.4763401996615]]]]}},{"type":"Feature","properties":{"interval":30,"stationId":"5902086070"},"geometry":{"type":"MultiPolygon","coordinates":[[[[126.66445779962089,37.4653450990684],[126.66633659960969,37.4632426999],[126.6672614999695,37.464479498463106],[126.667441399536,37.461950899810496],[126.6686079994427,37.4609223994138],[126.66903470007419,37.4623596986387],[126.6704960998693,37.4612515986085],[126.6727935005402,37.4612219996129],[126.6718118013043,37.4625976009416],[126.6727152004009,37.4635927999464],[126.6749945998571,37.4633286976991],[126.6750436005903,37.4642988990169],[126.6756770007499,37.464267699569604],[126.6730331006295,37.4641966007798],[126.67340100026159,37.4658267991496],[126.6757132993589,37.466634398544095],[126.67707259941331,37.4656319994358],[126.6771848009856,37.4665279987886],[126.6836010992554,37.4649062990459],[126.6843886000711,37.4629105994451],[126.6874793996431,37.4621489994044],[126.6874806996418,37.4610872004662],[126.68641779948,37.4611376994661],[126.6894211000149,37.4579130992443],[126.6894870008259,37.4588348990398],[126.6912702990426,37.458344699529995],[126.69121820000899,37.4577789998711],[126.6941937988492,37.45793999961],[126.6945922999135,37.456637699394705],[126.6957779996365,37.4573811998602],[126.6967194999459,37.4558641998246],[126.69987419944489,37.4557441989161],[126.700288599915,37.454313899281104],[126.6998742009354,37.4557441992527],[126.70189359950571,37.4552977996429],[126.7007649994172,37.4534426000003],[126.70145979942839,37.4521944996461],[126.7012110994759,37.4504173006991],[126.7000667006203,37.450581500534895],[126.7001383997859,37.4511857005387],[126.6992049995505,37.451043601086496],[126.69979339936181,37.4508210998065],[126.6990437001115,37.449538201089396],[126.6980540983529,37.450291200094],[126.6996103993845,37.4495035996812],[126.6994798998066,37.4485266985519],[126.70144720039801,37.4466737988191],[126.7016504006102,37.447617198963705],[126.7040815999827,37.4482582997612],[126.7048312003221,37.449236499980294],[126.7014722009358,37.4522827999426],[126.7026896001601,37.4533046988935],[126.7032169001768,37.455186098972696],[126.70467409993961,37.454732199378505],[126.7053618004805,37.4548688000463],[126.70510710024591,37.4555899997469],[126.7060977004996,37.4553998997628],[126.7060687009785,37.458621199782904],[126.70423480056779,37.459842700479],[126.70402570077191,37.462357698346],[126.706349100162,37.462449598404596],[126.7084098000975,37.4604219985682],[126.7107783006506,37.461496599092996],[126.71140720098829,37.4626907992838],[126.71236670002881,37.462348499626096],[126.7134102005157,37.4634027994043],[126.7144629006243,37.4628318996096],[126.7148256013995,37.468107699171796],[126.7172778000188,37.470813897670105],[126.7190659982306,37.469359599124395],[126.71879079988459,37.4685414981506],[126.7211706020787,37.4705843994849],[126.72042040294579,37.4722886006722],[126.7217972025272,37.4749113006684],[126.7244943007659,37.47704099958],[126.7221681024647,37.4773254008405],[126.722922901867,37.4806839987248],[126.7253924993974,37.4803698990389],[126.72580289936231,37.4794196988825],[126.7272641008191,37.479896400204],[126.7264310017765,37.4842800984525],[126.72857719964101,37.4832701995997],[126.7285014001299,37.482649799712],[126.7308001009073,37.485158898831905],[126.73276659937011,37.4848855987508],[126.7328835992531,37.4836649999714],[126.7321863994833,37.4836026989684],[126.7351730998568,37.4850967985713],[126.73691769888791,37.4824307979648],[126.7392657013436,37.482729496953496],[126.7415644000222,37.4817653977334],[126.7448404005684,37.481684298901996],[126.7449528008343,37.4826785992326],[126.74717820011949,37.4834765979949],[126.7478633012677,37.4846000987545],[126.74610490170811,37.485896500468805],[126.7466037012093,37.487180699184606],[126.7451614013789,37.487946000764],[126.74410420205409,37.4907021996406],[126.7465087996495,37.4916293987134],[126.74793479859879,37.4897961003914],[126.7467396998006,37.4889198997901],[126.7476326010164,37.4883577989969],[126.7493532993405,37.4887879987097],[126.7502559000499,37.4856890999436],[126.7503186009342,37.4887263996042],[126.75183819961079,37.488016299817595],[126.7518634999749,37.487268799679],[126.7520107002561,37.4880062992407],[126.7536641999169,37.4885171994587],[126.7538584000647,37.4878169998611],[126.7554693008893,37.488433299336194],[126.756405100336,37.4878531992603],[126.7581237986173,37.4887552983582],[126.759237599762,37.4882624987077],[126.7611332978663,37.4868260001442],[126.759586899044,37.483539999850095],[126.76087289943969,37.4836253993084],[126.76118219965949,37.4816729986623],[126.76301969913911,37.481889298529296],[126.7640345004096,37.480455299558805],[126.7647102002216,37.4820636986245],[126.76613460051131,37.4821881987854],[126.766168700803,37.483566398695004],[126.7674640008228,37.4840535983227],[126.7666349012316,37.4853012999462],[126.76772270080859,37.4868301989004],[126.7708833000246,37.4860138994184],[126.7713000011125,37.4875599998492],[126.77029450113271,37.487704200444504],[126.7699485000756,37.4892488003387],[126.76924110056281,37.488846600422804],[126.76761790073091,37.4903608000787],[126.76847260049159,37.4909210012268],[126.7662083999868,37.4908260013871],[126.76584180039261,37.4925995005744],[126.765411598508,37.491398700854496],[126.7637945988628,37.4916334008029],[126.7635542988451,37.4904421007403],[126.7618489996905,37.4906029006824],[126.7621373991734,37.4899147004324],[126.7607525005583,37.4897740005731],[126.7611262001846,37.4903320000151],[126.7588310000949,37.4922099004755],[126.75598599986749,37.491405101656305],[126.754981500872,37.4933141997472],[126.7557775000779,37.49527170121],[126.7549003992378,37.4941970009847],[126.75220349964589,37.4937733000033],[126.75281609949701,37.493229599791796],[126.7520861001783,37.491108800644],[126.75102749981471,37.4927261008446],[126.7495704998358,37.4927428008712],[126.7479400005619,37.4916100006158],[126.7457070003988,37.4917286000124],[126.74559570077109,37.4929963012072],[126.74396630161479,37.4934004007837],[126.74363440036781,37.4948114999888],[126.7419343989539,37.495880401041994],[126.7407993992306,37.494090101123604],[126.7385222997321,37.4935442005266],[126.7392130992577,37.4932891997364],[126.7391534993173,37.4917831012425],[126.7382302988627,37.490821301345],[126.7367116998017,37.4918775005793],[126.736127799062,37.4915279999761],[126.7370044985931,37.489674201355804],[126.73596279963479,37.4891861018439],[126.7345988003271,37.4900293003529],[126.73228040063209,37.492875899496],[126.7352022001025,37.4937755002926],[126.7326039000299,37.4959225003619],[126.73095190136789,37.4958761004284],[126.73104450127529,37.4967385995659],[126.73234760068149,37.496656100339706],[126.7305638005757,37.4993726000311],[126.724357500456,37.5037447000171],[126.7274807004341,37.5076690003291],[126.7251209000075,37.509229601433496],[126.724652400476,37.5104157002474],[126.72390519992891,37.510047900666905],[126.72353650036939,37.5112119001449],[126.72271579964611,37.509911800595695],[126.7206956010749,37.5105371999888],[126.7208915010401,37.5120837987116],[126.722192000006,37.5114985992899],[126.7225143004071,37.5121495999625],[126.7218496005894,37.512098100151505],[126.72214200116801,37.5142198991448],[126.723376999933,37.5144101989545],[126.72432650002641,37.5135557993399],[126.72431850021259,37.5145120996851],[126.7259339001116,37.5146578997945],[126.7263946013947,37.5161505980371],[126.725751000782,37.5170696995293],[126.7264531005711,37.5178516001314],[126.725508400003,37.518792600157596],[126.7239802003168,37.5177956008569],[126.72217650013981,37.5179895000773],[126.721900797499,37.5210849015615],[126.7216274974658,37.518064201566695],[126.71894659702309,37.5181882016565],[126.718788197033,37.516629901753895],[126.7214399995755,37.516149999729606],[126.72069559964599,37.5105371998291],[126.7227157999865,37.5099117993491],[126.7227775996608,37.508792300295404],[126.7205478993733,37.507501700311096],[126.7154922003331,37.509264202713496],[126.7147747981639,37.5078861015653],[126.71466339991831,37.5066602991009],[126.71534120021829,37.5070457999849],[126.7147748006006,37.5078860993912],[126.71697949946879,37.506664899746596],[126.71610409818129,37.5022396000285],[126.7163828980727,37.4914214015756],[126.7154633989922,37.490812002184995],[126.7098753011326,37.4910328009668],[126.7098563011516,37.493895998103596],[126.7116344017862,37.4954418000296],[126.71028940146819,37.497531500201],[126.7112608010178,37.5024526003927],[126.7086626020679,37.503607500273],[126.7088408984682,37.5054394011286],[126.708662597744,37.503607500281],[126.70751969888691,37.5026100012785],[126.70541710098951,37.5030661008224],[126.7033240983379,37.5059501007328],[126.70327929838271,37.5052382014447],[126.6996488983523,37.5036548010197],[126.699556794335,37.502831396933395],[126.7025571913346,37.498671001093804],[126.7024445909646,37.497185801769],[126.69113329832571,37.4953261006481],[126.69163089917731,37.494517900457495],[126.69007260073559,37.4935251014503],[126.6890302980637,37.4937985987067],[126.69558719554081,37.4911787963735],[126.6968370942909,37.4875873999649],[126.6966634944645,37.486461501090794],[126.6907052980047,37.4810341030621],[126.6879639990587,37.4810887008805],[126.6863430982486,37.4820809015346],[126.6882317985218,37.4732702987355],[126.69077579846369,37.471393999289994],[126.69050219873729,37.4706297000543],[126.6918984985644,37.4707461993949],[126.6924939979637,37.4692028008741],[126.69028369771729,37.4684709018383],[126.6887012991245,37.466737301494895],[126.6869672001353,37.4674713008376],[126.6857966009742,37.4693075016958],[126.68174930360121,37.4706978014428],[126.6815717986139,37.4748002019969],[126.6800350990869,37.470317800579],[126.67906340005861,37.469587801309],[126.67754790025069,37.4718915008374],[126.67697229928861,37.469969001231],[126.6759985995623,37.4710511010643],[126.675760499227,37.4701899009822],[126.6742760995721,37.470455400702],[126.6746691994091,37.4692268004901],[126.6741655999127,37.468650701066196],[126.6737283993429,37.469566100115],[126.6741655989013,37.4686507009675],[126.672917900149,37.4676209019973],[126.6704603017334,37.468542401110895],[126.6699562980771,37.4697368008241],[126.66785589874641,37.4677809004696],[126.6658292998133,37.4674466003322],[126.6651571996138,37.4651443006626],[126.66445779962089,37.4653450990684]]],[[[126.6503473989369,37.4686745994182],[126.6511070003054,37.4669790986513],[126.6533990009051,37.4669767992469],[126.6535878007163,37.4678033984203],[126.65555819874591,37.466984699239],[126.6622847013771,37.467168099991],[126.66211560039861,37.4682932008694],[126.6622036986908,37.4677072007187],[126.6589675009007,37.4679841005479],[126.6606058002343,37.4689954995743],[126.65964809989799,37.4698856006265],[126.6589674994056,37.467984101291],[126.65631709987579,37.4678324011275],[126.6555582000208,37.466984701035194],[126.6540804014986,37.4683114997084],[126.65535940083349,37.4697607991991],[126.6549123999089,37.4708253023036],[126.65393949885711,37.4691385007639],[126.6521611000604,37.468429801222406],[126.6502935000575,37.4695046009354],[126.6503473989369,37.4686745994182]]],[[[126.7913307997476,37.482922799547694],[126.79500049945631,37.482975899832496],[126.7955248006755,37.4804737990874],[126.79620210185111,37.4807543001888],[126.7955235998649,37.4809800012488],[126.79555829983019,37.482987799240995],[126.7991694006425,37.4833219006111],[126.79809090083221,37.4833646001422],[126.7986819004748,37.4837732002226],[126.7978100000315,37.48468420049559],[126.79598730246069,37.4853429023698],[126.79524050002631,37.4848061005744],[126.7943820998539,37.485681300140705],[126.7913307997476,37.482922799547694]]],[[[126.63230009921759,37.4763449996774],[126.6352809005689,37.4739400998968],[126.6359853008627,37.4760267006468],[126.6330366003702,37.4770365010965],[126.63230009921759,37.4763449996774]]],[[[126.6381861988837,37.4688337000218],[126.6418392984001,37.466699298686905],[126.6418281001371,37.4674519999788],[126.6448278004695,37.467894998195895],[126.64576570020999,37.466944098724],[126.64678390069571,37.4672313990101],[126.6462057006307,37.4677818010124],[126.6457656995109,37.4669441009764],[126.6448681000804,37.467961000349504],[126.64272630083751,37.4671785009929],[126.64319639998,37.4715996003279],[126.6402561004143,37.4705389018755],[126.6393517005341,37.4709296017913],[126.6381861988837,37.4688337000218]]],[[[126.77772559918229,37.483581900144195],[126.7794020986232,37.4825609997189],[126.77931499858809,37.4815458001978],[126.78087959988521,37.4796693994702],[126.7826385000633,37.4798575989644],[126.783041000259,37.481127698834804],[126.7846524001296,37.480662199464994],[126.7856418012088,37.481128999931805],[126.7857425011516,37.48213959926969],[126.7881451004654,37.482706100647704],[126.7814085007988,37.4839021006063],[126.7803151008288,37.4832231010495],[126.77772559918229,37.483581900144195]]],[[[126.7194721984136,37.530541100024],[126.72252379899611,37.529568098396496],[126.7225085998993,37.5279758988972],[126.7225238013837,37.5295680993763],[126.7244324999605,37.5298771990677],[126.7251561992368,37.5291633997815],[126.7251315006357,37.5298981992987],[126.72608360020469,37.5301471999133],[126.7259959998148,37.5307449005116],[126.7244162005773,37.5308049004646],[126.722569699997,37.5333124007407],[126.7218323992545,37.532601000001996],[126.7225724993009,37.5325990993847],[126.722570399303,37.531781300202496],[126.7211012999856,37.53177380082921],[126.7194721984136,37.530541100024]]],[[[126.7205566996968,37.5385031997529],[126.721695199436,37.5385864991577],[126.721765699708,37.5375770988267],[126.7237417007679,37.5374962007292],[126.7224555001871,37.540223000205195],[126.7216991992184,37.5387095008516],[126.7205566996968,37.5385031997529]]],[[[126.6975420988075,37.4431262000953],[126.69817229968899,37.4412092000908],[126.6991651002649,37.4409146995773],[126.6997075002737,37.4425320990675],[126.7009709011557,37.4433962987149],[126.6988498995044,37.4439762005774],[126.6975420988075,37.4431262000953]]],[[[126.67841029981389,37.458584200477695],[126.6800151999836,37.4572703995105],[126.680797400518,37.4584380993483],[126.6821949991204,37.4583487994376],[126.6821507994886,37.4575586996808],[126.68264770138241,37.4583198999117],[126.6812348004419,37.460361400684896],[126.6792765996715,37.4585321011662],[126.67841029981389,37.458584200477695]]],[[[126.6873129991198,37.4851283001073],[126.6885737001363,37.4852212988749],[126.6895428002857,37.4869521001031],[126.68868450017209,37.4861710011185],[126.6880962999637,37.4871706004645],[126.6881129989741,37.4856601001513],[126.6873129991198,37.4851283001073]]],[[[126.81132709933149,37.4864579991321],[126.8115172006729,37.485328199342],[126.8120076011462,37.4860316997109],[126.81132709933149,37.4864579991321]]],[[[126.7281168997094,37.543131799630295],[126.72854360042119,37.543077200012],[126.7283176000131,37.543292100143404],[126.7281168997094,37.543131799630295]]],[[[126.69736929932681,37.435014499745805],[126.69786930329829,37.4341731990327],[126.6984631026544,37.4358297993649],[126.69736929932681,37.435014499745805]]],[[[126.71251749948101,37.502390499616794],[126.712323099949,37.5020513994389],[126.7125569008781,37.502880600821996],[126.71251749948101,37.502390499616794]]],[[[126.7568074994925,37.493962400430604],[126.7570906999437,37.4937583994449],[126.7572245003802,37.4941166000308],[126.7568074994925,37.493962400430604]]],[[[126.7668231994112,37.4924532007207],[126.7669530008505,37.4930720002478],[126.7669618001029,37.4931142004906],[126.7668231994112,37.4924532007207]]],[[[126.8103180986897,37.4854758995673],[126.8105454998024,37.4850140995432],[126.81031810034051,37.485475900114196],[126.8103180986897,37.4854758995673]]],[[[126.74953689846909,37.4851729003726],[126.7495369004936,37.4851729000127],[126.74953690007959,37.4851729008046],[126.74953689846909,37.4851729003726]]],[[[126.8233969993772,37.4924949998434],[126.8233970001536,37.492495000213495],[126.8233969995267,37.4924950005928],[126.8233969993772,37.4924949998434]]],[[[126.6990187997073,37.4271579001066],[126.69901880008011,37.427157899906796],[126.6990188002149,37.4271579001095],[126.6990187997073,37.4271579001066]]]]}},{"type":"Feature","properties":{"interval":60,"stationId":"5902086070"},"geometry":{"type":"MultiPolygon","coordinates":[[[[126.5964545994582,37.4729789986698],[126.59712860063881,37.4708503991296],[126.5995312013771,37.473491096581796],[126.6020059005416,37.4750224974776],[126.6033057992417,37.4748797976203],[126.6054443997968,37.4719071978244],[126.6078988068512,37.4731175940311],[126.6066388018416,37.476396999780896],[126.6085507999296,37.4771663990115],[126.6091098005011,37.4764416973127],[126.6125614982934,37.477176696920104],[126.6158782988717,37.4737262934224],[126.6159017004163,37.474987998495706],[126.6209793981205,37.4681839986647],[126.62232670149601,37.468347795246196],[126.6256161982065,37.4658218977721],[126.625901001211,37.464801796854594],[126.62985839759091,37.4643637978252],[126.63148819596111,37.4607782014108],[126.62869669841531,37.4587163029401],[126.6298942979198,37.458031597879796],[126.6276667001474,37.4541069018045],[126.6226371970295,37.4548917966412],[126.6251624967768,37.454307996303],[126.625830097833,37.4517953980384],[126.6247123989507,37.4500499997838],[126.6256367997472,37.4508895982],[126.6276401977438,37.449998899090694],[126.6275627983085,37.448212197406],[126.6281707998782,37.4497112980188],[126.631224498684,37.4495529977298],[126.6316888982196,37.447378399904395],[126.6309762978194,37.4468641976338],[126.63182159697409,37.4461450983529],[126.63272160165279,37.4486189988201],[126.63436660000781,37.4491044983346],[126.6350227014526,37.4480185995594],[126.6363604001149,37.4501784973995],[126.6411348999717,37.4492029986602],[126.6440216970849,37.4500567978064],[126.64402199708461,37.446497001366204],[126.6431802986757,37.4458645961876],[126.64416030071929,37.4460734945664],[126.6469670979125,37.442457898182],[126.65044039955029,37.440872898438805],[126.6499052038465,37.442854198872396],[126.6532052006256,37.444542397300204],[126.65511000151129,37.443765197457004],[126.6589536015374,37.4450867989174],[126.6622124988145,37.4437558000404],[126.6617240997995,37.4430585995663],[126.6640832983712,37.4448906985218],[126.66367659892491,37.4431650988395],[126.66681990154929,37.4418991984804],[126.66761340100349,37.442206298589205],[126.66572650110571,37.442338201029905],[126.66642930040291,37.444823698544404],[126.6684455997852,37.4456215978731],[126.66837740023949,37.4420611987343],[126.6706706995048,37.440376299263995],[126.6700703007405,37.4406138000964],[126.6705740004691,37.4415833995522],[126.67154239950071,37.4416533994822],[126.6722681991944,37.439685500385],[126.6714792992603,37.4397922996423],[126.6729939984074,37.4389474001237],[126.6728835994797,37.4379338988607],[126.6739078000594,37.4381644983345],[126.6762072997125,37.4365420995019],[126.6761331004222,37.437659398914604],[126.67690909964621,37.4366074999665],[126.6780870995831,37.4365282992673],[126.6783293993408,37.4353818004138],[126.6741018992952,37.4340943996992],[126.6756425966561,37.4300420964288],[126.67475959753911,37.425704000766906],[126.6726942996044,37.4256356008353],[126.67150649944001,37.424122100155195],[126.6691590992659,37.4246350999282],[126.6693419993076,37.4235106997674],[126.66969830039139,37.4243083990172],[126.6715064988781,37.4241220992487],[126.6715240988776,37.4224222005711],[126.6704598999418,37.422067400925904],[126.67012100026359,37.4230602003106],[126.6679983990125,37.4215479999315],[126.6692213992557,37.420233599586204],[126.668278898127,37.4168886002404],[126.6696860978469,37.4164068992081],[126.6686358988374,37.4136741017807],[126.66780289967039,37.4140206014342],[126.6668894001931,37.413191900859104],[126.6655265999579,37.4139851005547],[126.6655331995017,37.4128269009046],[126.66290949952939,37.4126587003391],[126.6661312981286,37.4112814998695],[126.6646353996245,37.4102086009424],[126.6647534991492,37.4090652004833],[126.6635893982276,37.408704300687496],[126.6638897981863,37.4073491991183],[126.66566189619691,37.4063203989539],[126.66609279703471,37.4028467988607],[126.6646451992729,37.4010605990695],[126.6651881999187,37.4002161995038],[126.66690149820539,37.4004552992647],[126.66586599992759,37.395608002724806],[126.6634595023341,37.3963242020086],[126.66257520074271,37.3980718025384],[126.6611267987636,37.398223101438205],[126.6578188020716,37.3950671045942],[126.65532810071531,37.3981392018755],[126.6562081985072,37.395859801840395],[126.654191300103,37.3972195007257],[126.6535101988518,37.3962591013518],[126.6518243005377,37.3972790003319],[126.652089800375,37.3978575003714],[126.6517564996104,37.395933100655],[126.64925619994709,37.3975992001599],[126.6497806997062,37.3965549996167],[126.6525541978266,37.3953353993159],[126.6496920998426,37.3928970010548],[126.6478133000101,37.3939972001986],[126.6470291000561,37.3932654006246],[126.6465893998942,37.3940347000835],[126.6424760006323,37.3930533007986],[126.6408942009748,37.3955094020676],[126.64152370034529,37.397599499977495],[126.6390582008236,37.396768701953704],[126.6379291009615,37.3955488013372],[126.63739290111009,37.3962399009092],[126.6382289002741,37.397198799950296],[126.6373929007292,37.396239901144696],[126.63618110064691,37.3977686004907],[126.63679040149489,37.398332801490696],[126.6358328992128,37.3988425012895],[126.6348467999602,37.397522600351],[126.6331797016273,37.4001432977303],[126.6316190008409,37.4030430997244],[126.6323198008662,37.4052720998098],[126.6291918001158,37.4065699001925],[126.628148601159,37.406117400645],[126.6272506008088,37.408676901592706],[126.6265708014886,37.4085829016867],[126.62686310119629,37.4114697987998],[126.6285472005263,37.411447201333196],[126.62731909863109,37.412104301707906],[126.6247481994842,37.4114339001753],[126.62678819839589,37.405366802604604],[126.6248172998233,37.4045628999891],[126.6270044001529,37.4021232994807],[126.6291396980176,37.4014362001678],[126.6280975943415,37.3996720994787],[126.62824889419021,37.397004602146204],[126.6267331925861,37.392854300619206],[126.6275703948379,37.3874870994063],[126.63033129807489,37.3855847981801],[126.6300319998907,37.3817944997784],[126.63163449895801,37.3815555998833],[126.6321582984342,37.3794944019445],[126.6314434996542,37.3782969996654],[126.63340430006569,37.3774175994906],[126.6336415003521,37.3785885991961],[126.6357150001057,37.3774298992638],[126.6366465006733,37.3783554979535],[126.63786069945911,37.3762903000187],[126.6369352003846,37.3753007010083],[126.6357992994989,37.376243600410305],[126.63512659907231,37.3748596008165],[126.6361592992435,37.3756142991632],[126.6352713996683,37.374213599074],[126.6369112980284,37.373393799893805],[126.6377346999289,37.3699698996931],[126.638757000133,37.3709035958543],[126.6434198000782,37.3679926970401],[126.645224000108,37.370274799658894],[126.64806279938911,37.368521196996205],[126.64961670061649,37.3701400971096],[126.6516713010964,37.3680402976794],[126.6522827037986,37.3686825014004],[126.6516942043871,37.372320697762206],[126.6576689020931,37.3782336959444],[126.6595686001934,37.378816095362005],[126.66246149730051,37.377027097151],[126.6623837979091,37.3753805985162],[126.6608571020402,37.3734761966213],[126.6639133019074,37.3764425994588],[126.6673884001599,37.3759041999065],[126.6713743000332,37.379466798567606],[126.6719457027379,37.378284099748605],[126.6726267023366,37.3808085976731],[126.67573400262421,37.3829999988083],[126.6743134026628,37.383878601797406],[126.6733864035898,37.3859515997244],[126.6758293011469,37.3885333971426],[126.6773685006662,37.3937389948772],[126.6806363987007,37.3922060960393],[126.6826249018463,37.3922988980833],[126.68431110156,37.3946024976699],[126.6867472009753,37.3934552980043],[126.6876094009444,37.3946192978121],[126.6894602020873,37.393744499080896],[126.69063630175019,37.3951077988612],[126.6932632020158,37.3951639974825],[126.6966581019905,37.399759897458196],[126.6995157991328,37.398394698823395],[126.7022264964221,37.3955468016713],[126.7013657964347,37.3943848016827],[126.70252410032411,37.3923432982931],[126.70715340096869,37.394735398038804],[126.7087466026459,37.3939725982285],[126.7120071017289,37.39668179976341],[126.7144299002321,37.3967201992867],[126.7151371999847,37.397749098696195],[126.71793400238,37.3978557978386],[126.72071979959419,37.3969401987542],[126.7207339999638,37.395087399499005],[126.721303800248,37.3952527000245],[126.7208837006681,37.3959249993522],[126.7226019989498,37.3962263990508],[126.72245410092339,37.394570598914804],[126.7241033993527,37.395183798376195],[126.725185000575,37.394452797717605],[126.7253384012292,37.3952899992765],[126.72756150021179,37.396654498347495],[126.7273440009324,37.398209998782995],[126.72958129982601,37.396633199090395],[126.7318053988726,37.398658497271605],[126.7343604990613,37.3970137980169],[126.73602369739811,37.3968829981477],[126.7381966014616,37.398136199667405],[126.73905210085209,37.4003940002943],[126.7380000017084,37.4024281986891],[126.7388009014329,37.4040296975947],[126.73982790382509,37.404157500145296],[126.7387937009729,37.4048275000272],[126.73851709961059,37.4042254005543],[126.7373028002524,37.405484900667794],[126.7335883002947,37.405834000714],[126.7312816005776,37.4045617010647],[126.7282861003782,37.4061564003857],[126.7285666985907,37.4068165022821],[126.7270443001131,37.4057672033314],[126.7259143012431,37.4061023029963],[126.7234927002674,37.4095181007482],[126.7235728989442,37.4079583005312],[126.7169513989331,37.407606703005605],[126.71530580057869,37.410485900126396],[126.7126358011318,37.4114402995409],[126.7136199007554,37.412458998508896],[126.7132965037827,37.414746102869906],[126.71613920094,37.420717796898195],[126.7189521019823,37.4198153947858],[126.7193796001293,37.421228198714104],[126.72026940066361,37.4208387991553],[126.7214903013629,37.4218741999208],[126.7199353013649,37.4220242009397],[126.7197446000348,37.4239495006367],[126.7178710012876,37.4243237002865],[126.7192015006795,37.425430900155405],[126.7183338015502,37.427717098028005],[126.7186961040711,37.4311438989428],[126.71931330091239,37.434479499594204],[126.7204619023535,37.435360799710395],[126.7203400007018,37.4361517001655],[126.7195413005796,37.4354557010001],[126.71817230194861,37.4364798999759],[126.71790130221959,37.4380230984327],[126.7215583009487,37.4379281984587],[126.7217187004543,37.4393597993407],[126.72309610001331,37.439439799575005],[126.7246282000572,37.4412140986147],[126.72474270129959,37.4391538992935],[126.7284343976079,37.4415466969007],[126.7290131984251,37.439283096687795],[126.7321925979157,37.438523598942304],[126.7322215978867,37.4364208010451],[126.73002459741369,37.4358936000773],[126.7322366000615,37.435617997242595],[126.7348442004084,37.439417396650605],[126.7362294004294,37.4374238971279],[126.74217330317731,37.441417997003],[126.742270601427,37.4450110993843],[126.743773599924,37.4445516998437],[126.7469607970171,37.4462665982596],[126.74941079456711,37.440915503610704],[126.7470962993427,37.4378677000069],[126.7493958977889,37.438391798481796],[126.7507196974051,37.4354296002776],[126.7487471986498,37.4342245980229],[126.74980790052669,37.4341580989664],[126.750719699637,37.4354295985882],[126.75157269876189,37.4334843996401],[126.75315739838621,37.4335224995184],[126.7553166019665,37.4314395970165],[126.75894959833349,37.4319951964609],[126.75949159779151,37.4293825990735],[126.7594847017753,37.4320237971079],[126.76479600113011,37.433776597567004],[126.7671590010254,37.4322591992799],[126.76703710251229,37.4366318000487],[126.7704749023327,37.4380138995066],[126.76926610263659,37.441422301405396],[126.7678267003366,37.4405450008567],[126.7660462020288,37.4432343999596],[126.7654641036807,37.4471148003848],[126.7643630978923,37.4470739031035],[126.7627291988303,37.4447519038526],[126.7584102989209,37.445452803483995],[126.7570919002393,37.446561102375696],[126.75332120162601,37.4452460035635],[126.75074720420001,37.4471073017022],[126.7529787019685,37.4502946985148],[126.7548116001356,37.4497753990341],[126.7559083007409,37.4502920000516],[126.7538789016442,37.456469897177804],[126.75614400030521,37.4559342989331],[126.7562933008156,37.4579193000146],[126.7554637998967,37.4587709004512],[126.7520457001928,37.4583008008264],[126.7521980004646,37.4593473000712],[126.7509008011556,37.4593482018075],[126.750890500739,37.461982900677505],[126.746398703722,37.4630751004608],[126.74888260123811,37.4651681983677],[126.7512621988585,37.4647539987819],[126.75080110061471,37.4635775995337],[126.7515104022229,37.4655466986762],[126.7552566017225,37.4660890999987],[126.7542090999855,37.465653701577],[126.7517686010276,37.466949500932095],[126.75212230260459,37.4689165026882],[126.7508266039003,37.471956699648],[126.7544947004583,37.4727414986855],[126.7597857951672,37.4766205948064],[126.7591447958082,37.4696389017881],[126.75711889783409,37.469279002148],[126.75640149857409,37.468297199028804],[126.7571188998075,37.4692789968716],[126.7659998965502,37.4700499982075],[126.7660651980767,37.4651143950764],[126.7675559037842,37.4652148991933],[126.7658730047409,37.466397201251105],[126.7663725042414,37.4700047976435],[126.76896420165,37.4728785989298],[126.778923395069,37.4716257973249],[126.7794211946992,37.4646226020026],[126.7777824989446,37.4626395000289],[126.7782938004972,37.4622163989484],[126.7788488999421,37.463502897661904],[126.7838477961492,37.4610712966473],[126.78870499757589,37.463240894649104],[126.79095800183511,37.461967095242],[126.7930884024068,37.4657543972759],[126.7967263987688,37.4682696947606],[126.7978205976746,37.4676485953817],[126.7980744974207,37.463917899112396],[126.80056370000109,37.457546298838096],[126.801763800173,37.458676399863805],[126.80304310082819,37.4583607999044],[126.8042301045711,37.4604435980174],[126.80281810156839,37.4615625017346],[126.80186280032589,37.4611191020937],[126.8008859009064,37.4625360010518],[126.801801202637,37.4638997017494],[126.8012095032287,37.4672205984285],[126.80345580098239,37.468550097099005],[126.8069381975,37.467882597766504],[126.8072205972176,37.466026999622095],[126.8063246006365,37.4638553987927],[126.8085923020982,37.4663766983669],[126.8103983002922,37.466000798742805],[126.8100935005365,37.467109100117],[126.8120475006347,37.468927199367],[126.81297629970591,37.4690033992908],[126.8130112005475,37.4680597993075],[126.8134541006683,37.4700565985483],[126.8154339007876,37.4720601987415],[126.81716639905511,37.471987498814194],[126.8174812011307,37.4710908991507],[126.8176493020485,37.4742474969587],[126.8207396989581,37.4737447974614],[126.82360649896769,37.470191898992205],[126.8229261996681,37.4681399995371],[126.8236545008202,37.469155298236096],[126.8255209002064,37.4688368994889],[126.8250742012878,37.4705644994513],[126.8263584000036,37.4715024985133],[126.82742760290989,37.4711286019324],[126.8258877044498,37.4747840982769],[126.8276176027199,37.4782446948163],[126.8316174056856,37.4791994000478],[126.82761760311399,37.4782447010833],[126.8262461044855,37.4816247977032],[126.8270319042791,37.4833195965534],[126.8305117007993,37.4849576949153],[126.8333788983666,37.4826397969012],[126.8358860958594,37.4821045974364],[126.8385784987245,37.4796243996228],[126.8383887987884,37.477405097782295],[126.8395841995318,37.4727575000051],[126.84077119980661,37.4749481979272],[126.844905199732,37.474417797819],[126.84553459910259,37.472607699629094],[126.84662709949751,37.4722126981588],[126.847326598798,37.470032100339395],[126.8464873977421,37.4696064984961],[126.8476817967532,37.4673558002123],[126.8496152993301,37.468321598811904],[126.8511064997531,37.4671439996241],[126.85282550065969,37.4671713993018],[126.853748000165,37.4681572991422],[126.854449800041,37.467371699724104],[126.8538698002933,37.4687018997791],[126.8568685003958,37.470024499076004],[126.8583737020197,37.471936697340304],[126.8607642996291,37.469928999348],[126.8621713004581,37.4693238987086],[126.8631241998983,37.469886598956705],[126.8638086993819,37.4688854998022],[126.86348439953801,37.4671958991443],[126.86714519960749,37.466298799640995],[126.8685677016579,37.4651328981395],[126.8715488010507,37.4675920972902],[126.87140980054849,37.468311299381206],[126.87464970050941,37.468521199928595],[126.87438860104861,37.470101099794704],[126.8767411000198,37.470946498782695],[126.87731740114809,37.4699263990701],[126.8775526023378,37.4727991002282],[126.8808231990672,37.4756201974071],[126.881851398039,37.4728074002199],[126.8858699013267,37.4706895997764],[126.8848771022371,37.4729459990711],[126.8869885009563,37.4736925991063],[126.8872659003726,37.474777500189305],[126.88606920147119,37.4752110999165],[126.8863698011706,37.4770308980967],[126.8871020004384,37.4776237975038],[126.88893470026159,37.4769926000301],[126.8880553011395,37.477899899312696],[126.8902915004715,37.478886899447396],[126.8904625004192,37.480467599390394],[126.8917229994939,37.480018999204695],[126.8939915009898,37.4828802985912],[126.8953279011074,37.4828728989789],[126.89540220065871,37.484560699380005],[126.8962392007782,37.484169799669],[126.8954022008498,37.4845607001599],[126.8953201009899,37.486267999522],[126.8991873000941,37.486700399393094],[126.90181850031341,37.4879370991513],[126.90131650073769,37.4884610999171],[126.901976200078,37.4891415992366],[126.9029680007161,37.4889826000489],[126.9021303007023,37.4892965002143],[126.903378300662,37.4906782002619],[126.90247630108931,37.4916919998208],[126.903819700736,37.492623699495304],[126.903240200875,37.4940667995282],[126.9039666001486,37.4940517995432],[126.9043837002445,37.4963733004058],[126.9041313999178,37.497103000570405],[126.9029639995669,37.496733001323896],[126.9002778016713,37.4985842000112],[126.901316100633,37.500070798524604],[126.9007147003498,37.5007929999472],[126.90270050077349,37.503248900341205],[126.9020591008083,37.5041753003146],[126.9033845002964,37.5062830994319],[126.9056047008889,37.505240699097],[126.9075493989442,37.5058691984685],[126.9083814981121,37.5032681010696],[126.90529789907079,37.5018453014071],[126.9042288001399,37.502469500782894],[126.90479409903391,37.5016300003293],[126.9037599981891,37.5005442980511],[126.9071923995076,37.495905999563995],[126.9085106009715,37.4955146993587],[126.9083462015889,37.4964669991056],[126.9103844995506,37.496958598614],[126.9102528999268,37.4954290994688],[126.9118466004832,37.496828399519195],[126.9129846015215,37.4965139992567],[126.9128070015299,37.4981382984964],[126.91492480024269,37.4984706989733],[126.9152461999213,37.4979068995371],[126.9171791999629,37.4981735991079],[126.9176016991244,37.4971185992784],[126.9212877007613,37.4967338994371],[126.9235280006894,37.4977423998406],[126.9240476006364,37.499514399332],[126.9278185999504,37.4968528997575],[126.9288574001021,37.4985760986423],[126.930266400064,37.4976555996481],[126.92908080106959,37.4988885992825],[126.9311960002566,37.4992514993961],[126.9306541009663,37.4998165000882],[126.9315633999862,37.5002719008964],[126.92842540097489,37.500788801267404],[126.9283547000004,37.5023933004435],[126.9276535995041,37.5011186011999],[126.9247714000279,37.5003026006294],[126.9240868000439,37.5012624008485],[126.922957700404,37.501267000169],[126.9226501005476,37.5040860000005],[126.9243164004828,37.5055707994602],[126.92331470150141,37.507593498188896],[126.92526460094831,37.5087880975532],[126.9262572026647,37.5085224003864],[126.926591200446,37.5127055994245],[126.92936020047101,37.5131794996527],[126.92913060213249,37.516966198034396],[126.93231860083401,37.5194968000951],[126.9307630995322,37.518529001526204],[126.9296624996081,37.5196606014555],[126.9284188995192,37.5188891013884],[126.92739019944031,37.5199474014716],[126.9265690995981,37.5194346015752],[126.9247498014174,37.5219886990211],[126.9254970999991,37.522642201412],[126.9242100002382,37.5216517002687],[126.9234140997322,37.5227733003888],[126.92273539858779,37.5207199014443],[126.9207425992924,37.519457501909905],[126.9186109014241,37.5205025008649],[126.9186404005679,37.5224846007113],[126.9169158001644,37.5221813012962],[126.9159905982853,37.5212831013531],[126.91637639936731,37.5204161007014],[126.9153299996183,37.5201256003997],[126.9138478999182,37.5209719007758],[126.91324930102661,37.5224044002318],[126.9122235999145,37.5213844010569],[126.9116413997067,37.5222207013807],[126.9095841994194,37.5203782006023],[126.9095557989972,37.519131500610904],[126.9083882994727,37.5192269996091],[126.9093830992974,37.518515099929004],[126.9082067996632,37.517006800121294],[126.90933459937709,37.5171762990781],[126.9099578988477,37.5156969004214],[126.9084875998681,37.5146486009657],[126.9076999992908,37.5152200011135],[126.90294730093359,37.5124200013209],[126.90261480036199,37.512911701265196],[126.8998511999448,37.5117881009993],[126.897924001872,37.5120166007708],[126.90049450078929,37.5148600998565],[126.904051800214,37.515361999636305],[126.9038931002572,37.516373900282],[126.90289660108411,37.5165005012066],[126.9033211006596,37.517915299791795],[126.9042089005116,37.5178824002219],[126.90215880142159,37.5191466998639],[126.9023356008558,37.5198567002925],[126.8998769008967,37.5202514001951],[126.89910690092381,37.5210080998498],[126.8995812007236,37.5223391996307],[126.9005457005958,37.522243899258],[126.9005725009547,37.5231004995499],[126.9030895995521,37.5231081996166],[126.9044611985325,37.5225415001344],[126.9049584999269,37.521048399166496],[126.9057335014893,37.5221468997994],[126.907223500127,37.5223412000246],[126.90528640064389,37.5230618009099],[126.9054036001361,37.524058100975],[126.9030896001314,37.523108200788904],[126.89956380201299,37.523663900677604],[126.8994843020925,37.525929898411604],[126.9019469996298,37.5253667989747],[126.9021389005077,37.5263108996186],[126.90263460021539,37.5259973001127],[126.9006434006895,37.527245100721004],[126.9002438010891,37.5283786995874],[126.90087580170429,37.529094000176],[126.8996460010041,37.5307078995638],[126.9003059001449,37.5321213991269],[126.902084900557,37.5312243981101],[126.9033779005535,37.5331829986872],[126.9055334000777,37.5318559993476],[126.9062976008853,37.5330575998182],[126.9053610005777,37.533454400215696],[126.90467130016441,37.5370543007918],[126.9046881001428,37.5350194003718],[126.9008321002948,37.5374820013608],[126.89959239943481,37.537365601202],[126.897574699344,37.5360667003252],[126.8979635989827,37.534294000292306],[126.9001699995256,37.53465459854441],[126.9011772985183,37.5332224999765],[126.8988998992203,37.5304110010701],[126.8974375006827,37.529774101707],[126.89465969969311,37.5303775009144],[126.8942242995555,37.529435701124],[126.89240309984099,37.5297844002285],[126.89065089992759,37.5274396003822],[126.8905125999419,37.5247532997536],[126.89302689873,37.5229866001927],[126.89279189882991,37.521978000598494],[126.891515699987,37.5225929004125],[126.89110809890829,37.5211932003688],[126.8883311989903,37.5201206006558],[126.88899549887769,37.5185644996948],[126.8898346991887,37.5186681994169],[126.8895670994563,37.5169888010963],[126.8885642990959,37.5172623001414],[126.889818599,37.5152147004791],[126.8886457997762,37.5136727011618],[126.8875895008325,37.514270600563904],[126.8880583002903,37.5153171006019],[126.8863624012978,37.516775700627996],[126.8865423011179,37.5175784998252],[126.8849094003208,37.5197588006942],[126.8817089995781,37.5213466014103],[126.8836082985468,37.5207221995511],[126.883556098599,37.5198620004113],[126.8821014994685,37.5200763997039],[126.8820650998793,37.5186841990932],[126.8831257988186,37.518125399652],[126.8814663002239,37.516219400223996],[126.8802015991165,37.5185317013694],[126.8810541981882,37.5156235015537],[126.8787981001155,37.5170210016339],[126.8773642998043,37.5166143005448],[126.87877319893789,37.5169304987665],[126.8794135982975,37.5140855016115],[126.878190898444,37.5124097016927],[126.8756685990052,37.5135103015446],[126.8738484992074,37.5114193017899],[126.8711197019362,37.5122479009613],[126.871619200475,37.5149086999484],[126.8702619009121,37.514233700598396],[126.868856599942,37.5150090012812],[126.86696019983309,37.5143852021229],[126.866025400032,37.516319101741296],[126.8658119995366,37.5141113019745],[126.8641310007887,37.5156607013195],[126.86235770065561,37.5150486009934],[126.8618494999245,37.5158465007325],[126.861640099148,37.5143454001725],[126.86053279966,37.5141955995095],[126.861212999447,37.5129821999987],[126.8607435999164,37.5120762009047],[126.8594137996057,37.5112428992723],[126.8601111989083,37.5107084998067],[126.8566796992513,37.507193301273496],[126.8550968004422,37.507021801303],[126.85228290015921,37.5082066003536],[126.85290649916661,37.507541900579],[126.85176769983819,37.5075333008038],[126.85124420008209,37.5066952010523],[126.8508447004391,37.5075950005287],[126.8506993997987,37.5068694007967],[126.8483336008708,37.5073062008345],[126.84814370059979,37.5079946005155],[126.8475905000976,37.5074270009405],[126.8428359003063,37.509593001347405],[126.841988799614,37.508498300373496],[126.8413534969005,37.5037522033298],[126.83819369634081,37.5020909014469],[126.8338097007248,37.5026650008728],[126.8329708990159,37.500972601517496],[126.83185969974889,37.5011213009586],[126.83153500045181,37.5020392004509],[126.8296670023198,37.5021342003559],[126.82909680289,37.5048314976586],[126.8317462002406,37.506484396005696],[126.8347710997634,37.505764897772906],[126.8361476998539,37.5066256016286],[126.8317461989425,37.5064844037734],[126.8290676008004,37.5097571000751],[126.8303791994633,37.5106914008568],[126.82907809753371,37.5105129023342],[126.8282092968515,37.5063499020578],[126.8225653016423,37.5060002021993],[126.8201476041381,37.5084407003721],[126.8178684003684,37.5170142999801],[126.8179607002761,37.5180684989259],[126.819499200382,37.518407599976406],[126.8170240024021,37.5231110005455],[126.8174842019419,37.5251856984708],[126.81883090059519,37.5260079976485],[126.820761399644,37.524785899342994],[126.82205520105609,37.5248792996246],[126.82021470134349,37.52618550013759],[126.82042660132561,37.5273311998383],[126.8192930007911,37.528594400499905],[126.8179472007737,37.5287458005057],[126.81754150065561,37.530289699921],[126.8183486998699,37.5310712031518],[126.8159641990564,37.532044901141],[126.81521359883381,37.530302802429404],[126.8131419009055,37.530191202541],[126.8130901013698,37.5331439003394],[126.80983810242729,37.533658100643095],[126.8103068017578,37.5353998005012],[126.8120184029751,37.536084101064596],[126.8071816014108,37.5386832036472],[126.80638169880861,37.5342177019767],[126.8042332009571,37.533989002205395],[126.8024322012359,37.5327177015688],[126.8001359989802,37.5373279002648],[126.7994939974746,37.532399502766694],[126.7965190004337,37.5313669008098],[126.7953134005259,37.531870300296404],[126.7954490988928,37.5330731026429],[126.7924971000356,37.5294755028578],[126.7906029988534,37.5306974009864],[126.79239659911231,37.5283509992382],[126.7958217991665,37.527994698733],[126.7979377982714,37.5255966999051],[126.7969797990618,37.523442800561895],[126.7958967991719,37.5237194004213],[126.7934328006788,37.522631101109496],[126.7923225005205,37.5236905007884],[126.7903317998353,37.5230403008334],[126.7874188006638,37.5239530005464],[126.7874194001396,37.5247371010637],[126.787418298642,37.5234114997574],[126.7888736985524,37.523223099770206],[126.78868199874819,37.5211239000072],[126.78979839887779,37.521117599567],[126.78871339964421,37.520487698467896],[126.7912066986438,37.520180699512295],[126.7912105986415,37.5192122000219],[126.7898537985038,37.5187631001925],[126.78985729850359,37.517771199999196],[126.788359699098,37.5166768005356],[126.785503701375,37.5161317005471],[126.78468550081989,37.5169746007999],[126.78352029979581,37.516842400465904],[126.7802892000001,37.5140514010918],[126.7795315999989,37.5151402007742],[126.777989601118,37.5151446006142],[126.77873620078479,37.516363600287],[126.7776142007998,37.5159534010004],[126.7772612011398,37.517344800530395],[126.7761402011169,37.5178809005469],[126.77226950014719,37.5173546005516],[126.7709122999926,37.516274700553],[126.7686395993314,37.5168134005407],[126.7681726000294,37.516121400585305],[126.7666083013627,37.5173562999978],[126.7662617008683,37.518750201726796],[126.75900469992301,37.5182376014118],[126.7570889018388,37.517338002311405],[126.75400450492319,37.5179828016666],[126.7531606012976,37.5182661059256],[126.7505931009067,37.5230193010459],[126.7490581000345,37.522486101061],[126.7485652005274,37.5230373005098],[126.74846460317261,37.528569501116706],[126.7483812994302,37.5274841011722],[126.74645540171531,37.53060519845079],[126.74780200051619,37.530842298340204],[126.7496875987085,37.5329613978235],[126.74862549969271,37.5306551985273],[126.7514055002317,37.5310869985992],[126.7519032997339,37.5298618998243],[126.75284640083859,37.529851098863],[126.7536151014245,37.531073300324906],[126.7506073011514,37.532150200057494],[126.7497563003625,37.5341137008489],[126.749687599023,37.532961401843],[126.74558889869171,37.53302760170779],[126.7441307001499,37.5344288003066],[126.7443604999201,37.5355611991742],[126.7458283010076,37.5355924992378],[126.7464988001539,37.536586398978095],[126.7470543007721,37.5361009994006],[126.7500058987069,37.538201698266604],[126.75160580149509,37.537895997713804],[126.7524384010898,37.539726196941295],[126.75601520002259,37.5376726990128],[126.7568665015361,37.540547697445795],[126.7604974995565,37.5394855987277],[126.762484200901,37.540000000264],[126.7612253998801,37.5413392008317],[126.7593530997766,37.5418550009015],[126.7584403993353,37.541195001275],[126.7530089006959,37.5426869006961],[126.7527598990699,37.5404281022981],[126.7480480012219,37.5410041002334],[126.7456342014431,37.5427395010121],[126.7454433008109,37.5459952987308],[126.7473491003377,37.547350199558494],[126.7462852013757,37.547971299930204],[126.74845500113851,37.549073298555705],[126.7478755015519,37.5524108995492],[126.7485369009518,37.5544775983853],[126.75179019988481,37.558545697645705],[126.7529795992351,37.557629698805],[126.75773770040011,37.557857399304005],[126.75857070026511,37.5588643991486],[126.7612608999313,37.558798398333],[126.7619370005618,37.560911901977704],[126.75992400042149,37.563357600661405],[126.756092600163,37.5643476026723],[126.75323609914349,37.5630873025154],[126.75080780157181,37.5640815015212],[126.7521833001121,37.5678546987224],[126.7559419031965,37.568923600595],[126.7533707002529,37.567738401363805],[126.75185050099671,37.567899302393],[126.7504947018667,37.5699841009502],[126.7481874014591,37.5700858006179],[126.74673870296239,37.5727140981436],[126.7467895046384,37.5747736003398],[126.74344600222261,37.574667401701],[126.7432053017566,37.5772350015176],[126.741459400578,37.5745667027374],[126.73996410071999,37.5768798002491],[126.7405481013465,37.5786035000871],[126.7389517015644,37.5784779006474],[126.7375075022624,37.579607601118504],[126.73262700012229,37.579503600757704],[126.72767230135,37.571356305012195],[126.7203728954921,37.5710666020691],[126.7210225991764,37.5671239982634],[126.72443299576601,37.5671537982336],[126.7254646967345,37.5608815987212],[126.7221136000856,37.5576110019918],[126.7201334020658,37.5595773000255],[126.72087639847899,37.5600690005332],[126.7198965985524,37.5577094017744],[126.712035200293,37.5560496031577],[126.7123831963294,37.5533780028441],[126.71021169700471,37.5517672020861],[126.7063674981662,37.5514194018087],[126.70535839831429,37.549009502039],[126.7042317981913,37.5488341009964],[126.7038197986033,37.5446283052022],[126.7011787974313,37.540559999599],[126.6995782990318,37.5399357002233],[126.69758089966601,37.533720601815205],[126.69554699558141,37.532175702463604],[126.6957594951215,37.5269286000673],[126.6945442963367,37.5251232018727],[126.6875998014879,37.5248987026844],[126.6854388036002,37.5270922013993],[126.6852976037414,37.528978599512904],[126.6865457028225,37.5305758002525],[126.68293130067251,37.5311478040421],[126.68035110325269,37.5369741982157],[126.6833084002954,37.5403830948068],[126.6850992040832,37.5412878961665],[126.6872660019164,37.5411538963005],[126.68910560248291,37.5460638002156],[126.6855517022021,37.547136201528495],[126.686090801663,37.5491537995109],[126.6889354988183,37.5519349967297],[126.6910274005611,37.5518345944448],[126.6894180999049,37.553297900838395],[126.68735570196729,37.5519734021629],[126.68562210370091,37.552745301391],[126.6839716053514,37.5557736983626],[126.68511630152891,37.5601352991027],[126.6838399016788,37.5638156964918],[126.6869946996505,37.5637254955125],[126.6871105013598,37.5660995031916],[126.6836529022756,37.5693954008605],[126.6807433000487,37.5692536027908],[126.67952690126509,37.5704610015834],[126.67665190010909,37.570715401371295],[126.6727153999616,37.5683837006466],[126.6696335990869,37.5683909021201],[126.671182293342,37.564353996806],[126.67229419954009,37.5638949979392],[126.6731760986582,37.560453001381205],[126.67169199570819,37.5593361979496],[126.6702994971007,37.5560409012449],[126.6673445972753,37.556140801958705],[126.66538349911211,37.5532507019477],[126.6640489997423,37.5543057005394],[126.6631299988418,37.5522785000311],[126.66471640006701,37.5493890997919],[126.66542990030551,37.549284800152904],[126.665379501141,37.552221598081005],[126.6661562003643,37.552475197827405],[126.66764359887691,37.550379199923405],[126.6681347991952,37.5447036014333],[126.6674257971228,37.5407957024824],[126.6662980996998,37.5402408999879],[126.6674201991271,37.5404059996346],[126.669626898155,37.537915198315304],[126.6758068981413,37.537773097902104],[126.6764448975033,37.5370264986487],[126.67633049761771,37.534512501162695],[126.6734938969704,37.5327555017473],[126.66951589639669,37.5331596999864],[126.6680758978504,37.5301305019466],[126.6647226999919,37.5308349002552],[126.6645622998788,37.5301092002003],[126.6631956997023,37.5299105001003],[126.663305799667,37.5284498012988],[126.6627520998299,37.529817300072196],[126.6615984996476,37.5261827010127],[126.6600638999419,37.5266645005511],[126.6583460985281,37.5260180014804],[126.660558999501,37.526444796311],[126.66258299762539,37.5248140978343],[126.66209549701571,37.5205409000046],[126.6568255993549,37.518109800755894],[126.6575978990344,37.517160698592896],[126.65908949917959,37.5180390991973],[126.66226249920919,37.5174530988259],[126.6618234931083,37.506879402860704],[126.6565111984206,37.5037937059464],[126.6554479978233,37.5039125048624],[126.6539864986088,37.5022782999955],[126.65396219772599,37.4991634015554],[126.6590958970443,37.4991980957535],[126.66131569482451,37.4966546982969],[126.6598708962693,37.4938273011243],[126.65537969708589,37.4918612003199],[126.6554076970579,37.490250101931],[126.65314699931861,37.4892953028858],[126.64813750171561,37.491081001364],[126.6477463021068,37.4929655994794],[126.6489072009459,37.4945492978957],[126.6480222940542,37.494572700648796],[126.6468687952077,37.4927179025036],[126.64562199645451,37.486981808239705],[126.64269609524099,37.4842346106448],[126.6400764978606,37.483013811865604],[126.633470104467,37.484565410314],[126.6312489066882,37.4875731073063],[126.626953998256,37.4904165064626],[126.6215995993104,37.4919681060919],[126.6207993001107,37.4908701071899],[126.61523059551071,37.4889018110842],[126.61457539865971,37.4854035029395],[126.6133691963172,37.4850531979391],[126.61302869665771,37.482300300691996],[126.6091258005606,37.4785838044085],[126.6081901014963,37.482550300442],[126.60433810053321,37.4841331174904],[126.60338579748979,37.4811312003694],[126.6009855993578,37.4808921010559],[126.5988829963154,37.4787507002004],[126.5964545994582,37.4729789986698]]],[[[126.7931612964959,37.577130500140605],[126.7954924034073,37.5756651955063],[126.7990870998126,37.576017495154],[126.80062629941041,37.572519199299805],[126.8025624988191,37.5723998983245],[126.803845399126,37.571147199273696],[126.8033780993776,37.5695627997475],[126.8043332988424,37.5680287006308],[126.802456799468,37.566965500185304],[126.80182379832189,37.564436301729394],[126.8001116000341,37.5643951017706],[126.79681789916259,37.5624330001926],[126.79655049940679,37.5613543996905],[126.8010809994952,37.5610990992378],[126.80223929993349,37.5595927991479],[126.80369469908699,37.559325898907595],[126.8037177990639,37.5583227999107],[126.8050387001578,37.5573117993449],[126.80657879877239,37.5569428995911],[126.80637989888,37.5561358999228],[126.80723329903789,37.5564599992315],[126.8107390002502,37.553671397363296],[126.8111193011228,37.5544972997135],[126.80954730163471,37.5556895994873],[126.8109468002352,37.5567189984579],[126.81231949937,37.5559530989646],[126.8122921007508,37.555004099417395],[126.81373670034891,37.5575899993325],[126.8151342003121,37.557580099314904],[126.8143800019489,37.5584715006172],[126.8152090011199,37.560931098157596],[126.817366902456,37.5606905996409],[126.816395600969,37.5617519007578],[126.8162119003427,37.5640243990078],[126.81658320137569,37.5650714994953],[126.8189268007753,37.5654955000759],[126.8193294004174,37.5701427001818],[126.8181907001244,37.569630301262],[126.8167229998446,37.5708814006766],[126.8165268994918,37.5699128008121],[126.81536870003309,37.5699191005039],[126.8115026017217,37.5722918004567],[126.8123894008349,37.5734958992526],[126.8139753992489,37.5734510992974],[126.8144459010791,37.5727250997697],[126.815511501095,37.5750749991568],[126.8181892012805,37.5760388972813],[126.8168204012815,37.576138500537],[126.8165947006584,37.579147400115],[126.81391840009971,37.581113201134094],[126.81075359874569,37.5794710011064],[126.8094179981935,37.5797520020972],[126.8074853983998,37.5777139023049],[126.80271070206311,37.5777491004224],[126.8023151014751,37.5793210004538],[126.8039786007048,37.5806673998675],[126.8017548012193,37.579508602054396],[126.7979579991673,37.583636400589],[126.79738659882639,37.5819208001005],[126.7984296986404,37.581064900109304],[126.79813849966139,37.5795593993005],[126.79930379958681,37.5798126991386],[126.79891689954789,37.577712100643],[126.7958203993537,37.577875000399295],[126.7954923997577,37.575665202439204],[126.7931612964959,37.577130500140605]]],[[[126.7776341995496,37.4374007999981],[126.77969520011361,37.434978098325004],[126.78090080005829,37.4359344988744],[126.78378289717621,37.4352366995722],[126.7858133007034,37.432182397603405],[126.78769579882089,37.431937997847804],[126.7872616010997,37.4328510996674],[126.7887771995841,37.4334301990883],[126.7907596004873,37.4328869990817],[126.793532101184,37.4371926988821],[126.7960361014417,37.4379146998295],[126.7939162005933,37.4395777000535],[126.79509100012609,37.4397388012629],[126.7932550002576,37.439970800389595],[126.7923571002656,37.442699999602404],[126.7931399002104,37.4419150998592],[126.7948493999627,37.4435425994355],[126.7967404000841,37.4439048988826],[126.797363400559,37.443117499192],[126.7980234011284,37.4439291994319],[126.8002946001683,37.4439773991055],[126.801175800426,37.4453774987582],[126.8024535999572,37.4448408984968],[126.8029619008252,37.445774899805805],[126.8036482025642,37.4473466010908],[126.80273110281941,37.4496827993582],[126.8006218032013,37.450376901557505],[126.8015154025743,37.4535361028827],[126.8009284996363,37.454261502122904],[126.80146469914399,37.4534791004842],[126.80009470027291,37.4521406016958],[126.7970590993311,37.452914902029406],[126.7938502006747,37.4562203006699],[126.7932602988289,37.4553436016038],[126.7912233008659,37.456065400882],[126.79123269871529,37.456688800459105],[126.7912232987247,37.4560654010825],[126.7879938019542,37.455034402113505],[126.786929099728,37.4561127003081],[126.7852210969049,37.449017000687896],[126.7862996989006,37.446596300211006],[126.7854680995115,37.445953300736],[126.7847476995948,37.4467557995337],[126.78579429915861,37.445611800014],[126.7851532997996,37.4445594010664],[126.78440259960291,37.4451576006444],[126.7826147002093,37.4441593011937],[126.7815250002603,37.4449667007231],[126.780745899381,37.4431297002735],[126.77918049921179,37.4430409007369],[126.7796583991626,37.4422042007563],[126.7782211995666,37.4423391001175],[126.7796399987017,37.442064699548105],[126.7795545987365,37.4405685998349],[126.7784570989656,37.4396712992862],[126.77850189894069,37.4378131000077],[126.7776341995496,37.4374007999981]]],[[[126.6647449994929,37.598092201176605],[126.6632371993509,37.599329600351595],[126.6651071001566,37.5979719990456],[126.6659370004707,37.599158699475595],[126.667535698872,37.5986931999411],[126.66751479922311,37.5960269007507],[126.6659160002129,37.5961816005115],[126.6653366997583,37.5952353999273],[126.667170999294,37.5957683995145],[126.6675947991035,37.5953682995533],[126.66676409892419,37.5943301998939],[126.6702696985114,37.5932509984028],[126.67033309852789,37.5909071999602],[126.67225379861459,37.590559498884296],[126.6718794991694,37.588864299245294],[126.67277529827359,37.5879914001182],[126.671365197849,37.5873212985873],[126.6718588973553,37.5845683013403],[126.6695616988521,37.583993193404304],[126.6718588008272,37.5843960965707],[126.673181999504,37.583654597312204],[126.67353820000359,37.580976298762806],[126.6736314005262,37.581505999477095],[126.6755101986474,37.5813575996255],[126.6753080999786,37.5796021987918],[126.6786451030566,37.5819602952091],[126.6793771010514,37.5839243005611],[126.6783741020544,37.5866622978231],[126.6806243025925,37.587564499167],[126.6777712009089,37.5865509016437],[126.67632250235759,37.587607000587596],[126.67838620056021,37.589504201234604],[126.676199899908,37.5878845023162],[126.6734027027052,37.590277899922796],[126.67426210184581,37.5923688978318],[126.6768327021137,37.5923014984373],[126.6773335019592,37.5937186987183],[126.6786929008682,37.594263100043996],[126.6773126013576,37.5941932003706],[126.6772704997431,37.595103100382005],[126.6767045003091,37.5936900017951],[126.6742265017137,37.5974286013372],[126.67241199958879,37.5955614007142],[126.6707861001426,37.5964855004048],[126.6697554006667,37.5955046007886],[126.6702028006124,37.596984801149304],[126.6695621000105,37.5966776005231],[126.66933240037051,37.597870000425104],[126.6678380004918,37.5989327000826],[126.668235902468,37.599428704611995],[126.66644930027189,37.59899390052551],[126.6650263998275,37.600242000433305],[126.6647449994929,37.598092201176605]]],[[[126.9359292989509,37.5132229999243],[126.9376523996488,37.512446799062],[126.9375477997534,37.5115644999443],[126.93845249948279,37.510941799575],[126.9402423991921,37.510643999574],[126.9396189994404,37.5101071990015],[126.941249200938,37.5099407995707],[126.94204640074659,37.5113382985806],[126.9458466994904,37.5094109992893],[126.9468472003568,37.5112721994786],[126.94797770029959,37.5113747991963],[126.9472442009878,37.5118888999511],[126.94777570045629,37.5130598987801],[126.94893419947219,37.513481499514995],[126.9495284004183,37.5126460983224],[126.9496697017672,37.51396860045],[126.9477725006099,37.5133252006044],[126.9460374003492,37.5144054016236],[126.9430949000654,37.5130882005811],[126.9426760001494,37.513797100180795],[126.9392270009524,37.5137152002702],[126.93913020035829,37.5144439002129],[126.9383625999079,37.513099600264795],[126.9376676000766,37.5130788002582],[126.9373216005244,37.514139100150004],[126.9359292989509,37.5132229999243]]],[[[126.9251790993752,37.4837300992422],[126.92672269953,37.4837152994616],[126.9275076001344,37.4824962996729],[126.92858629935431,37.4829795989668],[126.92898819895241,37.4818833000631],[126.92813479960199,37.4812388996879],[126.930339100071,37.480520499432494],[126.93013330050199,37.4812758993674],[126.9309812003971,37.4812216997622],[126.93006610090491,37.4816297000526],[126.9316994007898,37.48176079966181],[126.9334814001693,37.4846456994736],[126.9343387004375,37.48474860002511],[126.9308991998727,37.486728300417305],[126.929214400256,37.4865326012076],[126.9287846003664,37.4875531011644],[126.9266782998137,37.4851307005373],[126.9254358993482,37.4848394999204],[126.9258868997154,37.4838198006472],[126.9251790993752,37.4837300992422]]],[[[126.9074462983658,37.4882097001243],[126.90778589902689,37.485909399432295],[126.9110645998112,37.4842913994342],[126.9147416997849,37.4837790987108],[126.915673000647,37.4854235993391],[126.91696430099701,37.485917300177995],[126.9174298006878,37.4878990991649],[126.9185523002548,37.4881037990883],[126.9190495003696,37.4896943999262],[126.9170199007259,37.489434100408396],[126.91727490015279,37.4907980002509],[126.9163728981988,37.4909209012674],[126.914175700396,37.4897921023962],[126.91173709889749,37.490430101019],[126.9111266995079,37.489685601763505],[126.9096912009434,37.490134701314396],[126.9089688997974,37.4885484017871],[126.9074462983658,37.4882097001243]]],[[[126.8220977997236,37.5609034004124],[126.8220990998026,37.5599363987494],[126.8231571998039,37.5601573988652],[126.8236002008374,37.5589572988058],[126.8266673989912,37.5580479996239],[126.8263887998218,37.5570564990563],[126.82666740082111,37.5580479994016],[126.8284504003051,37.557863699468],[126.8297860006265,37.558658699021706],[126.82985910023169,37.560323100228395],[126.82738419869649,37.563127401328096],[126.8268891997715,37.5599103002706],[126.8252009002664,37.5590973012503],[126.8225242998956,37.5612471004898],[126.8220977997236,37.5609034004124]]],[[[126.655514699138,37.427958999941],[126.6570944982227,37.427004100536095],[126.6560019989785,37.426446600272996],[126.6572142993799,37.4262132991581],[126.65671249932329,37.4249361995782],[126.66146070069041,37.424013697812406],[126.6614854006233,37.4254087985491],[126.66382760106791,37.4257442995604],[126.6641333008271,37.428086600375],[126.6607648999601,37.4302016001947],[126.6594783997522,37.4295766004241],[126.65888150034911,37.428223501777204],[126.6565841003441,37.4293094013972],[126.6570182998045,37.4285802001296],[126.655514699138,37.427958999941]]],[[[126.849816998782,37.5223877001046],[126.8504701995767,37.521174899711696],[126.85001539997161,37.5200888992853],[126.8520261987648,37.519397299954],[126.853042299647,37.517992999341196],[126.8534645999935,37.5189630989559],[126.8536598999888,37.517434698983806],[126.8544558001905,37.517602499855805],[126.85610640109,37.5209282988079],[126.85544970110689,37.522418800122495],[126.8543502998037,37.5228680001302],[126.8527284004772,37.5221113005189],[126.852246099769,37.5230478004324],[126.849816998782,37.5223877001046]]],[[[126.91101279972449,37.5486673996247],[126.91323609986341,37.547519099549504],[126.9157372004719,37.5484750993242],[126.91561550009,37.551034700919004],[126.91263599941581,37.5514686003347],[126.91101279972449,37.5486673996247]]],[[[126.9405079987602,37.4827394007445],[126.9396919995762,37.4824510010329],[126.9405679996989,37.4809246995063],[126.94149429970851,37.4811634997821],[126.9420168999369,37.4802786992704],[126.943811401201,37.4822240005727],[126.9424203001982,37.4836125002772],[126.94170009995041,37.482514701076305],[126.941163799579,37.4836305003458],[126.9405079987602,37.4827394007445]]],[[[126.8404703992927,37.6126993003447],[126.8465860012044,37.612783898400494],[126.8446070002357,37.6145711008251],[126.8431412999161,37.6147840002997],[126.8418810998992,37.6143919002397],[126.8418099991756,37.6127236003518],[126.8404703992927,37.6126993003447]]],[[[126.65554239858051,37.602842000272204],[126.6567374986481,37.602455099934],[126.65570169961279,37.6013495992943],[126.65673750036771,37.6024550986288],[126.6582046996299,37.60227179970639],[126.6586398002499,37.6008870995853],[126.6596548003411,37.6011963998412],[126.65885370107779,37.6015693009064],[126.6597185009779,37.6028320999132],[126.6589647005417,37.6035108009145],[126.65673749910131,37.6024551008006],[126.65554239858051,37.602842000272204]]],[[[126.7367959989657,37.3888969004075],[126.7437700986551,37.3867634983023],[126.7430684011126,37.3891821974127],[126.74659360143589,37.390976099385206],[126.7457777036262,37.391928702880904],[126.7457982973979,37.3910737003131],[126.7435180995339,37.389761401539594],[126.7423741006779,37.3902785010225],[126.7392907003508,37.3958472019413],[126.7395091965883,37.390601800931],[126.7367959989657,37.3888969004075]]],[[[126.8260830989319,37.5669705998158],[126.82763369853441,37.566568100253896],[126.8263478983339,37.5653710003535],[126.8273317002659,37.5652742992509],[126.8282860006491,37.5681112986761],[126.8297099017876,37.5681189023231],[126.8281055985124,37.569302800177006],[126.8278984985476,37.5681498001678],[126.82643909994201,37.5682617000603],[126.8260830989319,37.5669705998158]]],[[[126.8354023985712,37.5587955001197],[126.8366954990519,37.5586777994927],[126.83682129967299,37.5565395993094],[126.8387005007051,37.5574106998371],[126.8389219004965,37.5584457988878],[126.8403215015864,37.558301899979696],[126.8378975993824,37.559894901027604],[126.83671989876241,37.5587992007272],[126.8354023985712,37.5587955001197]]],[[[126.78461159869781,37.408835000890505],[126.785602099282,37.408161699488204],[126.7852239007596,37.406120399208],[126.78748279969321,37.4076733975984],[126.7890921982036,37.4072399980393],[126.7897913997617,37.4060282994007],[126.7901859010649,37.4064596999187],[126.78850610203321,37.4097750007203],[126.7891666992342,37.4111162037422],[126.7877495996884,37.4095448037193],[126.78461159869781,37.408835000890505]]],[[[126.9638774991209,37.5299852000761],[126.96534529932539,37.527851998779006],[126.9667195002657,37.5287615997267],[126.966484200038,37.5294590001276],[126.9647861003199,37.529175101678106],[126.9644599006016,37.5304383004531],[126.9638774991209,37.5299852000761]]],[[[126.8895924993177,37.4664170005173],[126.8905858993657,37.4666596989247],[126.8919992003914,37.4650176979046],[126.8933425001933,37.465350999022895],[126.8933655009748,37.4665262992672],[126.8947341011759,37.4665073999837],[126.8933655004675,37.466526300796296],[126.8927718004486,37.4678859008048],[126.8912102004642,37.4681349022592],[126.89008839924189,37.467821301770094],[126.8895924993177,37.4664170005173]]],[[[126.7360554997518,37.3629570997388],[126.73698109945579,37.362813099933],[126.737397199732,37.361424199997],[126.7368580994638,37.3612217990916],[126.7382228007134,37.3617872001658],[126.7383399006126,37.3623172004726],[126.7360554997518,37.3629570997388]]],[[[126.9216726987113,37.4037876022685],[126.9230705987453,37.403286299314395],[126.92279189966811,37.4023903999396],[126.92376989918729,37.4011794994222],[126.9244101995437,37.4019991994823],[126.925140000159,37.4014868995477],[126.9234068999222,37.4035323011756],[126.9216726987113,37.4037876022685]]],[[[126.9517914987301,37.4814213000093],[126.9525497991197,37.480436899824504],[126.9539127011634,37.4808977002553],[126.9531411011065,37.4820387004501],[126.9517914987301,37.4814213000093]]],[[[126.92377769862401,37.5569611003446],[126.9250274994776,37.556230399471396],[126.92516120055271,37.557646400438806],[126.9243420003597,37.5570155007888],[126.9236415997342,37.5574791009117],[126.92377769862401,37.5569611003446]]],[[[126.82238739882949,37.6108194999885],[126.8237868978099,37.6090605006529],[126.8226096001477,37.608137399132694],[126.8247127027282,37.609071998294596],[126.82447450327989,37.6108660019965],[126.82238739882949,37.6108194999885]]],[[[126.9386369006186,37.504620101365894],[126.9380204994997,37.5048081006347],[126.93930880033031,37.5041533992333],[126.9408649004254,37.5051339007753],[126.93957160033,37.5059479009178],[126.9386369006186,37.504620101365894]]],[[[126.8163424977767,37.6166111989969],[126.8185485968171,37.6159185987534],[126.8170568007342,37.6128971994425],[126.8185485992424,37.6159185964211],[126.8207984012859,37.6151991974693],[126.8209278014731,37.6178818007136],[126.8199541981967,37.6186806014545],[126.8163424977767,37.6166111989969]]],[[[126.97142499986029,37.541779899878705],[126.9717244996067,37.5409645984519],[126.97292900036199,37.5410891993023],[126.97142499986029,37.541779899878705]]],[[[126.836319999307,37.5492730996622],[126.837325800208,37.549269899999295],[126.835670799512,37.5493607000025],[126.836319999307,37.5492730996622]]],[[[126.7294048987472,37.3948002994493],[126.73157890147161,37.395218900227405],[126.7307436994477,37.395803100038705],[126.73099649870561,37.3947017003564],[126.7294048987472,37.3948002994493]]],[[[126.7692978981682,37.6023859007685],[126.770436500381,37.602264998929],[126.770494600697,37.6031835002392],[126.7692978981682,37.6023859007685]]],[[[126.93294749987919,37.5273368000924],[126.9333536002722,37.527027599730296],[126.93334629994389,37.527327400297395],[126.93294749987919,37.5273368000924]]],[[[126.845834199281,37.5318777005831],[126.8464103995546,37.5311236994036],[126.84751460039159,37.5315363001489],[126.8462705003632,37.5325064005171],[126.845834199281,37.5318777005831]]],[[[126.8686085995716,37.6030171992581],[126.8691802000519,37.603087299882596],[126.8692774000343,37.6030001000629],[126.8691801999586,37.603087300291996],[126.8686085995716,37.6030171992581]]],[[[126.9330028997703,37.4782063996313],[126.9338304001255,37.4779498996283],[126.9340720004502,37.478591099748705],[126.9330028997703,37.4782063996313]]],[[[126.8063002982466,37.381449501051705],[126.8069316002312,37.380484099350795],[126.8077688005707,37.3817741001254],[126.8063002982466,37.381449501051705]]],[[[126.9630740988896,37.5319967010122],[126.96358640045659,37.5315945997273],[126.9636298004564,37.5317383001416],[126.9630740988896,37.5319967010122]]],[[[126.663354398335,37.5424133980206],[126.66344500085239,37.541262599161406],[126.6635732009754,37.5424062008719],[126.663354398335,37.5424133980206]]],[[[126.8931165998893,37.4562944996894],[126.893205500051,37.455841199481604],[126.8935179003178,37.455934399818695],[126.8931165998893,37.4562944996894]]],[[[126.9279384990858,37.4894362000889],[126.9280793995119,37.4891743991823],[126.92777239992799,37.4896546004345],[126.9279384990858,37.4894362000889]]],[[[126.68115069927781,37.584569199916196],[126.68170309855559,37.5834177996385],[126.68205450121951,37.5833196988825],[126.6817031007043,37.5834178015326],[126.68115069927781,37.584569199916196]]],[[[126.7941893989522,37.5812612022843],[126.7945550998201,37.58102679905419],[126.79463230180791,37.580977399667205],[126.7941893989522,37.5812612022843]]],[[[126.93352779832799,37.5148927987982],[126.934431300948,37.5148958002895],[126.93352779961499,37.5148928019365],[126.93352779832799,37.5148927987982]]],[[[126.7503030991243,37.5519934999666],[126.7508668004228,37.552154700083705],[126.7505869006495,37.5523247026965],[126.7503030991243,37.5519934999666]]],[[[126.84313349987559,37.6154290999452],[126.8431996998577,37.6154290996546],[126.8432659004804,37.615431899755094],[126.8431997000001,37.615429100066],[126.84313349987559,37.6154290999452]]],[[[126.6699063997181,37.5984292001787],[126.6700516997487,37.5982730992886],[126.6701797006355,37.5982849998491],[126.6699063997181,37.5984292001787]]],[[[126.7464446994278,37.380774100084594],[126.7464446998767,37.380774098363496],[126.7464446991565,37.3807741026113],[126.7464446994278,37.380774100084594]]],[[[126.74911879897141,37.5439419000599],[126.7496048996043,37.54372089959929],[126.7496049013122,37.543720900154696],[126.74911879897141,37.5439419000599]]],[[[126.6238179000977,37.4135481012789],[126.6238527007418,37.4134805981233],[126.6238527020975,37.4134806003316],[126.6238179000977,37.4135481012789]]],[[[126.66510080294431,37.5683597009172],[126.66512760011071,37.568667000538895],[126.66510079947561,37.5683596985629],[126.66510080294431,37.5683597009172]]],[[[126.6751437984063,37.4356679995823],[126.67551830040149,37.4356991003449],[126.6751437988234,37.435668000831],[126.6751437984063,37.4356679995823]]],[[[126.8128106998163,37.631237599904],[126.8128107005889,37.6312375998565],[126.812810699896,37.631237600892],[126.8128106998163,37.631237599904]]],[[[126.9084086985598,37.4192983004453],[126.9084087006254,37.4192982996896],[126.9084086991395,37.4192983012857],[126.9084086985598,37.4192983004453]]],[[[126.6429955987258,37.5951605017202],[126.6429955974815,37.595160499215396],[126.6433235002808,37.595168300175295],[126.6429955987258,37.5951605017202]]],[[[126.7493289959998,37.3794835983953],[126.74932900026201,37.3794835863698],[126.7493290054216,37.379483598929504],[126.7493289959998,37.3794835983953]]],[[[126.8941494995637,37.4561229004393],[126.8941494997781,37.456122899848395],[126.89414950038329,37.4561229002753],[126.8941494995637,37.4561229004393]]],[[[126.62645189966591,37.5562262995041],[126.626451900483,37.5562262989615],[126.6264519009984,37.5562263030048],[126.62645189966591,37.5562262995041]]],[[[126.8089474995713,37.6317545998859],[126.808947500683,37.6317546001694],[126.80894749988221,37.6317546011367],[126.8089474995713,37.6317545998859]]],[[[126.87707419977039,37.5173539000128],[126.8770742000944,37.5173538998052],[126.8770956001275,37.517412200241004],[126.87707419977039,37.5173539000128]]],[[[126.6623826994195,37.4413064007096],[126.6623826994742,37.441306399766106],[126.6623827008503,37.4413063992418],[126.6623826994195,37.4413064007096]]],[[[126.66249639936049,37.440805900266604],[126.66249639961809,37.4408058993095],[126.6624964007366,37.4408058997423],[126.66249639936049,37.440805900266604]]],[[[126.7391375995634,37.515373500455304],[126.73913760037,37.5153734994224],[126.7391376004311,37.5153735002891],[126.7391375995634,37.515373500455304]]],[[[126.74747989921771,37.383724401085196],[126.7474799005506,37.3837243971167],[126.7474799026299,37.3837244000055],[126.74747989921771,37.383724401085196]]],[[[126.79677799964891,37.5812023000949],[126.7967780001816,37.5812022991959],[126.79677800029211,37.5812022999719],[126.79677799964891,37.5812023000949]]],[[[126.79961509836299,37.4571772986951],[126.7996151007209,37.4571773001601],[126.7996150984048,37.4571772999086],[126.79961509836299,37.4571772986951]]],[[[126.8774791002421,37.5178797999053],[126.8774791004433,37.5178798009114],[126.87747909974401,37.517879799773404],[126.8774791002421,37.5178797999053]]],[[[126.7480424990348,37.5442830994685],[126.7480425007545,37.544283100364304],[126.7480424993483,37.5442831003803],[126.7480424990348,37.5442830994685]]],[[[126.8110299996485,37.631629999831404],[126.8110300009419,37.6316299991838],[126.8110300009458,37.631630000399],[126.8110299996485,37.631629999831404]]],[[[126.8412728997323,37.568494100118805],[126.84127290064491,37.5684940996298],[126.84127290089461,37.5684941005436],[126.8412728997323,37.568494100118805]]],[[[126.8601039987472,37.4686340997741],[126.86010399970141,37.4686340991853],[126.86010400152361,37.4686341002442],[126.8601039987472,37.4686340997741]]],[[[126.9182696991753,37.4951661000079],[126.9182697012101,37.4951660995941],[126.9182697000919,37.4951661011217],[126.9182696991753,37.4951661000079]]],[[[126.92363859972001,37.5229106002972],[126.9236386001951,37.522910599795004],[126.92363860029491,37.5229106001803],[126.92363859972001,37.5229106002972]]],[[[126.9241703991323,37.4928687001294],[126.9241703998534,37.4928686994173],[126.924170401342,37.4928687012031],[126.9241703991323,37.4928687001294]]],[[[126.9241563995398,37.4005790999448],[126.9241563998127,37.4005790988962],[126.9241564007365,37.400579099756],[126.9241563995398,37.4005790999448]]],[[[126.9331302994139,37.517244600701],[126.933130300485,37.517244599649196],[126.9331302998123,37.517244600945695],[126.9331302994139,37.517244600701]]],[[[126.9398423998435,37.5146865000027],[126.9398424001627,37.5146865000014],[126.9398424000863,37.5146865001796],[126.9398423998435,37.5146865000027]]],[[[126.6629206999299,37.5297959000232],[126.6629207000521,37.5297958999527],[126.6629206999782,37.529795900075605],[126.6629206999299,37.5297959000232]]],[[[126.74831749936929,37.547066899841795],[126.748317501276,37.5470669005621],[126.7483174995996,37.5470669005337],[126.74831749936929,37.547066899841795]]],[[[126.7900144994273,37.528408599395895],[126.7900145003263,37.5284085997113],[126.7900144999993,37.5284086005336],[126.7900144994273,37.528408599395895]]],[[[126.7964663996663,37.581487200495],[126.7964663999605,37.58148719981],[126.7964664003036,37.581487199984394],[126.7964663996663,37.581487200495]]],[[[126.8058076992625,37.3827502998497],[126.8058077004964,37.3827502991265],[126.8058076996324,37.3827503015227],[126.8058076992625,37.3827502998497]]],[[[126.8822595998431,37.501797100028895],[126.882259600132,37.5017970998831],[126.8822596000262,37.501797100092],[126.8822595998431,37.501797100028895]]],[[[126.8050489988508,37.536528800515896],[126.8050490001413,37.5365287996656],[126.805049000146,37.5365288001171],[126.8050489988508,37.536528800515896]]],[[[126.93809159965261,37.513465199871796],[126.93809160005921,37.5134651999806],[126.9380915997544,37.5134652008239],[126.93809159965261,37.513465199871796]]]]}}]}