{"type":"FeatureCollection","features":[{"type":"Feature","properties":{"interval":15,"stationId":"5902086886"},"geometry":{"type":"MultiPolygon","coordinates":[[[[126.7175549988367,37.4907487003295],[126.7272813993785,37.4902915984892],[126.72886389898709,37.4897146990105],[126.7293593993529,37.4877305994903],[126.7294742014508,37.4887654995514],[126.7304271004979,37.4893893989275],[126.7309839003747,37.4888996999743],[126.7309264004322,37.4900394988345],[126.73204340019569,37.4896629991324],[126.7335470994699,37.488699499829906],[126.7335256993564,37.486407200048],[126.73479989866149,37.486356399265595],[126.7355450994848,37.483683299984804],[126.7369176983713,37.482430798386005],[126.7392657013436,37.482729496953496],[126.7415644000222,37.4817653977334],[126.7448403978709,37.481684298074796],[126.74495280056269,37.4826785989556],[126.7457871004156,37.4819111996298],[126.7478633001463,37.484600098806204],[126.7488267014204,37.4832290993982],[126.74610490170811,37.485896500468805],[126.7466037012093,37.487180699184606],[126.7451614013789,37.487946000764],[126.74410420205409,37.4907021996406],[126.74592010023821,37.4916373987054],[126.7469631995704,37.4914657987217],[126.74793479859879,37.4897961003914],[126.7467396998006,37.4889198997901],[126.7476326010164,37.4883577989969],[126.7493532993405,37.4887879987097],[126.75017819956709,37.485734400192],[126.7495368985652,37.485172899721],[126.7506627011528,37.487015799637],[126.75488160039751,37.4884575999836],[126.7535121002652,37.4887110002592],[126.7537688000525,37.4896829005405],[126.7503383001942,37.4925297002112],[126.7494037000121,37.4915948004216],[126.7479400003276,37.4916100007011],[126.7475498007248,37.493139599608696],[126.748172200161,37.494285700055],[126.7470169999332,37.4934017005685],[126.7455811004642,37.4941841024308],[126.7440242020211,37.495477901137],[126.7442280010454,37.4973421000231],[126.7432895009654,37.4973131001721],[126.7431959002421,37.4983339019716],[126.7408882984946,37.496922400582704],[126.741768598128,37.4954247001182],[126.7410706988259,37.494822200720705],[126.74002999966011,37.4952137003376],[126.739578100112,37.4942244013269],[126.73740940021641,37.4941181007498],[126.7374980003668,37.4950713003686],[126.7365710007608,37.4954039001156],[126.7369101997538,37.4962007003511],[126.7353082998213,37.4943546006607],[126.7320843994422,37.4939695008906],[126.72870179993079,37.4920970009598],[126.72670359999859,37.494184600314696],[126.7257172999173,37.493498800781694],[126.7250150003361,37.4945261002402],[126.72275860073151,37.4947560003516],[126.723352100138,37.4961069990006],[126.7245149998795,37.4964250992289],[126.725172699504,37.495756299472],[126.7259008003237,37.4970422999795],[126.7257926000661,37.499328400715704],[126.72515050010429,37.4990183010649],[126.7226165002774,37.5015706008677],[126.72110279987369,37.5014494009197],[126.7212391994394,37.5004567009584],[126.71895639720489,37.499377200644],[126.7191120971346,37.4979712987365],[126.7205551985633,37.4977582998514],[126.72060139948461,37.496177099810794],[126.721857199925,37.495958499871904],[126.72213069921449,37.4939669005029],[126.7204444995448,37.4933943004102],[126.720604599354,37.4926640005285],[126.719646799621,37.4927828002412],[126.7187191995065,37.491154500305804],[126.7179569999981,37.4914598001517],[126.7175549988367,37.4907487003295]]],[[[126.7187970996639,37.5082942002039],[126.7194558999399,37.5061598994891],[126.7206580993761,37.5060851996489],[126.7201866002477,37.5056284990445],[126.7226732000681,37.506859299648504],[126.7227899000449,37.507376900843894],[126.7216245000119,37.5068403007313],[126.7187970996639,37.5082942002039]]],[[[126.7010288990862,37.4719025000228],[126.7012854997873,37.4705783996354],[126.7023123999594,37.4700143992375],[126.70235490028,37.4709783999151],[126.7039405006014,37.4709992999064],[126.70277020044891,37.472567900658504],[126.7010288990862,37.4719025000228]]],[[[126.70851409938331,37.4838820999212],[126.71008069917771,37.482478399261495],[126.7106721002238,37.4835746991633],[126.7117968003329,37.483738899124695],[126.71096540085591,37.4840094999459],[126.71116570162509,37.4856385997589],[126.7105017003548,37.4863201004688],[126.71045079936701,37.4842194009577],[126.70851409938331,37.4838820999212]]],[[[126.72084549794269,37.5165200001099],[126.722015600291,37.5166315000785],[126.7215187000935,37.5169201009827],[126.72084549794269,37.5165200001099]]],[[[126.7061109997615,37.481758900781806],[126.7061110008688,37.4817588987742],[126.70611100149131,37.4817589007108],[126.7061109997615,37.481758900781806]]],[[[126.6942054995877,37.4643808008901],[126.6942055000643,37.464380799942],[126.6942055003735,37.464380800457],[126.6942054995877,37.4643808008901]]],[[[126.7095549983693,37.4811676992191],[126.7095549998336,37.4811676991609],[126.70955500014989,37.4811677000871],[126.7095549983693,37.4811676992191]]],[[[126.71838839945349,37.4854235997404],[126.71838840055939,37.485423600252695],[126.718388400265,37.4854236007879],[126.71838839945349,37.4854235997404]]],[[[126.7331727995904,37.4848828007779],[126.7331728000784,37.4848827997037],[126.73317280028651,37.4848828007223],[126.7331727995904,37.4848828007779]]]]}},{"type":"Feature","properties":{"interval":30,"stationId":"5902086886"},"geometry":{"type":"MultiPolygon","coordinates":[[[[126.6370319997756,37.4702845996043],[126.63759789912551,37.4677492002913],[126.6387684989498,37.4668837001436],[126.6383502990962,37.4665067999643],[126.6391584002887,37.4682873981493],[126.6410404984066,37.4675592988774],[126.64015789897951,37.4653359995452],[126.6421655983222,37.4650933996359],[126.642112499606,37.4645758994077],[126.643381000861,37.464949000252794],[126.64272630151571,37.4671784980233],[126.6452972993713,37.4660908989866],[126.64832489998311,37.4686694994387],[126.65068029859431,37.4680737994155],[126.6511070003054,37.4669790986513],[126.6533990009051,37.4669767992469],[126.6535878007163,37.4678033984203],[126.65555819874591,37.466984699239],[126.6606927992406,37.467562898754],[126.6622219998955,37.466546899525895],[126.6636617993416,37.4671590986498],[126.6641667988366,37.4667043991045],[126.6635748994754,37.4644321993109],[126.6679547993791,37.4615853998807],[126.6680506997991,37.4603361987073],[126.6697367000273,37.460130999021],[126.6704960995516,37.4612515987454],[126.67036539939859,37.4598600992919],[126.67140830040259,37.4615250986906],[126.6724437993671,37.4614840987316],[126.6725563998808,37.460121199456005],[126.6733337000595,37.4608348991786],[126.673916800586,37.4604169995653],[126.67342950142219,37.4612051998226],[126.6756339003189,37.463315799390095],[126.6756770007499,37.464267699569604],[126.6763870013324,37.4642327999344],[126.6750722008977,37.4651785000839],[126.6757133002566,37.466634398627995],[126.67707259941331,37.4656319994358],[126.6771848009856,37.4665279987886],[126.6815899996482,37.4653956991676],[126.68280229940541,37.462957499726],[126.6840519993567,37.4629205995605],[126.684019399158,37.4620406997884],[126.68405200040769,37.462920599435094],[126.6859686987645,37.462273699493096],[126.68586879965609,37.4599200001596],[126.6874832983482,37.4593400000147],[126.6877640999282,37.458006999169],[126.6894360000809,37.4571573988531],[126.6914845997426,37.4577606998894],[126.69155599996641,37.4570020978819],[126.69299289994979,37.4572322996815],[126.6950548998858,37.4557127990032],[126.6993190997743,37.4546602987604],[126.6994514996419,37.453567799852905],[126.70018219920681,37.4534428997356],[126.6999980996296,37.4522332003545],[126.6992960994594,37.4521003000298],[126.6992049995505,37.451043601086496],[126.69812409956751,37.4511051010836],[126.697972299105,37.4492470000546],[126.6994798993735,37.4485266996405],[126.6986553994713,37.4467528989884],[126.7012684998938,37.4455485992095],[126.70238690086079,37.4475519989206],[126.7037558999459,37.447105999323895],[126.7044184999685,37.4474981991254],[126.7040643006344,37.4480194997416],[126.7064786002572,37.4491269994748],[126.7044177009538,37.4499178005043],[126.7044805001827,37.4510274010628],[126.70400479981981,37.449942001483],[126.7026372011874,37.4515822998427],[126.70335490055149,37.453260798872606],[126.7047561001399,37.4532416997505],[126.7045877005192,37.4538424995921],[126.7065973017157,37.4551626995125],[126.70567630088439,37.457383998922595],[126.70999000149341,37.456809997665694],[126.7079445003907,37.456932700467604],[126.70750550041859,37.4578441004234],[126.70572730131991,37.4582037002004],[126.70546790031331,37.4603101992182],[126.708409799255,37.4604219993272],[126.7085073001017,37.4589901986307],[126.7092219005949,37.4604701985536],[126.71086150057809,37.460558899070804],[126.7107783006506,37.461496599092996],[126.7124589000382,37.4611296995269],[126.7123955006553,37.4619745991837],[126.7145475000729,37.4617075990319],[126.71536680104529,37.46273269948539],[126.716806100227,37.4627322000313],[126.7157469009195,37.4642690003621],[126.71637200027921,37.466276899881194],[126.7123176049602,37.4699876008263],[126.71212640515141,37.4721184986954],[126.71904910066331,37.4726692997174],[126.7180950009254,37.4727869001874],[126.718423400597,37.4740754988988],[126.719232300621,37.473297799714196],[126.7207116001645,37.475735700114605],[126.71994150093461,37.476533099317194],[126.7196117017151,37.4806764961976],[126.7256982001047,37.480342499077196],[126.72860779947541,37.481677498422904],[126.7296070020076,37.480636493101905],[126.733251201073,37.4845864988864],[126.7351730991511,37.4850967983761],[126.7350298991188,37.4836680994551],[126.7369176983713,37.482430798386005],[126.73580559732841,37.4803955941563],[126.74055849955751,37.4795014971237],[126.7419463981696,37.478076698548506],[126.740419998956,37.475267000669405],[126.7413812979299,37.4735282967265],[126.7471901996482,37.4783197947436],[126.7515258987261,37.476608496069595],[126.751813702681,37.4755842971572],[126.7530694002112,37.4783569998854],[126.755559800516,37.478434400184696],[126.75426110095519,37.4787671008578],[126.7535606017038,37.4807383998245],[126.7569391986317,37.4813125991703],[126.7597093000765,37.479870996749604],[126.762158799683,37.4804185992922],[126.7652546002364,37.4797672998806],[126.7649318005592,37.480688198959704],[126.7666459005654,37.480973598656895],[126.7682868003545,37.482376297840496],[126.76931760082479,37.4865678989261],[126.7714938005618,37.485750399665],[126.7731438006909,37.486626299902994],[126.7699485002081,37.489248800229],[126.7701435009393,37.4901362007795],[126.768472601854,37.4909210000223],[126.7689642014234,37.4921478004551],[126.7668232009803,37.4924532008666],[126.76718530009609,37.494179700458496],[126.7639196009595,37.492253200844104],[126.75840100034641,37.499047699955696],[126.7572600003661,37.4983138006029],[126.756592101034,37.499177699739],[126.7571513013182,37.5000821001566],[126.7552214996399,37.5001149002858],[126.75659209928881,37.4991777001568],[126.7562937994385,37.4980583006359],[126.7541421004506,37.4985695002764],[126.7548955004419,37.500585300412496],[126.75386620087761,37.5019268995115],[126.7548199005915,37.501800099546294],[126.7550303003956,37.503075199536895],[126.7566886003971,37.5028588997928],[126.75600390075499,37.503291099714296],[126.75780490011469,37.5035623992836],[126.7580431003461,37.504444099523404],[126.7594713001352,37.5040909999341],[126.7589751010281,37.5051878997723],[126.7596367003204,37.5060970001816],[126.75740370098019,37.508324900149795],[126.7555647005953,37.5079195008112],[126.7562975005069,37.509208700080706],[126.7552160001351,37.5103680006597],[126.7539045004215,37.50952440057009],[126.7532603010657,37.510082000012495],[126.7541697003905,37.5107992003242],[126.7516226999787,37.5098321006898],[126.7512570000103,37.507940400681406],[126.7502096997206,37.5088644005583],[126.7489375994117,37.5082168019849],[126.74971269894141,37.5072011001616],[126.7473958986901,37.5071881006184],[126.74671539955929,37.505392101276804],[126.74546740011449,37.5051018016687],[126.7432975006786,37.506791200002205],[126.7422829001382,37.506490500277096],[126.7420560003859,37.507269699672605],[126.7440905008109,37.508104199855296],[126.74311940114839,37.5091119000025],[126.7436201008256,37.5103274990891],[126.7446948001939,37.5095937997941],[126.7455193003281,37.5105797999893],[126.7447695999816,37.5103175005248],[126.7439530997913,37.511148000336],[126.7416101002028,37.5101583004286],[126.7414419998494,37.5106932004988],[126.7412555992592,37.5100536005154],[126.73930490037279,37.5108575007728],[126.7377512000843,37.5095302008474],[126.7376736997962,37.510300300507495],[126.7364716009983,37.510096500711306],[126.7359648011912,37.5114251007091],[126.7352416001211,37.5107736007195],[126.7342984002212,37.511235600276],[126.7339524005672,37.5117099998016],[126.7349040005338,37.5124127999004],[126.7343926999808,37.5131036000628],[126.7334294002039,37.5122504002794],[126.7330945004449,37.5141204998618],[126.7339258008835,37.514741999322695],[126.7343007003201,37.5170502990468],[126.7354529008146,37.5169585987652],[126.73470810016711,37.51701770085349],[126.7344620006227,37.518978199025],[126.735524700118,37.5189561012826],[126.73446200118069,37.5189782012605],[126.73261520098829,37.5206487001877],[126.7313504000396,37.5227529032201],[126.73010929981879,37.5221156998347],[126.7308579990701,37.5219581999922],[126.73050759942049,37.520650501299905],[126.7290629008652,37.5210453009051],[126.72996899969439,37.5227406013265],[126.7294058990041,37.521912501058296],[126.72782460058541,37.5218002011706],[126.7271639006936,37.5227156006306],[126.7275013003418,37.5259451986377],[126.7284390994993,37.5246931998348],[126.7296997996232,37.5252103993681],[126.7295401001346,37.5245678996301],[126.7298517013074,37.526941199316504],[126.732348900004,37.526546499843505],[126.733371100727,37.528068499497806],[126.7341430007512,37.5280123999449],[126.7331364007268,37.528338700462],[126.7331440005882,37.529499799876504],[126.7350895013159,37.5298095995249],[126.73401220059519,37.5306184004257],[126.7340214007277,37.532049900333696],[126.73217650133499,37.5354024998803],[126.7326873011709,37.538593999593004],[126.7344385999653,37.5389853993385],[126.7348750005571,37.540000699196],[126.73709600003649,37.5401350999387],[126.7377792997194,37.5410664992417],[126.7391075001377,37.5398428998209],[126.74006080029599,37.541206998096],[126.7413165006321,37.5411850999561],[126.74049669945849,37.541820200506194],[126.7393935002849,37.5411598007105],[126.73937770036021,37.542613599727204],[126.7413508997851,37.5434638993312],[126.742023601157,37.5418624992046],[126.7442635008121,37.5437021993353],[126.7422440006428,37.5439807002538],[126.7441963008615,37.5460975998971],[126.74459730086329,37.547665499629304],[126.7433541011586,37.5483717000026],[126.7445079000377,37.5497683010181],[126.7432371006799,37.550482200654095],[126.7448668995226,37.553307797779],[126.74787550058991,37.5524108968485],[126.74860250081291,37.554911700068196],[126.7467173003921,37.555465100149796],[126.74741190018891,37.5567689000196],[126.746799299993,37.557007800095],[126.7465253999178,37.5561167007221],[126.7457640998965,37.5576098010176],[126.7457072988783,37.5569937007241],[126.74323199932111,37.5569485999372],[126.7430495000019,37.5554817003283],[126.7410867992526,37.5553222009772],[126.7427901995904,37.5542465995101],[126.74099009870251,37.55142150067859],[126.7423794995925,37.5501271002537],[126.7411365997966,37.5504251000947],[126.7411509997624,37.5493624002699],[126.7404646000084,37.5499192003796],[126.7396809000801,37.549110900505],[126.73818810122481,37.550160501439294],[126.7355236998541,37.5483302007662],[126.7343716992248,37.548595400505405],[126.7333935989922,37.5475837007033],[126.7322390995479,37.548022100391094],[126.7293918004949,37.5470193013441],[126.7284314998178,37.5489906014851],[126.7277200994758,37.548096901598996],[126.7252565005404,37.5479522024743],[126.725143598866,37.5462297015415],[126.7231789002626,37.5474098003764],[126.7214718995284,37.5461227004351],[126.7191895991705,37.5463248002216],[126.7188611985654,37.544044499736096],[126.7174729999536,37.5419911017895],[126.7163479991751,37.5438298016622],[126.7174729986908,37.5419910998724],[126.71674229942151,37.5410172008463],[126.7151927994762,37.5407407003399],[126.7152517992349,37.5394241977784],[126.7169150982348,37.5380827987148],[126.7162186989312,37.5361478006498],[126.7155897995601,37.5362743005233],[126.71436659763691,37.53380559999],[126.7143791976243,37.532399601396],[126.71062829956459,37.5321485999674],[126.7096937996047,37.5302213000031],[126.7112651997638,37.5299137996953],[126.710646599767,37.5292228999213],[126.7112169999031,37.529391699131295],[126.71253989978429,37.5270204997749],[126.7132732004549,37.5283528993307],[126.71388229984579,37.527891799791796],[126.7137076989319,37.5261254999788],[126.71646229956221,37.5250677995144],[126.7163611996633,37.5239600006222],[126.7156542996868,37.5242250000828],[126.7161062972855,37.521251901340904],[126.7127442977944,37.5214651011023],[126.7126522978031,37.5200634015465],[126.71033419723311,37.5202168009706],[126.7080827994093,37.518987601389505],[126.7072052992995,37.517362899308104],[126.709541599115,37.5172209986272],[126.7097192012467,37.514611099457206],[126.7101066008385,37.5176849990233],[126.71255499839009,37.5185776981306],[126.7124529984921,37.517023499684804],[126.715662796708,37.5168263997601],[126.7161432962275,37.5145340020525],[126.71341079896001,37.5126833039032],[126.7095309985145,37.5126634005099],[126.709298997324,37.5101968020956],[126.70634510027789,37.510378401914004],[126.7056401005577,37.5123906004721],[126.7038634011856,37.512442500488795],[126.7039783000893,37.5137104009683],[126.70343179901461,37.5132620996596],[126.70380639931061,37.5118633005809],[126.701536098407,37.512038500113505],[126.7013516983483,37.5104946011661],[126.6999078997921,37.508935702725005],[126.6976319989209,37.5091516999468],[126.6976551969578,37.508322497757],[126.6981941997157,37.5090990990202],[126.6999078988967,37.508935699039],[126.7012854975191,37.507682000292704],[126.7009877985073,37.5067136978531],[126.7032792979585,37.505238199067],[126.7028944999805,37.503723599731],[126.7045610018456,37.50425849963],[126.70570380070279,37.506684797203704],[126.7073090990975,37.5065679973205],[126.7088408975657,37.5054393984491],[126.708662597744,37.503607500281],[126.7075196982105,37.5026099993477],[126.7103099992795,37.5024989992086],[126.7111647984247,37.5011865005211],[126.7095381989551,37.500840497934604],[126.7161865988625,37.499040298728694],[126.7163828980727,37.4914214015756],[126.7154633989922,37.490812002184995],[126.7098753011326,37.4910328009668],[126.7101209015135,37.4954604999813],[126.7089026008357,37.4962347006373],[126.70889729819001,37.4951899004113],[126.70661389984379,37.4949480005358],[126.7065072998011,37.493682901214505],[126.704104800201,37.493160701197695],[126.7036127993909,37.4941264012658],[126.7041047985971,37.493160700322996],[126.702881999407,37.4921762006324],[126.7041047990946,37.4931606988713],[126.7046026985967,37.492183599848396],[126.70350949949349,37.490613400367],[126.7020989000543,37.4911741003186],[126.7012013989193,37.488383502667695],[126.6984334991694,37.4882585019595],[126.7012013977439,37.488383498460095],[126.7010215983569,37.4859067996087],[126.69944489914741,37.4850746982212],[126.7012290985654,37.482369700010096],[126.7005322992622,37.480595701784104],[126.69908480013949,37.4811392005686],[126.6989814998969,37.4801199010371],[126.69729249774551,37.4800075016316],[126.6947272988008,37.477676701722004],[126.6929839005442,37.477647601751094],[126.6924158996733,37.4796802010943],[126.6906502985,37.47911000085],[126.6914095980201,37.4774380006245],[126.6905458979397,37.475723001529204],[126.69102360036189,37.4761214987877],[126.6921558992296,37.474707700201506],[126.69025579757,37.4679910002412],[126.6887012991245,37.466737301494895],[126.6869672008586,37.4674713007609],[126.6872677007333,37.469036601272606],[126.6843554013833,37.469572902019905],[126.685350500187,37.472140600194706],[126.6815717986139,37.4748002019969],[126.6802330990306,37.4709583010443],[126.6791220001417,37.4708968011058],[126.677798599607,37.4727289022556],[126.6759985995623,37.4710511010643],[126.674337400118,37.4714969019307],[126.6742760995721,37.470455400702],[126.67307129869971,37.469681100909],[126.6699824017886,37.469715100875],[126.6703462992272,37.4706858021748],[126.6680334002771,37.4705609016129],[126.6686665988684,37.4692229009318],[126.667922998856,37.468108601317],[126.6608944999456,37.4684259001439],[126.6606058002343,37.4689954995743],[126.6615681011248,37.469828200003406],[126.6596844999373,37.470568200925],[126.6589674994056,37.467984101291],[126.6540804015399,37.4683114998549],[126.6559845020636,37.4699857016261],[126.65423560058571,37.4713244018045],[126.6510649006617,37.4688082012991],[126.6508579008687,37.4699259001814],[126.6502935000575,37.4695046009354],[126.6497145996789,37.470149200369605],[126.6485576996396,37.4686671005],[126.6470033010766,37.4686244005984],[126.6441804031587,37.4720151008361],[126.64445350247149,37.472560700761605],[126.6417866994807,37.4730149003869],[126.6413767993978,37.4710264013965],[126.6402561004143,37.4705389018755],[126.63786210021851,37.4714096006276],[126.6370319997756,37.4702845996043]]],[[[126.7756350986471,37.4838765000488],[126.7775416990953,37.4828808996132],[126.7811868002072,37.4784736991578],[126.7827017997196,37.4788219989177],[126.7832999998157,37.4799624986606],[126.78474870029139,37.4793849995367],[126.7868505988069,37.481060796625805],[126.7869684009197,37.482066499284905],[126.7902596003865,37.4830636993644],[126.7936338991485,37.482925299353],[126.7947790993317,37.4795988991986],[126.79620030069009,37.4795611988776],[126.7965631014937,37.4815792995304],[126.7955235998649,37.4809800012488],[126.7950921002964,37.4825908996379],[126.798090901131,37.4833645987594],[126.8002960007226,37.482473399611806],[126.8004356006302,37.4832558998958],[126.79936480025131,37.484589200536305],[126.79598730275829,37.4853429013279],[126.79479690156829,37.4866624030408],[126.79393440014219,37.4857213010844],[126.7920486001403,37.485847200572],[126.79155179926609,37.483756300961204],[126.78923799956189,37.4826047006892],[126.7887115000756,37.4833341005895],[126.7881451004654,37.482706100647704],[126.7814085007988,37.4839021006063],[126.7794574988396,37.4832764005727],[126.7770902001149,37.4844058008975],[126.7756350986471,37.4838765000488]]],[[[126.7598411996657,37.503087000293604],[126.7614720001403,37.501699099599904],[126.7612180013288,37.5034743990795],[126.7619782005686,37.5039839985699],[126.76278409993151,37.5019298997018],[126.76293360025579,37.502643399209894],[126.764355398834,37.5023515995017],[126.7642600998319,37.5016604000139],[126.76535249995321,37.501831799727],[126.76661929983871,37.5036941992861],[126.7670475000674,37.5028007998971],[126.7675810004396,37.504918499941205],[126.7636298979615,37.5070237014955],[126.7620246992605,37.5049148011173],[126.7602720004044,37.505270700827396],[126.7598411996657,37.503087000293604]]],[[[126.6315012990747,37.4766654003053],[126.63379949975089,37.4753501994419],[126.6357422006607,37.4728609997652],[126.63640620051339,37.4740886999904],[126.6352196001842,37.4751670999787],[126.63639930096919,37.4752905999166],[126.63592050011229,37.476717100547305],[126.63527330040539,37.475964500981505],[126.63456270111601,37.4767469001991],[126.6349738004063,37.478075600779],[126.631660399852,37.4781329001785],[126.63220389941469,37.477635400460095],[126.6315012990747,37.4766654003053]]],[[[126.7743674977947,37.502049500293296],[126.7763398994112,37.502462699405],[126.7767769991475,37.5008476003853],[126.7760671999613,37.5007142985762],[126.7769658001797,37.5001496993359],[126.77848230181519,37.5038837008017],[126.7782736994864,37.502919999925304],[126.776805100955,37.502814900030394],[126.7755723004336,37.5054777007412],[126.77436729979769,37.505193400249404],[126.7749734993559,37.5049427994047],[126.7743674977947,37.502049500293296]]],[[[126.6974294992358,37.442619999619595],[126.6969813994342,37.4414651000487],[126.69838889962419,37.4405941995175],[126.6982669999887,37.4396998999171],[126.699795400649,37.4402668005036],[126.69916510069851,37.4409146998414],[126.7001839019427,37.4430524990587],[126.7019727010189,37.4432219005175],[126.7011239005821,37.444442200211],[126.6979707001434,37.4446668009881],[126.6974294992358,37.442619999619595]]],[[[126.6769942991975,37.4586694000482],[126.6799772999697,37.4561369988566],[126.67999880085621,37.4567808993366],[126.6821037999643,37.456719799363604],[126.6848399001623,37.4581797999897],[126.6826420014395,37.4590971001623],[126.68194279984141,37.4610403008161],[126.6801963994575,37.460949600842596],[126.6801370994716,37.4597647006998],[126.6789536000013,37.4601749003045],[126.6769942991975,37.4586694000482]]],[[[126.8090077986084,37.485043199547],[126.8115172006729,37.485328199342],[126.8129413002125,37.4863191994234],[126.81381620069621,37.485566500781495],[126.8135595003664,37.486522600906],[126.8113271008919,37.486458000899],[126.8107946003865,37.487500200784],[126.8110614988438,37.4869776000382],[126.809764399266,37.4865566001668],[126.8090077986084,37.485043199547]]],[[[126.69637739972481,37.433770100248196],[126.69786930329829,37.4341731990327],[126.6985918010201,37.436225102726304],[126.697057299715,37.4356376007646],[126.6967450991042,37.4361424009923],[126.6978692993733,37.434173200432895],[126.69637739972481,37.433770100248196]]],[[[126.7351777996479,37.5708045002396],[126.7373841006962,37.5707749997024],[126.7362279004151,37.5710623004112],[126.7362700012851,37.5717400026198],[126.7351777996479,37.5708045002396]]],[[[126.7621870993043,37.500588100551205],[126.76279450010969,37.5005893997863],[126.7624563002593,37.5012553003764],[126.7621870993043,37.500588100551205]]],[[[126.785906398519,37.5041337990653],[126.7862446983065,37.502904699701105],[126.7883134015928,37.503008600288],[126.7875689998843,37.5047376003229],[126.785906398519,37.5041337990653]]],[[[126.67225449963789,37.5063956006382],[126.672998799217,37.5063644993486],[126.67294949995531,37.505522899236404],[126.67303660082611,37.5070101008397],[126.67225449963789,37.5063956006382]]],[[[126.69823569948569,37.427486099234706],[126.6990188002149,37.4271579001095],[126.69903980019019,37.4274355011809],[126.69823569948569,37.427486099234706]]],[[[126.6171225996357,37.475303600282395],[126.6175095004276,37.4756061999828],[126.6173787999994,37.475966201039405],[126.6171225996357,37.475303600282395]]],[[[126.7441940996774,37.5119431998862],[126.74493249957311,37.511855099749596],[126.7449052004039,37.511702999801095],[126.7449325003203,37.5118551015764],[126.7441940996774,37.5119431998862]]],[[[126.7422282995841,37.5659115013617],[126.742457599994,37.564070599846],[126.7422331022033,37.566581600559296],[126.7422282995841,37.5659115013617]]],[[[126.6991168995185,37.4266694000693],[126.699202500497,37.4267787001377],[126.6992220000117,37.4270578002096],[126.6992024998964,37.426778700286],[126.6991168995185,37.4266694000693]]],[[[126.6845916987366,37.4836154989618],[126.6845917017514,37.4836154984654],[126.6849601005151,37.4839396001766],[126.6845916987366,37.4836154989618]]],[[[126.7398868998185,37.5130623999266],[126.7400482996238,37.5128683999271],[126.740048300761,37.512868399360904],[126.7398868998185,37.5130623999266]]],[[[126.7974130995234,37.5055261000362],[126.7977905002254,37.5057335999397],[126.7974749000487,37.5058274002379],[126.7974130995234,37.5055261000362]]],[[[126.6751657990568,37.5062756006916],[126.6751657999188,37.5062755994279],[126.6751658001827,37.5062756006509],[126.6751657990568,37.5062756006916]]],[[[126.7433854992441,37.512095400205],[126.7433960004755,37.512093899735504],[126.7433960006077,37.5120939002536],[126.7433854992441,37.512095400205]]],[[[126.779710799609,37.5025898993871],[126.7797108002831,37.5025898991702],[126.77971080059301,37.502589900682196],[126.779710799609,37.5025898993871]]],[[[126.7421865991274,37.5566963011779],[126.7421865984259,37.556696299747095],[126.7421865999952,37.5566962997299],[126.7421865991274,37.5566963011779]]],[[[126.8233969993772,37.4924949998434],[126.8233970001536,37.492495000213495],[126.8233969995267,37.4924950005928],[126.8233969993772,37.4924949998434]]],[[[126.67728739981379,37.5061955998807],[126.6772874004969,37.5061956006438],[126.67728739986279,37.5061956006752],[126.67728739981379,37.5061955998807]]],[[[126.73985369889729,37.555713999827205],[126.7398537006707,37.5557139994197],[126.7398537004857,37.555714000585404],[126.73985369889729,37.555713999827205]]],[[[126.67834019971549,37.5061685998701],[126.6783402001183,37.5061685994479],[126.6783402002482,37.506168599988705],[126.67834019971549,37.5061685998701]]],[[[126.6963671998938,37.442440499854996],[126.6963672002981,37.4424404997991],[126.6963671999532,37.4424405002598],[126.6963671998938,37.442440499854996]]],[[[126.8246981003475,37.4928490999504],[126.82469809997441,37.4928491000733],[126.8246980999302,37.492849099846104],[126.8246981003475,37.4928490999504]]]]}},{"type":"Feature","properties":{"interval":60,"stationId":"5902086886"},"geometry":{"type":"MultiPolygon","coordinates":[[[[126.59591279894079,37.4716487973503],[126.5959625995036,37.4705960992851],[126.5977674012794,37.4699799997554],[126.5995312013771,37.473491096581796],[126.6020059005416,37.4750224974776],[126.6033057992417,37.4748797976203],[126.6046631978843,37.473010099490004],[126.6037576987898,37.4712254012747],[126.60462940710099,37.4676281933841],[126.6038935008973,37.4710378996637],[126.6078988068512,37.4731175940311],[126.6066388018416,37.476396999780896],[126.6085507999296,37.4771663990115],[126.6091098005011,37.4764416973127],[126.6125614982934,37.477176696920104],[126.6158782988717,37.4737262934224],[126.6159017004163,37.474987998495706],[126.6209793981205,37.4681839986647],[126.62232670149601,37.468347795246196],[126.6256161982065,37.4658218977721],[126.625901001211,37.464801796854594],[126.62985839759091,37.4643637978252],[126.63148819596111,37.4607782014108],[126.62869669841531,37.4587163029401],[126.6298942979198,37.458031597879796],[126.6276667001474,37.4541069018045],[126.6220789955661,37.455234304456],[126.6251624967768,37.454307996303],[126.6258300961092,37.451795398815605],[126.62366309817381,37.4498338006278],[126.6243882995801,37.4495439993657],[126.6242763996994,37.4486851994975],[126.6253839985918,37.4490895990931],[126.6275627983085,37.448212197406],[126.6281707998782,37.4497112980188],[126.62900309979261,37.4476328968651],[126.6322330002697,37.4455000980239],[126.6320213010356,37.4464195993694],[126.6331455017536,37.445896796434],[126.6343744023622,37.4474390987592],[126.6364753003869,37.4475779987466],[126.637910401073,37.4467118992284],[126.63977880132781,37.449819198044],[126.6411348999717,37.4492029986602],[126.6440216970849,37.4500567978064],[126.64402199708461,37.446497001366204],[126.643180296621,37.4458645995422],[126.64416030071929,37.4460734945664],[126.6469670979125,37.442457898182],[126.6493031973286,37.4409788987309],[126.64958399877311,37.439344398640905],[126.6504404024395,37.4408728994045],[126.6537517025861,37.441726599080205],[126.65511000151129,37.443765197457004],[126.6571344014675,37.4429536984268],[126.6577828021104,37.444533798673],[126.6589536009396,37.44508679812],[126.66126269929859,37.443488300262],[126.66043329983259,37.4429948992494],[126.6641899984115,37.442957899046704],[126.6632329993685,37.4405482014564],[126.66238269973509,37.4413064008914],[126.6616989988031,37.440021299729096],[126.66323300157781,37.440548199648205],[126.6641900006208,37.4429578972385],[126.66681989980829,37.4418991981925],[126.6683452982829,37.440277699814004],[126.6706706995048,37.440376299263995],[126.6716006989548,37.4380982996844],[126.6739078000594,37.4381644983345],[126.6762072997125,37.4365420995019],[126.6761331004222,37.437659398914604],[126.67690909964621,37.4366074999665],[126.6780870995831,37.4365282992673],[126.6783293993408,37.4353818004138],[126.674101901315,37.434094401284],[126.6751437988234,37.435668000831],[126.6736586987046,37.4345542002142],[126.6739150983836,37.430773695697205],[126.6756425966561,37.4300420964288],[126.67475959753911,37.425704000766906],[126.668212699047,37.425545200403505],[126.66931559910941,37.4250867994765],[126.6693419990413,37.4235107008681],[126.66864959899999,37.423278100205195],[126.6687104986386,37.421969000042495],[126.6668719990429,37.4219283998857],[126.66856009842209,37.4179920006685],[126.6664058996616,37.417129000220406],[126.66738499891089,37.415685001159304],[126.6648657994302,37.4144339001297],[126.66503489864469,37.4137314996596],[126.6636811999984,37.4130602003309],[126.66238509991439,37.4135030014855],[126.6617674986902,37.412796200697],[126.66334929928459,37.4125663999227],[126.6642598981648,37.41115100106509],[126.6636701984059,37.408021498446],[126.66566189619691,37.4063203989539],[126.66609279703471,37.4028467988607],[126.6638770992504,37.4011776005299],[126.6646451992729,37.4010605990695],[126.6651068988112,37.3997200004101],[126.6625752013429,37.3980718020583],[126.6611267987636,37.398223101438205],[126.6578188020716,37.3950671045942],[126.6543035004045,37.399044801007],[126.6537760993179,37.3985252990012],[126.6543629996335,37.398930799375606],[126.6553280993873,37.398139199561],[126.6562081985072,37.395859801840395],[126.654191300103,37.3972195007257],[126.6535101995838,37.396259101267404],[126.6518243005377,37.3972790003319],[126.6532351004569,37.3987693007984],[126.6506564000333,37.398010401186596],[126.64994200012819,37.3984691011575],[126.6492033000748,37.397759101142505],[126.64829160057239,37.398353400826096],[126.6491797985742,37.3966317998071],[126.6483795998569,37.3957790998781],[126.649199000011,37.3948927997096],[126.6494869010904,37.39617170002099],[126.6510310997288,37.396452599915705],[126.65038079921099,37.394651300305696],[126.6497452996287,37.394153100563294],[126.64584869984961,37.394699600498406],[126.6449807000827,37.393880601124],[126.64375180078531,37.3947088005852],[126.64222959946389,37.3931970017306],[126.6412724004211,37.3947445001831],[126.64293880010409,37.396466000097895],[126.6408942009748,37.3955094020676],[126.64152370034529,37.397599499977495],[126.6390582008236,37.396768701953704],[126.6383187005719,37.395454901431094],[126.63739290111009,37.3962399009092],[126.6382289002741,37.397198799950296],[126.6373929007292,37.396239901144696],[126.63618110064691,37.3977686004907],[126.6382852999118,37.399823500237],[126.636790400751,37.3983328017547],[126.6358328992128,37.3988425012895],[126.6348070002387,37.3978736022584],[126.6316190008409,37.4030430997244],[126.6323103001496,37.405200897566594],[126.6331860010868,37.4050819006834],[126.6327602007597,37.406030200798895],[126.6302278008821,37.4060347014508],[126.6293075990139,37.4067624022816],[126.6281485999427,37.4061174028225],[126.6272506008407,37.408676900263],[126.6280594000319,37.4102695986703],[126.6294688029726,37.410629197803004],[126.6290760052911,37.4128484058645],[126.6247481994842,37.4114339001753],[126.6253306987917,37.408526202140294],[126.6248172998233,37.4045628999891],[126.62625339975989,37.403384699624496],[126.62814389429519,37.3995394996113],[126.62824889419021,37.397004602146204],[126.6267331925861,37.392854300619206],[126.6275703948379,37.3874870994063],[126.63033129807489,37.3855847981801],[126.63001599839019,37.382670101094796],[126.62886089730951,37.3815997997125],[126.63059249995871,37.3814388973911],[126.6321582983929,37.3794943993356],[126.6314434996542,37.3782969996654],[126.632304698793,37.3775312004312],[126.6319804997529,37.3767575997378],[126.633469999844,37.3769081998297],[126.6341988996006,37.3756760995883],[126.63497049719959,37.3713622986608],[126.6377346999289,37.3699698996931],[126.638757000133,37.3709035958543],[126.6445262989717,37.3673133977194],[126.6465352995205,37.3694424969635],[126.64806279938911,37.368521196996205],[126.64961670061649,37.3701400971096],[126.65167129856191,37.3680402992094],[126.6506695004504,37.3669922963137],[126.6516713010964,37.3680402976794],[126.6542711984965,37.367469298250406],[126.6522827037986,37.3686825014004],[126.6516942043871,37.372320697762206],[126.6546578014235,37.3754213946615],[126.6608571020402,37.3734761966213],[126.6630459016715,37.3755079964887],[126.6654225992948,37.374885997110695],[126.66598010040519,37.373362297590795],[126.66391330164241,37.376442598583296],[126.66792109997971,37.3751794989062],[126.6719457027379,37.378284099748605],[126.6748920000875,37.378266599650004],[126.6769080006257,37.3802569991988],[126.67573400262421,37.3829999988083],[126.6778534023738,37.385184199516594],[126.6774145019226,37.3883935998518],[126.6758293022054,37.3885334000828],[126.6773685006662,37.3937389948772],[126.6820612017852,37.391528396102196],[126.68345140159849,37.393428697734905],[126.6858711012548,37.3922723979164],[126.6876094009444,37.3946192978121],[126.6894602020873,37.393744499080896],[126.6906363009112,37.3951077977176],[126.6923865028925,37.3939689986775],[126.69410600201441,37.3963127974752],[126.7005430991564,37.3932739988365],[126.701675201173,37.3911925994438],[126.70252410032411,37.3923432982931],[126.7037004024427,37.391790797207],[126.70539060206791,37.394077497423204],[126.7081221028119,37.3927741980821],[126.708746603,37.393972599266995],[126.7119377015485,37.3960406986766],[126.71374800065149,37.3952210991503],[126.71660830058451,37.397890998035],[126.7179340007822,37.39785579717],[126.7203139984022,37.3956943993314],[126.7206665998301,37.3940620990725],[126.7241033993527,37.395183798376195],[126.7260800996799,37.3938210983493],[126.72663880120031,37.3944172004153],[126.7258568007832,37.3955848992245],[126.72756150021179,37.396654498347495],[126.7273440009324,37.398209998782995],[126.72958129927231,37.39663319956539],[126.7286086988032,37.3939306989505],[126.72945390034529,37.394671997669],[126.7331501972259,37.3941161978058],[126.7360974988115,37.3915327987965],[126.7357616988489,37.3893044000023],[126.7367959989368,37.3888968998769],[126.7359265974935,37.3875544981012],[126.74033440036169,37.38812209853759],[126.7412426994534,37.3871308995288],[126.74077920005391,37.3854979973287],[126.741687500163,37.3869527989796],[126.7450319005693,37.3862884970969],[126.74418100250969,37.3865949018728],[126.7435181031726,37.3897613987063],[126.7457983008924,37.391073697394],[126.747793000646,37.3895709003503],[126.7457777036262,37.391928702880904],[126.7457982973979,37.3910737003131],[126.7435180995339,37.389761401539594],[126.7423741006779,37.3902785010225],[126.7397186021155,37.395158197433396],[126.7425722025598,37.3958195978035],[126.74231379992311,37.3963810002545],[126.7392907003508,37.3958472019413],[126.7381966014449,37.398136199652306],[126.73883790102549,37.3998893993051],[126.74029380021611,37.4008234998134],[126.74013170306101,37.4049547003984],[126.73733490027449,37.406301700982],[126.7356613996903,37.4054308011256],[126.7337962000868,37.4055838009642],[126.7325760992623,37.4066662020187],[126.7318591990246,37.4056264025088],[126.7300545008293,37.405229202906],[126.7287030009155,37.4068963010392],[126.7270443001131,37.4057672033314],[126.7255713015861,37.4063832027154],[126.7234927002674,37.4095181007482],[126.7216462988712,37.4094096035958],[126.721582297092,37.4083196026709],[126.7169514017229,37.407606703383806],[126.7158845018117,37.410612302416595],[126.7137037039925,37.412734300294595],[126.7132965037827,37.414746102869906],[126.71613920094,37.420717796898195],[126.72093300000141,37.4199940946071],[126.72285320460111,37.421795000345504],[126.7199353013649,37.4220242009397],[126.720322201665,37.427741500600604],[126.7185626034246,37.4297095986325],[126.7210418017736,37.436317198754],[126.7236815037568,37.4360153999555],[126.7225070003404,37.436386902250504],[126.7215583006147,37.437928200772305],[126.7217187004543,37.4393597993407],[126.7236424005315,37.4397192993291],[126.7246282000572,37.4412140986147],[126.72474270129959,37.4391538992935],[126.7284343976079,37.4415466969007],[126.73010829732999,37.437465898504996],[126.7299456964872,37.434412098811805],[126.73229809983859,37.4328605998222],[126.7322366007207,37.4356179975401],[126.73525260007399,37.4360679975648],[126.73864450083171,37.4394783984234],[126.7419691980672,37.441543097703196],[126.7453510000007,37.4378858987797],[126.7464389994754,37.4378745988044],[126.7465350993793,37.4366718000072],[126.7471848004407,37.436873598538],[126.7487471986498,37.4342245980229],[126.7515435987774,37.4330408997586],[126.7515101987723,37.4322510996314],[126.7532146992768,37.4334516983332],[126.7553166019665,37.4314395970165],[126.75894959833349,37.4319951964609],[126.75956099926431,37.427895698837304],[126.7606681006567,37.428463199710805],[126.7594847017753,37.4320237971079],[126.76479600113011,37.433776597567004],[126.76811790140209,37.432093500449604],[126.76703710251229,37.4366318000487],[126.7704748990745,37.438013898666604],[126.7711889011096,37.4357963984136],[126.77280760192059,37.4375205025052],[126.77047490194269,37.4380139013899],[126.77091040146861,37.439804001081704],[126.7654641036807,37.4471148003848],[126.76589560324919,37.447903599595996],[126.7627291988303,37.4447519038526],[126.7584102989209,37.445452803483995],[126.7570919002393,37.446561102375696],[126.75332120162601,37.4452460035635],[126.75074720420001,37.4471073017022],[126.7529787019685,37.4502946985148],[126.7548116001356,37.4497753990341],[126.7559083007409,37.4502920000516],[126.7538789016442,37.456469897177804],[126.75614400030521,37.4559342989331],[126.7562933008156,37.4579193000146],[126.75566370108339,37.459359301320504],[126.75342379930039,37.4580860013327],[126.7520457001928,37.4583008008264],[126.7521980004646,37.4593473000712],[126.7509008011556,37.4593482018075],[126.7504503016061,37.4618091993465],[126.75373330046729,37.464222900064804],[126.75811059608999,37.4655513987363],[126.7641418963576,37.4601907996429],[126.7674041989181,37.46068259759],[126.76755590341051,37.4652149014299],[126.7658730047409,37.466397201251105],[126.7663725042414,37.4700047976435],[126.76896420165,37.4728785989298],[126.778923395069,37.4716257973249],[126.7794211946992,37.4646226020026],[126.7767270985556,37.462668401303596],[126.7724889966771,37.4627560975753],[126.776727096532,37.462668396752896],[126.778791001206,37.461164796553795],[126.78384779890351,37.4610712965617],[126.78628089647039,37.457889999742996],[126.786110395287,37.455958298268996],[126.78684169455569,37.45498459924271],[126.7858348967296,37.4508167992149],[126.7849305976339,37.4500089000228],[126.7862996989006,37.446596300211006],[126.7854680995115,37.445953300736],[126.7847476999883,37.4467558001882],[126.7815250002603,37.4449667007231],[126.7814488994502,37.4442336004024],[126.77973429983601,37.4443609000556],[126.77918049921179,37.4430409007369],[126.7773558000512,37.4431587014986],[126.7776117997164,37.4425686003227],[126.7767484997123,37.4424304996643],[126.77829109768041,37.440403499647005],[126.77625019969041,37.4376519001312],[126.7770711993672,37.4374017996439],[126.7770117981836,37.4357589997898],[126.77969519834221,37.434978100545],[126.7786691990403,37.4337101988381],[126.77969520011361,37.434978098325004],[126.7809590988497,37.4348088984942],[126.7828426992581,37.4315886989543],[126.7858132973189,37.432182399221105],[126.7885087998663,37.431128899009394],[126.78985660018739,37.4330222990671],[126.7909460002394,37.43199949953831],[126.7907596004873,37.4328869990817],[126.7929968001905,37.432691499748294],[126.7939145009702,37.4334504988815],[126.79169950301659,37.435217000857804],[126.793532101184,37.4371926988821],[126.79524089947519,37.436655799419],[126.79731380016399,37.438642499101704],[126.79597069974069,37.4409584003741],[126.79580139941571,37.4398590011427],[126.7932550002576,37.439970800389595],[126.79329180041391,37.4409466998287],[126.7948629008182,37.4418889994715],[126.79481210093431,37.442978099304895],[126.795837300625,37.4436226986913],[126.79804079987379,37.4420163994489],[126.7991813993,37.443067899096604],[126.79961530051929,37.442463499697105],[126.8037871029146,37.4455807025355],[126.80273110161001,37.4496828010507],[126.8040992024737,37.4519625013647],[126.8040897047115,37.4564188020422],[126.8015154012036,37.453536102884804],[126.8009284996363,37.454261502122904],[126.80146469914399,37.4534791004842],[126.80009470027291,37.4521406016958],[126.7970590993311,37.452914902029406],[126.7938502006747,37.4562203006699],[126.7933954993976,37.4556132015959],[126.79208920070391,37.4569474002617],[126.7899480020286,37.4571478999893],[126.79095800101861,37.4619670951701],[126.7954952009766,37.4630302945338],[126.7988253008923,37.4623391949883],[126.8003359993816,37.4573373999901],[126.7996150986078,37.4571772983822],[126.80304310082819,37.4583607999044],[126.8042301027454,37.4604436016038],[126.8071231003053,37.4623772999746],[126.8067928018702,37.4645350989445],[126.8085923000707,37.466376697102895],[126.8106904979725,37.464743598736],[126.8103983006297,37.4660007995854],[126.8111614998665,37.4660836995025],[126.8113084018486,37.4652318996026],[126.8109558008795,37.467650299194204],[126.8126821991531,37.4682941985503],[126.8125091008262,37.4669240993726],[126.8134541006683,37.4700565985483],[126.8154339007876,37.4720601987415],[126.81716639905511,37.471987498814194],[126.8184300983568,37.4696921981527],[126.8195629003599,37.4702378993319],[126.8186119004111,37.4702416008219],[126.81716640185661,37.471987499076],[126.8176493013737,37.474247496816],[126.8207396989581,37.4737447974614],[126.82360649896769,37.470191898992205],[126.8222305002606,37.4671699993777],[126.8236545008202,37.469155298236096],[126.8261093002062,37.4684350994867],[126.8250742012878,37.4705644994513],[126.8263584000036,37.4715024985133],[126.8285199016144,37.4707440015232],[126.82742760270669,37.4711286011386],[126.8258877044498,37.4747840982769],[126.8276176027199,37.4782446948163],[126.8316174023234,37.4791993949183],[126.8373029966378,37.4792471948705],[126.8367360964955,37.4738884954335],[126.8371772011958,37.475187397668805],[126.83901299936,37.475840097016096],[126.8398614985115,37.473665199191],[126.839115999257,37.4727626000936],[126.8394140000086,37.471474999855495],[126.84134210058481,37.4748795983982],[126.8449051970217,37.474417798859996],[126.8446371972897,37.472236801041],[126.84560619893871,37.4712451003519],[126.8455307981613,37.4698507987759],[126.8472630971719,37.4686572989108],[126.847286699356,37.466342398182505],[126.84894540088371,37.467133496901404],[126.85068479914429,37.4661426978922],[126.8516716995295,37.467124399071906],[126.8534852000756,37.466473199594205],[126.8548689997954,37.4680580994115],[126.8543614000056,37.4666192997309],[126.8550000022165,37.4688961002004],[126.8571024001619,37.4704619986385],[126.8603933984578,37.469276999131196],[126.8596646002204,37.4675446995074],[126.8616275982574,37.4688782981738],[126.86348439953801,37.4671958991443],[126.8706870000293,37.4640673998638],[126.8693513017582,37.4654046989681],[126.8715487995607,37.4675920967807],[126.8726419999575,37.4672485976337],[126.87313980093991,37.4681371995882],[126.8760984002688,37.4684236995503],[126.8767608996063,37.469729198244806],[126.8787935996719,37.4708550981414],[126.87989039956639,37.473027297856895],[126.88112509833171,37.471908198976],[126.8824229994092,37.4722606988826],[126.8860966003373,37.4701756992354],[126.88711420065749,37.4720170985245],[126.8869885009563,37.4736925991063],[126.8880355007504,37.4739919994753],[126.88754040143421,37.4751275995002],[126.8896059011698,37.4759664986267],[126.8906970005963,37.4791795994756],[126.89177310040259,37.4789833989826],[126.89415840109599,37.480541800076296],[126.8934877014936,37.4823217991497],[126.8939915009898,37.4828802985912],[126.8974911004852,37.4837400984665],[126.89625200090991,37.484720600659],[126.8968443998839,37.4864753995689],[126.8976014000114,37.4855531997325],[126.89712010080899,37.4863364993758],[126.89786200006711,37.4869861987261],[126.90079270001429,37.485851199443],[126.9004324005875,37.4871961986529],[126.9021319011853,37.4870883982258],[126.9044313002957,37.4892223998415],[126.9051215004542,37.4943722001036],[126.904523100724,37.4955836997512],[126.9057870997887,37.4963763993246],[126.9066578998049,37.4954323978015],[126.9100990002424,37.4946010990937],[126.9123298004557,37.4963475993888],[126.9118466007848,37.496828399551],[126.914350100156,37.4965572992134],[126.91633469946659,37.4975427993218],[126.91607579956501,37.496794099609104],[126.9185648994263,37.494349498449196],[126.91836160111819,37.496287798472395],[126.923157900177,37.4963262989491],[126.9262390994441,37.497889698841],[126.92771119947261,37.4970945991726],[126.9276304007884,37.4959370987834],[126.93079610024739,37.496597699714904],[126.9303967008988,37.4972274000754],[126.9316187010132,37.4979855000369],[126.9311960004751,37.4992514996652],[126.9325768004209,37.4998616995859],[126.932320400681,37.50126010022311],[126.9315633999862,37.5002719008964],[126.9291015002026,37.5030094015559],[126.927672100683,37.502147300689494],[126.9264872990083,37.5028042012541],[126.9259174994621,37.502204100013],[126.9264762994253,37.501157200630004],[126.9248219000276,37.5013306007719],[126.9231977007997,37.504086499609],[126.92399950027159,37.504075799995704],[126.9234538008197,37.5048197995385],[126.92399260028091,37.505309399048905],[126.92479920053479,37.505030999557306],[126.92526460094831,37.5087880975532],[126.9262571999557,37.50852239781889],[126.926283201633,37.5063682004254],[126.926591200446,37.5127055994245],[126.92936020047101,37.5131794996527],[126.92950990032129,37.5140636987685],[126.9319488014838,37.5116030998696],[126.9295099011698,37.5140636991421],[126.92913060213249,37.516966198034396],[126.9302342010289,37.5181942968063],[126.933130300485,37.517244599649196],[126.9323186009759,37.5194967989286],[126.93328670095539,37.5200798989789],[126.93204809903901,37.5193311013601],[126.93090139897589,37.5204405010444],[126.9296624996081,37.5196606014555],[126.9286331988842,37.5207125011378],[126.92727289955761,37.519872601546396],[126.9256128012177,37.5225235988954],[126.9264293000029,37.5232309014118],[126.9254970999991,37.522642201412],[126.9246387996695,37.523522201743305],[126.92220930018351,37.5237859001996],[126.9228450990603,37.5233568003471],[126.9200350005267,37.521367401582005],[126.9191718003527,37.5232787001087],[126.9179972993836,37.5224758012263],[126.9163489999273,37.523391500830904],[126.9155783986975,37.5210260016102],[126.9137661005098,37.5217477008885],[126.9123003007568,37.5237389015812],[126.91213809921001,37.5224413011601],[126.91063659971121,37.5232954004478],[126.9086777995145,37.5201644003149],[126.9070975994166,37.519598100577504],[126.90786099904909,37.5188361002023],[126.90667909980091,37.516362299932],[126.90769999874401,37.5152200003169],[126.9051396002056,37.513479601650296],[126.9042588010864,37.5148771002528],[126.9054410001506,37.5160659999066],[126.90415030121,37.516655900749306],[126.90543320036281,37.5181538999287],[126.9032547006384,37.520383099899],[126.90398159991149,37.5206788996032],[126.90490540025121,37.5198461999529],[126.9056551008067,37.5216742991111],[126.90719969926211,37.5212789995064],[126.90738370041059,37.5224927992974],[126.9086049003768,37.5222319001939],[126.9059303020283,37.5239716999793],[126.9061803013398,37.524928299912],[126.9054500002046,37.525550000230304],[126.9042853990673,37.5242182001576],[126.9021428002672,37.5241536007494],[126.9030718006898,37.525894199412505],[126.90389660055409,37.525683999510996],[126.9031377008031,37.5260278997796],[126.9032188004802,37.526969000723504],[126.9021389002512,37.5263109008388],[126.9006434006895,37.527245100721004],[126.9002438010891,37.5283786995874],[126.9008758004571,37.5290939988721],[126.9020086015633,37.528531899524594],[126.90087580170429,37.529094000176],[126.9006949018852,37.5303512989187],[126.902525201892,37.5316625986696],[126.9057520999944,37.5311848990448],[126.9066791009799,37.532171499160796],[126.90718290015269,37.5328758002276],[126.90507740037809,37.5343952007746],[126.90490460055089,37.5358248993449],[126.9063324042247,37.5366295073039],[126.90382649938549,37.5376847002352],[126.9046881001428,37.5350194003718],[126.898701499684,37.5389773003268],[126.8999973990298,37.538283300284306],[126.89959239943481,37.537365601202],[126.89873870028849,37.5378202007474],[126.8976351999081,37.5366054003013],[126.8964772987771,37.5366107006062],[126.8972974994411,37.535611599290405],[126.8973251988478,37.5335060005152],[126.8991595005361,37.5347936984053],[126.9009831987124,37.5342586989403],[126.9011772985183,37.5332224999765],[126.8991901992272,37.5310860018689],[126.8976549994537,37.5317625010875],[126.8965082001549,37.530234801964],[126.8951039003197,37.5309236017366],[126.8915703999731,37.5301562003029],[126.8909982994097,37.5282709018331],[126.89002169853211,37.527905700510495],[126.8909982995802,37.528270899550904],[126.8909060988067,37.5257616001631],[126.8894147992919,37.5246637998752],[126.8906582997678,37.523167900226],[126.8884374990368,37.5206104007933],[126.8873214990406,37.520776400803705],[126.8871698989282,37.5201543002452],[126.8852370001113,37.521102300501305],[126.8817089995781,37.5213466014103],[126.8836082985468,37.5207221995511],[126.883556098599,37.5198620004113],[126.8821014995634,37.5200764001399],[126.88161439995561,37.5186587011216],[126.8782258997026,37.519032600265305],[126.87891359900881,37.518654900136305],[126.8787731988532,37.516930500193],[126.8773642993036,37.5166142996587],[126.87877319893789,37.5169304987665],[126.8792434983786,37.5138901017209],[126.8770462999764,37.5150804008147],[126.87449720013889,37.5119174019898],[126.8743987002751,37.5140357010192],[126.8740480992019,37.5115121017838],[126.87316110052281,37.5145737005249],[126.8723013004228,37.5151441008921],[126.86784989915189,37.5168660007333],[126.866025400836,37.5163191013282],[126.86491970029991,37.5169802007904],[126.8641309992857,37.5156607014864],[126.8617739995624,37.5165790003928],[126.8604965995186,37.515278600901205],[126.861212999447,37.5129821999987],[126.8607435999164,37.5120762009047],[126.8600358006242,37.5117911011898],[126.8590165998482,37.5127815011728],[126.85842529925519,37.510260300418096],[126.85553900017,37.5083248007484],[126.85376020109389,37.5079593010781],[126.853133898354,37.5092456019026],[126.848166600697,37.507614900718],[126.848743500059,37.5085101003016],[126.8475905000976,37.5074270009405],[126.8451610010586,37.5099713010817],[126.84349219965,37.5094017015387],[126.8421599993331,37.5105772015911],[126.84270259889699,37.5092748011214],[126.8408270984393,37.5077994998061],[126.8417531975132,37.5049411026645],[126.8413534969005,37.5037522033298],[126.8381937000603,37.5020909049911],[126.83632400193001,37.5056364014456],[126.8365511017029,37.5066364004456],[126.8333592018111,37.506540301217896],[126.8311125007376,37.510496100827595],[126.831297600642,37.5119386009605],[126.8309515995695,37.5111726009936],[126.8298425003232,37.5115482005776],[126.8279213013292,37.5159884003634],[126.8272018987876,37.5136683005127],[126.8229881030014,37.513530000651],[126.8211258027449,37.519219301341906],[126.8188326008427,37.5196585031835],[126.8170240024021,37.5231110005455],[126.8174842019419,37.5251856984708],[126.81883090059519,37.5260079976485],[126.8198622995638,37.5256497980067],[126.82052900014459,37.523628999444696],[126.8231113011335,37.524503899597],[126.82175220124641,37.527169499848],[126.8188766007666,37.5301288004389],[126.8190728005704,37.531233699334],[126.8197739007013,37.5313043009658],[126.8183486998699,37.5310712031518],[126.8161547020639,37.5320471021759],[126.8161123021063,37.533121001102],[126.8159641986607,37.532044900887904],[126.8130901013698,37.5331439003394],[126.8129557020378,37.5353626017861],[126.8054131998534,37.539436800384394],[126.80722159797341,37.5382312984146],[126.80638169880861,37.5342177019767],[126.8042332009571,37.533989002205395],[126.8024322012359,37.5327177015688],[126.8023437015561,37.5370930999516],[126.7991161984364,37.5375927030439],[126.8001359968326,37.5373278978383],[126.7994939974746,37.532399502766694],[126.7965190004337,37.5313669008098],[126.7953134005259,37.531870300296404],[126.7954490988928,37.5330731026429],[126.7924971000356,37.5294755028578],[126.7906029988534,37.5306974009864],[126.7921749978388,37.5288186001236],[126.79034079967299,37.5281199008223],[126.7887822995134,37.5291815002177],[126.78944179999671,37.5278044986174],[126.7921749982498,37.5288185992063],[126.7958217991665,37.527994698733],[126.7979377982714,37.5255966999051],[126.796243599798,37.5231799008248],[126.7958967991719,37.5237194004213],[126.7934328006788,37.522631101109496],[126.7923225005205,37.5236905007884],[126.7903317998353,37.5230403008334],[126.7860515999363,37.5250009002839],[126.78476399940469,37.5242842000744],[126.7860301987125,37.5235884001447],[126.7823488001788,37.523205600530694],[126.78145940086421,37.5246073998372],[126.7835683000711,37.524929699717404],[126.78333570065189,37.5262611005164],[126.782320499442,37.5266341005047],[126.78110579980391,37.5250580007712],[126.77951270050839,37.526553200578505],[126.77839870042709,37.5258447010451],[126.77805209997369,37.5269035018839],[126.7764049997391,37.5232209015534],[126.7752794999646,37.5245692012486],[126.774066599764,37.5244359005807],[126.7752794987852,37.5245691997511],[126.77413609992861,37.5234205008998],[126.7719342009814,37.5237738003863],[126.7715299013857,37.5250179991421],[126.77360540121009,37.525800100168794],[126.7724358005854,37.5270821015202],[126.76952769919309,37.527948501679404],[126.7682577983925,37.5273240019481],[126.7683105980639,37.5257561010781],[126.762313202286,37.5257278010814],[126.7606802008452,37.527914600783305],[126.76165800273479,37.53166090003],[126.76091700229641,37.5322367013067],[126.7615162016972,37.535020498522904],[126.7637644021725,37.534588899616104],[126.762097002002,37.5366477012614],[126.7647737064852,37.5441122045354],[126.763171907198,37.5480223020011],[126.7647736978362,37.5441122031982],[126.7622348994699,37.5451171016092],[126.76477369727621,37.5441122004674],[126.7613957988396,37.543295501859596],[126.76229209881339,37.5410794010915],[126.7593530997766,37.5418550009015],[126.7584403993353,37.541195001275],[126.7530089006959,37.5426869006961],[126.7527598990699,37.5404281022981],[126.7502545997508,37.540370601365304],[126.7456342014431,37.5427395010121],[126.7454796003364,37.5443358000362],[126.7454433008109,37.5459952987308],[126.74734910056799,37.5473502002504],[126.7462852013757,37.547971299930204],[126.74845500113851,37.549073298555705],[126.7478755015519,37.5524108995492],[126.7485369009518,37.5544775983853],[126.75179019988481,37.558545697645705],[126.7543117017413,37.5575262981314],[126.75773770040011,37.557857399304005],[126.7598165997549,37.5591642989111],[126.7612608999313,37.558798398333],[126.76249880150391,37.562889600724496],[126.7606602996852,37.562653001365994],[126.7560926018978,37.564347601345396],[126.7559419010648,37.5689235985326],[126.7591384008461,37.569518598479405],[126.7596820001871,37.5716843997742],[126.7609223989467,37.572392599066],[126.76433889577049,37.5693663991373],[126.76412810211869,37.568624399820294],[126.7643389002466,37.5693664009345],[126.7597434002468,37.572816701178894],[126.75984220011459,37.5740932001544],[126.75705050045711,37.573082800323],[126.7558009992496,37.5737991014928],[126.7560836974973,37.570276501944],[126.7554964981271,37.568926700175496],[126.7533707002529,37.567738401363805],[126.75185050099671,37.567899302393],[126.7504947018667,37.5699841009502],[126.74782790181861,37.5704190002847],[126.74673870296239,37.5727140981436],[126.74693300449489,37.5759257991876],[126.75010000120321,37.5792448995102],[126.7446228996145,37.580454501542604],[126.7437780004594,37.5799824020147],[126.7428263014111,37.5825859994111],[126.74431360332319,37.5832173013157],[126.7433383007487,37.5827295021458],[126.7416863016713,37.5844892010987],[126.739686599426,37.5824212018562],[126.73708220203041,37.5833946008828],[126.7366111016328,37.5846242000661],[126.7381252031019,37.5862125001347],[126.7357988998941,37.586743800868],[126.73432699911889,37.5835256026472],[126.73041720029241,37.583597401911305],[126.7294855995125,37.5844892008689],[126.7288064986958,37.5816247028035],[126.7264605986408,37.582759002441605],[126.7249045987366,37.5785677997186],[126.7228778007634,37.5764290018574],[126.722970200671,37.577500900785495],[126.7214519980161,37.5775602004988],[126.72205289522739,37.573688600154796],[126.7203728969074,37.5710666027768],[126.7155711002939,37.569175603960105],[126.7142622012923,37.570699902780504],[126.7093607996112,37.5701042011772],[126.7085341996367,37.5713133999447],[126.70803149850481,37.570358799112704],[126.7093607979823,37.5701041986595],[126.7108261976986,37.5682773987999],[126.71557109860781,37.5691755972065],[126.7167220974568,37.5683369980451],[126.71791469626419,37.5649803014018],[126.71426739991149,37.5635469028352],[126.71333950083941,37.5637860025961],[126.71265650152239,37.5655177008644],[126.710073798451,37.5645111025662],[126.7095974993136,37.5601154017561],[126.7078874002151,37.5602957013466],[126.7060371981844,37.561634900642204],[126.7066713970386,37.5571470035855],[126.7030933006167,37.556430404302105],[126.70119699907279,37.5569918008782],[126.70309329567141,37.5564303991012],[126.704533694231,37.5532281023035],[126.7036726947697,37.5510485039175],[126.698733399709,37.550887604078405],[126.6975255009169,37.553456201509796],[126.6959482991748,37.551133301239894],[126.6910274008022,37.5518346018193],[126.6908354009942,37.5533342003197],[126.684965504305,37.5576536998187],[126.68664520483951,37.5592380045172],[126.68699470449,37.5637255000297],[126.6899443067867,37.5660624984769],[126.68847030299041,37.5692911029791],[126.6854380004905,37.568091202164695],[126.6836529022756,37.5693954008605],[126.6807433000487,37.5692536027908],[126.67952690126509,37.5704610015834],[126.68002470061201,37.5721773007693],[126.6785110003348,37.5722883024649],[126.6781647006811,37.5745703001829],[126.6817017026982,37.5771694001519],[126.68187000049781,37.5815719960715],[126.6837548986129,37.5802925973509],[126.6838753014311,37.5791008989643],[126.6837549015515,37.5802925977726],[126.6857958048232,37.5837482968272],[126.6864987041435,37.5883396037188],[126.6823014058234,37.5909647037674],[126.6819758061339,37.5941256030503],[126.6759402003734,37.598765802931304],[126.675794597472,37.6010644047362],[126.67126359944031,37.598782705258],[126.668235902468,37.599428704611995],[126.66150090164409,37.6073859011495],[126.6583486007619,37.606366801019604],[126.6584976999845,37.6073347043244],[126.6577937994898,37.607304504326095],[126.6558176974356,37.6058254007113],[126.6531466001067,37.6052519012848],[126.6514777000276,37.6058623012462],[126.651716399298,37.604374300282004],[126.6502277981364,37.6049163001354],[126.6493721994974,37.6023409000857],[126.6495777009614,37.6016333993825],[126.6508738996652,37.6023812986346],[126.6506682998708,37.6006757003402],[126.6479937002072,37.5973679021206],[126.64653340064879,37.5985317004852],[126.6412894987557,37.5988555024465],[126.64123089879449,37.597028601809],[126.6394690980213,37.5976987009862],[126.63967899765031,37.5960484014864],[126.63709769920129,37.5957094011859],[126.637385599377,37.593514101241],[126.63612759792859,37.5934830996447],[126.6439196000582,37.594915999475],[126.6445974993803,37.595731898659096],[126.64612409956659,37.5952842968937],[126.6516501023802,37.597658099562494],[126.6519518020785,37.5996003976202],[126.6565495989233,37.5994971975761],[126.65856529690761,37.5980254990478],[126.65852579715211,37.5970874986632],[126.661366996505,37.5955632991565],[126.6592062984561,37.5934905989612],[126.6603008004174,37.5928319965691],[126.66395659951641,37.593701197157095],[126.6671095978152,37.5921096976827],[126.6680688968559,37.5894561003363],[126.664652800272,37.5842636055288],[126.6619175000327,37.583210199457504],[126.66499659887539,37.5840654952974],[126.6695616988521,37.583993193404304],[126.6726859957278,37.5809667964307],[126.67187369949211,37.576898897289105],[126.67473319982001,37.5769244980258],[126.6757594987937,37.5748854000649],[126.674578097242,37.5740048996165],[126.6767609980274,37.5720867005252],[126.6747933986067,37.5684268013683],[126.6698385007583,37.5684330018154],[126.6687112991906,37.5708123035604],[126.66461679903871,37.5711538021178],[126.6637764993128,37.5697799999353],[126.6645287999982,37.567614799956004],[126.6670302009437,37.5703698000343],[126.6684958996804,37.570791399619495],[126.6711822936015,37.564353999671205],[126.663761392629,37.5611968974356],[126.66452429975169,37.561159999518004],[126.66740019688591,37.557285803058605],[126.66734459685331,37.556140799566904],[126.6637912980796,37.554845100636705],[126.6636034995624,37.5525376012722],[126.6617663985006,37.552431503177594],[126.66369279757221,37.5494100999638],[126.6647833994533,37.5491809999713],[126.6642461000301,37.5483088986188],[126.66573540078511,37.5494377008649],[126.665379501141,37.552221598081005],[126.6661562003643,37.552475197827405],[126.66764359887691,37.550379199923405],[126.6682711990862,37.5473187988515],[126.6674257971228,37.5407957024824],[126.6642974002512,37.5404240028541],[126.6633543995694,37.5424134011919],[126.6624368996472,37.5404400998426],[126.6663725999796,37.540275199685105],[126.6686865986594,37.539147197077305],[126.669626898155,37.537915198315304],[126.6695542982276,37.5348073014232],[126.6659125999251,37.533146099704005],[126.6695079965497,37.5328156999835],[126.6649157984402,37.5322089010404],[126.6654038991954,37.5320782998839],[126.6647145996111,37.5310901005297],[126.663424498655,37.531198600771006],[126.6612186991925,37.5298065002347],[126.6620750992049,37.529501500011705],[126.661027999577,37.5273366006028],[126.656710799373,37.525927000422406],[126.660558999501,37.526444796311],[126.66258299762539,37.5248140978343],[126.6620954981129,37.5205409021075],[126.6591112006679,37.5205455017804],[126.65825149958161,37.5192409012886],[126.65618049932131,37.518865699758],[126.6575978990344,37.517160698592896],[126.65908949937189,37.5180390982338],[126.66226249920919,37.5174530988259],[126.6618234931083,37.506879402860704],[126.6565111984206,37.5037937059464],[126.6540009992703,37.5041342046407],[126.652524398102,37.502273600299006],[126.65396219772599,37.4991634015554],[126.6525840985842,37.4991547977273],[126.6554694983243,37.4991735978233],[126.6561401992098,37.4949515984492],[126.6582486971027,37.4929481003922],[126.65537969708589,37.4918612003199],[126.6554076970579,37.490250101931],[126.65314699931861,37.4892953028858],[126.64813750171561,37.491081001364],[126.6477463021068,37.4929655994794],[126.6489072009459,37.4945492978957],[126.6498915012218,37.494532699984504],[126.6488038008696,37.4945520009128],[126.64795339698951,37.4964327026976],[126.6480222940542,37.494572700648796],[126.6468687952077,37.4927179025036],[126.64562199645451,37.486981808239705],[126.64269609524099,37.4842346106448],[126.6400764978606,37.483013811865604],[126.633470104467,37.484565410314],[126.6312489066882,37.4875731073063],[126.626953998256,37.4904165064626],[126.6215995993104,37.4919681060919],[126.6207993001107,37.4908701071899],[126.61323509434649,37.4883430115749],[126.6043380835914,37.4841331126961],[126.60338579748979,37.4811312003694],[126.6009855993578,37.4808921010559],[126.5988829963154,37.4787507002004],[126.59591279894079,37.4716487973503]]],[[[126.79658169934801,37.561461700198905],[126.8010809994952,37.5610990992378],[126.80223929993349,37.5595927991479],[126.80369469908699,37.559325898907595],[126.8037177990639,37.5583227999107],[126.8050387001578,37.5573117993449],[126.80657879877239,37.5569428995911],[126.80637989888,37.5561358999228],[126.80723329903789,37.5564599992315],[126.81174799924119,37.5528623981723],[126.8123389007721,37.5533036997667],[126.8111193011228,37.5544972997135],[126.81229209995,37.5550040992067],[126.8130429005859,37.5544214987999],[126.8158177011113,37.5575751989049],[126.8143800019489,37.5584715006172],[126.8152090011199,37.560931098157596],[126.8198229004587,37.560331498378396],[126.8218955999567,37.5586031998027],[126.8229610988912,37.5590225993833],[126.82493219963351,37.557175999155795],[126.826654599556,37.557035999076795],[126.8263650005765,37.5554434994879],[126.8266546011982,37.557035998960394],[126.8297896006229,37.55777599990439],[126.82993520259889,37.5595024997503],[126.8311373013968,37.560558298694495],[126.83265399988011,37.5613494979033],[126.8334540021568,37.5603396998004],[126.83591540071191,37.562287598690695],[126.83610040069401,37.5635760986306],[126.8376166013749,37.5634534998687],[126.8351579012356,37.5636897016323],[126.8342922021013,37.565541099780894],[126.83545480080649,37.568590899726296],[126.8342615001457,37.5683717005386],[126.83303980056719,37.5692454001173],[126.8338540004262,37.570561900380405],[126.8319233018704,37.5703238005462],[126.8316947007858,37.5716642009023],[126.83149749967039,37.570442001283],[126.82846649873531,37.572688202119004],[126.82685499892389,37.572028000146204],[126.8266918989952,37.5707945007032],[126.82525319858311,37.5708397012841],[126.82517279883061,37.5695051005938],[126.8225858000963,37.5684911014955],[126.8207903004582,37.5687074003455],[126.819746801183,37.5703245001149],[126.8206785000336,37.570730201026],[126.8185505002039,37.5708698005431],[126.8176991999924,37.572165500320295],[126.8180225990005,37.5713954004971],[126.8165676004555,37.571558000334505],[126.8168112012523,37.5753906979471],[126.8199900018007,37.575900000454396],[126.818164200531,37.5765263011846],[126.8179480004669,37.5776654014825],[126.81663540013379,37.5782164002143],[126.81718480099181,37.5796067008337],[126.81595400091831,37.5791850003269],[126.8141115014902,37.5810707010191],[126.8114508006406,37.582210000599204],[126.81138269857179,37.5800615017523],[126.8094992983531,37.580577401692004],[126.8074853983998,37.5777139023049],[126.80542230046291,37.5776099024089],[126.8043160002104,37.5788508009534],[126.8048444978448,37.5780513993916],[126.8026879000014,37.5761422013008],[126.8025339001768,37.577673000076096],[126.8004370996607,37.5781530002176],[126.801487698679,37.5766267004713],[126.80062629941041,37.572519199299805],[126.8025624988191,37.5723998983245],[126.803845399126,37.571147199273696],[126.8033780993776,37.5695627997475],[126.8043332988424,37.5680287006308],[126.802456799468,37.566965500185304],[126.80182379832189,37.564436301729394],[126.8001116000341,37.5643951017706],[126.79681789916259,37.5624330001926],[126.79658169934801,37.561461700198905]]],[[[126.9245542992976,37.4829722998639],[126.927089099692,37.4825792997343],[126.927908000163,37.4801714992215],[126.9277368003882,37.480926799279096],[126.9309255006371,37.4799144993892],[126.9328535003435,37.481501199643],[126.9325361012168,37.482467300024005],[126.93372550044549,37.4828501000272],[126.9347762006861,37.484773699494596],[126.93565360037809,37.4847299000889],[126.9317285004777,37.4870130003331],[126.932007899975,37.4874354007664],[126.9307719007373,37.4871456005151],[126.9303421995527,37.488187700427396],[126.929470400157,37.4877402004458],[126.92906410069111,37.4900131007112],[126.9277004002629,37.4900891007636],[126.9270288999026,37.4913007006384],[126.9268631994263,37.489863200596204],[126.9260449993966,37.4899120991621],[126.9280532991626,37.4874260003685],[126.9252739999139,37.4853345006078],[126.9246898991572,37.485705599846305],[126.92517909866869,37.4837301004568],[126.9245542992976,37.4829722998639]]],[[[126.93352779832799,37.5148927987982],[126.93488019915249,37.5131472990289],[126.9346440000518,37.5123608988256],[126.93671109955909,37.5120151988679],[126.93705879995541,37.5108401994995],[126.9384524998224,37.5109417995888],[126.938848400211,37.509724699384],[126.9396189994404,37.5101071990015],[126.94016359989091,37.508386099761104],[126.94013600013959,37.509190899218],[126.9427929998722,37.5099188986467],[126.9446974999099,37.5084445979483],[126.9467268994253,37.5086624987316],[126.94823200004531,37.5118399987311],[126.9507867006673,37.5125575999667],[126.9496697000637,37.5139686013465],[126.94717480042709,37.5134810012366],[126.9440776003836,37.5152960011019],[126.94400639963881,37.513692400005695],[126.943239299921,37.513091100578194],[126.9426760001494,37.513797100180795],[126.9392270009524,37.5137152002702],[126.93913020035829,37.5144439002129],[126.9383625999079,37.513099600264795],[126.9376676000766,37.5130788002582],[126.9373216005244,37.514139100150004],[126.9348802004718,37.5131473008133],[126.9344313009207,37.514895799064796],[126.9353793010327,37.5151852998834],[126.93352779832799,37.5148927987982]]],[[[126.9389791987858,37.4834366002626],[126.93948759947071,37.480032500168],[126.9402669003946,37.4804309994498],[126.9413843999087,37.479585299601794],[126.9428171002315,37.479621699456104],[126.9436599001651,37.4810562999433],[126.943938100176,37.4804243998545],[126.94483430019659,37.4817587997627],[126.945929300407,37.4818803999644],[126.9437786000272,37.484087700167805],[126.9410266998339,37.4843874004683],[126.9389791987858,37.4834366002626]]],[[[126.9064305991878,37.4867297013703],[126.90650259903569,37.48553969975249],[126.9075982992145,37.4863587989829],[126.9077000988163,37.4848458986227],[126.9099437996061,37.4847684989876],[126.9102270996747,37.4840066985875],[126.9146078000095,37.4818969998561],[126.9160757007527,37.4825868003353],[126.9171127009741,37.485424900192996],[126.91840690138389,37.486165999742596],[126.9203314004578,37.4897019010862],[126.9184472005203,37.4895925008666],[126.9185854003821,37.4905877998713],[126.91759110093909,37.4903384003888],[126.91770940093981,37.491326699857304],[126.91652020018529,37.4918440005991],[126.9163728981988,37.4909209012674],[126.914175700396,37.4897921023962],[126.91173709889749,37.490430101019],[126.9111266995079,37.489685601763505],[126.9082504002264,37.490973400272104],[126.909537499685,37.4907052994839],[126.9095065997159,37.4895465006427],[126.9089688997974,37.4885484017871],[126.9062730984931,37.488891200532095],[126.9074462983658,37.4882097001243],[126.9064305991878,37.4867297013703]]],[[[126.9098766993145,37.548335199478196],[126.9122173995229,37.547312199435304],[126.91203129940449,37.546312099551905],[126.9141034995843,37.5472761989838],[126.91450000025431,37.5466595993791],[126.91638680045409,37.5483457993264],[126.9171629003133,37.5481774993776],[126.9163410005665,37.5498524000681],[126.9171237009965,37.5520289007382],[126.9149659000816,37.552397000436],[126.9136575003044,37.5514983003916],[126.9122130001708,37.552761101063],[126.9114304994843,37.5503663005993],[126.9107550999063,37.550935300194496],[126.9101304997316,37.550255300228706],[126.9098766993145,37.548335199478196]]],[[[126.8486526990111,37.5201320989825],[126.85032699976989,37.5193644993714],[126.8502556998215,37.518548099099796],[126.8527143990204,37.5187565981307],[126.8528086991484,37.517081699329395],[126.85365990007719,37.5174346989849],[126.8546020004125,37.516427999118996],[126.8555005006055,37.516990399936596],[126.8547582005896,37.518961399296],[126.8556840003228,37.518565999418],[126.8571964013911,37.519736200148294],[126.8561365002451,37.522955500437604],[126.8509299994143,37.5240526011012],[126.84859899925799,37.5224923000074],[126.8485389994032,37.521529999718496],[126.8495311991457,37.5209040997959],[126.8486526990111,37.5201320989825]]],[[[126.6538595990359,37.428548999979796],[126.6562003992004,37.4241835000188],[126.6575760999578,37.4233974994575],[126.66038399801499,37.4243841979858],[126.6621087029783,37.4239578985731],[126.6661715009955,37.4259932002917],[126.66558310060661,37.4265919001935],[126.66601920047279,37.4276971003599],[126.66220559917339,37.4311145018539],[126.6612358000791,37.4306650004699],[126.66049669970499,37.43126080011999],[126.6607249989594,37.430396300291896],[126.6565840999877,37.4293094013254],[126.6570182998045,37.4285802001296],[126.6538595990359,37.428548999979796]]],[[[126.9223053994401,37.556491300309794],[126.9232957997597,37.555628699283],[126.9242403999223,37.556931198967604],[126.9242858998594,37.5558359990394],[126.9258557001324,37.5555994992819],[126.9253669004708,37.5559042000264],[126.9265391000508,37.557029299431704],[126.92827690062241,37.556661300361],[126.9272339011336,37.5576948995447],[126.92770050039731,37.5583076000188],[126.9253339001241,37.558608300146105],[126.9252449999886,37.558079900480706],[126.9233757998752,37.5583908003765],[126.92377769862401,37.5569611003446],[126.9223053994401,37.556491300309794]]],[[[126.8341308995064,37.5492410000655],[126.8363200000051,37.5474976995223],[126.8369793008111,37.5479699998152],[126.8363198006804,37.5479700004329],[126.83632000062521,37.5492730993876],[126.8374047003843,37.5483335996364],[126.8384535002462,37.548985200051995],[126.8361260002141,37.5509508003443],[126.8354208993163,37.549634300377],[126.8341308995064,37.5492410000655]]],[[[126.8404703992927,37.6126993003447],[126.8467925014059,37.612959600106805],[126.8464548001957,37.613890901390604],[126.8454087999752,37.6133745018028],[126.8437239001053,37.6154225003415],[126.84196180109561,37.614764200319506],[126.8417931996506,37.6155849004693],[126.8409511998543,37.613875800806404],[126.8398039997909,37.6136797002456],[126.8404703992927,37.6126993003447]]],[[[126.8931380996935,37.5779180996921],[126.8935797998324,37.5764201989832],[126.89618059924169,37.5756969996518],[126.8973424997604,37.574227499775],[126.901250300355,37.575237200036995],[126.89773720116179,37.5773940014396],[126.89663210059001,37.577160400748895],[126.89691140163879,37.5784443019144],[126.8948971014307,37.5794300005888],[126.8956100004242,37.5808400009957],[126.8946148001077,37.5796248014814],[126.8937789992429,37.580073300540704],[126.8931380996935,37.5779180996921]]],[[[126.8332527992733,37.558970700069004],[126.8351537978546,37.557196900227],[126.8353014002714,37.5580785990887],[126.8371053984674,37.5574231997441],[126.8364662999174,37.5554439997429],[126.83779180032171,37.5571526995336],[126.83940559957031,37.5572477996605],[126.83922970018591,37.5564086996897],[126.8406260012819,37.5571191011625],[126.8404914009874,37.559465000762906],[126.8392728006595,37.5595862009921],[126.8389608008948,37.5607789006983],[126.838114999165,37.5607803001422],[126.837897598877,37.55989490061631],[126.8332527992733,37.558970700069004]]],[[[126.9638774991209,37.5299852000761],[126.9647867988279,37.5282385990081],[126.96410809936991,37.5269563997466],[126.9651401995305,37.5279968986341],[126.96542359983029,37.5267865994962],[126.9667672003701,37.527734199960996],[126.9665599003868,37.5292878997533],[126.96732470025101,37.5290178997149],[126.9673399999806,37.5301500000907],[126.9665407001733,37.5296072002941],[126.96652639993751,37.530410100115],[126.96602089998291,37.529171601645096],[126.9647861003199,37.529175101678106],[126.96445989958309,37.5304383008836],[126.9638774991209,37.5299852000761]]],[[[126.7621119984941,37.6037210009784],[126.7642342000583,37.602091696711405],[126.76580219849029,37.5998188989842],[126.7657894999112,37.598532398885304],[126.7686807970199,37.5993164981012],[126.7698794982536,37.5984621974387],[126.77049609763701,37.596319899581],[126.7716459002028,37.595790299646595],[126.7708409018138,37.597643498591296],[126.7728417010662,37.5990191987344],[126.77434650048899,37.598972699558296],[126.7759274005932,37.6028981993698],[126.7744873011863,37.6065117017766],[126.7714509014111,37.6072368014078],[126.77004739712919,37.607147800052196],[126.7683421988344,37.6041815030185],[126.7655478016288,37.603754203445796],[126.7642341997161,37.6020917031582],[126.7624645014858,37.6046221006278],[126.7621119984941,37.6037210009784]]],[[[126.9326539985989,37.477075000625],[126.9334522004227,37.478041399224104],[126.9353606008543,37.477668900037195],[126.9354059002127,37.4791849000859],[126.93182279977131,37.4791548001928],[126.9326539985989,37.477075000625]]],[[[126.7840180991783,37.406148799656194],[126.7859835004502,37.4053283998212],[126.78549770096669,37.406564298678],[126.787482799813,37.4076733976059],[126.7891225981732,37.4072111980681],[126.7895213992927,37.4051791991153],[126.79099409964961,37.4054578979082],[126.7912508016695,37.4063784014027],[126.7896764016732,37.406763901259],[126.78850610203321,37.4097750007203],[126.7896748038732,37.4109725029587],[126.7877495996884,37.4095448037193],[126.7846116019172,37.4088350050037],[126.7840180991783,37.406148799656194]]],[[[126.9365989999032,37.5045387999732],[126.9383280002652,37.5036533975349],[126.9392156999408,37.5044010993687],[126.93992850005169,37.502752898054595],[126.9405125006929,37.5048077992514],[126.94160390061211,37.504512500132996],[126.94090630105839,37.5067836004244],[126.9399015989628,37.5068657013003],[126.9386369006186,37.504620101365894],[126.9375201997155,37.5054428012883],[126.9365989999032,37.5045387999732]]],[[[126.6224422988154,37.5957425998024],[126.6243144996559,37.5945519990564],[126.62406830021081,37.5935552981966],[126.6261029981761,37.5937857979661],[126.62805319759809,37.5929857970979],[126.629307400377,37.593303599655],[126.6303617005613,37.5955390992153],[126.6311200011147,37.595395700823396],[126.62919429999239,37.5974485006305],[126.6291264991493,37.5957727006549],[126.6282496994328,37.595768300451205],[126.6270853996462,37.5943252018744],[126.625388200888,37.5952391013144],[126.6252035003231,37.596792201396404],[126.6243543993574,37.5954251007843],[126.6224422988154,37.5957425998024]]],[[[126.7180773992909,37.6191573002846],[126.71816830000441,37.6184540983621],[126.71929510099069,37.6188362996474],[126.7203815998279,37.6213395988552],[126.7209198992896,37.6205558996389],[126.7214130002718,37.6212666000275],[126.7211161006998,37.6220885008825],[126.7203816003007,37.6213396009504],[126.71997669734141,37.6219684012184],[126.7180773992909,37.6191573002846]]],[[[126.95054019856791,37.4815499001472],[126.9524927990051,37.4800173992904],[126.9523467999447,37.479220899642904],[126.95421250062219,37.4806290991501],[126.9550430006889,37.4804537000606],[126.9527088002442,37.482706200424204],[126.9509869997818,37.4821788005995],[126.95181939912051,37.4822527996143],[126.9517914991484,37.4814213004458],[126.95054019856791,37.4815499001472]]],[[[126.8890941987763,37.467543198719405],[126.8900883991891,37.4678212991442],[126.88950839940179,37.4666057003286],[126.8903726993964,37.4647393990155],[126.8919992003914,37.4650176979046],[126.89284119954941,37.4635467993755],[126.8944223008798,37.4657955995947],[126.89608560061451,37.466488598835696],[126.89473410031229,37.4665074013182],[126.893220399689,37.4686907016422],[126.8890941987763,37.467543198719405]]],[[[126.7351165995088,37.3630310003302],[126.7364720992507,37.3613268989896],[126.73632190039959,37.3603133995837],[126.7382228007134,37.3617872001658],[126.7377728016304,37.3638572024336],[126.73628449965359,37.363905300601296],[126.7361851998641,37.3631352005574],[126.7347128003199,37.3636755003912],[126.7351165995088,37.3630310003302]]],[[[126.8445004996313,37.531886399291395],[126.8458341995821,37.531877698985504],[126.84641039900589,37.5311236997395],[126.8459649994661,37.5305272999663],[126.8474243997334,37.5306195990134],[126.8479118995855,37.5297091997486],[126.84902810086099,37.5320914000361],[126.84825380047789,37.5318174008069],[126.8476176003693,37.5329873001343],[126.8458353001656,37.5335350005107],[126.8445004996313,37.531886399291395]]],[[[126.893059297383,37.4566987995797],[126.8917326995876,37.4551534995274],[126.89300589899541,37.4559838989365],[126.8941658999373,37.4544722992538],[126.893059297383,37.4566987995797]]],[[[126.72928829657559,37.6115675990443],[126.7319481991818,37.610604897883896],[126.7333377999289,37.6109216992079],[126.733474999737,37.6103424993769],[126.7353741009599,37.6114811991052],[126.7335841986608,37.6113736021138],[126.73128590095911,37.6130079004795],[126.73028070196429,37.6139126995747],[126.73020650006829,37.615923101899604],[126.72928829657559,37.6115675990443]]],[[[126.9216726987113,37.4037876022685],[126.9230705987453,37.403286299314395],[126.92307999965679,37.4016399996151],[126.9241563998127,37.4005790988962],[126.9257811005911,37.4008282000624],[126.92568880035131,37.4024178002919],[126.9216727012888,37.4037876005326],[126.9223893992737,37.4045720016635],[126.9216726987113,37.4037876022685]]],[[[126.8133924997572,37.6179988999598],[126.8163424977767,37.6166111989969],[126.8153656987535,37.614672000936096],[126.8170567996771,37.6128971994994],[126.8185485992424,37.6159185964211],[126.8234195015901,37.6146959988372],[126.8199541998186,37.618680601531096],[126.81647360167729,37.6168696032655],[126.8133924997572,37.6179988999598]]],[[[126.93213539968201,37.527316700331],[126.93394100029771,37.526419599628],[126.9344651006452,37.5280242995471],[126.93213539968201,37.527316700331]]],[[[126.521176398392,37.5131127041413],[126.52208089852911,37.5111781972976],[126.52430629979001,37.5125944991977],[126.52496500019849,37.512194199775905],[126.52331649962241,37.512809500574704],[126.5219891006525,37.5120344010493],[126.521176398392,37.5131127041413]]],[[[126.97054559871229,37.54162380027731],[126.9733282008439,37.5396210984903],[126.9727440008113,37.5424715001397],[126.97054559871229,37.54162380027731]]],[[[126.8045468981242,37.3825012004792],[126.80630029886261,37.3814494980231],[126.80739870010679,37.3792081989289],[126.8083395003342,37.3818994989806],[126.8092171023104,37.382257700138595],[126.80776879976081,37.3817741013525],[126.8070762998651,37.3830176004299],[126.8045468981242,37.3825012004792]]],[[[126.82238739882949,37.6108194999885],[126.82159679960479,37.6097133998232],[126.82260959961991,37.6081373999074],[126.8227572992868,37.6072701003204],[126.8220948988908,37.607309899647],[126.82275730003231,37.607270099294],[126.8247127026874,37.609072000014095],[126.82447450327989,37.6108660019965],[126.82238739882949,37.6108194999885]]],[[[126.6366308988836,37.558197399910995],[126.6371386998824,37.5575381998456],[126.6376555003841,37.5579264997763],[126.6366308988836,37.558197399910995]]],[[[126.7205485995674,37.619054600103496],[126.72035559994261,37.6185882999291],[126.7217789003628,37.618908599847295],[126.7205485995674,37.619054600103496]]],[[[126.7661671981194,37.5573753993249],[126.76827489906479,37.5543984988916],[126.7676885015251,37.552576699029004],[126.7705280052775,37.5597923985469],[126.7682085980719,37.5604316016015],[126.76801399727569,37.5583350008114],[126.7661671981194,37.5573753993249]]],[[[126.8941494995637,37.4561229004393],[126.89506229942741,37.455856598831],[126.8952324007675,37.4561321001015],[126.8941494995637,37.4561229004393]]],[[[126.868392199788,37.6022416000337],[126.8686086005102,37.6030171991742],[126.8699265008495,37.6032990990685],[126.8688661997453,37.6040442005533],[126.868392199788,37.6022416000337]]],[[[126.90735459961391,37.4189395008041],[126.9090164007005,37.4185602001335],[126.9084086991395,37.4192983012857],[126.90735459961391,37.4189395008041]]],[[[126.8401397997825,37.541677899831704],[126.8407085998714,37.5412966988949],[126.8409708009732,37.5415025994248],[126.8401397997825,37.541677899831704]]],[[[126.66094429191399,37.567552494396395],[126.663136500385,37.566363098287795],[126.6609443022643,37.5675524999602],[126.6630837995691,37.568580500619206],[126.6609443002556,37.567552501448795],[126.66069139869461,37.568387901270896],[126.66094429191399,37.567552494396395]]],[[[126.74669759890361,37.3848095985758],[126.74747990004211,37.383724397429695],[126.7476129996998,37.3810661995258],[126.74932900026201,37.3794835863698],[126.7480305020793,37.380841102888795],[126.74751620179481,37.3849194013305],[126.74669759890361,37.3848095985758]]],[[[126.62114730002371,37.4028296000258],[126.6213856000703,37.4027913998248],[126.6212823033583,37.4030179015341],[126.62114730002371,37.4028296000258]]],[[[126.84020889939299,37.5690417003353],[126.84217790053799,37.5679744996911],[126.84127290089461,37.5684941005436],[126.84145850050851,37.5693579009237],[126.84020889939299,37.5690417003353]]],[[[126.93424089978531,37.5173551995947],[126.934679800132,37.5174162996409],[126.9350513004114,37.5174452000476],[126.9346798000855,37.5174163004989],[126.93424089978531,37.5173551995947]]],[[[126.9472901996329,37.5029705997871],[126.94754900045149,37.5020585994747],[126.94877510050891,37.5027390994192],[126.9472901996329,37.5029705997871]]],[[[126.9630740988896,37.5319967010122],[126.96358640045659,37.5315945997273],[126.9630883998757,37.5328548003827],[126.9630740988896,37.5319967010122]]],[[[126.933934499635,37.4718163004239],[126.9337646999534,37.471585499957605],[126.9342292005637,37.4719105002151],[126.933934499635,37.4718163004239]]],[[[126.8743765997024,37.518178400016694],[126.8748137012159,37.5179332996318],[126.87484410069071,37.5179999004044],[126.8745832000928,37.517988100127695],[126.8743765997024,37.518178400016694]]],[[[126.9627864994987,37.4772732001951],[126.9632005012353,37.4764942995199],[126.96356040062791,37.4771098005287],[126.9627864994987,37.4772732001951]]],[[[126.9439907997424,37.372071400107004],[126.9442284001438,37.371597199700496],[126.9442547020211,37.3720175004972],[126.9439907997424,37.372071400107004]]],[[[126.6231125983853,37.4148184998535],[126.6238527007418,37.4134805981233],[126.6235618028633,37.415523699314],[126.6231125983853,37.4148184998535]]],[[[126.61801049744089,37.5537751003403],[126.6187617002299,37.552138898318404],[126.61822430042959,37.5540481007925],[126.61801049744089,37.5537751003403]]],[[[126.97200719930649,37.555365699651205],[126.97195479973351,37.555194099848],[126.97198159986911,37.5550661997315],[126.97200719930649,37.555365699651205]]],[[[126.7059759994526,37.6317448996829],[126.7061996997315,37.6316256995131],[126.7066393001737,37.6316677000168],[126.706199700421,37.6316257001903],[126.7059759994526,37.6317448996829]]],[[[126.74141059958309,37.3521341998481],[126.7418731999746,37.352217199734696],[126.74214480102921,37.3527801996552],[126.74141059958309,37.3521341998481]]],[[[126.8388309992743,37.6126695979538],[126.8390223007408,37.6128368002072],[126.8388342995148,37.612833400386],[126.8388309992743,37.6126695979538]]],[[[126.52554219960581,37.510989999665696],[126.5258313004012,37.5109431992941],[126.52584620018351,37.5112132003916],[126.52554219960581,37.510989999665696]]],[[[126.92330269897519,37.492998100156704],[126.9240238006621,37.4922859993254],[126.92496460084179,37.4927501998744],[126.92330269897519,37.492998100156704]]],[[[126.5239823999697,37.510030800674],[126.5242937002235,37.509921999793505],[126.5240675998995,37.5100901006071],[126.5239823999697,37.510030800674]]],[[[126.62136309812449,37.413477798746],[126.6213818998249,37.4134104992852],[126.6214941000628,37.413424999970594],[126.62136309812449,37.413477798746]]],[[[126.7503030991243,37.5519934999666],[126.7508668004228,37.552154700083705],[126.7505869006495,37.5523247026965],[126.7503030991243,37.5519934999666]]],[[[126.80859220142841,37.3695903990792],[126.8085921993694,37.369590400714],[126.80859219912121,37.3695903992348],[126.80859220142841,37.3695903990792]]],[[[126.7360759992506,37.4333782002546],[126.73540269755459,37.4334174997406],[126.7360760021117,37.4333781996211],[126.7360759992506,37.4333782002546]]],[[[126.74644469949689,37.38077410005219],[126.7464446998767,37.380774098363496],[126.7464446991565,37.3807741026113],[126.74644469949689,37.38077410005219]]],[[[126.74911879897141,37.5439419000599],[126.7496048996043,37.54372089959929],[126.7496049013122,37.543720900154696],[126.74911879897141,37.5439419000599]]],[[[126.8457487982617,37.6107754996493],[126.8458477999962,37.6103743986448],[126.8458810019094,37.6105811006033],[126.8457487982617,37.6107754996493]]],[[[126.8888032988784,37.526917700180796],[126.8888033009095,37.526917699007],[126.8888925996612,37.527298201118],[126.8888032988784,37.526917700180796]]],[[[126.4936354995257,37.4928862993096],[126.4936355008373,37.4928862996101],[126.4936355006833,37.4928863005348],[126.4936354995257,37.4928862993096]]],[[[126.6324117950385,37.5577764014547],[126.6324118001489,37.5577763935725],[126.6324118031027,37.557776400332],[126.6324117950385,37.5577764014547]]],[[[126.77571879945681,37.5972251997515],[126.7759199003016,37.5973044984477],[126.775919900494,37.5973045003071],[126.77571879945681,37.5972251997515]]],[[[126.8128106998163,37.631237599904],[126.8128107005889,37.6312375998565],[126.812810699896,37.631237600892],[126.8128106998163,37.631237599904]]],[[[126.5252074989876,37.5114327002],[126.525236999911,37.5113622992934],[126.52520750030179,37.51143269989],[126.5252074989876,37.5114327002]]],[[[126.6321542987687,37.5940529007015],[126.6321543019404,37.5940528999879],[126.6321543015649,37.5940529011284],[126.6321542987687,37.5940529007015]]],[[[126.7868827991233,37.404951400075504],[126.7868827989027,37.404951398624],[126.7868828017309,37.4049513982183],[126.7868827991233,37.404951400075504]]],[[[126.8110657997637,37.4648293000093],[126.8110657998937,37.4648292997169],[126.8110658002058,37.4648292999053],[126.8110657997637,37.4648293000093]]],[[[126.8220188992935,37.4684259004551],[126.8220189004766,37.4684258997617],[126.8220805002703,37.468507700348205],[126.8220188992935,37.4684259004551]]],[[[126.8862399991949,37.52561999943261],[126.8862400010637,37.525619999824904],[126.8862399995085,37.525620000940705],[126.8862399991949,37.52561999943261]]],[[[126.92510709957081,37.399259799870904],[126.92510710032501,37.3992598000589],[126.9251070997858,37.3992598010753],[126.92510709957081,37.399259799870904]]],[[[126.62645189966591,37.5562262995041],[126.626451900483,37.5562262989615],[126.6264519009984,37.5562263030048],[126.62645189966591,37.5562262995041]]],[[[126.750736498238,37.5794164011257],[126.75133629996691,37.5792512995038],[126.75133630072841,37.5792513013925],[126.750736498238,37.5794164011257]]],[[[126.8089474995713,37.6317545998859],[126.808947500683,37.6317546001694],[126.80894749988221,37.6317546011367],[126.8089474995713,37.6317545998859]]],[[[126.82650969796501,37.4677208996705],[126.8265097002495,37.467720898565005],[126.82650970005601,37.46772090045091],[126.82650969796501,37.4677208996705]]],[[[126.87707419977039,37.5173539000128],[126.8770742000944,37.5173538998052],[126.8770956001275,37.517412200241004],[126.87707419977039,37.5173539000128]]],[[[126.87762409965991,37.5196525999321],[126.87763410062469,37.519729500590394],[126.8776340997693,37.5197295001255],[126.87762409965991,37.5196525999321]]],[[[126.9016460998226,37.5748525002138],[126.9016461003702,37.5748524988251],[126.9016461006179,37.5748524999088],[126.9016460998226,37.5748525002138]]],[[[126.7391375995634,37.515373500455304],[126.73913760037,37.5153734994224],[126.7391376004311,37.5153735002891],[126.7391375995634,37.515373500455304]]],[[[126.7674453990568,37.5649901992525],[126.767445401221,37.5649901994003],[126.7674453995335,37.564990202021896],[126.7674453990568,37.5649901992525]]],[[[126.83115679868911,37.514567800533804],[126.8311568004957,37.5145677989089],[126.831156802158,37.514567800624],[126.83115679868911,37.514567800533804]]],[[[126.87580919918311,37.4671672995503],[126.8758092001691,37.4671672990233],[126.87580920059091,37.467167300303],[126.87580919918311,37.4671672995503]]],[[[126.8774791002421,37.5178797999053],[126.8774791004433,37.5178798009114],[126.87747909974401,37.517879799773404],[126.8774791002421,37.5178797999053]]],[[[126.9435754996366,37.480094999814796],[126.9435755002088,37.4800949994299],[126.9435755003011,37.480094999969396],[126.9435754996366,37.480094999814796]]],[[[126.9541251996474,37.483183600346095],[126.95412520012239,37.4831835993052],[126.95412520059489,37.483183599993794],[126.9541251996474,37.483183600346095]]],[[[126.66353879974619,37.5386624999508],[126.6635388008349,37.5386625001803],[126.6635387998131,37.538662500764],[126.66353879974619,37.5386624999508]]],[[[126.7480424990348,37.5442830994685],[126.7480425007545,37.544283100364304],[126.7480424993483,37.5442831003803],[126.7480424990348,37.5442830994685]]],[[[126.7633148990388,37.565762198124204],[126.7633149014961,37.565762200536405],[126.7633148986988,37.5657622009046],[126.7633148990388,37.565762198124204]]],[[[126.8110299996485,37.631629999831404],[126.8110300009419,37.6316299991838],[126.8110300009458,37.631630000399],[126.8110299996485,37.631629999831404]]],[[[126.8372264999011,37.555385300030494],[126.8372264998152,37.555385299434995],[126.8372265003155,37.5553852996353],[126.8372264999011,37.555385300030494]]],[[[126.92535699988831,37.3994030999878],[126.92535700034651,37.399403099887],[126.92535700025951,37.3994031005157],[126.92535699988831,37.3994030999878]]],[[[126.93686279988,37.555102399904605],[126.9368628000746,37.5551023999869],[126.9368627999139,37.555102400170504],[126.93686279988,37.555102399904605]]],[[[126.9398423998435,37.5146865000027],[126.9398424001627,37.5146865000014],[126.9398424000863,37.5146865001796],[126.9398423998435,37.5146865000027]]],[[[126.9677741997412,37.528806700123994],[126.96777420051579,37.5288066994861],[126.96777420029129,37.528806700302994],[126.9677741997412,37.528806700123994]]],[[[126.74831749936929,37.547066899841795],[126.748317501276,37.5470669005621],[126.7483174995996,37.5470669005337],[126.74831749936929,37.547066899841795]]],[[[126.7839722999006,37.5244060999349],[126.7839723001964,37.5244060999525],[126.7839722999059,37.5244061002902],[126.7839722999006,37.5244060999349]]],[[[126.8822595998431,37.501797100028895],[126.882259600132,37.5017970998831],[126.8822596000262,37.501797100092],[126.8822595998431,37.501797100028895]]],[[[126.7949635995864,37.536185499687605],[126.794963602005,37.5361854989807],[126.7949636000808,37.536185500334604],[126.7949635995864,37.536185499687605]]],[[[126.8050489988508,37.536528800515896],[126.8050490001413,37.5365287996656],[126.805049000146,37.5365288001171],[126.8050489988508,37.536528800515896]]],[[[126.93809159965261,37.513465199871796],[126.93809160005921,37.5134651999806],[126.9380915997544,37.5134652008239],[126.93809159965261,37.513465199871796]]]]}}]}