{"type":"FeatureCollection","features":[{"type":"Feature","properties":{"interval":15,"stationId":"5904958056"},"geometry":{"type":"MultiPolygon","coordinates":[[[[127.0444603981941,37.1992443993762],[127.045941798535,37.199016999445796],[127.04720439750339,37.1962416964742],[127.0488404958673,37.195389997325904],[127.0499760967431,37.1925468978875],[127.0517097015135,37.192454498560394],[127.05212500070411,37.1936529998602],[127.0504629016077,37.1945603993243],[127.0534343994034,37.197276197967],[127.0552204002239,37.1941080979342],[127.0567785996469,37.197514096],[127.0604867019527,37.1960539983276],[127.0618299007976,37.1992767994123],[127.0629910008236,37.199175000456194],[127.05991920094229,37.2022903004101],[127.0584915988657,37.2027383009906],[127.0559546001957,37.2015313013473],[127.05489570125461,37.2020894007892],[127.05589520015859,37.2039630994581],[127.0570867007604,37.2041095031554],[127.05270849986529,37.2049354034124],[127.0444603981941,37.1992443993762]]],[[[127.0411609993746,37.1987496001652],[127.0417012992347,37.197555899984195],[127.0419214993184,37.197296896845195],[127.0417012997582,37.1975559009108],[127.0411609993746,37.1987496001652]]],[[[127.0333018993406,37.2075535992563],[127.0333019004334,37.207553599730396],[127.0333019001441,37.207553600168694],[127.0333018993406,37.2075535992563]]]]}},{"type":"Feature","properties":{"interval":30,"stationId":"5904958056"},"geometry":{"type":"MultiPolygon","coordinates":[[[[127.0245168994848,37.2069026997087],[127.0297639990971,37.2059833989002],[127.03030919891421,37.205033999201795],[127.0317253988763,37.2061091984154],[127.0322088983928,37.205700598824],[127.0299621997963,37.202914900364206],[127.0302065986836,37.201946799565],[127.02891889690879,37.1998259971501],[127.0301482993192,37.197044999376004],[127.0327282986119,37.1976110988481],[127.0353022996966,37.1955714990977],[127.0363496993377,37.1916692014203],[127.035110899143,37.1924001007062],[127.0352325983618,37.1906526984546],[127.0360214997544,37.191363999313],[127.0373522997933,37.1882350989888],[127.0401897002829,37.1873475988717],[127.0417300993709,37.188309699166396],[127.0420804990205,37.1878244996516],[127.04128699989259,37.1872998992403],[127.0441868995886,37.1876605991263],[127.04519290010451,37.186790597809605],[127.0467754998429,37.1886786977082],[127.0475722990461,37.187910898476],[127.04720449931841,37.1858587998438],[127.0478722007656,37.1851924986762],[127.0540880999227,37.188402999736404],[127.0566376995276,37.185596199318],[127.05610929950531,37.1843715003403],[127.05704819844199,37.182611198701395],[127.0563659011416,37.1847340989835],[127.06028950026649,37.1842929996378],[127.0608964003494,37.186069398253004],[127.0633360041662,37.1865948997633],[127.0648999019004,37.18996679775],[127.0693697010906,37.1902015998208],[127.071012000496,37.1928662999475],[127.0704760005085,37.195694599488206],[127.07264120017231,37.1967283994503],[127.0737763009471,37.1956554993264],[127.0727807003881,37.1967962000629],[127.0750896006881,37.2009557995977],[127.0728594006696,37.203005600358594],[127.0720599004714,37.2018539012083],[127.0713062003303,37.2038366006141],[127.0692653005634,37.2040449013691],[127.0685735007789,37.206536401281994],[127.0662461001344,37.207620000826],[127.0654451009354,37.2088673995786],[127.0659206009714,37.209645799559695],[127.0649631007371,37.2105521996664],[127.0652086007563,37.2114134998168],[127.064053400968,37.212035499590996],[127.0643950006372,37.2126948019658],[127.0637051990056,37.2127506008691],[127.0623661997997,37.2101587009247],[127.0607633014026,37.210257400826],[127.06023950100739,37.2117801010675],[127.0577418022086,37.212886799524],[127.0567645024534,37.2152666992042],[127.0580535004214,37.2164026003035],[127.0553562001083,37.216543601054504],[127.05336070137,37.215090001506],[127.0522796998424,37.215192801562395],[127.05175919823321,37.2166758009025],[127.0508626991297,37.214444403133896],[127.0491196008728,37.2147548028235],[127.0476819981255,37.2136231023055],[127.0449725994732,37.214577000685296],[127.04627269813301,37.2128720014144],[127.0434728996713,37.2119160017303],[127.0410784000896,37.2136824007026],[127.03975370091631,37.2131731009969],[127.03886110102721,37.214285700914395],[127.0375300010121,37.2137200008991],[127.03278489942619,37.215036501383395],[127.0302939980098,37.2133835989678],[127.0316896989049,37.2116095991094],[127.0316086989859,37.2103933003257],[127.0303144000346,37.2100808005755],[127.0293357994249,37.2107935003626],[127.028161700599,37.2083603027958],[127.0245168994848,37.2069026997087]]],[[[126.9946113986785,37.2640906995533],[126.9964810006703,37.2647737987931],[126.99784339983219,37.263548999937896],[126.9977600999097,37.26266059966979],[126.9986036995797,37.2632934995288],[126.999477400999,37.2625327989303],[127.0005783013605,37.263458798194605],[126.999477400464,37.2625328010066],[126.9994538004876,37.263625399914005],[127.0004006005126,37.2636458003254],[126.9992403001643,37.2645702005494],[126.9992700010079,37.266610000594],[126.9984471996713,37.2656364001547],[126.9992402997315,37.2645702006216],[126.998469999921,37.2639626010727],[126.99755490083609,37.2650109000244],[126.99824000000389,37.265524300046],[126.9964810003751,37.2647738012381],[126.99561010071649,37.2669378995404],[126.9964237006779,37.2666992994062],[126.9966187998741,37.2676498006169],[126.9952668993897,37.2668281005553],[126.9961290990326,37.2653831007076],[126.9946113986785,37.2640906995533]]],[[[126.9859662998621,37.283877600184795],[126.9874067991646,37.2825266975728],[126.9895220006888,37.2825546987622],[126.9886125013355,37.2837514005745],[126.9886982002109,37.2850730997031],[126.9893527001946,37.2849948008398],[126.9859662998621,37.283877600184795]]],[[[127.0091461994144,37.2450248000315],[127.0111494002813,37.245922698934905],[127.0119849994457,37.245233599624],[127.0130938014724,37.2416651994834],[127.01198500074389,37.2452335996133],[127.0130366008091,37.2458644004991],[127.0091461994144,37.2450248000315]]],[[[126.99601779953271,37.268831999565],[126.9966895999339,37.2700381987938],[126.9982651004137,37.2671371991482],[126.99736310066321,37.2699156999248],[126.9966895994193,37.270038201325804],[126.99601779953271,37.268831999565]]],[[[127.07223049927751,37.192890599923196],[127.0726361002873,37.192584899448796],[127.0726951001327,37.1929701002751],[127.07223049927751,37.192890599923196]]],[[[126.9719103994684,37.3004423002047],[126.9719103999023,37.3004422992636],[126.9719104002432,37.3004423001905],[126.9719103994684,37.3004423002047]]],[[[127.0624441996334,37.211169400465906],[127.062444200068,37.2111693997738],[127.0624442002134,37.2111694000016],[127.0624441996334,37.211169400465906]]],[[[127.0140762992705,37.245252799855],[127.014076300288,37.2452527998405],[127.0140762999182,37.2452528007775],[127.0140762992705,37.245252799855]]]]}},{"type":"Feature","properties":{"interval":60,"stationId":"5904958056"},"geometry":{"type":"MultiPolygon","coordinates":[[[[126.92712599775321,37.3191672993098],[126.9277423991223,37.3197007963175],[126.9350854974094,37.315690994488],[126.9362637962311,37.3118998982791],[126.936109896385,37.3103965997824],[126.9350069975075,37.309339198431],[126.9370279994854,37.3076486983784],[126.94162350056081,37.3096305961105],[126.94319399899031,37.3091836965574],[126.9444627021753,37.3059642947267],[126.9509878968035,37.3046523960028],[126.9517796979614,37.3022522983424],[126.9508961988449,37.300558600036105],[126.9511224996222,37.2972620993274],[126.9539750001529,37.298682897808206],[126.955979898148,37.2976273988637],[126.9558293983681,37.2959387997605],[126.9530835990743,37.294926700054496],[126.9541646987374,37.2942672995679],[126.95359099865411,37.2932169993135],[126.95545459760069,37.290378598903594],[126.9548724018702,37.2879131973738],[126.9567347000079,37.2882511970358],[126.95787609886649,37.2866092986777],[126.96295589548329,37.288886496922096],[126.9643333973699,37.285180496442905],[126.9680450970444,37.2851716981201],[126.9679826983185,37.2813174003317],[126.9667976995035,37.281001500647605],[126.9666827996317,37.2791540007188],[126.96636439995011,37.2795756002972],[126.96519089811919,37.278249199879696],[126.9634008997147,37.2778410993221],[126.96519089834919,37.278249199364495],[126.9655667984116,37.2765578003666],[126.9640172985841,37.2763301979322],[126.9655668004065,37.2765577981351],[126.96866769730559,37.275067899625],[126.9686118973614,37.2739950006979],[126.9661893975821,37.273682698548804],[126.9686118977522,37.2739949986592],[126.97052489979541,37.272491198813],[126.97084239626429,37.270166698740894],[126.97207329950511,37.268667699511305],[126.9717941979804,37.2657825996732],[126.9734980987256,37.26584789807],[126.97439949782421,37.2637238001941],[126.97257999846899,37.2630390988181],[126.9743994982132,37.263723798345204],[126.9753572972554,37.2617811002879],[126.974474698138,37.2604034016656],[126.97114259919299,37.260159000401],[126.973430498083,37.258952800116006],[126.9736369984114,37.2570570996679],[126.97213289909921,37.256368799885195],[126.97072469862181,37.2543650994221],[126.9714766987905,37.2511632989329],[126.9705795996876,37.2491068009894],[126.96904049789791,37.247927402174504],[126.96712459842881,37.247888601184],[126.9668225994529,37.2448578984854],[126.96842649933231,37.2452549985614],[126.96981889940871,37.243867799440494],[126.9729384970363,37.2462825973602],[126.9711385983406,37.2420970001248],[126.9727505000225,37.2413178999386],[126.9743198994248,37.2430902988475],[126.97617269867621,37.2420773981085],[126.9780451987298,37.2426158981108],[126.978657700608,37.2412729986502],[126.98152800098799,37.242103097889604],[126.98399569852029,37.241566498426195],[126.98446679880851,37.2405456977405],[126.9858933014184,37.243088798345205],[126.987886699425,37.2425339989],[126.99108600026439,37.244623598164],[126.9917095000703,37.2431281993863],[126.9927027014342,37.2441257009042],[126.99233320204141,37.248705696975],[126.99426730010731,37.252454693226],[126.9982742032052,37.2536207970523],[126.99947340121,37.2572956964025],[127.0009279997554,37.2571425965556],[127.00312319781321,37.2541807990908],[127.00499859936369,37.2530685995109],[127.0054656997932,37.2515964996675],[127.0069050996004,37.2512945990113],[127.0070535997541,37.2501275997713],[127.0081160001285,37.250642698893],[127.0098671993496,37.249662299627595],[127.00992939940251,37.248045299557],[127.01175639873419,37.2484773986051],[127.0125492980609,37.247733899138],[127.01283859777159,37.2471639997079],[127.0091461994144,37.2450248000315],[127.0111494002813,37.245922698934905],[127.0119849994457,37.245233599624],[127.0130709994656,37.2411156986148],[127.01198500074389,37.2452335996133],[127.0139944993523,37.2460302990775],[127.0157843987818,37.241307599841],[127.0132321995619,37.238963399043904],[127.01631639885599,37.240374899047396],[127.01864879813729,37.2390084988123],[127.0196279971221,37.236911900288],[127.01851139922809,37.233789998915896],[127.0229921982085,37.230260097946704],[127.0238304973702,37.229059399147395],[127.0238285978338,37.2266269983224],[127.0226626989997,37.2243370006124],[127.0202385014239,37.2228973020521],[127.02017000149239,37.2243000006494],[127.01572510188,37.2240913071148],[127.0129845991187,37.2222443046541],[127.01116909887621,37.222576902156],[127.0097714988983,37.2243268999719],[127.0111690981045,37.2225768991707],[127.009854298383,37.2211494983866],[127.0110492995714,37.2201200976018],[127.01326079735989,37.220046497675405],[127.01529759532309,37.2139780037439],[127.0098660007547,37.213033604688306],[127.0077122018651,37.215383301932796],[127.0065289978039,37.2152944018263],[127.0040033003296,37.211571205549504],[127.0018706989452,37.2119289005053],[127.0033874986868,37.210451400202096],[127.0009833993399,37.2093419995398],[127.0029259973516,37.2078682995963],[127.00123049793311,37.2045238999037],[127.0028139971799,37.201868601472896],[127.0019359997011,37.1996260998906],[127.0028608016208,37.1991435988499],[127.0053917993655,37.2003063976369],[127.00684979790749,37.1984496994936],[127.0058376986439,37.197080400913094],[127.0061818976408,37.1952304987891],[127.0053874987859,37.1935816999404],[127.0067231990914,37.1950293985281],[127.0079293997421,37.192731297327796],[127.0112202964512,37.1922613977977],[127.01084559857719,37.186035898571],[127.01198670156019,37.1876945973507],[127.0151607983861,37.189205795839506],[127.01687409904129,37.1829237985967],[127.01880179866271,37.183886298686694],[127.0204016970628,37.1822998002732],[127.0195199970994,37.1787625024877],[127.01696319850781,37.179341900967394],[127.0195199973316,37.1787624986803],[127.0215302988097,37.176320997625204],[127.0219645983754,37.1735805003657],[127.0214517998007,37.1733372980829],[127.02770910069749,37.1728543983325],[127.0262415020563,37.1730667007874],[127.0258628033971,37.177108698568695],[127.0290440004587,37.1794333961547],[127.033786198698,37.1757271978007],[127.0351991000281,37.1754640974137],[127.0349207004269,37.1778352991813],[127.0356015005586,37.1778837000773],[127.0349306008994,37.1796181993868],[127.0395302977116,37.1820307968452],[127.0399611995356,37.1786467996491],[127.0409389996333,37.1791357993241],[127.0401297984642,37.1773561992105],[127.0405544980692,37.1759419000381],[127.0385095967176,37.173724599153196],[127.0374972977299,37.1710525018253],[127.03533810019991,37.1713752982388],[127.0379520998379,37.1694575996447],[127.03908719918199,37.1705158987292],[127.0401618981073,37.170289498955604],[127.0415396981923,37.1690100978401],[127.04177009912249,37.1661256989931],[127.0415397010968,37.1690100981393],[127.04688330022381,37.1698136984763],[127.04853799856909,37.1708037974862],[127.0499472971598,37.1692762990137],[127.0500565977503,37.1668308977893],[127.0520793988168,37.166196498195795],[127.0525275000404,37.1634788987563],[127.0526549014877,37.166181797618094],[127.0575505987108,37.1654124987416],[127.05931699831709,37.1630613979142],[127.05903149879751,37.1592095009086],[127.0574586997169,37.1596040008148],[127.0569414995579,37.158769800784704],[127.0533327974407,37.1581551020282],[127.05134739942609,37.1563067038766],[127.0489376999536,37.156317703873],[127.0488316995758,37.1557785996174],[127.0504392979682,37.1554375999584],[127.050818497589,37.153750501645504],[127.0464423962146,37.1474706029867],[127.0490894985018,37.1474633960916],[127.0492698990709,37.1437367981189],[127.05135250003299,37.1440346971025],[127.0527998992458,37.142128798962204],[127.05283249974889,37.1403279996662],[127.05282190084179,37.141691898641994],[127.0541471995165,37.1418290985048],[127.05674979742581,37.1398979997073],[127.05443369911,37.1386313003708],[127.0589231984734,37.1379605988],[127.0600417997802,37.134192999896804],[127.060301900077,37.1350305990744],[127.0619094001002,37.1346279966371],[127.0674177995802,37.1367566987706],[127.0689765980214,37.1357921997351],[127.069012898934,37.1350096984232],[127.0689176032084,37.1367984990977],[127.0720180012438,37.1377812991784],[127.07582100189161,37.1376814981882],[127.0760777010105,37.138890499769204],[127.07500910146051,37.140406299435504],[127.0761544006306,37.1410580990104],[127.0772958007746,37.1405295997562],[127.0785396000818,37.1416921993442],[127.07836100051131,37.14352619959789],[127.08101360061171,37.1452581994629],[127.0803125011208,37.146876898954005],[127.0819157995175,37.147916697914205],[127.0840885993309,37.1465360994159],[127.08507500250481,37.146943201396205],[127.0841709022135,37.148424803261804],[127.081863202759,37.1485092036329],[127.0807827038395,37.15176210038],[127.0811467010284,37.154543800079196],[127.0806555994284,37.1534760011173],[127.0796286002337,37.1539428005803],[127.0795514002882,37.1548346003714],[127.0788223000984,37.1535205006547],[127.0779705006132,37.1541424999516],[127.0783264006631,37.1569503012024],[127.0773619014785,37.1584022998791],[127.0788140003383,37.1589449008947],[127.0773619004892,37.1584023011949],[127.07498610088581,37.1609047006919],[127.0724293002729,37.1614201013135],[127.0716743000029,37.1623471009299],[127.0684741012527,37.161360101781405],[127.06868990103689,37.163502899638594],[127.06982260119419,37.164346300355696],[127.0692973017195,37.1659823987196],[127.0718426002382,37.165329999813096],[127.0703668019874,37.1689464983697],[127.0717856005686,37.1714388958773],[127.0758904031411,37.1698733015265],[127.07549470253579,37.171952400565004],[127.0717667029048,37.1717260021507],[127.0688736057979,37.1752945985821],[127.0691703055012,37.1772882965884],[127.07517449949701,37.1769302969464],[127.0775370971344,37.173401600475096],[127.07949940221201,37.172718798270395],[127.08021050244261,37.1750682985343],[127.0828940011466,37.1746243989431],[127.08389130194631,37.1786971995472],[127.0900487008597,37.1796349985722],[127.0904331012427,37.1810423997496],[127.09330590031381,37.1821609995744],[127.0929270008834,37.1835976996657],[127.0939472011035,37.183525799756595],[127.0946768003739,37.1849487983336],[127.096782500981,37.1849478999999],[127.0965025003051,37.186372399305604],[127.0983532010683,37.186193798865496],[127.0944695017554,37.1866215018881],[127.0929623032626,37.1888546996549],[127.0939161022718,37.1901418995228],[127.0969331010063,37.1911719991446],[127.0973821017004,37.1931835990388],[127.0990980999844,37.192623399599],[127.0995781028742,37.194431501401404],[127.0984932004439,37.1955674009951],[127.09868810024841,37.1966428001381],[127.0975882008546,37.1969387999859],[127.0954200007144,37.2000600008123],[127.0961609001089,37.201636901117695],[127.0931958017226,37.2016005000064],[127.0949073011417,37.2034274995763],[127.09631280106841,37.203401399520494],[127.0963977011225,37.204834401150606],[127.092716600714,37.2090780995458],[127.0942505996356,37.2100395985807],[127.0960825010415,37.2091538992012],[127.09501400138731,37.209448901093495],[127.0949116003234,37.2114054016568],[127.09287769980611,37.211415702040604],[127.0903943013731,37.216250900708],[127.0859045000496,37.2175819005514],[127.08157009983269,37.2167026013338],[127.0807272006756,37.2172575007789],[127.0793823010961,37.2192609013043],[127.08036500192961,37.2214089015278],[127.0785535004436,37.2234319014173],[127.0764756004771,37.2232443017083],[127.0757326012201,37.2238679010847],[127.0754322015205,37.224944300008296],[127.0763855009759,37.225796100354295],[127.0726716020053,37.2300040011851],[127.0730507014805,37.2311897004174],[127.07061110026689,37.2307259014203],[127.0701833007565,37.2331601003143],[127.0681092003112,37.2329067002351],[127.0678482002635,37.2345837012826],[127.0663695005791,37.2342620014667],[127.0658650993335,37.235299400437704],[127.065043600155,37.233523602213495],[127.0641189010797,37.2336482020889],[127.0635084994552,37.2354177008153],[127.0608922000844,37.2333084011225],[127.0558950000707,37.2323290016156],[127.0537372022285,37.232869601075],[127.0528719006032,37.2345604008441],[127.05186260101851,37.2344649006673],[127.0520575991971,37.2360003014612],[127.0466603010385,37.2312177034782],[127.0458428012776,37.234281700667694],[127.0447720006238,37.2344777005086],[127.04478160061419,37.2353273996589],[127.04587330188589,37.2359178013667],[127.04394870095331,37.236428500951305],[127.0445959995097,37.2342873006072],[127.0425642987811,37.232599300966896],[127.03912050222489,37.232658200908006],[127.040033001182,37.2345368011315],[127.0373703997104,37.2352042015045],[127.0360782995331,37.234044501481605],[127.0329812022691,37.2340857013856],[127.03303560221471,37.2355033999679],[127.0356324002299,37.2378767002903],[127.03364410104821,37.2387025020788],[127.0326416020507,37.240464800316495],[127.0335279014917,37.2422519995109],[127.03234150118391,37.2453654996097],[127.0316210995094,37.245207802217806],[127.0293056017421,37.2474650009057],[127.0265229007302,37.248075300367105],[127.026600200934,37.2502755998013],[127.02473190042811,37.2511302006137],[127.0240319011281,37.2526932990506],[127.0247421016469,37.2528034001729],[127.0207866008327,37.25388670056],[127.0216294999898,37.2558429986037],[127.02714329879741,37.2553980995901],[127.0268597997497,37.254515998979706],[127.02928320075219,37.2536085993226],[127.0341691990984,37.2556052977521],[127.0339306988809,37.2531736988297],[127.0350976993195,37.2528503984043],[127.0354688983147,37.249220998630896],[127.0383254000094,37.245185999749296],[127.0394310001019,37.248067397849496],[127.0411786990692,37.2473562984891],[127.04100610000411,37.245823299425],[127.0413751999869,37.246974098821305],[127.0446570996717,37.246587498747395],[127.0454601995922,37.247428398927894],[127.0483145997131,37.2468538986048],[127.04910600134089,37.2481742011795],[127.0470765013533,37.2513693040648],[127.0455141018385,37.2554559005129],[127.04597200070151,37.2559630013291],[127.0421813009349,37.2544084013749],[127.0429636002949,37.2567428993123],[127.043892001417,37.256364600594196],[127.0431849002927,37.256653401048695],[127.0432661000859,37.257782400177305],[127.0413560999966,37.2576764007679],[127.0417719001489,37.259941999995306],[127.0391907005165,37.2628584998433],[127.0396612004991,37.263923500241],[127.0376654007704,37.2649278006307],[127.03749670222831,37.2660517026493],[127.03423460016421,37.2659503009127],[127.0339027995834,37.2668587011168],[127.031622201864,37.2679469000286],[127.0317363017499,37.2690816988938],[127.03564209975201,37.2690610993109],[127.0353160007448,37.2696333003174],[127.0259875007235,37.2680834004669],[127.0244696001864,37.271055000111595],[127.02271690125231,37.2711063008465],[127.021388602491,37.2738167989326],[127.02225200138689,37.2742597007931],[127.01846689988251,37.278566400981305],[127.0149556998476,37.279573700631204],[127.01428109947811,37.2774271011546],[127.01173380094791,37.2776043016457],[127.0119964006853,37.2795440997059],[127.0130278005789,37.2802175003222],[127.0108546019665,37.282079799641096],[127.01220040042959,37.282726700313496],[127.01181669936359,37.2831922006296],[127.0110163998528,37.2824648013296],[127.0098564010128,37.2835019002925],[127.0097320011372,37.2847546990397],[127.0128855002902,37.2852804991388],[127.0111685013157,37.2867633997681],[127.0121149002653,37.287314100235605],[127.01060100107459,37.2887144005105],[127.0121367005799,37.2918669992369],[127.01194630095621,37.2930914998644],[127.0127570002402,37.2931519001778],[127.00999470040989,37.2945213006409],[127.0097196002648,37.2956145001194],[127.0072413005918,37.2951897008258],[127.0065659001141,37.2960619007103],[127.0052898008435,37.295840900807704],[127.0053819004613,37.296984100516504],[127.004160100204,37.2982754004914],[127.003041399715,37.2970449013032],[126.99815310130549,37.3001868014057],[126.9977869999545,37.29873340049021],[126.9960584005224,37.2988487007477],[126.99617580129261,37.3013204999172],[126.99524510062511,37.302041199856596],[126.9965430005283,37.3037006994991],[126.9952076001773,37.3040747999483],[126.99696610111789,37.3049877994841],[126.9962756004778,37.3048856011448],[126.996501300725,37.306471300350395],[126.9956259006905,37.3061970010128],[126.9960080002873,37.3073532004109],[126.9945928000652,37.3085513006927],[126.9913649006335,37.3085783010016],[126.99072000086599,37.3109288998752],[126.9894986003608,37.310959000711996],[126.9897459999531,37.3117816002943],[126.9865280004643,37.3119033007562],[126.9858778011145,37.3129109997485],[126.9865284002568,37.313527799933006],[126.9832645017228,37.3167371994248],[126.9849769020422,37.3177228006132],[126.9814501001545,37.3177645017385],[126.9796926986078,37.3186443000778],[126.98072469875589,37.3173112996062],[126.98139059809,37.3136417032758],[126.9777702987439,37.3133660061056],[126.9772391982861,37.3112093018026],[126.97567279795079,37.3098077010005],[126.9729423006813,37.3095176012906],[126.97294240258289,37.3110386019733],[126.9707912994179,37.313664703223196],[126.9678219968789,37.3102899053081],[126.9625247000683,37.3135879028414],[126.9615678010252,37.3163024001269],[126.9617033008897,37.3191409972883],[126.9644415981514,37.3179461984831],[126.96427750042339,37.3167257988722],[126.96520820159391,37.3200224970835],[126.9694662047622,37.320778706865],[126.9655394992464,37.320708301024396],[126.963286901499,37.3228643988683],[126.9636443019121,37.327124600386696],[126.9644384998698,37.328028802644496],[126.9618776964832,37.3284982011392],[126.9598037985571,37.327148202489205],[126.9591021001592,37.3250981013533],[126.957826800065,37.3254465017182],[126.9568495010423,37.3274725996921],[126.9570905012704,37.331699097938305],[126.9586167042674,37.332035998419705],[126.9592515026213,37.33339870031519],[126.96182190005091,37.3337989999149],[126.962866801694,37.3352272997883],[126.9617696018038,37.3360571998059],[126.9611839001709,37.3348308022391],[126.9578486019153,37.3353563024508],[126.9568177995529,37.3378523017238],[126.956735694441,37.3352231014978],[126.9553772957994,37.3321775045434],[126.95401989715681,37.3309021058188],[126.9512138999628,37.3301651065558],[126.9441006004586,37.3316137021734],[126.9408136995118,37.331017301599],[126.9369040015341,37.333683299902894],[126.936966998478,37.3344321010127],[126.9368105983112,37.3325719011931],[126.9332360981443,37.3321089021575],[126.9298915999921,37.3297271008799],[126.9338652987893,37.3298312990806],[126.93435609829851,37.328257200654704],[126.933811598843,37.324833404078504],[126.9289332994271,37.3261420000513],[126.92857189872849,37.3245092982443],[126.93006469723571,37.3218020009516],[126.9279764971025,37.3208310011589],[126.92712599775321,37.3191672993098]]],[[[126.9145548987532,37.4041995999636],[126.9145966987774,37.4031502994765],[126.918080198992,37.4028126994037],[126.917845799238,37.4019252996371],[126.91981949956231,37.401703299550704],[126.9203616996008,37.4000675998087],[126.9213008002039,37.401576999060204],[126.92223589932351,37.400440700130495],[126.9213283991127,37.399961800106],[126.9210475000097,37.399223299952304],[126.9221133995526,37.3990520993777],[126.9210444006216,37.398018100411704],[126.9197185990634,37.3995967006084],[126.9190008994314,37.396986400725304],[126.9200286990327,37.3966408994825],[126.91934259915779,37.3957762995558],[126.9217844001119,37.3961464991245],[126.9254828997966,37.3949942991861],[126.9266702992328,37.395620198871704],[126.9279429986908,37.393798499812405],[126.9260197992597,37.3932877008927],[126.9254283987423,37.389964300101],[126.92423739880799,37.3881330003934],[126.92652959714759,37.3874796998851],[126.9273994965979,37.385439299196705],[126.9240924981818,37.382181199540796],[126.92319809763069,37.380091996733],[126.9299128997788,37.3797450972817],[126.9310138011807,37.377611798295],[126.9322586013628,37.3778413986776],[126.9324792011422,37.3789484975705],[126.93646989912581,37.3780608983219],[126.9366369989587,37.3760021003807],[126.9347312988901,37.3743643021547],[126.9330088006126,37.3744881020309],[126.9323284997319,37.3723472006879],[126.9313226998803,37.3726963004074],[126.93157379945609,37.3718808999931],[126.9309518998485,37.3716357995633],[126.93157379953739,37.3718808991412],[126.93182899927689,37.370202500030295],[126.9324239995219,37.3704408995303],[126.9332549986909,37.3691837007875],[126.9328207991251,37.3682516017196],[126.931485899511,37.368524800000806],[126.9331231991751,37.3676240999583],[126.93362210005999,37.364089198928504],[126.9346946008906,37.3654926982951],[126.9365262991133,37.3636749996404],[126.9372510001432,37.364467599498596],[126.93939969908979,37.363658299616695],[126.9392289992516,37.361905000323],[126.9378276996677,37.3606932008757],[126.9361249003703,37.3617989004564],[126.93605789995699,37.3609485003736],[126.9335415998863,37.361328800388705],[126.93281929952511,37.3626536013023],[126.9315386999629,37.3624633012058],[126.9319729993338,37.3619873998236],[126.9309926999761,37.359840000544395],[126.92934529924999,37.3599893001668],[126.9308258992292,37.3582145996835],[126.9295954986934,37.3571935989669],[126.93005990023521,37.3552190992215],[126.9315783016266,37.3554744979075],[126.9343560008454,37.354017798810204],[126.9358950995358,37.3554851988136],[126.9376700977608,37.3557554985433],[126.9392837961471,37.3531842011146],[126.938779396787,37.3505042022487],[126.93568719716231,37.3489649021725],[126.931899198489,37.348996301567205],[126.9298064992923,37.3503502007946],[126.9283125007863,37.3491811019637],[126.92686350223529,37.350628800516006],[126.9266709007485,37.352901500105204],[126.9254706001705,37.3527127004],[126.92472929986559,37.3525395005007],[126.9233961979064,37.3471405992909],[126.9255198008547,37.34610459888469],[126.9257592011588,37.3485389988274],[126.92713499978301,37.3489959983704],[126.9314098983188,37.3461516977312],[126.9356950957401,37.3447067995131],[126.933651998343,37.340481701113],[126.9316059988666,37.340273199007],[126.9327771989992,37.3393748997509],[126.93196210019201,37.3385763992941],[126.9327772000196,37.3393748984669],[126.93463649939919,37.3387314998413],[126.935362299688,37.337555099739106],[126.9347319992942,37.3358872005505],[126.9353635992943,37.335479399943495],[126.93742969959429,37.3376264974347],[126.9414531021242,37.3389393961774],[126.94067820167999,37.3400649994999],[126.9446526004657,37.3438753983021],[126.9465070000288,37.3440379981817],[126.9495392001296,37.3405547986154],[126.9499364997323,37.3411209980492],[126.9535576961111,37.341049198121],[126.95420280108681,37.3400037987608],[126.9557253010165,37.343575298656496],[126.95752210255101,37.344274596754495],[126.9579957035285,37.3461406984517],[126.9625765024601,37.3490070978889],[126.9648973001393,37.3517037951922],[126.9669327003124,37.3514853997068],[126.9626220027718,37.3527981014658],[126.9652400020058,37.3553038992962],[126.9657157007036,37.3582805994146],[126.9646809014319,37.3592091015898],[126.9627675007915,37.3589264012771],[126.961834199908,37.3601113019194],[126.9574165010807,37.3585537015021],[126.9558438020896,37.3603551002225],[126.9561923027382,37.3629370002132],[126.95823210069841,37.3645206986295],[126.9594434009145,37.364121600712494],[126.9575966005959,37.3655390004895],[126.9582320991277,37.3645207007294],[126.9565762007836,37.3636608015893],[126.95559780087191,37.3655058005755],[126.9565228007993,37.3664648002554],[126.95616340069519,37.368762699748395],[126.9571505006239,37.3686681992439],[126.9577970002605,37.3703220000512],[126.9569658999725,37.3708081003228],[126.9569987998129,37.3699767003612],[126.9556689006022,37.3695241008715],[126.95403330083441,37.3729669004688],[126.9522947022585,37.3746632992408],[126.9507181996425,37.374010701389],[126.9450859004749,37.377811101942804],[126.9426213029395,37.3777950019589],[126.9405650049958,37.379772899981],[126.9450377011288,37.3827037982695],[126.9473908010734,37.3830719990483],[126.94616240141971,37.3846406002114],[126.9474658006182,37.3885241981261],[126.948905399878,37.389117299393504],[126.9499843987643,37.3857951006935],[126.9495868994943,37.384883399288796],[126.9541877000677,37.3854486988974],[126.9547085995468,37.3842130001331],[126.9541532998044,37.384032099936796],[126.9548133000587,37.3837056998228],[126.9559507004102,37.3856000991105],[126.955374000716,37.3866222996867],[126.9561271006058,37.3865109002519],[126.957679200706,37.3901456998789],[126.95891439997119,37.3909547995201],[126.96299940026191,37.3896818995251],[126.966442900038,37.3907581999046],[126.96701149994409,37.3899291996132],[126.9652746037,37.3935434011501],[126.96671670225791,37.3958339988595],[126.9688401020658,37.3958283001718],[126.9667167021108,37.3958340001777],[126.9664386998902,37.397014602564695],[126.964953000411,37.396859302417404],[126.9634602019038,37.398648800627896],[126.9601351000212,37.397965400824795],[126.9604910991844,37.3969104010333],[126.95859149920939,37.3956754005777],[126.9588778995281,37.3946714004374],[126.95692359902169,37.3931393004386],[126.9553388999652,37.3927842005783],[126.9541310003363,37.3946033001148],[126.95307440025391,37.3938951011783],[126.95257100006381,37.3948207003357],[126.9524793995276,37.3936973009352],[126.95144429863811,37.394609000712606],[126.94786930163839,37.392963001721405],[126.9487120007957,37.395309399375],[126.9498675002106,37.3957243015563],[126.94650849941769,37.3940134025238],[126.9443364987308,37.3918498995415],[126.9438192994892,37.3878888017085],[126.94157730011301,37.3903410005865],[126.9394633003425,37.390139001470295],[126.9378892007873,37.3918687006796],[126.93733590134059,37.393060499487795],[126.9384493001444,37.393900600676105],[126.9363309999989,37.3925607019858],[126.9321680988257,37.39467050098639],[126.9302316002804,37.393723401539],[126.9302676007262,37.396190899466],[126.933104900641,37.399898099519504],[126.9318446016919,37.4017631985161],[126.9327604017439,37.4035294028623],[126.93045999804819,37.404540505719204],[126.9294388008688,37.403393301053995],[126.9261869972991,37.4028232037828],[126.9228456006405,37.4051099014961],[126.9223574985598,37.408229702320696],[126.9211746997426,37.406684003866395],[126.9184791000552,37.407484402848404],[126.9174970999269,37.409979702521504],[126.9153726993524,37.409443400767],[126.9145548987532,37.4041995999636]]],[[[126.88814239964651,37.504542300005895],[126.8898693004812,37.5046956988964],[126.8915317008182,37.5037098990029],[126.8940080014095,37.504569199040496],[126.8940447018305,37.5075357995869],[126.89479160108361,37.5079455991771],[126.89696939890581,37.5077227993999],[126.897368499855,37.5057744990901],[126.89696940071781,37.5077227993456],[126.8993209999234,37.5086490992763],[126.9013799993928,37.5067199997409],[126.90358049980401,37.5076729986101],[126.9040402996406,37.5060596996553],[126.9094324001843,37.505511798353],[126.91018130178351,37.5038461986588],[126.912312799652,37.5054814970235],[126.9135228004224,37.5050987995757],[126.9156973004375,37.5060968990256],[126.9151568015,37.507764299193695],[126.9186582008812,37.5106350002016],[126.9192464002283,37.5140147991131],[126.92050720008011,37.513698499315396],[126.9197830006255,37.514289399972604],[126.9217397996419,37.515824598803704],[126.9240509995799,37.5137765991861],[126.92370939970921,37.5129446994887],[126.9250208997104,37.5120231992071],[126.92484409960281,37.5110171993846],[126.9259406985062,37.510908799493],[126.92526459915561,37.508788101552],[126.924306200114,37.5097107006294],[126.9239452986882,37.5091755998794],[126.92526460094831,37.5087880975532],[126.9259407003165,37.5109087976136],[126.9266165023349,37.5109960986446],[126.9270015003229,37.5136845993027],[126.9295099011698,37.5140636991421],[126.92913060213249,37.516966198034396],[126.93023420231,37.5181942997513],[126.9282734001455,37.517614701274404],[126.9275469997259,37.5183604015122],[126.92382749957301,37.5155092008863],[126.922543500857,37.5154744009211],[126.92022810167481,37.5167130003867],[126.9209798003434,37.5194849026793],[126.919052899558,37.519719100783405],[126.9172840993872,37.518130902468805],[126.9140168997492,37.5209773007704],[126.9120395994245,37.521306300835796],[126.91226359928831,37.5195754014009],[126.910752400478,37.520635900807605],[126.9088095995576,37.520610600495196],[126.9077633992758,37.5193605000625],[126.9086804991213,37.5184441001683],[126.9078699996352,37.5171281001596],[126.90933459937709,37.5171762990781],[126.9099578988477,37.5156969004214],[126.9084875998681,37.5146486009657],[126.9076299993608,37.515500000833505],[126.9076031988408,37.514731900805],[126.90294730093359,37.5124200013209],[126.90261480036199,37.512911701265196],[126.8998511980728,37.5117881002285],[126.8981695986634,37.510137901377696],[126.8954551997521,37.5098084003635],[126.8934365004856,37.508068901864696],[126.8923285006303,37.509672700272404],[126.89161059942761,37.509523200831495],[126.89195339942161,37.508590600255495],[126.8901955986142,37.5077287994753],[126.8900334994642,37.5055354009672],[126.8883624998719,37.5061472013136],[126.8888446991494,37.5049111005692],[126.88814239964651,37.504542300005895]]],[[[127.04299709775479,37.053000601352494],[127.04393569970351,37.0499188991691],[127.0444430010872,37.0505993987204],[127.0465236997276,37.050606798724296],[127.0469579992933,37.0483048010263],[127.0457878988034,37.048041099665696],[127.0497230000158,37.0464944990478],[127.05012310012819,37.0481797999155],[127.0537433006427,37.0500776990792],[127.0552721996396,37.0501687991744],[127.0579683004168,37.0480059995975],[127.0573381005711,37.048970599505594],[127.0586689002838,37.0493209997103],[127.06012869999661,37.051145499840594],[127.0602459004481,37.0535474999869],[127.0590495006662,37.0533845006545],[127.0583836013321,37.05435899968],[127.0591738003768,37.0558204003405],[127.05624670015,37.0574335004668],[127.05378400003269,37.057211900657],[127.053296500089,37.0562150007473],[127.0499063999529,37.0589795003438],[127.0489187987169,37.0589437008408],[127.0489066982132,37.0575977011281],[127.0463093985347,37.0578077999661],[127.0464703983737,37.0562753014986],[127.0436679999744,37.0550656018657],[127.0438694997923,37.053082701321095],[127.04299709775479,37.053000601352494]]],[[[127.0483085990138,37.0747171002488],[127.04835009985989,37.0735081998086],[127.0490333996933,37.0742307989613],[127.0498774993939,37.0720258990284],[127.0535609995661,37.0693614992867],[127.0536600004011,37.0700612992566],[127.0547552993058,37.0699916993262],[127.0546615003578,37.0694111979359],[127.0570867008432,37.0699346986454],[127.0577490005109,37.0713714988165],[127.0588138999296,37.0703075995412],[127.059500000411,37.07069439899],[127.05905630095579,37.071624200083406],[127.0608501020966,37.0748973993691],[127.06064550216101,37.076715401111095],[127.0586887011963,37.077377001498796],[127.0592263999957,37.0796663006463],[127.0564002999734,37.0819857011825],[127.0543200996401,37.079155801153604],[127.0543383994387,37.0779424011901],[127.05366349989819,37.0778298012719],[127.0515835000408,37.080234600678295],[127.0512448996232,37.079191100479505],[127.0504786995763,37.0792860004847],[127.0521586991678,37.077830499995194],[127.0483085990138,37.0747171002488]]],[[[126.8902589994968,37.4543583002793],[126.8914121996227,37.4540286995694],[126.8913203006016,37.4546808998685],[126.8935017990668,37.454876898681604],[126.8945463002684,37.4526830994604],[126.89305930044151,37.4566987998041],[126.8938259998872,37.4573477992144],[126.8942663000491,37.4559653998898],[126.8972045000493,37.4552436989296],[126.8975053001847,37.456695099961195],[126.8964110000893,37.4566004001951],[126.8959746005613,37.4575244012094],[126.89382599954871,37.457347801920804],[126.8902589994968,37.4543583002793]]],[[[127.0755538977873,36.9897214006646],[127.0774562973519,36.988381699668],[127.07705199727309,36.9869208974908],[127.0808266986126,36.984923897037696],[127.0848620999894,36.9832747962262],[127.08715390016991,36.983643398706],[127.0914536995831,36.982772398760105],[127.08997580322381,36.984184900200404],[127.09164200155759,36.9865100978752],[127.09047800217371,36.9878755007288],[127.09067420197749,36.9888506997536],[127.0917340008464,36.9895893994111],[127.09410550212719,36.9891492958677],[127.0960805006771,36.9913988995415],[127.0942204012603,36.9925224997502],[127.0947067009585,36.9938951998115],[127.0925349017978,36.994865999858405],[127.092947101167,36.996218399781895],[127.0921538010116,36.997629600666706],[127.08961290101941,36.9974108004908],[127.0871262003124,36.9994644004973],[127.0847592001138,36.9983438006851],[127.08316000066611,36.9989203013315],[127.0820780999915,36.997366201482],[127.08000289883759,36.9986731012151],[127.079890299,36.997967499787805],[127.080985798584,36.9976462998905],[127.080573698525,36.9952888017503],[127.0775409986031,36.9933974018396],[127.0750016994453,36.9939077006726],[127.0769374972434,36.9933292996659],[127.0755538977873,36.9897214006646]]],[[[126.9043320966838,37.4203746030793],[126.9068119955285,37.4174074965768],[126.9066524973027,37.4159904975145],[126.9047554995622,37.4133900989479],[126.9069321998569,37.4130297990576],[126.9082361994498,37.4137077988427],[126.9109547998981,37.4128673986471],[126.91224489992321,37.413554499003496],[126.9136077010185,37.4128663995805],[126.91244140071001,37.4136582004591],[126.9121843003284,37.4153306996863],[126.9137474002123,37.4156180997223],[126.91407809935009,37.41658000153431],[126.91230660006799,37.4169179002727],[126.9106692000141,37.4188780002423],[126.9090164000177,37.4185602004277],[126.90696850057971,37.4197436008404],[126.9058141002802,37.422926700691],[126.90298139987681,37.4232893003929],[126.9043320966838,37.4203746030793]]],[[[126.9383625993816,37.513099600237396],[126.93970079915469,37.513434099306295],[126.9394725997416,37.5119178994595],[126.943367999425,37.510987898931006],[126.9475760008064,37.5133928005368],[126.9459162988435,37.5143340011961],[126.943239299921,37.513091100578194],[126.9426760001494,37.513797100180795],[126.9383625993816,37.513099600237396]]],[[[127.05027149982399,37.2455574001536],[127.05161119981669,37.2443853991664],[127.0531046998515,37.2449510997651],[127.0530622986847,37.242215899399596],[127.05464379850929,37.242212099617106],[127.0540840999758,37.241338998848505],[127.0554271003709,37.2413115987213],[127.058461801367,37.2415054988587],[127.0583822026359,37.2435660988859],[127.0607786002395,37.2441096983423],[127.06124360194529,37.2435029983985],[127.0637483002963,37.2460088996699],[127.0620692004822,37.24610570041],[127.06252259994099,37.2471893003673],[127.06109930041559,37.246974800436796],[127.0589904015979,37.249996100344],[127.0576880991229,37.2504471011498],[127.0583395984654,37.249648800261205],[127.0574835993214,37.2488148010952],[127.05669590010909,37.2492735006365],[127.05467539798009,37.247591801451],[127.0526127988182,37.247675201603705],[127.05027149982399,37.2455574001536]]],[[[127.069443398361,37.2523745992327],[127.0687988991108,37.2513569993978],[127.0703417988789,37.2497161003851],[127.0686088997164,37.2485854994031],[127.07034179989549,37.249716099740404],[127.07288660010751,37.2486856986094],[127.0741025001289,37.2500256986713],[127.0748056002355,37.2493438997392],[127.07408380015289,37.2529639001926],[127.0729423005121,37.2527626004121],[127.0731242003603,37.253796999531396],[127.0739548000267,37.2538652007561],[127.070348600391,37.253041501839],[127.0697690996612,37.2538670019338],[127.069443398361,37.2523745992327]]],[[[127.0507732976929,37.1119153932679],[127.05368399667721,37.1061056987628],[127.05754039605809,37.103942901295],[127.05677270028279,37.1029898975302],[127.0619685994491,37.108549395177],[127.0638374999494,37.106298597230506],[127.06659880200749,37.1090666994824],[127.0634063997348,37.109463300274605],[127.063558698832,37.1085037006254],[127.0607888012958,37.108596600561896],[127.0619285011931,37.1099733998456],[127.0625922007527,37.113967799277695],[127.0639235994213,37.113719499526],[127.06366229947281,37.1128919996644],[127.0640936007594,37.113425999680494],[127.0603196029229,37.1170170016768],[127.06009849752499,37.1151557020819],[127.0547826986309,37.114624902936704],[127.05431799688,37.1108005022715],[127.0507732976929,37.1119153932679]]],[[[126.877112899013,37.5026563997518],[126.8779494988072,37.5017090002005],[126.8773363002956,37.501110197837],[126.87912530097479,37.5011595985953],[126.8804095001195,37.502181998331295],[126.8811875993414,37.5016740988392],[126.8804604002795,37.5033254993206],[126.882536099839,37.5049542988853],[126.88550400063009,37.5057852997988],[126.8857161000786,37.5072100000545],[126.88267259893381,37.507092200143504],[126.8827575995174,37.505928500525506],[126.8819798995581,37.505777199444296],[126.8825360989965,37.504954300185],[126.88031880026699,37.503413001685104],[126.8798103002713,37.5051889004411],[126.87868000045741,37.5039400012431],[126.8769880002089,37.5054024004383],[126.8779107988438,37.5046034996207],[126.877095599659,37.503977900246305],[126.877112899013,37.5026563997518]]],[[[126.8996214986055,37.4318376996949],[126.8990927995367,37.4306620990192],[126.900090900502,37.4314932987212],[126.9029125999106,37.430473898988005],[126.903138101142,37.4296091997641],[126.9041616009703,37.430874599508904],[126.9035155002785,37.4320690996214],[126.9068445998418,37.433821799440395],[126.9066000010681,37.435149201723995],[126.9031929000371,37.437832700311205],[126.9028850992516,37.4359988004471],[126.90194890018779,37.435259901186],[126.9010960008813,37.4355551008682],[126.9010073000432,37.4370443012889],[126.8996214986055,37.4318376996949]]],[[[126.9722769996557,37.4026589000893],[126.9743958996643,37.3984039001339],[126.976059498878,37.3983156998872],[126.9766212002145,37.397493899612],[126.9788654020614,37.4001794989209],[126.9768598004037,37.4020994006492],[126.9763118972321,37.4037718024552],[126.97447279907121,37.4033632028638],[126.9731826003614,37.404144602082404],[126.9735640991144,37.403078200525805],[126.9722769996557,37.4026589000893]]],[[[126.9638774991209,37.5299852000761],[126.96594249960229,37.527339599338596],[126.96675300024249,37.5281963999194],[126.9667828001498,37.529564700266505],[126.9647861003199,37.529175101678106],[126.96445990064609,37.5304383004149],[126.9638774991209,37.5299852000761]]],[[[126.9007662988381,37.518303200092596],[126.90281330039491,37.5154361999285],[126.90210810005071,37.518800700346],[126.9009713999621,37.5192171001846],[126.9007662988381,37.518303200092596]]],[[[126.8906457987439,37.4962003993522],[126.8929129006857,37.4958984994157],[126.8927050005942,37.4972747992438],[126.8932270000722,37.4972273992912],[126.8944368988623,37.4956405008781],[126.89418290066651,37.4946458994648],[126.8951622013809,37.4957952996848],[126.8944369009884,37.495640501100404],[126.8939800014453,37.4972731994677],[126.8959882001957,37.4989764001001],[126.89456270116729,37.499014600596404],[126.89382409892531,37.499903000651],[126.8923642986791,37.499124200721496],[126.8906457987439,37.4962003993522]]],[[[126.8943427995126,37.516041698921704],[126.894842400332,37.5172543993988],[126.8959794991949,37.517143299509904],[126.89581009930531,37.5165808996723],[126.8959795013147,37.5171433003015],[126.8950065002162,37.519022800173204],[126.8943427995126,37.516041698921704]]],[[[127.07752839958471,37.2581063998483],[127.0799842001328,37.259655199295196],[127.0798901012305,37.260582700327504],[127.07752839958471,37.2581063998483]]],[[[126.9894955997782,37.4256246998981],[126.99118920073859,37.426189899585594],[126.9912272001061,37.4278022003567],[126.9894955997782,37.4256246998981]]],[[[126.89058589892251,37.466659699946],[126.8919992003914,37.4650176979046],[126.89279710043459,37.4657820996565],[126.8925098006571,37.466538199460004],[126.8933769009634,37.4662136995798],[126.892021700483,37.4676885008079],[126.89058589892251,37.466659699946]]],[[[126.91651349960159,37.327865799331796],[126.9172559002091,37.327351599241],[126.91912980040169,37.3283345994546],[126.9185902007255,37.3296389024238],[126.9183808992549,37.3285022002629],[126.91651349960159,37.327865799331796]]],[[[127.1263872960195,36.915890399607704],[127.1272954008096,36.9158686994179],[127.126372700231,36.9161217010739],[127.1262975999681,36.917616400664],[127.1263872960195,36.915890399607704]]],[[[126.8808537991619,37.481866098498195],[126.8814599993896,37.4804974993367],[126.8816030000891,37.480629999510896],[126.88190520036021,37.4801373001062],[126.8808537991619,37.481866098498195]]],[[[126.8816940988349,37.5012585992547],[126.8824974002302,37.5002354995559],[126.8825138007292,37.500667400709496],[126.8816940988349,37.5012585992547]]],[[[126.8962638992127,37.5257927004081],[126.89719380062749,37.5256215998946],[126.8968308005731,37.5259165005029],[126.8962638992127,37.5257927004081]]],[[[126.9630740988896,37.5319967010122],[126.96358640045659,37.5315945997273],[126.9631233000736,37.5326902002656],[126.9630740988896,37.5319967010122]]],[[[126.9043433993655,37.4250804007479],[126.9049919011024,37.4244061992115],[126.90582310357381,37.425144799361895],[126.9052872002345,37.425961200375106],[126.9043433993655,37.4250804007479]]],[[[126.94969449925341,37.294274499846104],[126.9516404008725,37.2950283002191],[126.95031519743131,37.29561060106921],[126.9512973983731,37.29476849985],[126.94969449925341,37.294274499846104]]],[[[127.0819556992782,37.2236830004882],[127.0828893013244,37.223185300047895],[127.0826781001007,37.2237139000875],[127.0819556992782,37.2236830004882]]],[[[126.8878112992677,37.5126454997668],[126.88777689985801,37.512599898781296],[126.8881483016197,37.5131438999464],[126.8878112992677,37.5126454997668]]],[[[127.07075979961101,37.0185345994615],[127.0714112007872,37.0182370983789],[127.07194000232519,37.018968199970104],[127.07075979961101,37.0185345994615]]],[[[127.0777238991425,37.260908900489],[127.0779396999469,37.260683999352295],[127.0781211008541,37.2609605998803],[127.0777238991425,37.260908900489]]],[[[126.88315109972861,37.5140708002522],[126.8838187013966,37.513735499572405],[126.883818701299,37.5137355014796],[126.88315109972861,37.5140708002522]]],[[[126.90059859887019,37.438642599668704],[126.90063360041691,37.438645899687295],[126.9010181002302,37.4388190012571],[126.90059859887019,37.438642599668704]]],[[[126.9288935995649,37.3579620002919],[126.9290125003261,37.3578216996124],[126.929401100654,37.3580327998653],[126.9288935995649,37.3579620002919]]],[[[126.92269379992031,37.400835799979305],[126.9227879000354,37.4005827999461],[126.9227357999907,37.4008739001284],[126.92269379992031,37.400835799979305]]],[[[127.02756379968929,37.2488402996021],[127.02783680072851,37.248774899828604],[127.02756379973239,37.248840300452194],[127.02756379968929,37.2488402996021]]],[[[126.9785039997141,37.4046012009484],[126.9785039987595,37.404601198147404],[126.9785040025418,37.404601197420604],[126.9785039997141,37.4046012009484]]],[[[127.05328359949,37.0471987996013],[127.0533130003848,37.0467533985109],[127.05331300144411,37.0467533999671],[127.0533130000432,37.046753400382],[127.05328359949,37.0471987996013]]],[[[127.062982199647,37.111135999867805],[127.06315879996279,37.1108325989864],[127.06344850140111,37.111094999864],[127.062982199647,37.111135999867805]]],[[[126.88620829951721,37.5132848995707],[126.88620830116491,37.513284900863106],[126.88620829993971,37.5132849011268],[126.88620829951721,37.5132848995707]]],[[[126.9087811989189,37.4855564992894],[126.90890879989391,37.4852886995553],[126.9087812010664,37.485556500666505],[126.9087811989189,37.4855564992894]]],[[[126.91692039942089,37.5211333003593],[126.9169203998074,37.521133299501905],[126.9169204004552,37.521133300109604],[126.91692039942089,37.5211333003593]]],[[[127.06025079919631,37.079374300447896],[127.0602507996342,37.079374299501495],[127.06025080092391,37.0793742997112],[127.06025079919631,37.079374300447896]]],[[[127.14726249928239,36.8087508990225],[127.1472625006346,36.8087509003884],[127.1472624991318,36.8087509007148],[127.14726249928239,36.8087508990225]]],[[[126.8898163994797,37.5114071999246],[126.8898164010108,37.511407199232],[126.8898164001374,37.5114072011466],[126.8898163994797,37.5114071999246]]],[[[127.0589517976094,37.1335118007171],[127.05895180305781,37.1335117977533],[127.05895179844481,37.1335118032488],[127.0589517976094,37.1335118007171]]],[[[127.0580659990026,37.235726899987405],[127.05806600061389,37.2357268998009],[127.05806600024239,37.2357269010699],[127.0580659990026,37.235726899987405]]],[[[127.0743151999215,37.2531952999612],[127.0743597999972,37.2530814998507],[127.07444840016089,37.253027499902004],[127.0743151999215,37.2531952999612]]],[[[126.99543749968059,37.4319843993474],[126.9954375005523,37.431984400062795],[126.9954375001187,37.431984400435596],[126.99543749968059,37.4319843993474]]],[[[127.08016700026221,37.258473700306006],[127.0801669995878,37.2584737001208],[127.0801670000952,37.258473699831406],[127.08016700026221,37.258473700306006]]],[[[126.9133309994995,37.4872173004012],[126.9133309998981,37.487217299959],[126.91333100041889,37.487217300152196],[126.9133309994995,37.4872173004012]]],[[[126.91101089967239,37.419183299937],[126.9110108999828,37.4191832996936],[126.9110109002414,37.4191833009049],[126.91101089967239,37.419183299937]]],[[[126.9624774965135,37.277431297837005],[126.96247749927251,37.277431296859305],[126.9624775001656,37.2774312999135],[126.9624774965135,37.277431297837005]]],[[[127.04212499908999,37.2360338996344],[127.0421250003124,37.2360338998879],[127.0421249995478,37.236033900316805],[127.04212499908999,37.2360338996344]]],[[[127.05324259945421,37.0479753996144],[127.0532425999985,37.0479753993106],[127.0532425999245,37.0479754002375],[127.05324259945421,37.0479753996144]]],[[[126.93809159965261,37.513465199871796],[126.93809160005921,37.5134651999806],[126.9380915997544,37.5134652008239],[126.93809159965261,37.513465199871796]]]]}}]}