{"type":"FeatureCollection","features":[{"type":"Feature","properties":{"interval":15,"stationId":"5907965080"},"geometry":{"type":"MultiPolygon","coordinates":[[[[126.7344027959733,37.3898398020822],[126.7359265988655,37.3875544973538],[126.74033440036169,37.38812209853759],[126.7412426994534,37.3871308995288],[126.7409580987179,37.3819143987297],[126.7431895004991,37.3834313990584],[126.7448948009777,37.3828274980312],[126.7456012002713,37.383385397473305],[126.7464446998767,37.380774098363496],[126.74560120192079,37.3833853977687],[126.74747990004211,37.383724397429695],[126.7476129996998,37.3810661995258],[126.74932900026201,37.3794835863698],[126.7480305035275,37.380841102176596],[126.7505407996978,37.3838108023787],[126.74751620179481,37.3849194013305],[126.7456012009861,37.3833854018461],[126.74503190155541,37.386288498942996],[126.7474545006781,37.3889955971472],[126.7516199010188,37.3862386010452],[126.7457777036262,37.391928702880904],[126.7457982973979,37.3910737003131],[126.7435180995339,37.389761401539594],[126.7422887007633,37.3910906002104],[126.7427000024747,37.3917700015712],[126.7412094006247,37.3922575003341],[126.7397186021155,37.395158197433396],[126.7425722063825,37.395819600746805],[126.74043279965089,37.3996291007214],[126.7376276007242,37.399414401372894],[126.7372495000767,37.40042670181899],[126.7376275992026,37.3994144008728],[126.7362731996733,37.398970301023],[126.737134698588,37.3975936010646],[126.73602369739811,37.3968829981477],[126.7360974973243,37.3915328034979],[126.7344027959733,37.3898398020822]]],[[[126.7345793005312,37.3637232009682],[126.73384349927281,37.36345089963319],[126.73531219898959,37.3625729985717],[126.73520309908521,37.360418998457],[126.73632190039959,37.3603133995837],[126.7382228007134,37.3617872001658],[126.7378939016277,37.3638083024437],[126.7359381007732,37.364506602626896],[126.7361851998641,37.3631352005574],[126.73457930045339,37.3637232003435],[126.735085500025,37.364287500403904],[126.7345793005312,37.3637232009682]]],[[[126.74141059958309,37.3521341998481],[126.7422523001636,37.3516208994943],[126.74214479998341,37.3527801991739],[126.7435623007594,37.35235469967],[126.7425222996161,37.353519800568904],[126.7417589996858,37.3533906006724],[126.74214479907721,37.352780199622195],[126.74141059958309,37.3521341998481]]],[[[126.7497667982627,37.390650899710394],[126.749574099777,37.389792199595],[126.7510645003711,37.390197898846296],[126.75365200282991,37.3892723988994],[126.7497667982627,37.390650899710394]]],[[[126.73252769976821,37.4011333001478],[126.7329719995224,37.4009342984085],[126.73305290107851,37.4009200991979],[126.73297199958681,37.4009343004235],[126.73252769976821,37.4011333001478]]],[[[126.7357053995402,37.3640898998986],[126.735705400372,37.3640898999082],[126.7357053994462,37.36408990023121],[126.7357053995402,37.3640898998986]]]]}},{"type":"Feature","properties":{"interval":30,"stationId":"5907965080"},"geometry":{"type":"MultiPolygon","coordinates":[[[[126.6807517985023,37.416344000585205],[126.6818795994052,37.4131939998381],[126.68094359895841,37.4126974997214],[126.6820488986979,37.4113701988741],[126.683516199433,37.411693999834895],[126.6856409993816,37.4102874998334],[126.68397249963769,37.408451599458],[126.6849368997727,37.4089795992196],[126.6850881001653,37.4084437999178],[126.6852747999786,37.409762798598805],[126.6906871987188,37.4089210988416],[126.6915162978897,37.4068868008759],[126.6889579990999,37.4034506987901],[126.6928011010771,37.401605097912],[126.6936891019158,37.4027958990383],[126.696469701063,37.402982797919094],[126.6973353010369,37.4041570979196],[126.69924669912551,37.403235698841],[126.7012346971375,37.40072670135],[126.7004148971178,37.399614501287395],[126.7024929970228,37.3989864994082],[126.70309729641849,37.3967249016698],[126.7022264991393,37.395546798838],[126.70539060206791,37.394077497423204],[126.70715340096869,37.394735398038804],[126.7071412016054,37.3964457975268],[126.71094030102401,37.3969681993185],[126.71466200150421,37.396006898045805],[126.71660830058451,37.397890998035],[126.7179339992588,37.3978557980702],[126.7203139984022,37.3956943993314],[126.7208372008789,37.393768798599496],[126.7223876997992,37.3945089986397],[126.723284599716,37.3927110986767],[126.725185000575,37.394452797717605],[126.72741189987781,37.3928811994279],[126.7280393996237,37.3908185012323],[126.7262507994751,37.3918304995106],[126.7267579987934,37.390261099231],[126.7283919971594,37.3891639003282],[126.72894679715421,37.384516001753894],[126.7302276980033,37.381632401884],[126.7274475007835,37.382053901462506],[126.7267117993173,37.3812875992494],[126.7274475007884,37.382053898066204],[126.730244198426,37.3815694978005],[126.7338488986918,37.3822598988908],[126.7344592980814,37.3800194011313],[126.733171598298,37.3799450003333],[126.73338599940989,37.3785507998241],[126.73554539955481,37.3787151992369],[126.7362300988701,37.37777110018099],[126.73558349951671,37.3763953015568],[126.7338145989813,37.3768783014966],[126.7326115997144,37.374892599982005],[126.7339634991316,37.3758013986482],[126.7338011992442,37.372566201836804],[126.7290222985712,37.3711485014789],[126.7291729989134,37.3684366006713],[126.72825869982769,37.3675048016031],[126.72662939901339,37.3684697021003],[126.72497289975689,37.3668382027619],[126.7236595010703,37.3684107011894],[126.72268199861331,37.3682777009923],[126.725734298697,37.3647815998048],[126.7224539992922,37.3609563995724],[126.7227912002527,37.3603891991882],[126.7247234991529,37.361161798563096],[126.7246029994729,37.3595691993372],[126.7262496993386,37.3582586000048],[126.7247898988134,37.3567572007268],[126.7265305993032,37.3556910002167],[126.72561569990961,37.3552207000555],[126.7260155989808,37.3532131996883],[126.7279033996855,37.3531772999133],[126.728653699375,37.3515860993567],[126.7298477000424,37.3517566985265],[126.730820199683,37.3499490994488],[126.7325924995711,37.348844899844],[126.732857299331,37.348036800558205],[126.73162819944571,37.346763300111796],[126.7324116997132,37.346739799713305],[126.7328474995315,37.345689199526205],[126.7327056988141,37.34411389947741],[126.73760099996319,37.343475399501],[126.7392863003263,37.345217398955505],[126.74344889919621,37.343750098544405],[126.7443347994037,37.3446775988958],[126.7453777995677,37.3437762990606],[126.7462067999503,37.344644198915695],[126.7477848998366,37.3441042988337],[126.7480843005691,37.3449945990196],[126.7496119003995,37.3445555997543],[126.7503338996775,37.345294999014904],[126.75153849928,37.344556099257396],[126.7557687995707,37.3490999986069],[126.7566679023486,37.348641397261396],[126.753091203588,37.3523461979901],[126.7541600016244,37.355813301649604],[126.75220200041849,37.356628800033],[126.7525164003691,37.3574861008297],[126.75147099932559,37.3589068046891],[126.7486083006862,37.36051720275459],[126.74756770172681,37.3633962998755],[126.7495910033058,37.365853399782296],[126.75475059814619,37.378413087222604],[126.76036360410451,37.3790250957133],[126.7629113015214,37.378133497440096],[126.7643499000828,37.3764317991418],[126.76535280167771,37.3793839976312],[126.7635837006916,37.378756101776695],[126.7620718995848,37.3801998010155],[126.76036360129311,37.3790251021902],[126.7607911008656,37.3820311991841],[126.7640358010947,37.3825936994812],[126.7632038066435,37.388535599220496],[126.76198049846461,37.383481600235],[126.7603584000867,37.382411601304995],[126.7574360022449,37.384849099373696],[126.7579153034844,37.388775802146995],[126.7518913095084,37.3954984954243],[126.7531828131419,37.3993305982779],[126.7504087025161,37.4027318038225],[126.7443583019803,37.4054859014039],[126.7448788010863,37.407121900952],[126.7431926985461,37.40535310397],[126.7394517022871,37.407213902109206],[126.7392363995434,37.4088209032441],[126.7348397999617,37.410004901173295],[126.73556749926381,37.409559399905],[126.7345016997932,37.408819499226],[126.73667209955161,37.4096115997521],[126.7367087995149,37.4085925007712],[126.7332723010226,37.4070772009683],[126.7318920013377,37.4092322005138],[126.7299443009262,37.4087974025154],[126.7270443001131,37.4057672033314],[126.7255713015861,37.4063832027154],[126.7238557003724,37.4093316007475],[126.7216462988712,37.4094096035958],[126.7215559953954,37.4075715000352],[126.7196136974906,37.4056689012778],[126.717720299384,37.4058760010707],[126.7181393981622,37.4047607000732],[126.7159844003172,37.4044381003958],[126.7148193013975,37.4050735001248],[126.715222900853,37.4062934006635],[126.7138785002941,37.4067050019582],[126.7134159007567,37.408509200154],[126.712522698682,37.408854300525604],[126.7112670996707,37.404783199911996],[126.7118707996966,37.4055679989808],[126.7130775984898,37.4048135997352],[126.71150650006089,37.4022652022836],[126.70860480219551,37.4038571008899],[126.708501301724,37.4057602027946],[126.70705349850991,37.4042074029757],[126.7041821992248,37.405927602268996],[126.7029839993853,37.403099803682],[126.70014930222001,37.4044319023499],[126.70007050103159,37.407823201412],[126.69699310206,37.4090372009565],[126.69821000227951,37.4106200005287],[126.69530390086089,37.412025401178],[126.69410219986871,37.410417302441296],[126.69164620232469,37.410397102461495],[126.6903851022463,37.4132182004776],[126.6916579022048,37.4164764981787],[126.6931366007261,37.417255597399596],[126.69511900104581,37.4155804976229],[126.69640850280831,37.416524199906995],[126.69738890149111,37.4188667994732],[126.6961557003963,37.4189696003594],[126.6959099006421,37.4198587994702],[126.69696020094541,37.4206634006554],[126.6959098998077,37.4198588008025],[126.6948769005663,37.420616000604205],[126.69341370027499,37.4203130009758],[126.6932259994384,37.4193402006613],[126.6905388006719,37.4186008013964],[126.6914491979109,37.4170381000593],[126.68996039939971,37.4157733013241],[126.6905172992409,37.4154468998131],[126.6899010995511,37.414846500117505],[126.6903077993035,37.4131578014063],[126.6849167997367,37.416863300737106],[126.6861717991262,37.415138500558896],[126.6847945995661,37.413831901127296],[126.6807517985023,37.416344000585205]]],[[[126.75789359777771,37.3384676007609],[126.7596405001979,37.340783098637004],[126.7622945010001,37.3409090979725],[126.7645992986953,37.342156596725005],[126.7655887980673,37.3387304999724],[126.76667979951061,37.3389927992128],[126.7671794997827,37.3378500995167],[126.7694155987178,37.3369907001818],[126.7690132990198,37.335355301693305],[126.7679745995636,37.3350681997709],[126.7729770998862,37.3350930973182],[126.77411859874469,37.333715998695304],[126.7754253018572,37.3334787959183],[126.774255401212,37.3339072999415],[126.7748142006532,37.3352286986201],[126.77623560038961,37.3347547999262],[126.7761531004586,37.3369840995592],[126.7766947005581,37.3367670001726],[126.77421959987039,37.3422340002803],[126.7722286996859,37.343249101752],[126.7673182002888,37.342745100186804],[126.7642240983303,37.3448218027304],[126.7632891988562,37.3437110030103],[126.7601826004763,37.344653402597096],[126.7566209990723,37.3443304000689],[126.7574394988832,37.3431932003441],[126.7561534991744,37.341373499633605],[126.756248198797,37.3399836007357],[126.75789359777771,37.3384676007609]]],[[[126.8157333998037,37.3176502997126],[126.8216487999411,37.312923599300895],[126.8234186004355,37.3138827996032],[126.8234802004023,37.3146813991777],[126.8256728008497,37.3154221992816],[126.826361301131,37.31703429827731],[126.8274964003273,37.3172421999826],[126.825982199725,37.318769700838295],[126.82532909884661,37.3171283997019],[126.82568519849049,37.315539801290505],[126.8243919990071,37.314633501723],[126.8225879008112,37.31472650163],[126.8212199006964,37.317329899527394],[126.8225372016385,37.3177097991205],[126.8234319022753,37.3191478004602],[126.8212726012388,37.3198611011565],[126.8199964999043,37.3217299006669],[126.8198041998145,37.3208068008048],[126.8157333998037,37.3176502997126]]],[[[126.7811383979066,37.32629149938381],[126.7846363976454,37.3267269961938],[126.7861278961539,37.3254672974535],[126.78717619826061,37.3221900965965],[126.7906885992352,37.3238279960025],[126.793257401499,37.3239719999552],[126.7911760012059,37.3245387020269],[126.7899340000764,37.326455100117094],[126.7893359006745,37.3263380002342],[126.7877824008632,37.3300219012839],[126.7868221999024,37.3291183001366],[126.78502949970179,37.330067500462995],[126.7862866993877,37.3284184995587],[126.78568699998739,37.327279600697594],[126.7811383979066,37.32629149938381]]],[[[126.8007610985687,37.321401400084596],[126.80305869775789,37.3211921991659],[126.8059866996237,37.319687095830105],[126.8072725006914,37.3164257976553],[126.8096885996304,37.317514796049096],[126.810403502488,37.3190595998947],[126.8087169010188,37.3184830009903],[126.80968420180841,37.319734102426196],[126.8089382011813,37.3208139014153],[126.80772909928851,37.320401099841796],[126.807839999118,37.3197400004207],[126.80636600059199,37.3196901004706],[126.8059820993758,37.3205904023667],[126.80310940174509,37.321234799890696],[126.80473090001739,37.3217700015328],[126.8031094007913,37.3212348010863],[126.8034299006748,37.322353401292695],[126.8009853008271,37.322145001098995],[126.8009045002196,37.323604600239705],[126.8000970989517,37.3225079997987],[126.8007610985687,37.321401400084596]]],[[[126.6789218995611,37.403883000833],[126.68034549993901,37.402780499834],[126.6825946002725,37.4053517995959],[126.68376309988739,37.4047894979746],[126.68238220133621,37.4058880013153],[126.68329460031559,37.407403600506],[126.6789218995611,37.403883000833]]],[[[126.6768110990211,37.419570400498095],[126.6780947998119,37.4189211995935],[126.6779891994177,37.417828900325105],[126.6789329996759,37.4172623990686],[126.67867920070391,37.4177515998956],[126.6808518004088,37.418919199383694],[126.6813892004674,37.4183141002335],[126.6797503008698,37.4203356007972],[126.6768110990211,37.419570400498095]]],[[[126.6966934993031,37.428269199451805],[126.6971427994891,37.4258596997017],[126.69807859944581,37.4260406993793],[126.6979235005577,37.425356698916005],[126.69904960044519,37.425988299525],[126.6990847014678,37.4295878001932],[126.6978539989261,37.4280663006803],[126.6966934993031,37.428269199451805]]],[[[126.836553898805,37.3149420993196],[126.8385019006191,37.3127021996082],[126.84182490035951,37.3146458999816],[126.8406341990288,37.314033001823304],[126.8389603007027,37.314812601043705],[126.839006999482,37.315788401057404],[126.8389602983257,37.314812601169],[126.8378032994827,37.31418700179459],[126.836553898805,37.3149420993196]]],[[[126.8521965996909,37.3090247003663],[126.85333489985099,37.30896099962909],[126.8542364046213,37.3101499034464],[126.8521965996909,37.3090247003663]]],[[[126.6970572992836,37.4356375999346],[126.6978692993733,37.434173200432895],[126.6972010001175,37.433884498939896],[126.6985918027856,37.436225099722805],[126.6970572992836,37.4356375999346]]],[[[126.687714899658,37.4164023006012],[126.6880818002991,37.4158562998052],[126.6884130008108,37.4167038995646],[126.687714899658,37.4164023006012]]],[[[126.6745465989325,37.3981017011696],[126.6746103994772,37.3980624983212],[126.67525450183149,37.397606798857595],[126.6746104024107,37.398062502238105],[126.6745465989325,37.3981017011696]]],[[[126.6613508995754,37.3879728997306],[126.6614539005713,37.387915199461],[126.6618928003656,37.388173699977],[126.6613508995754,37.3879728997306]]],[[[126.763903098958,37.3343954998288],[126.76454280299541,37.334350100489004],[126.76394840022671,37.3348810002427],[126.763903098958,37.3343954998288]]],[[[126.6903893991633,37.420007599843096],[126.6907409005449,37.4204035000496],[126.6906528999128,37.4203044001978],[126.6903893991633,37.420007599843096]]],[[[126.677610099208,37.404503299835504],[126.677610100458,37.4045032989159],[126.6777324007506,37.4046118001042],[126.677610099208,37.404503299835504]]],[[[126.7001355996248,37.4255095999826],[126.7004246004352,37.4258669003258],[126.70016609951641,37.4258897005857],[126.7001355996248,37.4255095999826]]],[[[126.6996215994315,37.4099275000662],[126.7002938001538,37.4096140999291],[126.6996216008679,37.409927501221205],[126.6996215994315,37.4099275000662]]],[[[126.6997280993594,37.4426546000435],[126.6997075002737,37.4425320990675],[126.6997281004558,37.442654600397894],[126.6997280993594,37.4426546000435]]],[[[126.6565840991051,37.4293094001131],[126.6565841026465,37.4293094006913],[126.6565841003441,37.4293094013972],[126.6565840991051,37.4293094001131]]],[[[126.64946939925571,37.4485378999337],[126.6494693998904,37.4485378986436],[126.6494694004058,37.4485379000474],[126.64946939925571,37.4485378999337]]],[[[126.7357053995402,37.3640898998986],[126.735705400372,37.3640898999082],[126.7357053994462,37.36408990023121],[126.7357053995402,37.3640898998986]]],[[[126.777238799496,37.3370672001062],[126.777238800014,37.3370671998724],[126.77723880030901,37.3370672001736],[126.777238799496,37.3370672001062]]],[[[126.6726304995574,37.396998099986895],[126.6726305002293,37.396998099853796],[126.6726305001082,37.3969981007618],[126.6726304995574,37.396998099986895]]]]}},{"type":"Feature","properties":{"interval":60,"stationId":"5907965080"},"geometry":{"type":"MultiPolygon","coordinates":[[[[126.60200589906749,37.4750224997383],[126.60330580135741,37.474879798130296],[126.6050142003672,37.476181896886],[126.6067752997528,37.4757178969818],[126.6078988068512,37.4731175940311],[126.6066388018416,37.476396999780896],[126.6085507999296,37.4771663990115],[126.6091098005011,37.4764416973127],[126.6125614982934,37.477176696920104],[126.6158782988717,37.4737262934224],[126.6159017004163,37.474987998495706],[126.6209793981205,37.4681839986647],[126.62232670149601,37.468347795246196],[126.6256161982065,37.4658218977721],[126.625901001211,37.464801796854594],[126.62985839759091,37.4643637978252],[126.63148819596111,37.4607782014108],[126.62869669841531,37.4587163029401],[126.6298942979198,37.458031597879796],[126.6286773991367,37.4556015003099],[126.6276667001474,37.4541069018045],[126.6220789981031,37.4552343065835],[126.6226371970295,37.4548917966412],[126.6218368985136,37.45046159762909],[126.6239683989211,37.448909698307],[126.6258713022839,37.445618196123796],[126.6281707998782,37.4497112980188],[126.62900309979261,37.4476328968651],[126.63182159697409,37.4461450983529],[126.6328131983959,37.442031096895604],[126.6331455017536,37.445896796434],[126.6367366007442,37.4461982966997],[126.638517799685,37.443829596988],[126.6466317987025,37.4397097985456],[126.64958399877311,37.439344398640905],[126.64952989882721,37.436990800994494],[126.6471881981461,37.4360039022515],[126.64606259927169,37.433570204685196],[126.6419384033959,37.434497203758205],[126.6407975028417,37.4357953033971],[126.64109839938651,37.4344011013497],[126.636491598781,37.430679600575],[126.6353436994313,37.4306228998809],[126.6419781993924,37.4229007004285],[126.6416315979081,37.4206693953016],[126.6436095959301,37.421278994691995],[126.6462417932979,37.420622095348904],[126.6528581977684,37.414279796007705],[126.6546297959968,37.4112423990451],[126.65957059944449,37.4125832962984],[126.6609843980307,37.410226198655494],[126.6589538991894,37.406434498215404],[126.6618170002591,37.4093917970757],[126.66566189619691,37.4063203989539],[126.666092795766,37.4028468024275],[126.6631274987313,37.4017075035668],[126.6633178979926,37.400610200532306],[126.6616766994639,37.39854700223],[126.6578188020716,37.3950671045942],[126.6565475033429,37.396112303548996],[126.65667670309321,37.3991342012609],[126.6556106026531,37.4016096015988],[126.65763040063331,37.4040347991736],[126.65811020107489,37.4036635000717],[126.6577559003874,37.4040767005732],[126.654626902425,37.401923804690895],[126.6521330039439,37.403887004668796],[126.6510949998515,37.4033341001089],[126.6540300970576,37.4016434998869],[126.6518850992026,37.400020701509696],[126.64783150009829,37.4034382001586],[126.64795909853109,37.4010475011579],[126.6437651011907,37.4042466015524],[126.64152179956271,37.4028377004424],[126.640777500307,37.4030972001829],[126.64235890262451,37.404890804756896],[126.6324414019257,37.4084322102807],[126.6290760052911,37.4128484058645],[126.6288372993116,37.4186583021898],[126.6242852010306,37.41857180227],[126.6234032019126,37.419029501812304],[126.6234009997757,37.421395301411],[126.6223954964362,37.4181345026916],[126.61881059621311,37.4179666000003],[126.61466159982831,37.4131054000892],[126.614997199968,37.4121181997575],[126.61649939846579,37.4124038994718],[126.6177537002678,37.408335198998806],[126.6187214991948,37.4091787992043],[126.61964810154001,37.4077835014694],[126.6182628009619,37.4098848007455],[126.6193748003099,37.412153799988],[126.6192685002191,37.4144209978028],[126.62048689900071,37.4146165976072],[126.6213818998249,37.4134104992852],[126.621497900059,37.414671998723605],[126.6231125984443,37.414818498577105],[126.6238527007418,37.4134805981233],[126.6259501986443,37.4138121977917],[126.6247481993474,37.411433899436],[126.6253306987917,37.408526202140294],[126.62464059598611,37.404551999202106],[126.6199810006457,37.4023097014444],[126.6179784939744,37.4063642002511],[126.6194933936322,37.402086299298304],[126.6205050993416,37.4021261998847],[126.62122279853949,37.4008915999752],[126.6195891935364,37.3986328027518],[126.6210978986328,37.3963935992167],[126.621857199603,37.3982579980109],[126.6273417941184,37.394771501497395],[126.62673319472701,37.3928543034146],[126.622408296911,37.3868934065801],[126.62094279837649,37.3872698062037],[126.620209099907,37.386610599921596],[126.6254570978479,37.383682899272195],[126.6235761993334,37.3818574009796],[126.62252689863439,37.3817930996462],[126.6239509992975,37.380977198922395],[126.62378289805389,37.379584697272],[126.6272882987723,37.379042397735404],[126.6282361978244,37.375657601120196],[126.6260240000366,37.375472601305205],[126.6256336986786,37.3763481007903],[126.62631949245079,37.3733013814804],[126.62893100021509,37.3717606995189],[126.6308675997173,37.3724066990588],[126.6314538999593,37.3712642996278],[126.6324483996681,37.3714251992713],[126.6320101991379,37.370111700314204],[126.63723079203609,37.367434687048],[126.6349705026931,37.3713622983007],[126.6377346999289,37.3699698996931],[126.638757000133,37.3709035958543],[126.64341979547021,37.3679926987652],[126.64123068803619,37.3658161886665],[126.64658900226941,37.3626055924106],[126.65111989989549,37.3633059965714],[126.6537889993286,37.3651220969649],[126.65737429962721,37.3625060994491],[126.65849349999931,37.3648982973215],[126.6612672007655,37.363605500187596],[126.6601460018867,37.363919899873196],[126.6610724009603,37.3682283955647],[126.66397410146651,37.368383598021104],[126.6628973012625,37.3700974998061],[126.6647174000131,37.3719966984821],[126.6679963003154,37.3699729983243],[126.6768987020829,37.3792437993058],[126.6769716005621,37.380398299057504],[126.6791988997827,37.3813601971894],[126.6844359027843,37.3865543947376],[126.6921626966943,37.3857653972773],[126.6954921933648,37.383155699887006],[126.6882460999805,37.3758792947914],[126.6954921958916,37.3831556907756],[126.7031204882633,37.384110289821],[126.71172377966,37.366148307783],[126.70247829945869,37.3559884996533],[126.7025829998569,37.3539705999888],[126.7043639997585,37.352614199140895],[126.7046073995151,37.3513033004518],[126.7024552987082,37.3505465011578],[126.7027751992378,37.3488687989323],[126.7025967009731,37.3506325983413],[126.7039458001784,37.3509580984245],[126.70647489861031,37.3493877992798],[126.70673509835011,37.3478483008193],[126.7046637993931,37.347720201438],[126.7028925997197,37.3458970997114],[126.7046637997021,37.3477201972771],[126.7058981994194,37.3450179993994],[126.70716869939879,37.346332098941296],[126.7095013979552,37.344890199729505],[126.7077951996614,37.343648200971494],[126.706559199122,37.344388999968096],[126.7097158968893,37.341737100163904],[126.708174996867,37.3396007008734],[126.7086960976204,37.336208901469604],[126.7096283007842,37.335630596903705],[126.7116702003276,37.3375488966236],[126.7142948977029,37.3362177979547],[126.7152659967318,37.3337248004477],[126.7143893976084,37.3327846013879],[126.71531369835749,37.3264668983091],[126.7161079019609,37.325990097329395],[126.7179508020386,37.3278887974181],[126.72078610202,37.3261312974282],[126.72237030199949,37.3277705974171],[126.7251837020045,37.3260346974101],[126.72706270189481,37.327967997301],[126.72988570189399,37.3262260973025],[126.7327461018516,37.3291750972285],[126.7363962982014,37.3282956981079],[126.73868399819351,37.3268536981389],[126.7399207005714,37.323105496532094],[126.7417287006474,37.324977496605406],[126.744190098186,37.3234606981222],[126.744854699865,37.319996999850304],[126.7466739987779,37.3219049977267],[126.75167620159941,37.3199543966767],[126.7528446015576,37.3225372966328],[126.7583249988409,37.3209905973843],[126.7597999988734,37.3176169974645],[126.7618271968462,37.3154966995848],[126.7613058988552,37.3143258974326],[126.7657234033126,37.3144920959271],[126.7704941985418,37.3169128935063],[126.7733751956608,37.3154890949301],[126.7742632947727,37.3120237983954],[126.7735637954722,37.31044919997],[126.77403669675239,37.306785200933604],[126.77349069675739,37.3055675009249],[126.7767537994491,37.304636798752],[126.7794250967778,37.3024677009211],[126.7787341967872,37.300938100917],[126.78126229684149,37.2986416009009],[126.780539896419,37.297045499929105],[126.7854523963756,37.2943315986389],[126.7839565019476,37.2960684988406],[126.78466040124371,37.2976368972722],[126.7874300016995,37.2962276971119],[126.7910912980484,37.2959072972548],[126.7908009028736,37.2968782005546],[126.79452780154159,37.3010123985866],[126.7941340014454,37.3023427988734],[126.795014400565,37.3036356975805],[126.796461699139,37.303196097949],[126.8018883977738,37.304256097749104],[126.8031061970436,37.302608897783806],[126.8017955988025,37.2990701997125],[126.8042143983009,37.298611799171006],[126.80281449952909,37.2975480999081],[126.8046831993383,37.297188598952296],[126.8046273999944,37.2961926997602],[126.8070091000708,37.3027972968763],[126.80976539731451,37.3010366986369],[126.80998739781819,37.2992523967949],[126.8141652988208,37.2980451922258],[126.81739660027729,37.298087597778604],[126.8198273005464,37.2951379990088],[126.8213492997824,37.2962239981639],[126.82228460091841,37.2954006988584],[126.82372209969449,37.2978393987892],[126.8265300993696,37.296467999417295],[126.8287085987033,37.297590896874205],[126.83103889834979,37.295638797548],[126.833746799066,37.296755496599005],[126.83465859815419,37.295351198003296],[126.8354830000046,37.2958485982261],[126.83718759829999,37.2947621993125],[126.8371278995138,37.2937014986029],[126.8403281969392,37.2934419987324],[126.8420356952317,37.2921337000407],[126.840463396804,37.2879638042106],[126.8382457971079,37.2878852035221],[126.84133249592789,37.2855480013526],[126.8405070981424,37.2822109988292],[126.84202309860211,37.2815245986856],[126.84201309860251,37.280195798775104],[126.8441726017321,37.2801815987975],[126.8444320014727,37.280785998193096],[126.84719319871151,37.2802149987641],[126.8476257953842,37.2760361940192],[126.849816194507,37.2746374944731],[126.8509036982437,37.272435593831105],[126.8518179010893,37.273553297801705],[126.8540948048271,37.272741797133],[126.85805980086211,37.2741491957256],[126.862028298631,37.2725125971882],[126.85987410112399,37.2763652995813],[126.86340200124339,37.2774972988135],[126.8665068997828,37.2774931972751],[126.87025460219,37.2814316979336],[126.8702098007963,37.2843332978499],[126.8712919020689,37.282636597351996],[126.8711297015652,37.285071698499806],[126.8724910020299,37.2867382980508],[126.87477040150651,37.2873384986738],[126.8734002003673,37.289403900217806],[126.87398259978491,37.2903917992299],[126.87623000078801,37.2905917003808],[126.87643060003221,37.2913629007173],[126.8755444009184,37.291011201069],[126.8756540008088,37.293136998943204],[126.8773817041907,37.2939331001379],[126.8803167053547,37.3041801968432],[126.8758000011651,37.3024135045676],[126.8750015019636,37.303370703610405],[126.8747254018524,37.3066562005812],[126.8753535012243,37.30732739991],[126.8747245014443,37.3088160994378],[126.8756497005024,37.309449799779706],[126.8727859004314,37.311790203675095],[126.87192540129189,37.3147095007558],[126.8711083000376,37.3139497007678],[126.86959080086879,37.3142217010334],[126.86896920206969,37.31646769989219],[126.8666274016209,37.316502701515304],[126.8656457026026,37.317858600159404],[126.8658462005119,37.3189448008836],[126.8628404997988,37.319026000737104],[126.86224780037631,37.320107400734194],[126.8590876004147,37.321137500885],[126.85907950042281,37.3220283999941],[126.8572454995671,37.3229073008271],[126.852285403205,37.3284948976152],[126.8524920047855,37.330082798609],[126.8503245006329,37.3304454002389],[126.8504599006682,37.331569201033496],[126.8499364997657,37.3309366006565],[126.8474375006233,37.3322061008602],[126.8475488002156,37.3333656009191],[126.84540880083131,37.3340928010056],[126.844699100224,37.3332558010895],[126.843291500709,37.3339956008475],[126.8435163003415,37.3366295004872],[126.8399017984543,37.3329588042672],[126.8371446012115,37.3335348036912],[126.8348100001191,37.335636102718],[126.8317285029345,37.3357814029725],[126.8303377005488,37.3400470004024],[126.8290243009097,37.340551800018],[126.83067660174831,37.3428780011392],[126.83001990540299,37.3444524029477],[126.8279203990145,37.342336705871794],[126.8235713033636,37.3459023023062],[126.825040901894,37.3483551998533],[126.82316659965629,37.348567201305094],[126.82246909925391,37.3496545006899],[126.81883190021661,37.3488618017403],[126.8156577999038,37.3491977012511],[126.8145384008276,37.3483656016459],[126.813694001672,37.349477500534],[126.8109812010737,37.3495356008178],[126.8091271029278,37.353670696682705],[126.81439569765921,37.3547277956256],[126.8141960987226,37.3509707992664],[126.8174454000993,37.3539765974322],[126.8201123996565,37.3534013980098],[126.82133889843,37.3522542991569],[126.8211849992323,37.3507898996585],[126.8217772999457,37.3514615988828],[126.82303740172681,37.3503353988052],[126.8230890016752,37.3527684963721],[126.8281145047001,37.3566393955152],[126.82746469974869,37.3584271006967],[126.82153270377411,37.3589041065921],[126.8158493065977,37.3647205044486],[126.816945005502,37.369465099704],[126.8159856013138,37.3717092046682],[126.8129689043305,37.3733822029952],[126.8151943021051,37.3776387987386],[126.81700780097479,37.3775778993387],[126.8180098003407,37.3835455001311],[126.8154133998976,37.382344200559],[126.8161678993769,37.381782199667505],[126.81597499956979,37.3808095006402],[126.8123033008546,37.3779223032939],[126.8092052028041,37.3796007022912],[126.8086737033356,37.3808801010118],[126.8115275008928,37.382396299527],[126.81214470522191,37.3838753026715],[126.8086531021654,37.384765104704904],[126.8061164045612,37.386627602985996],[126.8077742029034,37.3909343986792],[126.8075644043094,37.3936535010805],[126.8053201995796,37.3931313017655],[126.8045848987681,37.3946446014825],[126.801921598645,37.3930367014172],[126.80076099980559,37.3931224013315],[126.8009384993278,37.39220740054979],[126.7979781997074,37.3903278003835],[126.8011502009409,37.3920742966089],[126.8028306992604,37.3900619986212],[126.8032872995352,37.3889867995642],[126.80160289829941,37.3847053028632],[126.79983870006359,37.3845326030359],[126.7965151003033,37.389151599923096],[126.7966735007463,37.3903975993765],[126.79751340017219,37.3903638003475],[126.7956766974489,37.3908557037198],[126.7940943987529,37.3888144037187],[126.7946058988555,37.3877924008243],[126.7935374988351,37.3847530022974],[126.7916966983873,37.3835772027129],[126.7885596015244,37.3836780026121],[126.7865877034963,37.385017601272494],[126.78643600258229,37.3882312000525],[126.78822070015309,37.3895038005558],[126.7856739992489,37.390225301290094],[126.7816249006211,37.3868736023855],[126.7813567008893,37.3892036000555],[126.7804955006991,37.3899313994889],[126.7815097005584,37.3908200001841],[126.78066410074929,37.3909354003167],[126.78586560126189,37.402907191424305],[126.7892823003883,37.400808598274196],[126.78933260123729,37.402813699595406],[126.790622899947,37.4029867994223],[126.7921955982695,37.4009053012486],[126.7919971995601,37.3999325998728],[126.7932860998047,37.400097598547205],[126.7944181005815,37.404063798567606],[126.79580440057319,37.4056638997573],[126.79698620057191,37.4058542998145],[126.79580440182009,37.405663901203],[126.79398690200769,37.4095667038104],[126.7915301025959,37.410278001889296],[126.79394480204981,37.4124344009427],[126.7906438029042,37.4105500033812],[126.7896748038732,37.4109725029587],[126.7884009051471,37.4148583990728],[126.78989100365699,37.4161436977875],[126.7893661002137,37.417257400695],[126.7884694984297,37.4158192006104],[126.7891666982713,37.4111162021479],[126.78849799894,37.4100062032579],[126.7846116028264,37.4088350044291],[126.78330940321939,37.4097255041132],[126.7829561002307,37.4148229021261],[126.7808742992347,37.4101488013113],[126.7792358955935,37.4092902022724],[126.78129519670671,37.4077525984438],[126.7816430983421,37.393906700167804],[126.775124297734,37.3914662105916],[126.7663247032601,37.397608505200495],[126.7627294068554,37.4080058948031],[126.7686500009348,37.409661393147594],[126.7719807007403,37.4081940966119],[126.76940960262151,37.4094253988464],[126.7694761051046,37.4142210003493],[126.7670755027631,37.4182847006772],[126.7693804027047,37.4197647017015],[126.76641110265619,37.421681605356596],[126.76616969895561,37.4192789017303],[126.7610840990613,37.4187516051924],[126.7577331999274,37.4217726034171],[126.7509864005391,37.4237585006388],[126.7452556985311,37.4203178029556],[126.7371495053929,37.421790301128496],[126.73720990533249,37.423481099437694],[126.7393968031456,37.425418897499895],[126.74280370237089,37.4254903004367],[126.7392464018232,37.425753503797],[126.738256602813,37.4281348014157],[126.7342944037317,37.428234502091904],[126.7323654005919,37.432156101002],[126.7316856980624,37.4278745006108],[126.7282323982337,37.4283768028965],[126.72738769690879,37.4240882039175],[126.7225260017705,37.4242449037608],[126.72138640113,37.4274009006691],[126.7220946017549,37.4283808009353],[126.71856260420459,37.4297096003771],[126.7186961040711,37.4311438989428],[126.7230809015713,37.4313597985816],[126.7202623026736,37.433663700254996],[126.7203400007018,37.4361517001655],[126.7195413005796,37.4354557010001],[126.71817230194861,37.4364798999759],[126.71790130221959,37.4380230984327],[126.7207422002996,37.4376324986847],[126.7215583009487,37.4379281984587],[126.7217187004543,37.4393597993407],[126.7230961005463,37.4394398002795],[126.7231809010758,37.439982100993305],[126.7183156034491,37.4392834012183],[126.71772370404099,37.4399054005963],[126.7179815037832,37.4429034975982],[126.72043260133209,37.4445929959087],[126.7229418016624,37.4444124970289],[126.724707199897,37.4433519980894],[126.727162799137,37.444544997946295],[126.7284343976079,37.4415466969007],[126.7321428967901,37.4405577990753],[126.7321925979157,37.438523598942304],[126.7348442004084,37.439417396650605],[126.7362294004294,37.4374238971279],[126.74217330317731,37.441417997003],[126.742270601427,37.4450110993843],[126.743773599924,37.4445516998437],[126.7469607970171,37.4462665982596],[126.7503540003657,37.438352397077196],[126.75250490096741,37.4365077986447],[126.7534216000507,37.438009497143],[126.7560205974517,37.4380785970739],[126.7588418957928,37.435721197965904],[126.7577069969277,37.432799800887295],[126.75894959833349,37.4319951964609],[126.7622169972677,37.4348715971522],[126.7647960004308,37.4337765958735],[126.7660609008904,37.438284598475704],[126.76711970240609,37.4383329995051],[126.7669941008326,37.4397102008348],[126.7660609005021,37.4382846021918],[126.7624948040682,37.4381926022838],[126.7632268002482,37.4445137004683],[126.7584103043189,37.4454527992991],[126.7570919002393,37.446561102375696],[126.75332120162601,37.4452460035635],[126.75074720420001,37.4471073017022],[126.7529787019685,37.4502946985148],[126.7548116001356,37.4497753990341],[126.7559083007409,37.4502920000516],[126.7538789016442,37.456469897177804],[126.75614400030521,37.4559342989331],[126.7562933008156,37.4579193000146],[126.75422020033001,37.4567248012111],[126.7526640000602,37.458379101039604],[126.7501816003473,37.4573453018565],[126.7493376000578,37.4597013001302],[126.7443968020019,37.4600768029983],[126.74297090514621,37.4630847033438],[126.7405861992103,37.4629055029121],[126.7385696006381,37.4652996006994],[126.73743630044859,37.4649634007053],[126.7365577002575,37.4659034015234],[126.73198379958029,37.463962002625905],[126.7293634995307,37.4643339020893],[126.72787510101911,37.4652189012043],[126.7281951006991,37.4667248996983],[126.7289476001083,37.4664521015914],[126.72750410064201,37.466825900180005],[126.7270852009281,37.4690529006863],[126.7263700998484,37.4681109012441],[126.7248327007315,37.4701372001182],[126.7245603014503,37.4727951984762],[126.7254763035364,37.47603499605761],[126.7280832035314,37.480100393638],[126.73137270161929,37.482021599001],[126.733251201073,37.4845864988864],[126.7351730991511,37.4850967983761],[126.7350298991188,37.4836680994551],[126.73691769888791,37.4824307979648],[126.7392657013436,37.482729496953496],[126.7415644000222,37.4817653977334],[126.7448403978709,37.481684298074796],[126.7449528008343,37.4826785992326],[126.74717820011949,37.4834765979949],[126.7478633012677,37.4846000987545],[126.74610490170811,37.485896500468805],[126.7466037012093,37.487180699184606],[126.7451614013789,37.487946000764],[126.74410420205409,37.4907021996406],[126.74592010023821,37.4916373987054],[126.7469631995704,37.4914657987217],[126.74793479859879,37.4897961003914],[126.7467396998006,37.4889198997901],[126.7476326010164,37.4883577989969],[126.7493532993405,37.4887879987097],[126.7502559000499,37.4856890999436],[126.7503186009342,37.4887263996042],[126.75183819961079,37.488016299817595],[126.7518634999749,37.487268799679],[126.7520107002561,37.4880062992407],[126.7536641999169,37.4885171994587],[126.7538584000647,37.4878169998611],[126.7554693008893,37.488433299336194],[126.756405100336,37.4878531992603],[126.7581237986173,37.4887552983582],[126.759237599762,37.4882624987077],[126.7611332978663,37.4868260001442],[126.759586899044,37.483539999850095],[126.76087289943969,37.4836253993084],[126.76118219965949,37.4816729986623],[126.76301969913911,37.481889298529296],[126.7640344987681,37.4804552995674],[126.7647102002216,37.4820636986245],[126.76613460051131,37.4821881987854],[126.766168700803,37.483566398695004],[126.7674640008228,37.4840535983227],[126.7666349012316,37.4853012999462],[126.76772270080859,37.4868301989004],[126.7708833000246,37.4860138994184],[126.7713000011125,37.4875599998492],[126.77029450113271,37.487704200444504],[126.7699485000756,37.4892488003387],[126.76924110056281,37.488846600422804],[126.76761790073091,37.4903608000787],[126.76847260049159,37.4909210012268],[126.7662083999868,37.4908260013871],[126.76584180039261,37.4925995005744],[126.765411598508,37.491398700854496],[126.7637945988628,37.4916334008029],[126.7635542988451,37.4904421007403],[126.7618489996905,37.4906029006824],[126.7621373991734,37.4899147004324],[126.7607525005583,37.4897740005731],[126.7611262001846,37.4903320000151],[126.7588310000949,37.4922099004755],[126.75598599986749,37.491405101656305],[126.754981500872,37.4933141997472],[126.7557775000779,37.49527170121],[126.7549003992378,37.4941970009847],[126.75220349964589,37.4937733000033],[126.75281609949701,37.493229599791796],[126.7523906998737,37.4911039006489],[126.75102749981471,37.4927261008446],[126.7495704998358,37.4927428008712],[126.7479400005619,37.4916100006158],[126.7457070003988,37.4917286000124],[126.74559570077109,37.4929963012072],[126.74396630161479,37.4934004007837],[126.74363440036781,37.4948114999888],[126.7419343989539,37.495880401041994],[126.7407993992306,37.494090101123604],[126.739578100112,37.4942244013269],[126.73927099947271,37.493489000827196],[126.7379618002926,37.4935852004856],[126.73680160053021,37.494956200563294],[126.7367308997034,37.4941457006942],[126.73546520043439,37.4943534004911],[126.7357590009486,37.4974347997271],[126.7370076006295,37.4973166995995],[126.7369998001683,37.4982154018311],[126.73523890008529,37.4990783001071],[126.735353500339,37.5002944000653],[126.731621801391,37.5027169008328],[126.73389010040489,37.5048716999404],[126.732689100584,37.505547800106704],[126.7365125001794,37.506718300245105],[126.7346847012155,37.507501700234],[126.73457620069601,37.5086309004653],[126.7333831005913,37.5080985007368],[126.7312472008888,37.5088729003507],[126.7317986004158,37.5100760002509],[126.72944750058011,37.5107984002607],[126.7288121012036,37.51309529922381],[126.7301260020209,37.51729419885],[126.7322478006089,37.517114399440395],[126.7324110001492,37.5186844000834],[126.7287729017347,37.520249300401204],[126.729405900057,37.521912500823596],[126.7262248010511,37.5216232005107],[126.7260983997794,37.522202201549305],[126.7226760005511,37.522422601714496],[126.7221046011225,37.5234403006968],[126.72227870094841,37.5254578986792],[126.7275013003418,37.5259451986377],[126.7270174004799,37.5264737997161],[126.7276289007516,37.526339099840705],[126.7284150008552,37.527695099383905],[126.7298453994248,37.5280383990406],[126.72989340074089,37.5274294000114],[126.7304729006451,37.530230099236796],[126.73173700074149,37.529852899813],[126.73188790187261,37.5312512001162],[126.7288150014186,37.5328283007007],[126.7289659012677,37.5336208999081],[126.7279543013362,37.534232700954696],[126.72639740054879,37.5338239006786],[126.7260183009279,37.534604899897595],[126.72695250091519,37.5352256999961],[126.7269728008949,37.5362966989251],[126.72902550026501,37.5362462989411],[126.7288122009945,37.5389182989024],[126.73023790145811,37.5391689993415],[126.730544200217,37.5413453987755],[126.73117739958381,37.5407867993341],[126.7319596997217,37.5417965992702],[126.73322800012,37.5408022987475],[126.7326527007165,37.5419037994497],[126.7339273003203,37.5430379990146],[126.7326535004643,37.5427190009271],[126.7315510007105,37.545409200550104],[126.72880620108049,37.5476337007297],[126.72863439903341,37.546756800910394],[126.7268536997571,37.5470459006525],[126.725023598025,37.5444983009403],[126.7183976990289,37.543568100212504],[126.7186320988409,37.5415695004216],[126.7169150980229,37.5380827988147],[126.71973149691769,37.5364241988526],[126.7154791999631,37.532354201456],[126.71529709908211,37.5312310011686],[126.7134723985068,37.5305885006574],[126.7154256998405,37.5302299992914],[126.71567009974859,37.5271737996397],[126.71665059984319,37.5268206985911],[126.71729330005729,37.5279162987916],[126.717897000013,37.5262526993966],[126.7180311004128,37.5288227978612],[126.71953429890961,37.5276911989928],[126.71931719988551,37.5254342985511],[126.7221660988923,37.5241172993521],[126.7218807991776,37.522668500800904],[126.7193998001029,37.5226464012125],[126.7191584000443,37.5235802004052],[126.7190781996961,37.5226435010676],[126.7161062972855,37.521251901340904],[126.71582119683109,37.518383801679605],[126.7125549977183,37.5185777009615],[126.7124529984921,37.517023499684804],[126.71566280064141,37.516826399281896],[126.71582120048299,37.5183837977245],[126.718788197516,37.516629899478396],[126.7132380991327,37.5126948038917],[126.71293869771479,37.5094514016383],[126.7092544970906,37.5097240006544],[126.7085209995524,37.5070010000287],[126.71115399909219,37.5055108001278],[126.7102072991011,37.505310099825905],[126.7116888994759,37.5016711995153],[126.7161865988625,37.499040298728694],[126.7163828980727,37.4914214015756],[126.7154633989922,37.490812002184995],[126.7098753011326,37.4910328009668],[126.7101446014898,37.4943266011152],[126.70626420024311,37.492474301208595],[126.70460270020429,37.492183601208794],[126.7041047985971,37.493160700322996],[126.7046758992293,37.4911279000109],[126.7024578001173,37.489139801017],[126.70183869828199,37.4895511015001],[126.70120139742001,37.488383499866394],[126.7008158977764,37.4837204995754],[126.70210069864031,37.4785277017561],[126.7017107982789,37.4766779013873],[126.6964934998004,37.4759010023522],[126.6929839005442,37.477647601751094],[126.6922047013234,37.478691400707305],[126.6926193013867,37.4826783018325],[126.6911280050692,37.487552302698],[126.6893682028617,37.4883837039695],[126.68847290375699,37.4903918019614],[126.6859341004847,37.4911472010831],[126.6835518993325,37.48982500067461],[126.6821167998887,37.49072310013489],[126.68019600132979,37.4895436013799],[126.68018189979469,37.4912890008788],[126.67843639838749,37.4886743009834],[126.6753678000874,37.4879063018091],[126.67524230044579,37.493337999975104],[126.6750586012376,37.4940851015792],[126.67347480138119,37.494563601157],[126.67362070123531,37.4969927987278],[126.6756294001245,37.4971856999892],[126.67569180042689,37.501497399236996],[126.6774670006834,37.5018253988457],[126.6775408006784,37.5029775988206],[126.6782897014178,37.5029514006949],[126.67875020131879,37.507482199947596],[126.6786178000233,37.5083050005257],[126.67867319917731,37.5074861004752],[126.6759845000943,37.5063344015894],[126.6731697992863,37.5092845006084],[126.6716721988184,37.5081891006393],[126.67160109882191,37.5070464006453],[126.6689461992536,37.5065089000376],[126.6703521995224,37.506438799053],[126.6709799998858,37.504811399753],[126.672553898868,37.504427399622095],[126.67207859934331,37.503188200861295],[126.6707832997469,37.5032294008454],[126.667858699789,37.5010143000137],[126.66881239987339,37.50097679911379],[126.6690644996213,37.500152199938405],[126.66995749947519,37.5001650999397],[126.66991259994741,37.4992332990344],[126.67362069807061,37.4969928001002],[126.6734500980956,37.4941534004778],[126.6714757981468,37.4933311013675],[126.6714183981418,37.4925651008566],[126.6695116984375,37.4926374009522],[126.6694575984916,37.4917632018264],[126.6677660001832,37.4908858027038],[126.6676098966763,37.488174998212095],[126.6692300989844,37.4881092978576],[126.67099379714581,37.485418899405],[126.6740360998829,37.4828342995576],[126.6722496013242,37.484532399552],[126.674543900455,37.4854021992667],[126.6765258990059,37.4852373993547],[126.6766603993031,37.484090899448596],[126.6780401979233,37.483368500171],[126.6763739982393,37.4796515010689],[126.6746879999253,37.4794416012788],[126.6744553996137,37.4734276013049],[126.67312009939941,37.4715901017886],[126.6680333994893,37.4705609011973],[126.6653433998731,37.4715496001212],[126.6637834009813,37.4704926008493],[126.6623332001609,37.4721280002209],[126.66157509985919,37.4718178004714],[126.6601847004876,37.472778400249204],[126.66009050127579,37.473835001139705],[126.6566294013362,37.4727762010329],[126.6547981993862,37.4747489015475],[126.6540772984583,37.47357770127],[126.65196239882441,37.473731501374196],[126.651001500153,37.4730076001143],[126.64992990122461,37.4734260996958],[126.6497978002751,37.4745857004424],[126.6487035005362,37.4743287004399],[126.6475319009686,37.4754092003725],[126.6496922005182,37.47735379968341],[126.6462734004626,37.4776170008813],[126.64636820016099,37.4785484007816],[126.64534910025,37.4786801009486],[126.6456645002594,37.4808461003404],[126.6444595998455,37.481726700586805],[126.6439541995147,37.4817322996875],[126.6444286990402,37.4809347004851],[126.6433046001643,37.4810429003769],[126.642339600002,37.4836221002742],[126.6415182008234,37.482849201047095],[126.6400765022651,37.4830138008825],[126.64269609524099,37.4842346106448],[126.6400764978606,37.483013811865604],[126.633470104467,37.484565410314],[126.6312489066882,37.4875731073063],[126.6302668986546,37.485889402952196],[126.6284249004966,37.4855747032669],[126.62400400295,37.48720630321019],[126.6226458991642,37.489022902585205],[126.62026699857739,37.4886164000001],[126.6191905973533,37.4870553989089],[126.6192361973077,37.4842406017237],[126.6180437985001,37.482900303064],[126.61302870034051,37.4823003027529],[126.6091257990643,37.4785838039665],[126.60734510084501,37.4795710029793],[126.6062677997346,37.478841803062295],[126.6040026993831,37.4797660013652],[126.60462709860501,37.478329598776405],[126.6039721992599,37.476745000361],[126.6030705004291,37.476202300340496],[126.60237309954219,37.477043800195595],[126.6030233988845,37.476322099814496],[126.6013746990065,37.4749933003261],[126.60200589906749,37.4750224997383]]],[[[126.7776341995496,37.4374007999981],[126.77969520011361,37.434978098325004],[126.78090080005829,37.4359344988744],[126.78378289717621,37.4352366995722],[126.7858133007034,37.432182397603405],[126.78769579882089,37.431937997847804],[126.7872616010997,37.4328510996674],[126.7887771995841,37.4334301990883],[126.7907596004873,37.4328869990817],[126.793532101184,37.4371926988821],[126.7960361014417,37.4379146998295],[126.7959824996354,37.4385046011856],[126.7943212004935,37.4387892001791],[126.79406420044529,37.439962899668295],[126.79509100012609,37.4397388012629],[126.7932550002576,37.439970800389595],[126.79223380037901,37.4417751001496],[126.7923571002656,37.442699999602404],[126.7929510003282,37.442509800242],[126.7919666006172,37.443612799806196],[126.7917561008514,37.4458077980393],[126.79375739991461,37.4464144987717],[126.79398379972511,37.4454819997278],[126.7947739001704,37.4456441994071],[126.7937574006377,37.4464145001509],[126.7948844000999,37.4484062987922],[126.7955309996399,37.447246199858704],[126.7969907990926,37.4473729995698],[126.796458500106,37.4465386993448],[126.7994988005041,37.4468777995918],[126.7995993004954,37.4518248003158],[126.7968552025082,37.4519880007388],[126.7970591023695,37.452914901451706],[126.7948779996469,37.4549864019038],[126.7922066010537,37.4533095020341],[126.78949400172931,37.4531471029183],[126.7922065972719,37.453309498179806],[126.7919003975781,37.450679400809896],[126.7903133991651,37.4504108010785],[126.7895456994357,37.4494208004788],[126.7899426991243,37.4485129004878],[126.7883757988823,37.448557899420194],[126.79043109878741,37.4467540004612],[126.7897130990298,37.44556450086041],[126.7857943005054,37.4456118009845],[126.7851532997996,37.4445594010664],[126.78440259960291,37.4451576006444],[126.7826147002093,37.4441593011937],[126.7815250002603,37.4449667007231],[126.780745899381,37.4431297002735],[126.77918049921179,37.4430409007369],[126.7796583991626,37.4422042007563],[126.7782211995666,37.4423391001175],[126.7796399987017,37.442064699548105],[126.7795545987365,37.4405685998349],[126.7784570989656,37.4396712992862],[126.77850189894069,37.4378131000077],[126.7776341995496,37.4374007999981]]],[[[126.86490069948151,37.26834629895],[126.8694763967596,37.2671778987466],[126.8680269972995,37.2642775989304],[126.8697386974851,37.262509998450696],[126.86892949829429,37.2609837999769],[126.8710843978451,37.2600109008856],[126.8703330978198,37.2574531008697],[126.8709419004232,37.258517598484495],[126.873292098073,37.257620599381504],[126.8719099995446,37.254973299179504],[126.8732920987989,37.2576205972331],[126.875864401407,37.2566783978766],[126.876886001154,37.258348297496305],[126.8790379011482,37.2575456974764],[126.8809873003805,37.2595118975486],[126.8843556996551,37.2567902981556],[126.8849735008243,37.2576604988317],[126.886887601426,37.2570237982845],[126.888087600226,37.2581169971913],[126.89154259997,37.2575898987296],[126.8920143994982,37.2565676997518],[126.8946459974505,37.255132497728],[126.89414739834139,37.2517571983881],[126.8962747985449,37.2512155995215],[126.89490969991,37.24896710177],[126.8911893995589,37.2476342995251],[126.8949231978055,37.2489008983903],[126.89376539779191,37.246317699707596],[126.8991828974642,37.245356198406405],[126.90123949966811,37.2425750985576],[126.8991829033715,37.2453561977739],[126.9012900012644,37.2481759949541],[126.9048461977082,37.248491094639],[126.9097137972459,37.2453814954232],[126.91598500135201,37.2474933988977],[126.9197967975402,37.2509396954514],[126.9223685996836,37.2466862990241],[126.9240242001548,37.2488716970496],[126.92571650167869,37.2493061970101],[126.92488500047361,37.250828500761095],[126.9233007010239,37.2502846016487],[126.9223131020115,37.252025299908],[126.92414169934541,37.2524770016477],[126.919796800772,37.250939702316806],[126.91962120094759,37.253356199900296],[126.92063879994791,37.2536710008796],[126.916667802836,37.2514841034942],[126.9153400041638,37.2515000034783],[126.91716599717199,37.2599015015361],[126.9161336982043,37.2599300015076],[126.9166536978474,37.258774401994],[126.9112703012463,37.255152805315],[126.9074312011185,37.258438202792],[126.90515109876429,37.2590233035065],[126.9056077950777,37.2582396983132],[126.901061799444,37.254580601521894],[126.8992049013009,37.2543793017232],[126.8984009021049,37.2546602014423],[126.897881406034,37.2589752035546],[126.8964514990308,37.2617452065849],[126.89040959946409,37.2581105055742],[126.8891670007067,37.258877504807195],[126.8856222991071,37.258671801995],[126.88353990118951,37.2602913003755],[126.8841352998475,37.2608588002889],[126.8825193007864,37.259293302319705],[126.8809873023184,37.2595119021011],[126.8820557013557,37.262645899080205],[126.8811592010419,37.264260198999004],[126.8836203005811,37.266131099865],[126.8839679002335,37.268042197953896],[126.8854873033654,37.2696206966515],[126.8910329020548,37.2718585022988],[126.8864069015992,37.272730901702296],[126.886648001643,37.275277101597695],[126.88640689806459,37.2727309030306],[126.8827178003144,37.2721796029484],[126.8814611989637,37.2692268035092],[126.8799483004766,37.2686356041004],[126.8779566024683,37.2717802009558],[126.87121689998679,37.272457401584504],[126.8672560000849,37.2707149020518],[126.8671107995908,37.272810500388196],[126.8681801982366,37.269053900391704],[126.8664561997788,37.2686493003622],[126.8655075000435,37.269251000575],[126.86490069948151,37.26834629895]]],[[[126.89581419903121,37.3064337997337],[126.89640729835531,37.3056711990652],[126.8958142005888,37.3064337996141],[126.89940019810581,37.3058146986703],[126.89989989760609,37.3041405003445],[126.8984151996595,37.302040399621205],[126.9007794001872,37.302491699010396],[126.9013761993824,37.3015579992379],[126.9033650995395,37.302871698305],[126.9035732985612,37.301157596438905],[126.9051589001286,37.302787498687],[126.9074879034501,37.302038797189496],[126.9111656026123,37.3064627990887],[126.91378670089381,37.3058109996829],[126.91150620381231,37.3070622015859],[126.9133169000831,37.312474299893296],[126.91421749918251,37.314402397965196],[126.9179880004434,37.315447198635],[126.91664760038671,37.3159921006064],[126.91654969934041,37.315223200336796],[126.9148362010539,37.315229000331],[126.9152561001777,37.3177028006538],[126.9139358015033,37.3194532003372],[126.9166396007082,37.3204353986126],[126.9161302008428,37.320888499907],[126.9167756001974,37.3219405988549],[126.9170943998786,37.3208658999296],[126.9180992003041,37.3207769999526],[126.9181185002848,37.3228610978685],[126.91966550056779,37.3224470992674],[126.91811850091541,37.3228611019131],[126.9177918012421,37.323749701024504],[126.92121330114891,37.3289146974708],[126.9241142982479,37.3280532983322],[126.9242964985892,37.3272638989105],[126.9241143006682,37.3280532993571],[126.9247766000059,37.3282635991468],[126.926838900237,37.327793699653604],[126.9252909015885,37.3295066009491],[126.9253275008866,37.332028799526206],[126.9269398000295,37.3326153995678],[126.9280392011836,37.3308251996002],[126.9282592015585,37.3330560012139],[126.9258879037263,37.334608703239695],[126.9256802985759,37.3331167011928],[126.922994201262,37.3329084014011],[126.92226980198639,37.3349750993344],[126.92271940153681,37.3361327981767],[126.92424530026379,37.3361619009367],[126.9200135996669,37.3369809030857],[126.919665698951,37.3355106037286],[126.91698770162901,37.3334811057581],[126.9136618970972,37.333741704138],[126.9116792961937,37.3265813001803],[126.90575169805939,37.3254814015895],[126.9075128977727,37.3253692988118],[126.9102374966278,37.3227275997164],[126.9105037999722,37.3236299994456],[126.91303739806409,37.3226510983081],[126.913935797559,37.3194531997268],[126.9129424985523,37.3181405010395],[126.91065560083919,37.3175066016734],[126.9054115014538,37.3184534039906],[126.9049836013017,37.3220912008519],[126.9038492995398,37.319700501897906],[126.89909779910411,37.318810602289496],[126.89910499712511,37.3131278957351],[126.896437298847,37.308715699712],[126.8979725988176,37.307134200492],[126.89581419903121,37.3064337997337]]],[[[126.9207075972746,37.3457279991408],[126.92259689708361,37.3426711973954],[126.92749000023831,37.3431535977723],[126.9278575018712,37.346306897576],[126.9298065020927,37.350350198646105],[126.92909880092351,37.3511447998582],[126.930535699996,37.351918499499895],[126.93089190091081,37.3514060001357],[126.93053569919029,37.35191850088609],[126.9290988006272,37.3511448016598],[126.92741940132521,37.3530067009164],[126.9280943008487,37.3558411987197],[126.9298895998364,37.3538162989883],[126.9307453015775,37.3539381989591],[126.9315783007445,37.3554744974228],[126.9332048994038,37.353381999187505],[126.9354087002785,37.3527267962381],[126.9349667005997,37.3540342987186],[126.9376701017145,37.3557554978511],[126.9399322007993,37.355883497772496],[126.9408926009242,37.3613594006291],[126.9391644003898,37.3624002001972],[126.9381030003776,37.361300000928],[126.9364826000661,37.3629712001504],[126.93649519962129,37.3622553005466],[126.9349744007865,37.362276200468095],[126.9327081004393,37.363953700562],[126.9327788989835,37.362597301206094],[126.9315386999629,37.3624633012058],[126.9305974992702,37.3635260008666],[126.9303555993506,37.361107700053495],[126.9285952995895,37.360156100134795],[126.930225199226,37.358930799914305],[126.9300550993961,37.357898100947],[126.9276775005073,37.3596591006318],[126.92847609941009,37.3574082000466],[126.9252446005303,37.3562259008843],[126.924718799042,37.3569545000852],[126.92449029690981,37.351008798281],[126.9233961980039,37.3471406021492],[126.9207075972746,37.3457279991408]]],[[[126.95146439595081,37.2408795001765],[126.9523683997899,37.2397502998681],[126.9526757007501,37.240921999479795],[126.9545550992587,37.2408202996587],[126.9570096980321,37.2376964001951],[126.9574874990639,37.2353569973441],[126.96117870735131,37.2339450988249],[126.9667939047611,37.235710000666096],[126.9689279026271,37.240083096293],[126.9732730990485,37.2379278974486],[126.97241610035691,37.2395122017443],[126.9715300005661,37.239068201749795],[126.9707186013775,37.2404168004012],[126.9736080007119,37.2420674010229],[126.9713472029727,37.2426658004245],[126.97293850138139,37.2462825968077],[126.9750891992307,37.2439469991433],[126.97620999996269,37.2446696974077],[126.9780451987298,37.2426158981108],[126.9804813010467,37.2445831975199],[126.982930998597,37.2438723982307],[126.983479700516,37.242684498882],[126.98318500270831,37.2433223997664],[126.9859725012258,37.244026999656306],[126.99019970185,37.248373897894794],[126.99032700132709,37.2522061968884],[126.9915017027656,37.2526438998108],[126.991109500699,37.2537226002184],[126.99019680081041,37.2534447008623],[126.9902527000815,37.25505600278041],[126.9884936977058,37.2535257027973],[126.9857680001946,37.256040100463],[126.9843753999508,37.25509640039],[126.9835367003906,37.2565698013033],[126.9825683001008,37.2531029022187],[126.98103500163411,37.2527454025762],[126.97987259908459,37.2549118019117],[126.9767901993947,37.251708700882304],[126.9758068003781,37.2515389010521],[126.9748520991359,37.2548083008628],[126.9741298991946,37.254705100325204],[126.97487849853971,37.2530913015246],[126.9714766978867,37.2511633017485],[126.9669383995998,37.250101901927394],[126.9658333999322,37.2530036011667],[126.9643018959162,37.2494698005815],[126.9615984986196,37.246878703172605],[126.95614999656969,37.2467090028041],[126.954113597493,37.2434710006739],[126.95298279862381,37.243340900804],[126.9523671993327,37.2411286023382],[126.95146439595081,37.2408795001765]]],[[[126.9951632991514,37.270439400223104],[126.9956611991392,37.2691413997114],[126.9966895999339,37.2700381987938],[126.9976682996414,37.2688154987148],[126.9989532989996,37.269286698436304],[126.99949479845809,37.268754298968695],[127.00218649900249,37.2636780001344],[127.0013097991994,37.261187799797504],[127.0020844011353,37.261527096658],[127.0047344007414,37.260185898315704],[127.00434710065001,37.261787799503],[127.0054630007985,37.2619650985206],[127.00626470117881,37.263789800446396],[127.0036099018454,37.2641888015607],[127.0030333006529,37.266190101064204],[127.00253199951891,37.2652422012304],[127.00152909979519,37.2652782004759],[127.00039490089101,37.2672485997701],[127.00154740008111,37.2668644995928],[127.0017359000268,37.267623700357504],[127.0005499008185,37.268475200118],[127.00257190030511,37.2699754993593],[127.0024734010931,37.2707752009344],[127.0004497000351,37.2703937013909],[126.9991631999101,37.2716916006345],[126.9973211996592,37.2700203001927],[126.9951632991514,37.270439400223104]]],[[[127.0100881994023,37.2669822998744],[127.01220199916091,37.2663223999244],[127.010925499461,37.2655554001708],[127.01186289976529,37.2619620995045],[127.0143813994994,37.2611032990786],[127.01666090261891,37.2619602998058],[127.0172448026175,37.2647346981463],[127.0193062005561,37.2648287980522],[127.0209453998017,37.263916698732906],[127.02140540058001,37.2648770001574],[127.02042650065479,37.2650906018046],[127.02009610088,37.266706800244904],[127.0179974009975,37.2672253997403],[127.0192290005633,37.2686230001134],[127.01835440018601,37.2688058005076],[127.0175877001449,37.2704873000122],[127.0159048000238,37.2689325008593],[127.0145627991918,37.2690636004535],[127.01298269869099,37.2669768017478],[127.0097577999019,37.267447400379304],[127.0100881994023,37.2669822998744]]],[[[126.735225499451,37.546646600027806],[126.7361178990404,37.5453496001958],[126.73583149928581,37.544187298676],[126.7367724994918,37.5437222993111],[126.73613550004481,37.542211399727],[126.7372469004916,37.5421906991081],[126.7380546996829,37.5434487989305],[126.7391688998768,37.5425797989074],[126.7413509008506,37.5434639001084],[126.741161500241,37.5452837002136],[126.7396899998729,37.5447015009862],[126.7392050003579,37.545722599965096],[126.7411380004151,37.5479657005026],[126.7377201005826,37.5464963014687],[126.7379003004208,37.547969600668004],[126.7370473000021,37.547978301011796],[126.735225499451,37.546646600027806]]],[[[126.7913307997476,37.482922799547694],[126.79500049945631,37.482975899832496],[126.7955248006755,37.4804737990874],[126.79620210185111,37.4807543001888],[126.7955235998649,37.4809800012488],[126.79555829983019,37.482987799240995],[126.7991694006425,37.4833219006111],[126.79809090083221,37.4833646001422],[126.7986819004748,37.4837732002226],[126.7978100000315,37.48468420049559],[126.79598730246069,37.4853429023698],[126.79524050002631,37.4848061005744],[126.7943820998539,37.485681300140705],[126.7913307997476,37.482922799547694]]],[[[126.9414507992261,37.370806000181204],[126.942582499143,37.3715362989956],[126.9419815993439,37.3702467993053],[126.9454442010868,37.3691289984448],[126.9457935006067,37.3704151990776],[126.9467932002761,37.3707554008857],[126.9442547020211,37.3720175004972],[126.9466370009862,37.3734473009333],[126.9452602006619,37.3731660004636],[126.9454597001477,37.3742018017951],[126.94432650003401,37.3735943013337],[126.94275729945309,37.3745705010247],[126.94187499970299,37.3735954006165],[126.9425288996222,37.3722045001915],[126.94157759968981,37.3720895006146],[126.9414507992261,37.370806000181204]]],[[[126.6722345997374,37.5175826012609],[126.6764854003864,37.5146982986133],[126.6771949012757,37.520741999852795],[126.6722345997374,37.5175826012609]]],[[[126.77772559918229,37.483581900144195],[126.7794020986232,37.4825609997189],[126.77931499858809,37.4815458001978],[126.78087959988521,37.4796693994702],[126.7826385000633,37.4798575989644],[126.783041000259,37.481127698834804],[126.7846524001296,37.480662199464994],[126.7856418012088,37.481128999931805],[126.7857425011516,37.48213959926969],[126.7881451004654,37.482706100647704],[126.7814085007988,37.4839021006063],[126.7803151008288,37.4832231010495],[126.77772559918229,37.483581900144195]]],[[[127.0268280996308,37.2627965000824],[127.0286312000004,37.2613209992192],[127.029591700329,37.2591244992458],[127.03338120038079,37.2603649992993],[127.0339141006213,37.2619503998416],[127.0326541996033,37.263646200877396],[127.0305772999821,37.2630893006371],[127.0297626986237,37.2639363009602],[127.0285381996592,37.2628503005757],[127.0268280996308,37.2627965000824]]],[[[126.7937400995112,37.46975170057701],[126.7978206002539,37.4676485962693],[126.79874359933089,37.465549598368305],[126.7997797003185,37.4677767995393],[126.80092640077079,37.4676306999264],[126.8007878999735,37.47038590035999],[126.7991241999691,37.4707540006694],[126.7986070001524,37.4700122008227],[126.7983209000101,37.4714126011007],[126.795590899216,37.471414201106796],[126.7937400995112,37.46975170057701]]],[[[126.75243449858581,37.505545400002],[126.7529859998617,37.504358899182996],[126.7532632008281,37.5052932994194],[126.75513530064511,37.5056811997845],[126.7538743003965,37.5061180009939],[126.753551499823,37.507202200364105],[126.75243449858581,37.505545400002]]],[[[126.9497438996668,37.3896006000462],[126.95163090016669,37.3895748995689],[126.9518580010898,37.3901624999395],[126.9497438996668,37.3896006000462]]],[[[126.7427901995904,37.5542465995101],[126.74401329851901,37.5524542013596],[126.743672298691,37.551411299082],[126.7462046016709,37.554165998244905],[126.7448669005618,37.5533078009622],[126.7454927000572,37.5553200003104],[126.7427901995904,37.5542465995101]]],[[[126.67574909750711,37.5245559978832],[126.6783082011554,37.5244377999613],[126.6773369000733,37.524967000920995],[126.67574909750711,37.5245559978832]]],[[[126.7419478995055,37.507640699427704],[126.7427977999822,37.5074343997706],[126.7428678001207,37.5081018004165],[126.7419478995055,37.507640699427704]]],[[[127.04146989873959,37.251476700761295],[127.0423563008055,37.2513016999406],[127.04164829956791,37.2519173007449],[127.04146989873959,37.251476700761295]]],[[[126.7025010988506,37.5087200017746],[126.7034594005095,37.5077007991773],[126.7035391005359,37.5086467990427],[126.7048982010694,37.508547098779104],[126.7025010988506,37.5087200017746]]],[[[126.7396477991482,37.506409999807204],[126.7402900007297,37.5063226990259],[126.7394901994094,37.506822900219305],[126.7396477991482,37.506409999807204]]],[[[126.7140397996626,37.5296570996841],[126.714174499714,37.5291938998036],[126.7143597001545,37.529286099673904],[126.7140397996626,37.5296570996841]]],[[[126.81132709933149,37.4864579991321],[126.8115172006729,37.485328199342],[126.8120076011462,37.4860316997109],[126.81132709933149,37.4864579991321]]],[[[126.7989210993645,37.394503199706705],[126.7994979003781,37.394801799080504],[126.7996657020319,37.395045800999],[126.7994978997425,37.3948018002131],[126.7989210993645,37.394503199706705]]],[[[126.8839212982798,37.262000401258796],[126.88369880000481,37.2617756995604],[126.8841267019576,37.2620016028284],[126.8839212982798,37.262000401258796]]],[[[126.7568074994925,37.493962400430604],[126.7570906999437,37.4937583994449],[126.7572245003802,37.4941166000308],[126.7568074994925,37.493962400430604]]],[[[126.7668231994112,37.4924532007207],[126.7669530008505,37.4930720002478],[126.7669618001029,37.4931142004906],[126.7668231994112,37.4924532007207]]],[[[126.763278599488,37.504428599818],[126.7633387014356,37.5045488007449],[126.76333869997451,37.5045488009517],[126.763278599488,37.504428599818]]],[[[126.79539339989239,37.4464455001127],[126.7953825998312,37.4463529997279],[126.7953826003315,37.4463529994878],[126.79539339989239,37.4464455001127]]],[[[126.7976172991745,37.371976200629],[126.7976172997754,37.371976199261596],[126.797617301109,37.3719761994143],[126.7976172991745,37.371976200629]]],[[[126.8103180986897,37.4854758995673],[126.8105454998024,37.4850140995432],[126.81031810034051,37.485475900114196],[126.8103180986897,37.4854758995673]]],[[[126.6686224991423,37.4777717004283],[126.668622499139,37.4777716982156],[126.6686225026528,37.4777717003106],[126.6686224991423,37.4777717004283]]],[[[126.673342599363,37.524444900182196],[126.6733425999136,37.5244448979943],[126.6734741012513,37.524612900227],[126.673342599363,37.524444900182196]]],[[[126.7415658993268,37.508952299856794],[126.7415659004711,37.508952299017494],[126.7415659009678,37.5089523009405],[126.7415658993268,37.508952299856794]]],[[[126.6768196991217,37.543803699590896],[126.676819700768,37.5438036988728],[126.6768197000297,37.5438037007335],[126.6768196991217,37.543803699590896]]],[[[126.7429956982097,37.5036127000857],[126.74299569878819,37.5036126967874],[126.74299570080599,37.5036127010061],[126.7429956982097,37.5036127000857]]],[[[126.7439533992395,37.5064786001552],[126.74395339951309,37.5064785991487],[126.7439534004143,37.5064785996973],[126.7439533992395,37.5064786001552]]],[[[126.7931398994729,37.4419151000096],[126.7931399002633,37.4419150999513],[126.7931399000333,37.4419151004257],[126.7931398994729,37.4419151000096]]],[[[126.710002399712,37.5172123002925],[126.71000239991669,37.517212299467595],[126.7100024009427,37.517212299495995],[126.710002399712,37.5172123002925]]],[[[126.7346246995297,37.546013200266295],[126.7346247005336,37.5460131995322],[126.7346247007329,37.546013200190494],[126.7346246995297,37.546013200266295]]],[[[126.7357053995402,37.3640898998986],[126.735705400372,37.3640898999082],[126.7357053994462,37.36408990023121],[126.7357053995402,37.3640898998986]]],[[[126.742282899821,37.5064905001771],[126.74228289989871,37.506490499436396],[126.7422829009314,37.506490499611296],[126.742282899821,37.5064905001771]]],[[[126.74953689846909,37.4851729003726],[126.7495369004936,37.4851729000127],[126.74953690007959,37.4851729008046],[126.74953689846909,37.4851729003726]]],[[[126.8233969993772,37.4924949998434],[126.8233970001536,37.492495000213495],[126.8233969995267,37.4924950005928],[126.8233969993772,37.4924949998434]]],[[[126.6984482991176,37.4788997008375],[126.6984483010758,37.4788996994917],[126.6984483005332,37.4788997012202],[126.6984482991176,37.4788997008375]]],[[[126.74223309987971,37.5665816002333],[126.7422330999952,37.5665815993299],[126.7422331022033,37.566581600559296],[126.74223309987971,37.5665816002333]]],[[[126.8980321020906,37.301289199642596],[126.89803210026909,37.3012892002259],[126.898032099523,37.3012891992455],[126.8980321020906,37.301289199642596]]],[[[126.6990847997936,37.4811392000178],[126.6990848006415,37.4811391996194],[126.69908480013949,37.4811392005686],[126.6990847997936,37.4811392000178]]],[[[126.8521976991432,37.331942000030494],[126.8521976996449,37.3319419997596],[126.85219770007491,37.3319419999921],[126.8521976991432,37.331942000030494]]],[[[126.9210685962684,37.244352102039],[126.921068600028,37.244352099916],[126.9210686009836,37.2443521013583],[126.9210685962684,37.244352102039]]]]}}]}