{"type":"FeatureCollection","features":[{"type":"Feature","properties":{"interval":15,"stationId":"5911861549"},"geometry":{"type":"MultiPolygon","coordinates":[[[[126.856279898546,37.3076734991976],[126.8576494996388,37.306435199882905],[126.8575323997559,37.304901101417],[126.85651949871391,37.3043717003403],[126.8568484994246,37.303471599661],[126.85823430083981,37.3041621997639],[126.8600160997492,37.3032582999175],[126.8599593989473,37.3019264001128],[126.8585964993188,37.3015772998598],[126.85842239985759,37.2991816000055],[126.8596221999861,37.2986100997908],[126.86013840093,37.2990533004674],[126.8593627006213,37.2995229000231],[126.86000799997599,37.2998872996587],[126.8627401988809,37.300167499406804],[126.86268389974359,37.2981218993514],[126.86363759878991,37.2976398998334],[126.8626050998224,37.2968221006512],[126.863054999941,37.295718998956],[126.8664910993773,37.2934411992767],[126.8664530999704,37.292706799517696],[126.8664093009705,37.294201799531606],[126.8674170999627,37.2946675990658],[126.8677601002651,37.2937205996751],[126.8687111004225,37.295430698658095],[126.86962390042669,37.2949700990979],[126.8728216999198,37.2978008986763],[126.87475380249069,37.297735099123294],[126.87636410088041,37.2999846968737],[126.8750015019636,37.303370703610405],[126.8701940018602,37.3054313001767],[126.8710449010093,37.306583799024196],[126.8719028004988,37.3064091997029],[126.8719620010039,37.3096504990275],[126.8726274006737,37.3101438993439],[126.8720284010144,37.3107325996801],[126.8727859019801,37.311790203982795],[126.8697544998039,37.310695801961195],[126.86937329975201,37.3125263004648],[126.8674343004758,37.3118587007855],[126.86431680038349,37.3123519010539],[126.8642977989516,37.3113355011644],[126.8626710005784,37.3113625011374],[126.8618178998942,37.3126705006442],[126.8598605995088,37.3098006010555],[126.8588055005639,37.309548501307596],[126.8584024994866,37.310563300746196],[126.8579044972236,37.3087164000328],[126.856279898546,37.3076734991976]]],[[[126.9029422950303,37.3098614972727],[126.90308839973291,37.3070884995987],[126.9037287005905,37.3081831994174],[126.9069071042585,37.3088816975811],[126.9058401006491,37.309064400385196],[126.90571440117719,37.3108047995664],[126.9075402002957,37.311228299567304],[126.9066883016987,37.3134047986264],[126.9086458018843,37.314248900579],[126.9071269999026,37.3138437011428],[126.9049871005465,37.3151277030954],[126.9062913982923,37.3131005001284],[126.9048455997381,37.311515901713],[126.9037935006507,37.3116370016674],[126.9042547990319,37.3104679010852],[126.9029422950303,37.3098614972727]]],[[[126.9161954972188,37.3280387981356],[126.91685999845,37.3264196993714],[126.9182232002341,37.325739299398904],[126.91975480253251,37.3264180999375],[126.91952120079941,37.3285546990439],[126.9209058014564,37.328684697700794],[126.9181578011579,37.329708702354],[126.9171677999302,37.3312838005258],[126.9161954972188,37.3280387981356]]],[[[126.8518874985175,37.3093909997865],[126.8529469002259,37.3084486996212],[126.8542364030672,37.3101499013225],[126.8518874985175,37.3093909997865]]],[[[126.9248609996731,37.349693000328],[126.9259727003979,37.3492330999164],[126.9258437003588,37.3498017004276],[126.9248609996731,37.349693000328]]],[[[126.8558868997458,37.302027500132304],[126.8565408002098,37.3019686998648],[126.8558984001158,37.3022301002645],[126.8558868997458,37.302027500132304]]],[[[126.83900699845199,37.3157884006998],[126.8390069999533,37.3157883990242],[126.839007000656,37.3157884000679],[126.83900699845199,37.3157884006998]]],[[[126.8548302996365,37.309054599938804],[126.8548303002978,37.309054599694605],[126.8548302999335,37.3090546003193],[126.8548302996365,37.309054599938804]]]]}},{"type":"Feature","properties":{"interval":30,"stationId":"5911861549"},"geometry":{"type":"MultiPolygon","coordinates":[[[[126.798483099896,37.321127599956],[126.79932979918199,37.3214859984329],[126.8007677007513,37.3202667978178],[126.80305869885,37.3211921971945],[126.805102696806,37.320339498047204],[126.80598669747991,37.3196870971703],[126.80566879904161,37.315373799417706],[126.8096885996304,37.317514796049096],[126.815803099893,37.3127906991437],[126.815868399866,37.311925899834996],[126.818538599569,37.309560299600804],[126.8192704997293,37.3108030991559],[126.8201992988005,37.3102976996613],[126.82003879898801,37.3083410007875],[126.820570999797,37.3090358992783],[126.82076309919009,37.307868899549504],[126.8213175014761,37.3089916982996],[126.824838100406,37.3104284996065],[126.8238655010898,37.311300600743],[126.8251378996837,37.3128108993884],[126.8283805004768,37.3126355999743],[126.8289949998623,37.314447898161994],[126.8296649990622,37.3121436991957],[126.8321320998772,37.3114041982439],[126.83266219989301,37.3096136987264],[126.8345366999841,37.3090835985326],[126.8358853988852,37.3066715989561],[126.83762779956321,37.309410297622506],[126.838343799702,37.307357599640504],[126.8379921997545,37.304916799016304],[126.8400673001264,37.3056598991862],[126.8404251009493,37.3048750993761],[126.8400673009205,37.3056599001884],[126.8411874998003,37.3070853987629],[126.8416676993201,37.3067768990714],[126.84334899938061,37.303013399199294],[126.84486709845021,37.3037534985661],[126.8455811999448,37.3005194994213],[126.8456898001538,37.3016573990419],[126.8472242993181,37.3015695983091],[126.84800530046759,37.2999282976571],[126.84948350098881,37.3005605977907],[126.85428629713749,37.300161197708796],[126.85424379718,37.296599001271],[126.8510783989271,37.2957973007384],[126.85128209930001,37.294671299997],[126.85263479838311,37.293751900629196],[126.8510902994458,37.293305000545196],[126.852209199347,37.2924174995672],[126.85166149986921,37.291835299789504],[126.85445229973861,37.292401599582796],[126.8551352990556,37.2915629004215],[126.85384729977,37.2911796003921],[126.8537237994227,37.290391300021604],[126.8546973994116,37.2902042997722],[126.8557722999704,37.2881348998986],[126.8553635005587,37.2896306999741],[126.85723800004409,37.292161799457006],[126.8582029993254,37.2921164994621],[126.85782579928551,37.2892515008899],[126.85648759980329,37.2884566005848],[126.8564769994891,37.287636499947],[126.8585004997291,37.2884246995565],[126.8597931993702,37.287166899358105],[126.8610079987506,37.2871382993762],[126.86108779916471,37.2855064995849],[126.8625718995499,37.2850272991979],[126.8634414044707,37.2833374958031],[126.8682825018775,37.284802096712],[126.87021970091001,37.286961598110096],[126.87477040150651,37.2873384986738],[126.875470601994,37.2898127997779],[126.8780017022095,37.291287199931496],[126.877484404088,37.295904998165994],[126.879957503656,37.3024515946736],[126.8856713994936,37.3010233972558],[126.8879427009949,37.2984687995416],[126.8881087016841,37.300310601726004],[126.8803167036869,37.304180202167196],[126.8782796044362,37.3095923033491],[126.8786621040537,37.3150786978627],[126.8770056007444,37.317508802281196],[126.8715835025864,37.3166782041911],[126.8646018990106,37.3205582083143],[126.862624098826,37.3208416020648],[126.8616569995946,37.31973700077231],[126.860606199372,37.3202852017392],[126.8586267002561,37.319678001190304],[126.85770740117539,37.320039100829206],[126.85864630043321,37.321142400885996],[126.8572287998084,37.3216336002248],[126.8548676987295,37.319098600137394],[126.85577689933069,37.318818999471596],[126.8559119991956,37.3178703004203],[126.8551009001714,37.3177414993867],[126.8569994986978,37.318087599045796],[126.85778939790791,37.317062100071304],[126.8567696980948,37.3151338002698],[126.85718179749641,37.313330201853006],[126.8519071021573,37.3148788998534],[126.8516661010043,37.3157234013994],[126.84982720114749,37.315817300801],[126.8494000025538,37.3184518006903],[126.8471020994065,37.3177344026371],[126.845431601077,37.3186469017246],[126.8453011002822,37.320428400485],[126.8454315995209,37.318646900573],[126.843929501023,37.3187208004991],[126.8441589003035,37.319907200560706],[126.8426474000565,37.3189531005753],[126.84141349998511,37.3198170007951],[126.8391213014841,37.3197677008797],[126.8357157005689,37.3212428006137],[126.83555749947199,37.321943000517194],[126.8348075991902,37.321486199819006],[126.8353457982447,37.3191549018553],[126.8295100010014,37.3194457009593],[126.8288423008149,37.3212438999617],[126.8263001025239,37.322731699117696],[126.8263634014702,37.3234733016068],[126.82562990012529,37.3227577014285],[126.82227120274061,37.3230481011748],[126.822469902639,37.325000200373196],[126.8212459004628,37.3261714009537],[126.8188509001772,37.326380000301],[126.8182664995574,37.3241808023744],[126.8159745989665,37.3236409025996],[126.81405609903351,37.322031700295895],[126.8140120990075,37.320422801542506],[126.81040349939721,37.319059600506606],[126.8089382011813,37.3208139014153],[126.8091034000248,37.322715200306],[126.807839999118,37.3197400004207],[126.80310940174509,37.321234799890696],[126.80473090062699,37.3217700011871],[126.8031094007913,37.3212348010863],[126.8034299006748,37.322353401292695],[126.80112410031519,37.3238443023712],[126.8002771997254,37.3237683032203],[126.80021399883479,37.3226740996326],[126.798483099896,37.321127599956]]],[[[126.8931849966078,37.3046547973818],[126.8947625982976,37.304736397998504],[126.89570349735669,37.302850799884105],[126.89306449999569,37.3016930010419],[126.89317769817009,37.3004420988667],[126.90034680178769,37.3003530972434],[126.9035732985612,37.301157596438905],[126.9091976017404,37.299569499658794],[126.9074879034501,37.302038797189496],[126.9111655997724,37.3064627927655],[126.91829560026,37.3053464996824],[126.91378670168871,37.3058110014584],[126.91150620381231,37.3070622015859],[126.91340000191849,37.3123675962805],[126.9196002009342,37.312946897732],[126.9210771018033,37.313800200965105],[126.9198705020927,37.3156344003449],[126.920986200977,37.316792399186895],[126.92224800050019,37.31688779988281],[126.91969950106319,37.3167616016963],[126.9186013021614,37.3177852006727],[126.91918280157991,37.3197846986732],[126.92126040295119,37.3194793986764],[126.9216259023373,37.3221955990648],[126.91811850091541,37.3228611019131],[126.9181542008797,37.3246387001355],[126.92121330114891,37.3289146974708],[126.9241142982479,37.3280532983322],[126.9242964985892,37.3272638989105],[126.9241143006682,37.3280532993571],[126.9247766000059,37.3282635991468],[126.9266649981175,37.3278336995767],[126.92789790067401,37.3252427992665],[126.9271080004812,37.327354998351595],[126.9291596998856,37.3277367984617],[126.9312384018285,37.3301868999063],[126.9298837014967,37.3306070036594],[126.9299810013994,37.3339739002925],[126.93343090169091,37.3348203989446],[126.9298177017914,37.3342699021043],[126.9258879037263,37.334608703239695],[126.9254871041271,37.3353915024569],[126.92502990458429,37.3380017998466],[126.9297287013065,37.3438828976146],[126.9278575035524,37.346306899844805],[126.92901860239131,37.3481111980405],[126.9318992039597,37.3489962996421],[126.9328495028377,37.3511373978275],[126.935566403213,37.3527528977513],[126.9354309038529,37.3542987988854],[126.9376701017145,37.3557554978511],[126.9413997000628,37.355884097944895],[126.9434701998967,37.3539624994377],[126.9448060006571,37.354878999344095],[126.9452089007257,37.355395799924594],[126.9440714013241,37.357754299733],[126.943163400907,37.3582498001171],[126.9451081009389,37.364107100328695],[126.9442897003038,37.3638823008863],[126.944177099936,37.364539100777804],[126.9424968007844,37.3638975009608],[126.9417777005041,37.3651039009424],[126.9398667996014,37.365621000491394],[126.93602370064791,37.3641431015073],[126.93473040165911,37.3655737003712],[126.9354032004614,37.3665346001354],[126.9342875001631,37.3671147003363],[126.9338253000788,37.366462200826604],[126.9329977001255,37.3669465006776],[126.93274019955619,37.3657424007939],[126.93095289995,37.366478700221904],[126.9284275002254,37.3662081002729],[126.9281998001041,37.3669266003555],[126.9281762998328,37.3645116001844],[126.92723270006961,37.3638305007717],[126.9259665995499,37.3644769002292],[126.92435879997069,37.359284700138105],[126.92349080083869,37.3589553004675],[126.9229023997665,37.3602720005007],[126.9230538990316,37.359006300320594],[126.92196289967829,37.358996499741004],[126.922608899239,37.358192799871],[126.9218132995846,37.3572720009911],[126.92269799904079,37.3569793998616],[126.92228419917261,37.3556038000674],[126.9229641001714,37.3566449992562],[126.9241932989422,37.3557799001213],[126.9244902953693,37.3510087999572],[126.9168577967152,37.347842101722804],[126.9179210970538,37.346349497885505],[126.9186166987231,37.3392392023322],[126.9159335948255,37.3399059979737],[126.9149715957875,37.3339423039374],[126.9136618944692,37.3337417003645],[126.91167929645181,37.326581307524904],[126.9071649967131,37.328082805266995],[126.9052855985255,37.324181102889796],[126.9027902986426,37.322988699853404],[126.9048994984896,37.322674198924204],[126.9038492995398,37.319700501897906],[126.89909779910411,37.318810602289496],[126.89772689249409,37.316344399237096],[126.8991049957779,37.313127898553596],[126.8962300986528,37.308863002818505],[126.8935653966556,37.3110888044927],[126.8967901984941,37.3076262008015],[126.8943795994348,37.306048502529606],[126.89263509956271,37.3084230008378],[126.8931849966078,37.3046547973818]]],[[[126.9374774995487,37.3719253997308],[126.9384996996314,37.367778199437595],[126.9406642989607,37.3679728994334],[126.9430681000222,37.3666420998245],[126.9441818993866,37.367232499198],[126.9468606993983,37.3657603998088],[126.9463620997907,37.365413499698],[126.9488341005374,37.3666361001313],[126.9490187003605,37.3673713006251],[126.94796990077441,37.3676787998914],[126.9501794008679,37.3700256005725],[126.9489064006252,37.3709836008568],[126.948740600791,37.3720552997851],[126.949708199856,37.3730226022589],[126.9456073997842,37.3759969015308],[126.9434437017606,37.3761911012161],[126.9426213029395,37.3777950019589],[126.94104009967279,37.3778232001695],[126.9397186995648,37.374491900779304],[126.9390244996899,37.374873400827795],[126.9388469996599,37.3738065007151],[126.9380569994778,37.37409500013489],[126.9383350990077,37.372490400004494],[126.9374774995487,37.3719253997308]]],[[[126.946985399352,37.388154799469],[126.94643039968349,37.387548599301404],[126.948905399878,37.389117299393504],[126.94920740023261,37.3884944984611],[126.95023160023649,37.389023899053896],[126.9512224994062,37.3879545998069],[126.9507916997669,37.386697499388795],[126.95107089990711,37.3873474990545],[126.95307509960011,37.3875446991101],[126.953582900256,37.3862953994988],[126.9546119004053,37.3880535005827],[126.9534877010788,37.3888775002041],[126.9548544998933,37.390079899542606],[126.9552666001757,37.3893251999049],[126.954854500632,37.390079899683606],[126.9558112013882,37.391105901513896],[126.9552790000875,37.3921188002383],[126.95454220011311,37.3906503016948],[126.953342301313,37.391117101228005],[126.9516846999474,37.393179901088],[126.9496132998944,37.393615401069],[126.9483073997518,37.3907467009602],[126.9466100990092,37.3920897007694],[126.9475270987701,37.3909025008691],[126.9465638994711,37.3900998995627],[126.94776179974359,37.3903111992194],[126.946985399352,37.388154799469]]],[[[126.9599938985121,37.3934458990266],[126.96174139974069,37.3921225989611],[126.9629467999544,37.392346599378804],[126.9633980999415,37.3915042997803],[126.9652745999752,37.3935433990117],[126.9657719001544,37.3924727999254],[126.96362109940699,37.396173000911496],[126.96149989948641,37.395453000947505],[126.9599938985121,37.3934458990266]]],[[[126.7844433970371,37.3268316969411],[126.7861278961539,37.3254672974535],[126.78736619981,37.3227029994871],[126.7893035006203,37.323280796549696],[126.7906111005649,37.324664999873704],[126.7899340000764,37.326455100117094],[126.78778960007689,37.3274188001177],[126.7859502003365,37.3276331007854],[126.7844433970371,37.3268316969411]]],[[[126.7655887980673,37.3387304999724],[126.76667979951061,37.3389927992128],[126.7683371024792,37.3373772022987],[126.76721190082371,37.3389241038091],[126.7655887980673,37.3387304999724]]],[[[126.9760980988568,37.4026521006833],[126.9752313994261,37.4010899997019],[126.9763602995139,37.4013024988135],[126.9767018004389,37.4001815996573],[126.9769664001945,37.4028092016888],[126.9760980988568,37.4026521006833]]],[[[126.7418477991459,37.3519519000304],[126.74214479998341,37.3527801991739],[126.7429564007348,37.352028799347096],[126.7423402007519,37.3531849001359],[126.7418477991459,37.3519519000304]]],[[[126.94945319838439,37.3549972005447],[126.9485725994888,37.353613199763295],[126.94967220072479,37.3535896996607],[126.94945319838439,37.3549972005447]]],[[[126.7928116983786,37.3124494994227],[126.7952552005246,37.3114764976323],[126.7977731008791,37.3137074050088],[126.7928116983786,37.3124494994227]]],[[[126.9212891001677,37.3558296998415],[126.921492800246,37.3567605000805],[126.9215846000305,37.3568139002387],[126.9214927997617,37.3567604998312],[126.9212891001677,37.3558296998415]]],[[[126.9480787996264,37.3436297999795],[126.9480788006072,37.343629799581805],[126.9480707001112,37.3439464003322],[126.9480787996264,37.3436297999795]]],[[[126.93516399895731,37.3845914005019],[126.9351639990093,37.3845913989398],[126.9351640011898,37.3845913996495],[126.93516399895731,37.3845914005019]]],[[[126.9317084002796,37.3404887001859],[126.93170839971721,37.3404887008562],[126.9317680010092,37.340429898945],[126.9317084002796,37.3404887001859]]],[[[126.78695599672571,37.303073300939005],[126.7869560015436,37.3030732982032],[126.7869560005621,37.3030733008879],[126.78695599672571,37.303073300939005]]],[[[126.8372138996227,37.3227098996667],[126.8372981008326,37.322705299953604],[126.8372138998746,37.3227099005481],[126.8372138996227,37.3227098996667]]],[[[126.8891753997622,37.2983534996569],[126.889175400481,37.2983535002239],[126.8891754000002,37.2983535004455],[126.8891753997622,37.2983534996569]]],[[[126.9401546995064,37.3786287000914],[126.94015470074599,37.3786286994791],[126.94015470041029,37.3786287011442],[126.9401546995064,37.3786287000914]]],[[[126.9318854996134,37.3665077001784],[126.9318854999463,37.3665076999306],[126.93188550041091,37.3665077000286],[126.9318854996134,37.3665077001784]]]]}},{"type":"Feature","properties":{"interval":60,"stationId":"5911861549"},"geometry":{"type":"MultiPolygon","coordinates":[[[[126.6822878997242,37.413820700021304],[126.6837852992819,37.411111499817],[126.6856409993816,37.4102874998334],[126.6852747999786,37.409762798598805],[126.68662310107621,37.4107616983855],[126.6906871987188,37.4089210988416],[126.6915162978897,37.4068868008759],[126.6906368975646,37.4057061996679],[126.6926738962841,37.4032785001722],[126.6936891019158,37.4027958990383],[126.69514150132821,37.405196697786096],[126.6973353010369,37.4041570979196],[126.69818780105889,37.4053307979049],[126.7001492990974,37.4044318988038],[126.7021102991244,37.4018793988473],[126.7039898972448,37.4009950997316],[126.7024929970228,37.3989864994082],[126.70309729641849,37.3967249016698],[126.7059449982227,37.3970145976254],[126.7062072991833,37.3951823988951],[126.708985301955,37.3989405980276],[126.71295260094189,37.398941797877804],[126.71300080239111,37.4009480980537],[126.71677849861341,37.4009600980417],[126.7170783983135,37.399646799355],[126.7151371992927,37.3977490989711],[126.71793400238,37.3978557978386],[126.72071979959419,37.3969401987542],[126.7207339999638,37.395087399499005],[126.721303800248,37.3952527000245],[126.7208837006681,37.3959249993522],[126.7226019989498,37.3962263990508],[126.72245410092339,37.394570598914804],[126.7241033993527,37.395183798376195],[126.7260800996799,37.3938210983493],[126.7251850013826,37.394452800113704],[126.7253384012292,37.3952899992765],[126.72756150021179,37.396654498347495],[126.7273440009324,37.398209998782995],[126.72958129982601,37.396633199090395],[126.7303156997971,37.3975691985748],[126.7307436994477,37.395803100038705],[126.7297020997052,37.3950581006655],[126.7290542997993,37.3956910005076],[126.7294048987472,37.3948002994493],[126.7286086988032,37.3939306989505],[126.72945390034529,37.394671997669],[126.7331501972259,37.3941161978058],[126.7346105955163,37.389306701662896],[126.7359265974935,37.3875544981012],[126.74033440036169,37.38812209853759],[126.7412426994534,37.3871308995288],[126.7409635996937,37.3804022000829],[126.7393297008318,37.3775177021012],[126.73837239997171,37.3775877018261],[126.73730710060829,37.375820501782904],[126.7338145989813,37.3768783014966],[126.7328495986277,37.375151801661],[126.7306315985139,37.3758918008622],[126.7275935007609,37.3726274033231],[126.7264353980508,37.3757770020544],[126.7245670977949,37.373771701977496],[126.7264353990442,37.3757769972608],[126.72713859957891,37.3722271999486],[126.7236595008503,37.3684107012504],[126.7225355015404,37.369963499939495],[126.7230602004176,37.3712943004209],[126.7223960003279,37.371993600088004],[126.7202948001287,37.3697100006766],[126.7197940006283,37.372121200916204],[126.718012699224,37.3710814005327],[126.7187282985569,37.3680179026602],[126.7169872995652,37.3637421998753],[126.7174575003519,37.364191398700605],[126.7201145972414,37.3619273991999],[126.7193086980696,37.3590926997555],[126.71694569843889,37.357341899023204],[126.7194534989178,37.3581899990965],[126.7198415985297,37.3572277000588],[126.7188304996896,37.3564236997964],[126.7207065995225,37.3552860002857],[126.719864499855,37.354236700836104],[126.7192116996782,37.354911300072196],[126.71960019908771,37.3531810001786],[126.72039959968299,37.3534984997995],[126.72007269797311,37.3519050985342],[126.7231342996772,37.3496819991272],[126.7249975978139,37.3494842993249],[126.72563299717851,37.348477200332],[126.7259963958272,37.344867801262204],[126.7227022973492,37.343251501047604],[126.7257560975776,37.340783100098506],[126.725943098392,37.3374084983444],[126.72832559987121,37.3359317996743],[126.7315122981054,37.3372291980406],[126.7343435009378,37.335479596309696],[126.7367376004306,37.337167096567],[126.7382999988682,37.3359452977888],[126.7417881016187,37.3384802978504],[126.7441366992701,37.338333897996804],[126.7447473986594,37.3366579996727],[126.7441211992856,37.3349045014262],[126.7433144968026,37.335407099414894],[126.7441212004119,37.334904498024],[126.74492670026709,37.3365475986562],[126.7479078972859,37.334715200488596],[126.7453975969083,37.3315523990326],[126.7453541004625,37.3286956964482],[126.7488985010383,37.329380899712795],[126.74829120236879,37.3297673017099],[126.7486154001111,37.3321325009067],[126.74574510298139,37.3319061011331],[126.7479079008186,37.334715198324],[126.7493487013113,37.3338199976572],[126.75239179983039,37.3360293970492],[126.7541467980754,37.335855697222904],[126.7545523976698,37.3323824006962],[126.752056099769,37.329678199086494],[126.75529460114029,37.3327242955443],[126.7586709004386,37.3329247965003],[126.7601168989926,37.331531397893706],[126.7622011998972,37.33294629787591],[126.76400869808971,37.3302233005989],[126.76227389982449,37.329645901176306],[126.7614111994065,37.3304716002554],[126.76099589811359,37.3271954022297],[126.7588796971188,37.3222428005231],[126.7637333971363,37.3197378992675],[126.7624338993933,37.3168591986375],[126.7659299997934,37.3159388985532],[126.7704941952292,37.3169128975792],[126.76903599668739,37.3104192040729],[126.7648362964696,37.3118502024757],[126.7627380968298,37.3071636999954],[126.76577359674181,37.304637300929905],[126.7651499967482,37.3032369009272],[126.76997749601699,37.297657399536796],[126.7693447966497,37.296236300957894],[126.77087539738369,37.293424799395],[126.7726450144983,37.2928498866483],[126.7806646064787,37.2931933863048],[126.78342499840299,37.2951053978651],[126.7890981000416,37.2932411999209],[126.7910912980484,37.2959072972548],[126.79677489236481,37.297008596153496],[126.8047602999974,37.292722298689704],[126.8088175959401,37.2959108955011],[126.8141653005468,37.298045192556195],[126.8177091970029,37.2957215948798],[126.8183077964043,37.2933279972734],[126.82027649818541,37.293272896893995],[126.8211531988695,37.2916674977089],[126.8237235005843,37.291784797020604],[126.8261012007581,37.2946981989699],[126.8273043995549,37.2939286997394],[126.8285478992249,37.289473197388105],[126.8325754005899,37.291152694469496],[126.8353536978116,37.291407294214906],[126.8371877972872,37.286896398367105],[126.8350494974692,37.282265100549694],[126.8361550988701,37.2802563993636],[126.83864410086899,37.2802306956035],[126.8406141998565,37.278796296601705],[126.8425494983507,37.275313096152395],[126.8476257953842,37.2760361940192],[126.849816194507,37.2746374944731],[126.8509036982437,37.272435593831105],[126.8518179010893,37.273553297801705],[126.8540948048271,37.272741797133],[126.85805980086211,37.2741491957256],[126.8602455991038,37.2732489964513],[126.86062989871951,37.2695566001437],[126.8589983975525,37.2685945987106],[126.8643821997557,37.267296297589],[126.8697386974851,37.262509998450696],[126.86881849933441,37.2594018989209],[126.8703331008992,37.2574530993516],[126.8709419004232,37.258517598484495],[126.873292098073,37.257620599381504],[126.87209099936359,37.2548536992991],[126.8736744999951,37.257495496706],[126.8758643987595,37.256678397835095],[126.876886001154,37.258348297496305],[126.8790379011482,37.2575456974764],[126.8809873003805,37.2595118975486],[126.8843556996551,37.2567902981556],[126.8849735008243,37.2576604988317],[126.886887601426,37.2570237982845],[126.888087600226,37.2581169971913],[126.89154259997,37.2575898987296],[126.89361509789751,37.255517400802105],[126.89194759818969,37.252527797242706],[126.8962747985449,37.2512155995215],[126.89490969991,37.24896710177],[126.89063709950021,37.2479714017991],[126.8908176993371,37.2471019993824],[126.8924686990886,37.247432298593],[126.89401570149009,37.2460105976432],[126.8965520000951,37.2462669974956],[126.8991828974642,37.245356198406405],[126.90140780201641,37.242187996837195],[126.8991829033715,37.2453561977739],[126.9012900012644,37.2481759949541],[126.9048461977082,37.248491094639],[126.9097137972459,37.2453814954232],[126.91598500135201,37.2474933988977],[126.9197967975402,37.2509396954514],[126.9223686018104,37.246686299235],[126.9240242001548,37.2488716970496],[126.92571650167869,37.2493061970101],[126.9248850012447,37.250828499418894],[126.92535860136479,37.2515896006724],[126.92414169934541,37.2524770016477],[126.9223131006636,37.2520253020425],[126.9203051991986,37.2543509006274],[126.916667802836,37.2514841034942],[126.9153400041638,37.2515000034783],[126.9166537017001,37.2587743995652],[126.9181212018803,37.2599910060708],[126.9161336982043,37.2599300015076],[126.9166536978474,37.258774401994],[126.9112703012463,37.255152805315],[126.9074312011185,37.258438202792],[126.90515109876429,37.2590233035065],[126.9056077950777,37.2582396983132],[126.901061799444,37.254580601521894],[126.8992049013009,37.2543793017232],[126.8984009021049,37.2546602014423],[126.897881406034,37.2589752035546],[126.8964514990308,37.2617452065849],[126.89040959946409,37.2581105055742],[126.8891670007067,37.258877504807195],[126.8856222991071,37.258671801995],[126.88353990118951,37.2602913003755],[126.8841352998475,37.2608588002889],[126.8825193007864,37.259293302319705],[126.8809873023184,37.2595119021011],[126.8820557013557,37.262645899080205],[126.8811592010419,37.264260198999004],[126.8836203005811,37.266131099865],[126.8839679002335,37.268042197953896],[126.8854873033654,37.2696206966515],[126.8885219003308,37.2707947954774],[126.89177040019369,37.2709737960794],[126.8910329020548,37.2718585022988],[126.8922686010305,37.2748563003326],[126.8916556016435,37.2764403987485],[126.8936032996958,37.277487797701106],[126.8937307020934,37.27540159973],[126.89360330195049,37.2774878009575],[126.89138160096991,37.2799513004878],[126.8893436007929,37.2790884020004],[126.8859013042352,37.2808826002062],[126.8879953021773,37.2866039947996],[126.89388860565529,37.2808298015622],[126.8883163112276,37.288807693584296],[126.8947357090329,37.2949921918494],[126.9038009020519,37.2960891915003],[126.90911870352559,37.2993366937311],[126.91534199730229,37.2948849981828],[126.9141903961032,37.2915930966763],[126.91872119157239,37.2849348033346],[126.90968309671129,37.2869757993922],[126.91872119181649,37.2849347963495],[126.9198321013794,37.2858067980596],[126.92128860046199,37.285388498273],[126.920433003514,37.289534798458],[126.92627640009631,37.2902299972308],[126.9290766014234,37.2948024957155],[126.93176900092091,37.2947138957505],[126.9339590013388,37.295742700762496],[126.93033370476141,37.298765202957796],[126.9299574051592,37.3029055994319],[126.93297780213881,37.3049559973815],[126.9365134050894,37.306027097751404],[126.9421842994185,37.3057410980374],[126.942423600436,37.304608098871405],[126.9444626985517,37.3059642973984],[126.9509878968035,37.3046523960028],[126.9517796979614,37.3022522983424],[126.9510770017238,37.3038638987582],[126.9539484988523,37.304159498462596],[126.9562481984864,37.3022737978877],[126.9559367019007,37.3045031978721],[126.9581120998562,37.3058299965539],[126.96064179935071,37.3030361988379],[126.9630101986156,37.3017510997573],[126.9638679977578,37.300608800899596],[126.9636093980164,37.2987263027821],[126.9605936983223,37.2968245043919],[126.9578612010548,37.2985345026819],[126.9574752989846,37.299716402274],[126.955477998497,37.2980824006005],[126.956055798154,37.293279401591406],[126.9541646987374,37.2942672995679],[126.9560557986248,37.293279399124],[126.9559385999401,37.2926199997289],[126.9569986997945,37.2950033977534],[126.9587775980156,37.293818698938104],[126.9583349988838,37.2925537996687],[126.9629558962331,37.2888864958575],[126.9641341997323,37.2917506953571],[126.96917289886521,37.2843357994901],[126.9691872997117,37.283334598295404],[126.97161149764919,37.282614199110796],[126.96999839957759,37.280639899820294],[126.9726382994338,37.2801158991275],[126.97286459962599,37.2788427989621],[126.9757290997338,37.2805909989257],[126.9770076996308,37.2807662986391],[126.97852779811069,37.279771099634296],[126.9784778981606,37.278875900529506],[126.9762133992874,37.2780313003551],[126.9763211985432,37.276229100356005],[126.9775932998477,37.2742171995707],[126.97824509969469,37.274944998898704],[126.9787593002301,37.2738423990105],[126.9802995986898,37.2747933980595],[126.9819555999629,37.2718984990912],[126.9839200006339,37.2736599981283],[126.9849746995792,37.2732691985191],[126.9857497988041,37.271741400046906],[126.9845188990517,37.2709440994684],[126.98636879849319,37.2704183991644],[126.98829429939191,37.2677879975518],[126.9893923994838,37.2640995001791],[126.9887006996885,37.2639665997091],[126.9904577988514,37.2612211995718],[126.9903341957646,37.257836399863805],[126.9853197007791,37.2564516012486],[126.9843261999448,37.2554864004367],[126.9836604006106,37.255546600376505],[126.9839272970497,37.2578731002101],[126.9825683001008,37.2531029022187],[126.98103500163411,37.2527454025762],[126.97987259908459,37.2549118019117],[126.9767901993947,37.251708700882304],[126.9758068003781,37.2515389010521],[126.9748785013064,37.2530912994997],[126.9754546006845,37.2550491004272],[126.9739880007026,37.2556711010348],[126.97412989971319,37.254705100927204],[126.9734181995851,37.2546158999347],[126.97487849812481,37.2530913014593],[126.9714766978867,37.2511633017485],[126.96984669951671,37.2509432019686],[126.96906870027779,37.2527420010452],[126.96984669899341,37.2509432017344],[126.9669384019017,37.2501019025757],[126.9659647002545,37.253020300314006],[126.96504849993039,37.2529040006708],[126.9643018959162,37.2494698005815],[126.9615984986196,37.246878703172605],[126.95614999656969,37.2467090028041],[126.954113597493,37.2434710006739],[126.95298279862381,37.243340900804],[126.9523671993327,37.2411286023382],[126.9514643962444,37.2408795013613],[126.95215829861189,37.2396183993313],[126.9552245998172,37.2392417986497],[126.9570096980321,37.2376964001951],[126.95498449861279,37.236447697904296],[126.9574874988152,37.2353569987123],[126.9596216014955,37.23243569588681],[126.9622377035672,37.235386595306],[126.966793899011,37.2357099949826],[126.9689279026271,37.240083096293],[126.9732730990485,37.2379278974486],[126.97241610035691,37.2395122017443],[126.9715300005661,37.239068201749795],[126.9707186013775,37.2404168004012],[126.97275050099421,37.2413179006199],[126.97620999996269,37.2446696974077],[126.9780451987298,37.2426158981108],[126.9800740991916,37.241683998239196],[126.9804813010467,37.2445831975199],[126.982930998597,37.2438723982307],[126.9839957004711,37.241566498979196],[126.9871983006884,37.2436832988507],[126.9881223005777,37.2467536987753],[126.99019970185,37.248373897894794],[126.99032700132709,37.2522061968884],[126.9915017027656,37.2526438998108],[126.99180850033271,37.2539410001039],[126.9902527005498,37.2550559998881],[126.99033420069041,37.257836399537105],[126.9916882993363,37.2582141991593],[126.9918235989099,37.256365099109196],[126.9941152007265,37.2549153995185],[126.9944847013739,37.2564068983902],[126.9966286994126,37.257655197232104],[127.00627390013409,37.257347899504],[127.00757990051619,37.2597011992314],[127.0083247004936,37.2595427998943],[127.00757990117519,37.2597012005781],[127.0087899007233,37.261107700461],[127.0073167011664,37.2616546000692],[127.00832270038089,37.262463600149395],[127.0076931010105,37.262886999726],[127.0079606013784,37.2641321998878],[127.00605880157771,37.2654432996091],[127.007002100612,37.2673481002303],[127.0060625008525,37.2684410995999],[127.0069063000087,37.268763399277596],[127.0073023003118,37.268100399478],[127.0071828006988,37.269641399494596],[127.00821070070961,37.2700284002617],[127.0056057001055,37.274866600905405],[127.0031840002275,37.2765500009043],[127.003353299272,37.275571800776504],[127.0017402002226,37.2748159009604],[127.0012731002981,37.27605530028],[126.99799470010471,37.275381500626104],[126.99679480074451,37.2763553999076],[126.9987625996098,37.2775993990591],[126.9996520001925,37.2771049996184],[126.9996081007615,37.2779102995524],[127.0015294011308,37.2792673995319],[127.0027463012961,37.2814708999974],[127.00103010091209,37.2822944002739],[127.00121410072809,37.283898798669505],[127.0033353010657,37.2830155004746],[127.0012141004826,37.283898802217806],[127.0000642016325,37.286978599137996],[127.00207610106699,37.288382899290504],[127.0016793011424,37.2895215992329],[127.0029177007516,37.2899443002385],[127.0012792001293,37.2911329007269],[126.998273900319,37.2909593008853],[126.99736999972481,37.2920326009206],[126.99570210056831,37.2911907010133],[126.99374609883469,37.2935199013473],[126.9914041993201,37.293432900949796],[126.99132709909591,37.292311201224],[126.98947370031101,37.291885201485],[126.98807400069559,37.294337999583604],[126.9890110997585,37.2947091992124],[126.9893443000958,37.2941387998328],[126.9894298007367,37.294871901455394],[126.9872866003807,37.29402710154],[126.9862567010356,37.2947598014291],[126.9862450010473,37.2961796000093],[126.9882028003605,37.2965253993753],[126.9897908014591,37.2978374989393],[126.9894194997553,37.298368600453806],[126.98979079922259,37.29783750013],[126.9882028000514,37.2965254008529],[126.98749120143579,37.299364099984395],[126.9895217006862,37.3004896995444],[126.991385900235,37.2992206998837],[126.99316280044229,37.302563899816604],[126.9928641999992,37.3050164009777],[126.9905478012018,37.302915002596],[126.9886093017569,37.3054694016402],[126.9885034001447,37.3077277001885],[126.985076299865,37.3081582007996],[126.9851714008492,37.3100831017455],[126.981561000235,37.3099872005837],[126.98210059981629,37.3123719003906],[126.98123669713439,37.3101092003278],[126.9821813961897,37.3081142023228],[126.9818571965139,37.3061789042581],[126.97609610009981,37.305632004030606],[126.9731247025481,37.307401302406404],[126.9729423027305,37.3095176002901],[126.97111850182391,37.310381600657],[126.9702145027279,37.312960698077895],[126.9707912994179,37.313664703223196],[126.9678219987903,37.310289906101],[126.9647009015627,37.315598000758804],[126.964441601822,37.3179461984106],[126.96520820159391,37.3200224970835],[126.9694662047622,37.320778706865],[126.9655394992464,37.320708301024396],[126.963286901499,37.3228643988683],[126.9636443019121,37.327124600386696],[126.9644384998698,37.328028802644496],[126.9618776964832,37.3284982011392],[126.9598037985571,37.327148202489205],[126.9591021001592,37.3250981013533],[126.957826800065,37.3254465017182],[126.9568495010423,37.3274725996921],[126.9570905012704,37.331699097938305],[126.9618728010113,37.3337138967418],[126.9635734009874,37.3358630991525],[126.9617695995964,37.3360572011397],[126.9611839001709,37.3348308022391],[126.9597639015909,37.3378070992628],[126.9600731012972,37.3410290962289],[126.96427700063839,37.3410459952489],[126.967465300808,37.3424407985192],[126.965300802999,37.3457630998978],[126.9660995022003,37.346578099082805],[126.9706419991651,37.3467294982946],[126.9705072001261,37.345115399173],[126.9706420014621,37.3467294985939],[126.9724348009118,37.3479752996072],[126.9743275003715,37.3477703994656],[126.9758501004811,37.3499098992626],[126.9748592012707,37.351098999466295],[126.9751595005595,37.3533343003012],[126.9719360028329,37.356502500708196],[126.9736450026716,37.3590255014108],[126.97373090001611,37.3624808005958],[126.971958001789,37.3630883999882],[126.9675786019936,37.3688849995946],[126.9688570007152,37.373508594971],[126.9786273042313,37.377214696399605],[126.9802951005541,37.379021199521695],[126.9812096004607,37.3788353999126],[126.984289898136,37.3839530953086],[126.9859859002844,37.3826368996004],[126.9865782021093,37.3849227987753],[126.99079949788799,37.3875868961112],[126.99564930009029,37.388930496911904],[126.9975340998403,37.3874806988585],[126.9980673018628,37.3889148994224],[126.99537830292469,37.391360300754705],[126.99533790296509,37.392459999655],[126.99690250186221,37.393734300949795],[126.99416600325921,37.396126698464606],[126.9949986028239,37.4030710983066],[126.9959122037915,37.403117901569495],[126.9921143020638,37.4021540007636],[126.991257501367,37.4040887014691],[126.98683889830589,37.4060768016416],[126.984386800758,37.404080803637605],[126.9836597007027,37.409297798737896],[126.9845321006127,37.408347899370504],[126.9863965987482,37.4111849965334],[126.9883980990231,37.408333898409104],[126.9904529989597,37.409465698245896],[126.9914482001622,37.408500597997005],[126.9935600995463,37.408527197545105],[126.9970554044283,37.412085399047704],[127.0059743040907,37.4172914978548],[127.0069169031481,37.419953295193004],[127.0103397997252,37.4206256945206],[127.01229100040551,37.4249157968005],[127.01781910074399,37.4253650990128],[127.01886050070111,37.4244787992752],[127.0204147015324,37.4254941994864],[127.02135610437881,37.4263953009212],[127.01651180170461,37.4285273004591],[127.0171662010502,37.429505499480896],[127.01980640059969,37.42940389933489],[127.0247616007687,37.4344150000411],[127.02369520102971,37.4354030994387],[127.024553200496,37.4364195008892],[127.02307749980879,37.4348230027356],[127.02058260230369,37.435722501836096],[127.0206032022831,37.4383141992444],[127.01866870230671,37.4423885026359],[127.01629850467691,37.444045600978804],[127.0129600027971,37.4441875005584],[127.0115612036692,37.4458157017505],[127.0121255031049,37.449066798499395],[127.01365760190541,37.4510364969798],[127.0166113989516,37.453421794594504],[127.0194626048914,37.454383996984696],[127.0166114017522,37.4534218015253],[127.01694070142291,37.4552607996863],[127.0188115021957,37.4555928028461],[127.017558900859,37.4585517006833],[127.016350797793,37.4576899015199],[127.01297720116659,37.4573801018297],[127.0048039033183,37.463449706174295],[126.9999050979257,37.4627378043911],[126.9944067037376,37.4689298014714],[126.99270220128889,37.4697960014388],[126.9933764006241,37.4722495999646],[126.9924179009744,37.4735787997214],[126.9941245017185,37.4741352993276],[126.99301510096589,37.4746521003433],[126.9932919001267,37.475554000380406],[126.9910535023651,37.476344599589794],[126.99240980128,37.479656997020804],[126.995468798221,37.4793514973263],[126.9982423992022,37.477117896551306],[127.00054899962541,37.4768478987043],[127.0002777005507,37.4777759991868],[127.00118670170751,37.4783338996856],[127.00092450143849,37.4799235989096],[127.0021686005645,37.4822836985889],[127.00308290061909,37.481416999131],[127.0040061003042,37.482652700428204],[127.0030829004874,37.4814170015133],[127.0023314000256,37.4836919009776],[127.00213759894349,37.4826505013272],[126.99976510110811,37.4816885023752],[126.9984275009505,37.4848237009658],[126.99760170039191,37.484558401357894],[126.996567000452,37.4857728999847],[126.99705110123779,37.4877204998453],[126.99839350124651,37.4880818003096],[126.9984108003397,37.4893053013964],[126.9966398000453,37.4892369011461],[126.9960670002432,37.4901465008812],[126.9942078999114,37.48942550140411],[126.99378470002691,37.4906962006291],[126.9915270999298,37.4910431014321],[126.9914253993592,37.4897445010047],[126.9902011993548,37.489250501006694],[126.99034059954559,37.487843901279],[126.9883578011982,37.4897774004798],[126.98941880063519,37.4916361002587],[126.98889900055221,37.4921757998711],[126.9898566009644,37.4922001000109],[126.9888990004362,37.492175800835895],[126.9889672007874,37.4935864003209],[126.98649090082671,37.4930168003669],[126.9868740009394,37.4945328007946],[126.98540960045,37.49432320097829],[126.9831294002006,37.497117100102095],[126.9817353001924,37.4950427018864],[126.9781874983902,37.4945548018743],[126.9731572988658,37.4912796020085],[126.9746908987235,37.4896118009541],[126.9732996998242,37.4891396008072],[126.9725366997355,37.4898107001852],[126.9731123981704,37.4879376002157],[126.97216449873501,37.4863669007775],[126.9727834991245,37.4860031996259],[126.9710544008536,37.484444101185],[126.97070459991531,37.4859280008589],[126.9687934994913,37.4859596004146],[126.9694029990321,37.4854627997969],[126.9688194997791,37.4840796997985],[126.9695187000179,37.4844515991189],[126.9706108004889,37.4833476993402],[126.9710544006413,37.4844440988122],[126.97180209989361,37.4843888988674],[126.9720794996162,37.4836270996292],[126.97329969934219,37.4838460995602],[126.9734408993459,37.4827800001751],[126.9719349997878,37.4808236005775],[126.97113139941601,37.4811598005236],[126.97168099919341,37.480303399891],[126.969768499601,37.4778123019715],[126.9677903999626,37.4767975031719],[126.9639604007375,37.4789332009915],[126.964768101773,37.4803466016268],[126.9637102028309,37.4806435013299],[126.9581779990043,37.4783909003864],[126.9595230991423,37.4779233999516],[126.9590532993399,37.4770461996308],[126.9605747994885,37.4770649987884],[126.960727299336,37.475437300416104],[126.9596109994294,37.475537699362995],[126.959831999242,37.474807999751],[126.9608560996215,37.4750826996547],[126.9610499994276,37.4741766005608],[126.9604677997072,37.4741189995002],[126.9612988990232,37.473172297866505],[126.9646136996334,37.47403219902721],[126.9658077006457,37.473558499195605],[126.966805000642,37.474061299614],[126.9672438002615,37.4755396987665],[126.9682570001754,37.4755046991674],[126.9702681993954,37.473848699664295],[126.9706834999516,37.474461899472104],[126.9721154989087,37.4742140990547],[126.9727734982507,37.4729453003235],[126.97165609953251,37.4724049987936],[126.9737497990282,37.4703267988517],[126.9751042000168,37.4711846975841],[126.9782911006218,37.469070997844696],[126.9806033997507,37.4710080979516],[126.9829779973761,37.469993498966204],[126.98522290055689,37.4668220980451],[126.9863224999335,37.4679953995277],[126.98809969983341,37.4673458988961],[126.9884371995754,37.464687501236895],[126.9874359989174,37.4609114995024],[126.9886868988555,37.459392799438305],[126.9878057997366,37.458721900109204],[126.9922611956211,37.4535594021874],[126.9890020925601,37.4490224002423],[126.9910699944234,37.4427248977064],[126.9880391974542,37.438246102185204],[126.9850153004781,37.438145402285905],[126.9814513009497,37.4405363042097],[126.97639789986249,37.4372191038794],[126.9719862021641,37.437363304302],[126.97259769834109,37.4344794012161],[126.9719919975428,37.432906799414596],[126.9702099993248,37.4318441004773],[126.9719716982143,37.4293681018565],[126.9724004957809,37.4248179011907],[126.9699902981911,37.422474403534196],[126.9698714997661,37.4207978016941],[126.9660775977637,37.4181075011771],[126.964880298961,37.4145808047038],[126.9613302025111,37.4151487041359],[126.9594711989087,37.4142011028774],[126.9565340004894,37.414459903875894],[126.9582974960089,37.4122791989529],[126.9562950988347,37.407508401132],[126.9549035002263,37.4075777010627],[126.9550022001276,37.4085818000586],[126.9520989022075,37.4106398005923],[126.95168340126489,37.412983900823],[126.9491910015517,37.413240200906394],[126.94912169651441,37.412383602108996],[126.9450447005914,37.4103480041446],[126.93936449889969,37.410441802231304],[126.9367070015572,37.4088673038058],[126.9329028021856,37.410628202658096],[126.9329660021224,37.4119532013331],[126.929383701377,37.4139054055914],[126.9294377978922,37.412985401057796],[126.92590679745231,37.4117189020553],[126.9254577976678,37.4092001038034],[126.9213905017351,37.4109928020107],[126.9199604009538,37.4131131997988],[126.9206634026957,37.416654997119196],[126.9230762018921,37.4185519009785],[126.9225019003984,37.419459101087895],[126.91986390213269,37.4192084029508],[126.917342002439,37.4215873013838],[126.9185567010211,37.424183401253295],[126.91562620053881,37.4282789003893],[126.9148058989247,37.425363901470604],[126.9111228002935,37.4234259017255],[126.9048523997666,37.4227111009473],[126.9010159002721,37.4234539001327],[126.9018075002249,37.425360998424004],[126.90311250101941,37.4258965987147],[126.9052054008889,37.4245293990883],[126.90662470277219,37.4278148966918],[126.9096359035913,37.4312754974949],[126.91364420153259,37.4288352996789],[126.9110034040521,37.431871300161994],[126.91425680079871,37.433209598823694],[126.9148187002368,37.4326177994155],[126.9148590030462,37.4333455994051],[126.91425680000171,37.433209600751496],[126.9137994006573,37.4352069021106],[126.9112123032444,37.437081500236],[126.9146767011801,37.4400827022408],[126.9140009992058,37.439818801928496],[126.9122088985706,37.4414685042469],[126.9077401007005,37.4429530016454],[126.9070059014943,37.4451557015209],[126.9060037002018,37.4442557013628],[126.9047923014132,37.444953300665205],[126.9038915004433,37.4486238996801],[126.90523080014229,37.449908699469],[126.9086148005882,37.451130199740604],[126.9081017005673,37.452207299544],[126.909212701323,37.4529212998813],[126.90853180063701,37.4544882997257],[126.90962210026251,37.4554593000501],[126.90797480052241,37.4564962005122],[126.9081726017117,37.4584547008407],[126.90632950090139,37.4599373001784],[126.9068910012745,37.4607979010254],[126.9057124001156,37.4609973011152],[126.9039189004793,37.4629549002009],[126.9039406004576,37.4638159993398],[126.90552900086941,37.4649700001775],[126.9064711002928,37.4680909001395],[126.90538989998521,37.4679849005342],[126.9050726002134,37.468922500229795],[126.9026673003012,37.4698828008662],[126.8975892001658,37.474637301232896],[126.89672759981201,37.474203200876296],[126.89565979900141,37.475311501402096],[126.8946767999844,37.474810401903206],[126.89337110077679,37.4766141008565],[126.8910556997073,37.477034701299594],[126.8896059000704,37.4759665012781],[126.8893587003176,37.477074100170505],[126.88805530088361,37.477899900725795],[126.8862544005888,37.4772785013262],[126.885290201553,37.4782194003853],[126.88546780205981,37.4812134991024],[126.8873144002132,37.4808012995146],[126.8896106996531,37.4816973992399],[126.8897008007166,37.4810593996973],[126.89345420104979,37.4854770995062],[126.8913366003707,37.4865530001646],[126.89122570048161,37.4875752991423],[126.8926268005089,37.4883970989618],[126.8931016002976,37.4878955996188],[126.89262680049261,37.4883970997735],[126.8945781985412,37.4896781984924],[126.8973405001952,37.4884892988189],[126.89865469980029,37.4895522993991],[126.899048199478,37.4889234992482],[126.8989546007134,37.490282398912896],[126.9010824006405,37.491073299948496],[126.9004553009927,37.4921819007691],[126.9012042002438,37.4932525996984],[126.90070500073911,37.4952838997884],[126.90139270028,37.4957250005073],[126.89758810019639,37.4957366009339],[126.8972681997239,37.496532500638104],[126.89620690025319,37.496248800775895],[126.89398000085,37.4972732011068],[126.89404250078749,37.4979679004121],[126.8927761995881,37.4986227005015],[126.8927049989543,37.4972748002457],[126.8944368988623,37.4956405008781],[126.89418289933501,37.4946458997869],[126.89566409918531,37.494074500036206],[126.89465540019401,37.4933508007599],[126.89320259943119,37.4936535002691],[126.8942101994178,37.4930589002616],[126.8919659994836,37.4915871996977],[126.8921652992843,37.490564500720396],[126.8891549000773,37.4908553009612],[126.88952949960529,37.4902236001046],[126.8883624003472,37.4900351003418],[126.8878011009085,37.490947899429],[126.8885847006475,37.491421700394795],[126.8875718001582,37.4917874007619],[126.8864788993295,37.490087100428],[126.88400990022369,37.4907452005297],[126.8835801993998,37.4894350005718],[126.8822764001105,37.4891813003351],[126.8820827998656,37.4878447009504],[126.8814222994953,37.4878420000285],[126.88107080005841,37.4842692011646],[126.8799515011777,37.4846159008179],[126.87971720063,37.487319300312905],[126.8775098998402,37.4882808004013],[126.8752777994151,37.4858116007471],[126.873005198834,37.4850741000407],[126.87460539903219,37.484182499793604],[126.8752328970244,37.4803870011713],[126.8726215996357,37.477687503870804],[126.86560629939899,37.4774847007363],[126.8644588988366,37.4762855010796],[126.86299319920951,37.476856500312294],[126.8639708992523,37.4758467980179],[126.86408229927771,37.4741813994482],[126.8649509002542,37.4751075984078],[126.866587098618,37.4750444984709],[126.8663864988186,37.4732337002817],[126.8674258994439,37.4727910983619],[126.8678336003018,37.473948800415],[126.86736930011989,37.4734953004231],[126.8667725006316,37.4747884995517],[126.8679773994267,37.475117199223],[126.86916169963631,37.4736658996889],[126.86999800114839,37.473749600111],[126.8709306007667,37.4744034999923],[126.86990210108071,37.4744428007912],[126.87015770047779,37.4767708994171],[126.8726951006177,37.477535699478196],[126.873890999853,37.4792621991556],[126.8746243999973,37.4778587989773],[126.8759927990977,37.4781415983196],[126.875374699379,37.4762158990299],[126.87669420055211,37.474743398996104],[126.8793282005622,37.4740049990223],[126.8808231990672,37.4756201974071],[126.8818513992737,37.4728073991008],[126.8844807979422,37.473846798413895],[126.88586989715691,37.4706895987304],[126.8840085990182,37.4687636006564],[126.8864338977672,37.469411099057204],[126.8839877995333,37.46745640069091],[126.8850261980308,37.4667060002253],[126.88368999936701,37.4652530016783],[126.881251801682,37.4659566009052],[126.8813023997645,37.4679616010851],[126.879217399675,37.4681057003866],[126.8793853992245,37.4661598009514],[126.8785786993315,37.465622100484595],[126.8788772987662,37.4640572005228],[126.8782841992346,37.4634501000342],[126.8794909991481,37.463653999387496],[126.8797128989262,37.462620100421404],[126.878252999492,37.461821300329895],[126.8798723995474,37.4611298993071],[126.8813372001776,37.461914399661296],[126.88093170118981,37.4633790994181],[126.8822644004708,37.4640160991957],[126.8823223007338,37.4650056988405],[126.886178198788,37.4631369991964],[126.88592369904251,37.4607028016306],[126.8837150998482,37.4617633006013],[126.88328249923991,37.461222899717306],[126.88428679856929,37.460881899422894],[126.88430069855539,37.459219301085504],[126.88167299965811,37.4589855005707],[126.8824304999028,37.459397699406],[126.883108299225,37.4583640004397],[126.8824998989878,37.456982400364204],[126.88074829975159,37.457366900483194],[126.8801910992337,37.456559400205904],[126.8821334993261,37.451477499436],[126.8849368989242,37.451407199616895],[126.8845891992759,37.450009400850796],[126.882099699332,37.4485967993461],[126.8836578994413,37.448119999341806],[126.88365749993349,37.4474636993957],[126.88564389960051,37.448113299355704],[126.8859030004708,37.4473780995536],[126.8879882987193,37.449082499333606],[126.888438699368,37.4465622986384],[126.8900378000403,37.4470833986278],[126.8916079001157,37.4460480991974],[126.89173100018569,37.4467272996641],[126.8937942981224,37.446299400092],[126.8926740002325,37.4458362980884],[126.8955684976923,37.4465264969974],[126.8986383983611,37.444671898738],[126.8976398998302,37.4424870003063],[126.8983977992457,37.4416711001325],[126.89819459894349,37.4387144010578],[126.8959196006062,37.438812900617904],[126.8952950023902,37.4413881001124],[126.89726270020739,37.4423800004133],[126.8950547019448,37.4424155009944],[126.8950896975176,37.439624101956106],[126.8942793978019,37.4378660995815],[126.8920236992817,37.436298699915305],[126.8951148004257,37.4386546995333],[126.8967974992764,37.4386030995449],[126.8965502991605,37.435509101465094],[126.8952772994222,37.4358054001628],[126.897514199807,37.4333347987606],[126.8964020015556,37.434931598674495],[126.89840090051639,37.4352324005093],[126.89705510219561,37.4377076987968],[126.8999778992728,37.4374428990616],[126.8992806994823,37.4350261001936],[126.9003296986148,37.4333912012317],[126.8996214981528,37.431837700714205],[126.8972410989633,37.4311115999485],[126.89862949765539,37.429681300016895],[126.89881309716179,37.428305000006304],[126.897411097253,37.4259444990562],[126.898848998589,37.4238380998643],[126.8975549983409,37.4230386991017],[126.8967346986899,37.418915400210004],[126.8958863995382,37.4180790010464],[126.8953298999338,37.4189674999385],[126.8969901978872,37.416935899809],[126.89487949712701,37.4114302006457],[126.8970841985048,37.409447898982606],[126.89625789923049,37.4072099997189],[126.8993181996072,37.4068378993791],[126.89944680010171,37.4059070996971],[126.9010673998936,37.407414598997306],[126.9024827997272,37.4037728999104],[126.90373049949099,37.4040918994762],[126.90371949950199,37.4022432013249],[126.9029616994286,37.4029897005422],[126.90309549859121,37.4021729003132],[126.90116259777511,37.4019406982802],[126.9035834961224,37.4005470947207],[126.90519930147751,37.4015952954574],[126.90892530069691,37.4011605965025],[126.9105847990374,37.3976464000167],[126.9100945995276,37.396093901569195],[126.9086740980027,37.396855800196896],[126.9103404981859,37.3940194995805],[126.9075379996291,37.3921413999852],[126.9088388000616,37.3911195994508],[126.9156581999314,37.3883417994409],[126.9193237992377,37.3897341981669],[126.9209589976025,37.3881596997414],[126.91966949889199,37.3842768036243],[126.9160901994994,37.3844335033492],[126.9135694979706,37.3835508033742],[126.9146310985735,37.3824778984921],[126.91016739476491,37.3766909015826],[126.9106178951633,37.3721170972963],[126.9080918969184,37.366448100947096],[126.9081843968069,37.363122500524405],[126.9067634982278,37.3625265011204],[126.9054613995299,37.358937904709],[126.9036037974081,37.3575127006954],[126.9075245960102,37.3563408006353],[126.90443889909591,37.3505503064258],[126.9003373970337,37.3499522036446],[126.8988960982037,37.3470663008567],[126.89692639771229,37.3471918995953],[126.8973197973189,37.3458514009358],[126.8947775925687,37.3450911013948],[126.89528609624281,37.341404297726804],[126.8918002994435,37.3387851002062],[126.8903310918692,37.3349091005805],[126.8844607977395,37.3305619049277],[126.88154850065179,37.3319263035633],[126.8806879015124,37.333364002125606],[126.87677390084811,37.3326542023952],[126.8731749002521,37.335435503137006],[126.8693634994819,37.336806803443295],[126.8679339009115,37.3395034007467],[126.86543639930869,37.339111001822005],[126.8644492002959,37.3406261003069],[126.8643758984041,37.3391374008031],[126.86256470021529,37.3372192027213],[126.85717960173419,37.3378348027078],[126.8560646010594,37.3373087028053],[126.8529078006769,37.3395277004364],[126.8517267002324,37.339517601726],[126.84884239786909,37.336431104130895],[126.8456785002638,37.3368490037448],[126.8436874016967,37.337828903288795],[126.8409228022799,37.3434150054037],[126.8406261957886,37.3416090018409],[126.8374063972076,37.3392262010315],[126.8347810990759,37.3394491009984],[126.8349290997339,37.3383541003998],[126.83250100216199,37.3354172033367],[126.8310814035816,37.3362720024819],[126.8303377005488,37.3400470004024],[126.8290243009097,37.340551800018],[126.8324249022325,37.3440171999598],[126.83001990540299,37.3444524029477],[126.83281460588181,37.352154602923996],[126.8290712029909,37.357528800789396],[126.8281145004938,37.3566394015239],[126.8272134005625,37.3591238026647],[126.82153270377411,37.3589041065921],[126.81652650592049,37.3635618056073],[126.8158493065977,37.3647205044486],[126.816945004363,37.3694651028999],[126.8159856013138,37.3717092046682],[126.8129689043305,37.3733822029952],[126.8151943021051,37.3776387987386],[126.81798260182299,37.376916600143],[126.8170078020023,37.377577903277],[126.8180098012806,37.383545498553296],[126.81508959891899,37.3821843004973],[126.8161678993769,37.381782199667505],[126.81597499956979,37.3808095006402],[126.8123033008546,37.3779223032939],[126.8092052028041,37.3796007022912],[126.8086737033356,37.3808801010118],[126.8115275008928,37.382396299527],[126.81214470522191,37.3838753026715],[126.8086531021654,37.384765104704904],[126.8061164045612,37.386627602985996],[126.8077742029034,37.3909343986792],[126.8075644043094,37.3936535010805],[126.805728899553,37.3932288019296],[126.8048997984532,37.394896801230296],[126.801921598645,37.3930367014172],[126.80076099980559,37.3931224013315],[126.80026629805481,37.3927571994909],[126.8009384973826,37.3922074000407],[126.7979781997074,37.3903278003835],[126.8011502009409,37.3920742966089],[126.8028306992604,37.3900619986212],[126.8032872995352,37.3889867995642],[126.80160289829941,37.3847053028632],[126.79983870006359,37.3845326030359],[126.7965151003033,37.389151599923096],[126.7966735007463,37.3903975993765],[126.79751340017219,37.3903638003475],[126.7956766974489,37.3908557037198],[126.7940943987529,37.3888144037187],[126.7946058988555,37.3877924008243],[126.79237259771139,37.3870503992397],[126.791162998921,37.383552102738],[126.79331139815719,37.3806668024942],[126.7919658980583,37.379377599728095],[126.79374159914441,37.3803802981751],[126.7959557969302,37.3801709983844],[126.79629589976821,37.3773379960326],[126.8018877971562,37.377559494977696],[126.800839998204,37.371460401076796],[126.79978789881059,37.3716406993937],[126.8010623975361,37.3700718009626],[126.7998062970429,37.365419504261205],[126.79700219337829,37.365863506186706],[126.79375329476011,37.362324100205804],[126.7959780987969,37.3637618979757],[126.7970268003379,37.3616167983441],[126.7974567999079,37.3622873976735],[126.8000251973395,37.3623550976058],[126.7996412995229,37.358724098939504],[126.8000252013196,37.3623550958182],[126.80439769694709,37.3635008946724],[126.8045384968063,37.3569015012718],[126.7986407989668,37.3506715018237],[126.7958759971203,37.350313099908504],[126.795733099843,37.346468700277704],[126.7938395971901,37.3436682010374],[126.79085759905719,37.3431926011545],[126.7893442001431,37.3403017026965],[126.78937460011271,37.3429931000051],[126.78673450250089,37.3446334993136],[126.7855825032385,37.350625901906895],[126.7840224010379,37.3541072018432],[126.7832241965099,37.3544657000666],[126.7804768992572,37.351371303160995],[126.7781136994207,37.353773303292],[126.7743565012589,37.355317902732004],[126.7747860006598,37.357844801498004],[126.7712205008995,37.358479100988],[126.77066109965119,37.3575705015998],[126.7600966998621,37.3574785058388],[126.7583264016324,37.359086304231],[126.7577272022316,37.362347400969895],[126.75955650084221,37.365184600712],[126.7583218008228,37.3668788036448],[126.7528968062478,37.3656357048879],[126.75475060439399,37.378413092110506],[126.7622315013522,37.3791569995991],[126.7566048037536,37.3785893038223],[126.7574601999529,37.3860757017279],[126.7574359995552,37.384849100991296],[126.7566666989658,37.3853436005977],[126.75352400210849,37.384092801848496],[126.753167500971,37.3851705024192],[126.7507267012916,37.3866393007207],[126.7457777036262,37.391928702880904],[126.7457982973979,37.3910737003131],[126.7435180995339,37.389761401539594],[126.7423741006779,37.3902785010225],[126.7397186021155,37.395158197433396],[126.7425722063825,37.395819600746805],[126.7409506015491,37.3999010006423],[126.7416158008765,37.400582299982304],[126.7402338022585,37.4016243989402],[126.73943820230059,37.407317902005204],[126.736085599748,37.4076445007273],[126.73671469897779,37.4056767013069],[126.7352124003631,37.406714100410206],[126.7353203002084,37.4074619005539],[126.7325760992623,37.4066662020187],[126.7306822003022,37.4083498006673],[126.7270443001131,37.4057672033314],[126.7255713015861,37.4063832027154],[126.7234927002674,37.4095181007482],[126.7235728989442,37.4079583005312],[126.72197590054121,37.407632900856605],[126.721582297092,37.4083196026709],[126.7165212994631,37.4020869023512],[126.7138784986442,37.4067050021493],[126.7114875991004,37.4054055030826],[126.7112671000696,37.4047831996271],[126.7118707996966,37.4055679989808],[126.7130775984898,37.4048135997352],[126.7115064998302,37.4022652021451],[126.70860480219551,37.4038571008899],[126.708501301724,37.4057602027946],[126.7048529993292,37.4022327036949],[126.70014930222001,37.4044319023499],[126.7000545023148,37.4055503012315],[126.6988031012674,37.4061413016819],[126.69699310206,37.4090372009565],[126.69821000227951,37.4106200005287],[126.6962040990998,37.4094138026116],[126.69410219986871,37.410417302441296],[126.69164620232469,37.410397102461495],[126.6903851022463,37.4132182004776],[126.6867580998808,37.4157074015188],[126.6847945995661,37.413831901127296],[126.6827360990247,37.4151058006036],[126.6822878997242,37.413820700021304]]],[[[126.7770711992788,37.437401799999],[126.77969520011361,37.434978098325004],[126.7837828990598,37.435236696352],[126.7858133007034,37.432182397603405],[126.78769579882089,37.431937997847804],[126.78985660018739,37.4330222990671],[126.79069470055221,37.4324823994863],[126.7911934009842,37.4337746994403],[126.7930300999727,37.433596599523405],[126.79226310130569,37.433664600441],[126.79169950301659,37.435217000857804],[126.7940913011496,37.4375978990579],[126.7951255001154,37.4380975985582],[126.7957954005347,37.437516698912106],[126.79651240048129,37.4389534994859],[126.7946639001309,37.4384962000598],[126.7939162005933,37.4395777000535],[126.79509100012609,37.4397388012629],[126.7932550002576,37.439970800389595],[126.7927674006979,37.4415785998758],[126.79371870006369,37.4416885003007],[126.7926831003418,37.4426101006034],[126.79286880005829,37.443605900101105],[126.79196660064089,37.4436128002343],[126.7917561008514,37.4458077980393],[126.7935938997724,37.445053299611395],[126.79538259998499,37.4463529996214],[126.799704201192,37.4469461998197],[126.7990886014543,37.4492924010126],[126.8000947010191,37.452140600918],[126.7970590993311,37.452914902029406],[126.7948779996469,37.4549864019038],[126.7922066010537,37.4533095020341],[126.78896849872119,37.4529768001223],[126.7922065972719,37.453309498179806],[126.7919003975781,37.450679400809896],[126.7903133991651,37.4504108010785],[126.7895456994357,37.4494208004788],[126.7899426991243,37.4485129004878],[126.7883757988823,37.448557899420194],[126.78845389978409,37.4475140996007],[126.79043109855441,37.4467540000741],[126.7899497990357,37.445950100878],[126.7887428994951,37.4464249006899],[126.7874226001879,37.445447900936195],[126.784005500337,37.445802000487504],[126.7844025994343,37.4451576003266],[126.7832918005451,37.4443679011163],[126.7815250002603,37.4449667007231],[126.7814488994502,37.4442336004024],[126.7805044995778,37.4444246000919],[126.7801268998182,37.4434032003904],[126.777787799824,37.442456600112],[126.77849049880601,37.4382482998929],[126.7770711992788,37.437401799999]]],[[[126.8751694977728,37.499973402181304],[126.8773363002956,37.501110197837],[126.8788978012023,37.5009756987792],[126.8804095001195,37.502181998331295],[126.8816940988349,37.5012585992547],[126.88099749915001,37.499605699677595],[126.8824636993213,37.498036399761496],[126.8847634007134,37.4989270993683],[126.88373130115379,37.4994060003593],[126.8836354012497,37.500461299304],[126.88500880078199,37.5008559005042],[126.8837602005684,37.5012252004976],[126.8836724999768,37.502386400689396],[126.8826049999086,37.5019165004824],[126.88324299914859,37.5013769003033],[126.8825137997603,37.5006674008556],[126.880165900574,37.5027869998591],[126.8826732002964,37.5050111988041],[126.8862257999083,37.5062549993291],[126.8868593003258,37.5053087993793],[126.8866486007308,37.5064748991538],[126.8877547011915,37.5083723008856],[126.8873471996061,37.5087542005911],[126.8857947000303,37.5072645010845],[126.8849794012936,37.5090986999471],[126.8851638995636,37.508344800737206],[126.88416720012599,37.5081168006429],[126.880437299572,37.5088943007063],[126.8804056999103,37.5080272007422],[126.8796027995517,37.5080181002369],[126.8802179992621,37.5066663007129],[126.87943389977049,37.5059887011975],[126.8777359998557,37.506994300531304],[126.8771968998489,37.5058407010281],[126.8763365007093,37.506129300739495],[126.87664120061369,37.5070305004187],[126.8760857998363,37.5062224007488],[126.875069699753,37.5070381002268],[126.8746890990591,37.5051610989833],[126.8758883991856,37.5048912988892],[126.8766173984566,37.5036110001695],[126.8750763978659,37.5027500994046],[126.8751694977728,37.499973402181304]]],[[[127.0302939997266,37.2133836004646],[127.0316896989049,37.2116095991094],[127.0320642988361,37.2096082998803],[127.0308382989257,37.207157398826],[127.0330118998629,37.2084257991935],[127.03395049890321,37.2068413997157],[127.0350051987788,37.2066760991854],[127.0347310993855,37.2050262993496],[127.0361565988267,37.202819999265806],[127.0377508999707,37.2016853998116],[127.0391364007971,37.2022433990482],[127.0378659000394,37.2031618001119],[127.0390227985117,37.2021982005743],[127.0377508997836,37.201685401087104],[127.0374312001062,37.2028938002048],[127.036540000311,37.202985499953094],[127.0378564996566,37.2040894992879],[127.0377678000084,37.203469599745496],[127.0394842003021,37.2034767001227],[127.0402960004881,37.205246499874],[127.03932330222351,37.207764999569505],[127.04196970086039,37.2102008998658],[127.0404371008006,37.210880900294896],[127.04108840085921,37.2113609001463],[127.0393539010787,37.2113224008962],[127.0378546002154,37.2122672007628],[127.0359449999675,37.2114309006445],[127.033195901584,37.2122865006874],[127.031296901488,37.2138986011379],[127.0302939997266,37.2133836004646]]],[[[127.0096017993519,37.2678982001842],[127.0096631998273,37.2670549998017],[127.0111648992216,37.2668240989021],[127.0107962994789,37.263145299981],[127.0131010003067,37.2604356987947],[127.0136184002624,37.2613522988296],[127.0161238000296,37.2613271995672],[127.0178261020362,37.2650260978549],[127.0213497002427,37.263810798617804],[127.0218514005613,37.264772799861504],[127.02042650065479,37.2650906018046],[127.02027269991581,37.2670459006767],[127.0194200998411,37.266443200907496],[127.0189949000857,37.2669657004392],[127.0186693003269,37.2680468995388],[127.01968120077119,37.2684376997962],[127.0175975009429,37.2696780996353],[127.0179236000331,37.2707298000687],[127.0153256992877,37.2698839999812],[127.0154729991404,37.2691879006773],[127.0145627991918,37.2690636004535],[127.01298269869099,37.2669768017478],[127.0111649005088,37.266824101900504],[127.0096017993519,37.2678982001842]]],[[[126.9657396990659,37.5289861001716],[126.9659424994811,37.527339599447],[126.96670309982841,37.5272295982766],[126.9670442004758,37.528360800084904],[126.9660367002787,37.5287042000622],[126.96678280046301,37.5295646997818],[126.9675756994095,37.5287327997555],[126.9682546005222,37.5294449993455],[126.9681785002161,37.530998898972],[126.9698948997353,37.5288354989839],[126.9709178002999,37.5307447003065],[126.9700638004563,37.5316256007935],[126.9686313003652,37.5307389011844],[126.9679201989795,37.531151801978005],[126.9677661995544,37.529823900416794],[126.9665407001733,37.5296072002941],[126.96676669975969,37.5301744002357],[126.96627239974849,37.5287967003749],[126.9657396990659,37.5289861001716]]],[[[126.7792358955077,37.409290197847504],[126.78129519670671,37.4077525984438],[126.7808939990912,37.4051190889554],[126.78586560126189,37.402907191424305],[126.7885189986085,37.4008380934934],[126.7892823003883,37.400808598274196],[126.78933260123729,37.402813699595406],[126.790622899947,37.4029867994223],[126.7921955982695,37.4009053012486],[126.79199720003639,37.3999325994777],[126.7932861008418,37.4000975993387],[126.79368440044351,37.401483397952894],[126.79642770055939,37.4011860990842],[126.79368440107831,37.401483400942794],[126.7944181005815,37.404063798567606],[126.79580440057319,37.4056638997573],[126.7975581021408,37.4056687988721],[126.79580440182009,37.405663901203],[126.79398690200769,37.4095667038104],[126.7915301025959,37.410278001889296],[126.79394480204981,37.4124344009427],[126.7906438029042,37.4105500033812],[126.7896748038732,37.4109725029587],[126.7884009051471,37.4148583990728],[126.78989100365699,37.4161436977875],[126.7895798002482,37.417952401429396],[126.7884694984297,37.4158192006104],[126.7891666982713,37.4111162021479],[126.78849799894,37.4100062032579],[126.7846116028264,37.4088350044291],[126.78330940321939,37.4097255041132],[126.78295610131951,37.414822901122896],[126.7817896002024,37.4151973016626],[126.7808742992347,37.4101488013113],[126.7792358955077,37.409290197847504]]],[[[126.97439259882441,37.506243000279795],[126.9780710996279,37.5054133988797],[126.9783233993756,37.504367099926],[126.98159289870159,37.50435229949],[126.9807710995234,37.502933300909],[126.9800009988984,37.50338879997091],[126.98793120063611,37.4986957997461],[126.9807711014812,37.5029333013929],[126.9815929006594,37.5043522999739],[126.9808113001508,37.5065723082724],[126.9780711013287,37.5054134008368],[126.97439259882441,37.506243000279795]]],[[[126.9688709997667,37.5239961001655],[126.97060739960911,37.5209648991735],[126.9724842999109,37.5203652996407],[126.9729699010334,37.5191999993757],[126.9745447009289,37.519707099295],[126.9750381019132,37.5209402993843],[126.9775109996567,37.5216668990937],[126.97964680065189,37.520756498750096],[126.9787554999302,37.522769600179394],[126.97503809923161,37.5209403011223],[126.97302450124519,37.5216151004475],[126.97442960038589,37.5225548999593],[126.97244580097251,37.5225521997751],[126.9722336001463,37.5240852003922],[126.97124729898451,37.523370301810004],[126.9688709997667,37.5239961001655]]],[[[126.8681821997054,37.4947415994591],[126.8707065983516,37.4940098994248],[126.8710834990203,37.492260100197],[126.8717064997268,37.4922077996288],[126.87242510114581,37.4942285997871],[126.87474920123739,37.495467500023196],[126.874475199537,37.4962983005933],[126.8733375996748,37.4953341013297],[126.8720781009343,37.496124700539106],[126.87059450105339,37.4971450007812],[126.87126840003701,37.4987830001064],[126.87088319949949,37.4980295009643],[126.86904950002851,37.4992915000783],[126.8708831980445,37.4980295006745],[126.8702567998405,37.4966233000057],[126.87084029937759,37.495037501207506],[126.8690739998969,37.4942173013993],[126.86848759993069,37.4954058001937],[126.8681821997054,37.4947415994591]]],[[[126.9490902992029,37.4815708002111],[126.9522134991424,37.4781891995511],[126.956410201114,37.4799142994156],[126.9547201004444,37.4831773997157],[126.9553882007134,37.483163500806306],[126.95383319980401,37.4839449008936],[126.9529530000915,37.4831304007182],[126.9508480991895,37.4833005002082],[126.95054019867291,37.481549900806094],[126.9490902992029,37.4815708002111]]],[[[127.02645889946699,37.2628789004145],[127.027711199165,37.261861799864],[127.0275416001259,37.2610806994377],[127.0286311991688,37.2613209992668],[127.0293395983263,37.2585139981384],[127.0350247002651,37.2607333999285],[127.0337311008043,37.261388500403505],[127.0327259002335,37.2636291006513],[127.0305772999821,37.2630893006371],[127.0297626986237,37.2639363009602],[127.02740420013231,37.2626554004586],[127.02645889946699,37.2628789004145]]],[[[126.8553104986903,37.4948771991966],[126.8556024997679,37.4936978996032],[126.8572291995563,37.493124100053905],[126.8573391997833,37.4920211997686],[126.8582336998872,37.493087099804896],[126.8590641997349,37.492309499676395],[126.8596138002098,37.493052799180404],[126.8604540008976,37.492450699412096],[126.8607186006671,37.493250500075405],[126.8596138009151,37.4930528011124],[126.85862150129749,37.49430020077],[126.8570660008577,37.49427910094],[126.85618799940251,37.495302800769295],[126.8553104986903,37.4948771991966]]],[[[126.9064720991359,37.5132197996735],[126.90718509924591,37.5125600000096],[126.90643389990589,37.512119999549405],[126.9094014996271,37.5109074993361],[126.91005940108879,37.512180799710706],[126.91145710031111,37.5124219999315],[126.9113838008014,37.513702700281904],[126.9094206993849,37.515571800546496],[126.9084875998681,37.5146486009657],[126.9076999992908,37.5152200011135],[126.9064720991359,37.5132197996735]]],[[[127.0042734980766,37.490560800903594],[127.00539409925051,37.4915729991853],[127.00625599961579,37.4898583989169],[127.0077369994846,37.4900097995204],[127.0087486998379,37.4892088990944],[127.0096680005239,37.489507599374605],[127.0101966009729,37.4914970002982],[127.0113524002101,37.4922829000659],[127.0106805999646,37.493442800606196],[127.00664599945651,37.4943592011454],[127.0061053986483,37.4939779993012],[127.00672439802929,37.492802600476594],[127.0042734980766,37.490560800903594]]],[[[126.9405079987602,37.4827394007445],[126.9396919995762,37.4824510010329],[126.9405679996989,37.4809246995063],[126.94149429970851,37.4811634997821],[126.9420168999369,37.4802786992704],[126.943811401201,37.4822240005727],[126.9424203001982,37.4836125002772],[126.94170009995041,37.482514701076305],[126.941163799579,37.4836305003458],[126.9405079987602,37.4827394007445]]],[[[126.7927314984485,37.4699101980962],[126.7978206002539,37.4676485962693],[126.79874359933089,37.465549598368305],[126.8000982001894,37.467316099547396],[126.8008347006285,37.4670763968275],[126.8008621007958,37.4688451996824],[126.8018265011858,37.4692316009525],[126.8008621001877,37.4688452013745],[126.800953000331,37.4702858999068],[126.80018750032191,37.4710525003906],[126.799503000325,37.4706042008294],[126.799093300032,37.4714234010926],[126.7955511007015,37.4725230008311],[126.7955908987732,37.471414200557795],[126.7937340992705,37.470874800552295],[126.7937400995112,37.46975170057701],[126.7927314984485,37.4699101980962]]],[[[127.0031541995552,37.5028639001428],[127.006094100477,37.5029415989954],[127.0067704001537,37.5039469001877],[127.0055487007389,37.5037437008339],[127.004919999827,37.5049000011037],[127.004550699298,37.503405800182605],[127.0031541995552,37.5028639001428]]],[[[126.852508299367,37.4795522005992],[126.85424139919091,37.4777478995985],[126.8539820002953,37.477180698877],[126.8569490004271,37.4791357989792],[126.8575611004665,37.4785246002975],[126.8563148006411,37.4795308004545],[126.8558874995468,37.4813496003691],[126.8538515999883,37.480025900867],[126.8527942000086,37.4803389008595],[126.852508299367,37.4795522005992]]],[[[126.8900334989129,37.5055354004524],[126.8918439991254,37.505748199504296],[126.891634399335,37.505227400025106],[126.89264850118161,37.5049053000527],[126.89305020077991,37.5070851978728],[126.8958485000267,37.5076559994667],[126.8958035004746,37.508480900221905],[126.89343650150731,37.508068900693395],[126.89161059942761,37.509523200831495],[126.89183759942391,37.5076386008904],[126.8907006994949,37.5074062003226],[126.8900334989129,37.5055354004524]]],[[[127.0091461994144,37.2450248000315],[127.0111494002813,37.245922698934905],[127.0119849994457,37.245233599624],[127.0130710007697,37.2411156997245],[127.01198500074389,37.2452335996133],[127.0130366008091,37.2458644004991],[127.0091461994144,37.2450248000315]]],[[[126.7929203996704,37.4828913006321],[126.79500049945631,37.482975899832496],[126.79518830033531,37.4822325987474],[126.7955583006459,37.4829877992254],[126.797025000651,37.483017600359],[126.7942739999408,37.4843348005209],[126.7929203996704,37.4828913006321]]],[[[126.9073589990069,37.4998299011268],[126.9075245002103,37.4989833995197],[126.9100419993152,37.499198299409805],[126.9102537001308,37.498175798782796],[126.91089270041931,37.499149199198],[126.91272000004919,37.4989499995414],[126.9138712010925,37.5000372991432],[126.9102998000379,37.5020941009956],[126.909230799764,37.5005378021013],[126.9073589990069,37.4998299011268]]],[[[126.9709725993057,37.5349189986007],[126.9713463989319,37.5329530005667],[126.9720838000105,37.532679899316996],[126.9731579001626,37.5348804999592],[126.9740011003526,37.535091199623494],[126.9709725993057,37.5349189986007]]],[[[127.0124859991625,37.4933208004408],[127.0132831994871,37.493558699161],[127.0139675001415,37.492169099138195],[127.0152917001444,37.4923190995653],[127.0162545005757,37.492865800171494],[127.0167735008785,37.4945539003276],[127.014662000909,37.4938964004977],[127.0141870000655,37.4945270010808],[127.0124859991625,37.4933208004408]]],[[[126.918566699021,37.499960699783905],[126.92026469932951,37.499362099325],[126.9203477002681,37.4984292991975],[126.92093750154899,37.4999034996473],[126.9224971015592,37.4998653999553],[126.9209375015801,37.499903500456405],[126.9207887004052,37.5014288002404],[126.9205534996063,37.5004103008492],[126.9199958999029,37.500852600855005],[126.919577599007,37.4999417005113],[126.918566699021,37.499960699783905]]],[[[126.6780947991462,37.4189212004827],[126.6789329996759,37.4172623990686],[126.67867920070391,37.4177515998956],[126.6796999003085,37.4180104996696],[126.6794697006136,37.4192702000378],[126.6780947991462,37.4189212004827]]],[[[127.0407557990061,37.2505777987192],[127.0429135003747,37.2507242993506],[127.04164829956791,37.2519173007449],[127.0407557990061,37.2505777987192]]],[[[126.6801692996096,37.4043866002945],[126.68039080012859,37.4045679999212],[126.6806079999114,37.404914599574596],[126.68074400043291,37.4049645000216],[126.6810978003808,37.4053342998031],[126.6811348002648,37.4054501003161],[126.681097799593,37.4053343002992],[126.68074399990431,37.4049645001682],[126.6806079996805,37.4049146002761],[126.6803907999406,37.4045680000363],[126.6801692996096,37.4043866002945]]],[[[127.04309069898979,37.1888505989739],[127.0451929008319,37.1867905980698],[127.0446758015691,37.187823201505694],[127.0454220991475,37.189598503049204],[127.0433179010656,37.1901215025245],[127.04309069898979,37.1888505989739]]],[[[126.9293004991808,37.484232499776596],[126.9302529005797,37.4842008996638],[126.9296170006449,37.484892700489404],[126.9293004991808,37.484232499776596]]],[[[127.0132321998275,37.2389633990798],[127.0143043002713,37.239641899569],[127.0150281007563,37.240078601228994],[127.0143042995364,37.239641901198304],[127.0132321998275,37.2389633990798]]],[[[126.69249549993111,37.418380499612496],[126.6925671001285,37.4179050996834],[126.6929958002467,37.4188382002212],[126.69249549993111,37.418380499612496]]],[[[126.7497667982627,37.390650899710394],[126.749574099777,37.389792199595],[126.7510645003711,37.390197898846296],[126.7531163000214,37.389385498491606],[126.7497667982627,37.390650899710394]]],[[[126.6931365985213,37.417255599220894],[126.6953488009367,37.417163399435],[126.6939357000123,37.4179751007861],[126.6931365985213,37.417255599220894]]],[[[126.9188019994795,37.516974499274404],[126.9200026003284,37.516795699654004],[126.9189885003846,37.5171858015876],[126.9188019994795,37.516974499274404]]],[[[126.7217503997122,37.3752541000263],[126.7220136000671,37.3751025998791],[126.7222527008891,37.3753456986087],[126.72201359992809,37.3751026004043],[126.7217503997122,37.3752541000263]]],[[[127.0622734990399,37.1697750999622],[127.062898300264,37.16845669997],[127.06278720056021,37.1689608004381],[127.0626490000617,37.1689626001031],[127.0622734990399,37.1697750999622]]],[[[126.7989210993645,37.394503199706705],[126.7996657020319,37.395045800999],[126.7992403990003,37.3950149011785],[126.7989210993645,37.394503199706705]]],[[[126.8839212982798,37.262000401258796],[126.88369880000481,37.2617756995604],[126.8841267019576,37.2620016028284],[126.8839212982798,37.262000401258796]]],[[[127.0113465989958,37.5080854996835],[127.0118294005725,37.508168500282096],[127.0117951002723,37.5082721006651],[127.0113465989958,37.5080854996835]]],[[[126.75094049805409,37.3279198998658],[126.7509814001864,37.328220200797496],[126.7508274981671,37.327974699811],[126.75094049805409,37.3279198998658]]],[[[126.97803249920669,37.3118256993836],[126.9784907998803,37.311805298631704],[126.97842300023251,37.312075500049],[126.97803249920669,37.3118256993836]]],[[[126.7973926991194,37.3712377988738],[126.7976173005472,37.3719762007229],[126.797392698081,37.3712378003663],[126.7973926991194,37.3712377988738]]],[[[126.8388265991594,37.486510799913],[126.8393680002238,37.486744199338496],[126.83936800022289,37.4867442004187],[126.8388265991594,37.486510799913]]],[[[126.8948605985338,37.4192650990043],[126.8948606003034,37.4192650995159],[126.8949968003599,37.4193846003935],[126.8948605985338,37.4192650990043]]],[[[126.9769276993522,37.5235162996252],[126.977252099925,37.5231156995921],[126.977558100553,37.523404999981196],[126.9769276993522,37.5235162996252]]],[[[126.7208961993433,37.348689800037505],[126.7220143007972,37.3485168002924],[126.7212397001607,37.3490411006718],[126.7208961993433,37.348689800037505]]],[[[126.8946446986521,37.517273699566694],[126.8948424011371,37.5172543998889],[126.8946446990783,37.5172737018808],[126.8946446986521,37.517273699566694]]],[[[126.92269379992031,37.400835799979305],[126.9227879000354,37.4005827999461],[126.9227357999907,37.4008739001284],[126.92269379992031,37.400835799979305]]],[[[126.9282696983478,37.4997460997112],[126.9282515003287,37.4992903995837],[126.92826970112691,37.499746100902506],[126.9282696983478,37.4997460997112]]],[[[127.0276745996453,37.2080446997916],[127.02815290032389,37.208225998658705],[127.0281617009686,37.208360302329005],[127.0276745996453,37.2080446997916]]],[[[126.8460146990323,37.4951476005156],[126.8460146999263,37.4951475994365],[126.8460147009198,37.4951476002067],[126.8460146990323,37.4951476005156]]],[[[126.8583772996395,37.4920023998968],[126.8584558003643,37.4919472993974],[126.8583772999184,37.492002400331295],[126.8583772996395,37.4920023998968]]],[[[126.8908981993379,37.445199500337104],[126.8907013005134,37.4456179998281],[126.8909838002175,37.4457521002737],[126.8907012995348,37.4456179999186],[126.8908981993379,37.445199500337104]]],[[[126.97143849958181,37.519202599152],[126.9717079002206,37.5191184001132],[126.9714385001547,37.5192026009119],[126.97143849958181,37.519202599152]]],[[[127.0274724998087,37.497984300058],[127.0277302002782,37.4979234000852],[127.02768059999049,37.4980478001073],[127.0274724998087,37.497984300058]]],[[[126.8898163994797,37.5114071999246],[126.8898164010108,37.511407199232],[126.8898164001374,37.5114072011466],[126.8898163994797,37.5114071999246]]],[[[126.93747789860221,37.2957901022196],[126.9374778992336,37.295790097639895],[126.9374779017112,37.2957901024201],[126.93747789860221,37.2957901022196]]],[[[127.0271261998947,37.4977472998023],[127.02712620031,37.497747299958],[127.027126200155,37.497747300295],[127.0271261998947,37.4977472998023]]],[[[126.6565840991051,37.4293094001131],[126.6565841026465,37.4293094006913],[126.6565841003441,37.4293094013972],[126.6565840991051,37.4293094001131]]],[[[126.7168538989262,37.3588807987281],[126.71697240040591,37.358802500045705],[126.7168539005021,37.3588808022465],[126.7168538989262,37.3588807987281]]],[[[126.84499649896469,37.4948542004111],[126.8449964992371,37.4948541988147],[126.84499650060559,37.4948541991236],[126.84499649896469,37.4948542004111]]],[[[126.8678269998193,37.4939530993234],[126.8678400002245,37.4939544999654],[126.8678270000606,37.4939531002476],[126.8678269998193,37.4939530993234]]],[[[126.9087811989189,37.4855564992894],[126.9087812010664,37.485556500666505],[126.90878120037661,37.485556501252],[126.9087811989189,37.4855564992894]]],[[[126.96828999923,37.528292800152904],[126.968290000966,37.5282927987552],[126.9682900004409,37.5282928004328],[126.96828999923,37.528292800152904]]],[[[126.9722815998356,37.544341000588005],[126.9722816001476,37.544340999375805],[126.9722816008031,37.5443410001293],[126.9722815998356,37.544341000588005]]],[[[126.7164204995854,37.361701197740196],[126.7164205000426,37.3617012006381],[126.71642049861809,37.3617011991186],[126.7164204995854,37.361701197740196]]],[[[126.7249580983243,37.3353296980517],[126.7250764010042,37.335256899584394],[126.72495810094449,37.335329700455404],[126.7249580983243,37.3353296980517]]],[[[126.7357053995402,37.3640898998986],[126.735705400372,37.3640898999082],[126.7357053994462,37.36408990023121],[126.7357053995402,37.3640898998986]]],[[[126.8618030995826,37.4937586995672],[126.8618031009261,37.4937586994655],[126.861803099884,37.4937587005854],[126.8618030995826,37.4937586995672]]],[[[126.8806751998676,37.4886730995972],[126.8806752003031,37.4886731003693],[126.880675199899,37.4886731000294],[126.8806751998676,37.4886730995972]]],[[[126.9734536999345,37.5355786000683],[126.9734536999756,37.5355785998867],[126.973453700187,37.535578600085],[126.9734536999345,37.5355786000683]]],[[[126.9916090982621,37.2738923004207],[126.99160909947271,37.273892298589],[126.99160910114061,37.2738923004792],[126.9916090982621,37.2738923004207]]],[[[126.6990187997073,37.4271579001066],[126.69901880008011,37.427157899906796],[126.6990188002149,37.4271579001095],[126.6990187997073,37.4271579001066]]],[[[126.81242009825749,37.3908643987492],[126.8124201012691,37.3908643999325],[126.812420100055,37.3908644003564],[126.81242009825749,37.3908643987492]]],[[[126.8647250988623,37.3415870010238],[126.86472510002,37.341586999346],[126.864725101288,37.341587001666895],[126.8647250988623,37.3415870010238]]],[[[126.9262374997972,37.5136809988985],[126.9262375003537,37.5136809990246],[126.9262375000387,37.5136810003484],[126.9262374997972,37.5136809988985]]],[[[127.02817019949731,37.2600510004674],[127.02817019981221,37.260050999521795],[127.02817020029511,37.260050999933995],[127.02817019949731,37.2600510004674]]],[[[127.03050239973311,37.2090954000642],[127.0305024002008,37.2090953993762],[127.030502400398,37.2090954003932],[127.03050239973311,37.2090954000642]]],[[[126.77704849892301,37.4386849013656],[126.77704850019731,37.4386848995674],[126.7770485003742,37.4386849002726],[126.77704849892301,37.4386849013656]]],[[[126.87352889978389,37.4775699994439],[126.8735289004419,37.4775700003502],[126.8735288998456,37.4775700001705],[126.87352889978389,37.4775699994439]]],[[[126.8822595998431,37.501797100028895],[126.882259600132,37.5017970998831],[126.8822596000262,37.501797100092],[126.8822595998431,37.501797100028895]]],[[[126.96672999960789,37.530630000021],[126.9667299999057,37.530629999792005],[126.9667300000648,37.5306300000353],[126.96672999960789,37.530630000021]]],[[[126.9210685962684,37.244352102039],[126.921068600028,37.244352099916],[126.9210686009836,37.2443521013583],[126.9210685962684,37.244352102039]]],[[[127.0140762992705,37.245252799855],[127.014076300288,37.2452527998405],[127.0140762999182,37.2452528007775],[127.0140762992705,37.245252799855]]]]}}]}