{"type":"FeatureCollection","features":[{"type":"Feature","properties":{"interval":15,"stationId":"5915757375"},"geometry":{"type":"MultiPolygon","coordinates":[[[[127.1418363985609,37.5530889004473],[127.14400000061171,37.551369999388],[127.14419280041889,37.551957398800596],[127.14613559847609,37.551705499052495],[127.14584559978731,37.549564498875704],[127.1465420995533,37.550199399342894],[127.1473070991054,37.5495935999036],[127.1488070993961,37.5467113978751],[127.15597939729221,37.5462171940466],[127.15649760031589,37.549149597875],[127.1577932990202,37.549483897540696],[127.1608261999099,37.5484953997845],[127.1612780004469,37.5490043007423],[127.1603838013215,37.5506774991159],[127.1621003996049,37.5511267986666],[127.16506309895979,37.5505865990593],[127.16587649938259,37.5489605995417],[127.16749340002549,37.5492671995664],[127.1700776003168,37.5530334983351],[127.1752707013553,37.553718598321005],[127.1732511021145,37.556199399994],[127.17443930092631,37.557203198990194],[127.1789370990117,37.5578074976167],[127.17934889888079,37.554661800004695],[127.18001520041079,37.5546627993585],[127.18024270027789,37.556333498650204],[127.182155400228,37.5569076000411],[127.1819270004564,37.5586377983109],[127.1830370015158,37.5587509005478],[127.1812729006346,37.5610793006732],[127.1791434001385,37.5616476013414],[127.1794124995621,37.5609449004664],[127.1787578979626,37.5610812004231],[127.17764319907731,37.558722802781496],[127.1754232005443,37.557498303967996],[127.17358630240089,37.560809800844304],[127.1721139005657,37.560647800776096],[127.171150399597,37.5623389010346],[127.16800310040061,37.5619059008215],[127.1622862993223,37.5630194005312],[127.1616514999571,37.5623761011745],[127.16092309999411,37.563123000423495],[127.15983870002799,37.5608499020135],[127.158637701229,37.560554902308496],[127.15696539980691,37.5644822009116],[127.15644050005561,37.562913301220696],[127.1519815994577,37.5620344030392],[127.1485284984496,37.5641678013635],[127.1474383974045,37.5609400009693],[127.14473379874299,37.5596346006743],[127.14490189938289,37.5578682008954],[127.143860999889,37.5585381001872],[127.1437730999769,37.5568367018886],[127.1418363985609,37.5530889004473]]],[[[127.1874295992718,37.5635473999714],[127.1881793994812,37.5617555997337],[127.1898730996899,37.561661499715],[127.18974329952411,37.5598419000133],[127.19113640011591,37.559288799398594],[127.1925064996202,37.5606431987491],[127.1933681988739,37.5589587998671],[127.1950034006813,37.5594296986063],[127.1957892003465,37.5580856993342],[127.19500340092391,37.5594296987337],[127.1959767008847,37.559904399799],[127.1958772005398,37.561208799483204],[127.1975790004812,37.561978500055204],[127.197641600285,37.5640376999796],[127.1983805002556,37.5634253999443],[127.1983135005956,37.564983799766104],[127.1990522005532,37.5651756002501],[127.19654299974201,37.566246400379995],[127.1954116008734,37.5657687008577],[127.1949878002391,37.56670480076809],[127.1933842012329,37.5662636008736],[127.1926976000159,37.56757120020821],[127.19161990004771,37.5664521004276],[127.1909371994644,37.567868901246804],[127.1885797998631,37.5653452001508],[127.1893478994797,37.5648687001074],[127.1874295992718,37.5635473999714]]],[[[127.2010687990519,37.550260199688594],[127.20308450050611,37.5500007993934],[127.20519939890839,37.5514005982249],[127.2071517001061,37.550443898424696],[127.20779320054349,37.5513056000668],[127.20587220075531,37.5531206000741],[127.2059257999669,37.554880500200504],[127.2034938987833,37.5520737010172],[127.20102939967579,37.552277000199],[127.2017754996011,37.5514924994104],[127.2010687990519,37.550260199688594]]],[[[127.2050833997105,37.541830400143304],[127.2062788998136,37.541935099843904],[127.2063807999843,37.540511899868896],[127.2068501003411,37.5414374997057],[127.2079249007336,37.5412344998033],[127.2072034000956,37.542893700149],[127.2050833997105,37.541830400143304]]],[[[127.200749899575,37.5534335999188],[127.20169440007149,37.5531468993846],[127.2020345005665,37.5538403999405],[127.200749899575,37.5534335999188]]],[[[127.20472339954851,37.54252059994511],[127.2049186001132,37.5425591001336],[127.2047968000249,37.5426181002665],[127.20472339954851,37.54252059994511]]],[[[127.18714369995989,37.5631381999221],[127.18714370009039,37.5631382001639],[127.187143699728,37.5631382001505],[127.18714369995989,37.5631381999221]]]]}},{"type":"Feature","properties":{"interval":30,"stationId":"5915757375"},"geometry":{"type":"MultiPolygon","coordinates":[[[[127.117740399334,37.5302945001634],[127.1201881984208,37.52969560025149],[127.1189326989828,37.5281574008513],[127.1176626992805,37.528598299803996],[127.11921869969281,37.5271754977491],[127.1206813001459,37.527385199254795],[127.12066870108559,37.5285038990453],[127.1234626001083,37.528173799494695],[127.1238500000929,37.5294699993835],[127.1244951005693,37.5291748007747],[127.1238500008525,37.5294700006461],[127.12415280059811,37.5314825003622],[127.1230610004042,37.5325900005533],[127.1242745003869,37.5347489994398],[127.1267152991574,37.5333809998314],[127.128845699813,37.5296756986376],[127.1304557996763,37.5300169993071],[127.1309230000599,37.5291077992786],[127.1314271998518,37.5302358987746],[127.1347105001138,37.5305770993803],[127.13530640001821,37.531453898955405],[127.1368122995254,37.529978899009706],[127.136613699724,37.528765600223],[127.13480199936049,37.528021200178195],[127.1361274993115,37.5274734989334],[127.13570240180199,37.5263467988123],[127.137223400632,37.5298622998381],[127.14081419977249,37.531395599157904],[127.14278660041829,37.5301272993965],[127.1447624004395,37.533845799241],[127.145444101246,37.5336461996283],[127.1481403997497,37.5366279990462],[127.14887719957031,37.535893399477],[127.1525675996639,37.536452698272896],[127.15261820116511,37.538000499243005],[127.1545570997733,37.5388450987349],[127.1555680001772,37.5372630994208],[127.15327160493399,37.5402637993582],[127.15676160198339,37.546079394090505],[127.1593046002708,37.540968898696704],[127.1616398014047,37.541479797960996],[127.1692154951136,37.540961897196],[127.17099319972179,37.5391237987302],[127.1713156024657,37.5395405007202],[127.1695247018075,37.5406414012376],[127.1700196013126,37.5425878992911],[127.1733903004799,37.543142398086204],[127.17446029971711,37.544143398753704],[127.17601180004189,37.5422175998934],[127.17505820159279,37.5437458997272],[127.1774835010353,37.547314898913704],[127.18034030017199,37.547463199956105],[127.1774835000588,37.54731490049841],[127.1762728010631,37.5493450002296],[127.1776498008601,37.5509236994889],[127.1790972001702,37.5512290995405],[127.1807498994031,37.5496408994877],[127.1799855993006,37.5488855994318],[127.1815614001556,37.5500822994296],[127.18265719905979,37.5493980001139],[127.1827222989664,37.5476579006016],[127.1812748990781,37.547551600312495],[127.1833748996666,37.545897198275796],[127.1860729000147,37.5469441993544],[127.1856950007782,37.548025900032],[127.1863491001241,37.5485616994962],[127.1874846001362,37.5482683999019],[127.1864304011533,37.5489709995474],[127.18714490043881,37.5494449990734],[127.1889434004267,37.5481047998861],[127.1886612011904,37.5500293986878],[127.1902712010272,37.5518612996532],[127.1919674993309,37.551443200071304],[127.19148789944,37.5497113998493],[127.192931399526,37.5498194993188],[127.1929064995509,37.5489912001471],[127.19218889982031,37.5488091004978],[127.1923959997317,37.547819300796704],[127.1910255002624,37.5480900008757],[127.1903039992829,37.5471782994678],[127.1922345996718,37.5462381985746],[127.1922818996842,37.5448820999015],[127.1935490996301,37.544898098788195],[127.19352280037529,37.5436760995451],[127.1943301004264,37.5436621004083],[127.1941863002586,37.5448867994546],[127.1960902990012,37.5441937000192],[127.19477379983589,37.543635499977704],[127.1958395997013,37.5425228997057],[127.1954453000956,37.5416645005641],[127.19452550029119,37.5413130006441],[127.1941737989907,37.542459799510404],[127.1945254993073,37.5413129991296],[127.19548939971659,37.540987398498196],[127.19570539847669,37.5391944990956],[127.1968872985056,37.5383505986691],[127.19580089950459,37.536760799423],[127.1966300995009,37.536739599907996],[127.19622419923131,37.5361035998969],[127.19826309898451,37.5346788995177],[127.1978849998888,37.5328235999012],[127.1990595991732,37.5330073995133],[127.1997562989539,37.531369196943],[127.20207239999141,37.5307876985677],[127.2049359000395,37.5346388972444],[127.2071727002127,37.536031095932906],[127.2096700994461,37.5329852986593],[127.2163308009922,37.5329838988062],[127.2167989017852,37.536774196575706],[127.22021549836859,37.53547989787],[127.22125099978939,37.5342598975027],[127.2282522000531,37.5336682991829],[127.2285684002394,37.535365699131],[127.2298328046037,37.5350404985443],[127.23276920166731,37.536146597438204],[127.2340243009949,37.5397088999355],[127.23055359915449,37.537709400777395],[127.2296644999937,37.5379442005088],[127.2299631023461,37.5415322992104],[127.2316864006228,37.542975197767504],[127.2329732009909,37.541948599463396],[127.2326050001795,37.5430429002026],[127.2307440003668,37.543748900800196],[127.22962940067279,37.5429131013573],[127.2270641018388,37.5440745008729],[127.2275070013959,37.545398199549204],[127.2260221001894,37.5453075007117],[127.2256440004441,37.5463037004274],[127.21727920051659,37.5477318003936],[127.2185793003552,37.549194800840304],[127.2152554003178,37.5505144013786],[127.2127391007508,37.5531141006092],[127.2124659012148,37.554697101079],[127.2034462018929,37.562427802616405],[127.2039725010344,37.5693291003796],[127.2025870020118,37.5708842027052],[127.2026858009105,37.5732646011924],[127.1996773966118,37.572367701664504],[127.2006499984919,37.5704586999487],[127.19918889898099,37.569965900329],[127.199151899018,37.5691733011216],[127.1972951003633,37.5694697003497],[127.19621740082009,37.5701840010455],[127.19428460063621,37.5763522001903],[127.1911554000734,37.575771700380095],[127.18962380053871,37.577770901565195],[127.1898662996644,37.576728599957804],[127.1888052998572,37.576315900567096],[127.18719779977961,37.577374900223504],[127.1866822997172,37.5762343009467],[127.1859837998195,37.5770444002387],[127.1848378999541,37.5763923007122],[127.1849745994523,37.575354600806996],[127.1811742998446,37.5742199999967],[127.1806805996503,37.5731878997234],[127.18215259940469,37.5731286996449],[127.18198029984681,37.5717356004201],[127.1810185997572,37.5724479003044],[127.1802859999452,37.5719082001876],[127.1809665996341,37.5718855998818],[127.1806399999607,37.5711679005995],[127.179155799913,37.570827500458],[127.17808249975751,37.5717074008446],[127.1784354997098,37.5700802002519],[127.17737370039491,37.5691115011065],[127.1766951001169,37.570430000147304],[127.1752843997562,37.5691966007145],[127.1713921994565,37.570245901862705],[127.1720355995222,37.5683812006779],[127.17054249773929,37.5677769994806],[127.17190139936599,37.567064898549],[127.1723972989867,37.5655441994511],[127.1694480010275,37.563786201366206],[127.16151939828231,37.5675019021455],[127.1595119002898,37.567581402066004],[127.1587574010443,37.5695881000593],[127.15768110009981,37.5698597005359],[127.1581321994335,37.5692755005334],[127.1572426003231,37.568602901206],[127.1565686001085,37.569716101625],[127.1542491992457,37.5679349005261],[127.1565685993065,37.5697160989805],[127.15686889900621,37.5693076993889],[127.15697109895191,37.5674213011868],[127.15482039949211,37.5675464998859],[127.1569710985636,37.5674212991112],[127.1569408995552,37.5632284009056],[127.15644050005561,37.562913301220696],[127.15571299806071,37.5639192011354],[127.1536222001515,37.5622759027787],[127.1511847002546,37.5621201029535],[127.1485801006775,37.5640752011092],[127.1484019000982,37.565606200279795],[127.147317001228,37.5663045003535],[127.1430426026123,37.5628965036991],[127.1416350031153,37.5667664076951],[127.13982399967931,37.5654605007867],[127.1387351007682,37.5655148007324],[127.1384776001599,37.5666534003989],[127.1372078999437,37.564822801290305],[127.1366107005409,37.5657694003437],[127.1357432004435,37.5650931006896],[127.135023701163,37.5655824002003],[127.1353438008429,37.5664123993703],[127.1361238003498,37.5662823001046],[127.1343299990269,37.5661858010557],[127.1353437992648,37.566412399311794],[127.1347709994107,37.5650155000652],[127.1337486988641,37.564758000037095],[127.1344388003623,37.5640862992813],[127.1355932992078,37.5648792984883],[127.1364506983504,37.5637372996303],[127.1365442982568,37.560612802754804],[127.13111420029409,37.5596689013176],[127.1321561983889,37.5588772997279],[127.131181099364,37.5574369011683],[127.130452100093,37.5580443005609],[127.1294209990745,37.555715201230804],[127.12789820011271,37.555774901668805],[127.1275501996487,37.5548728004459],[127.1262175990829,37.55469510000751],[127.1282821995364,37.5538753986792],[127.1286480992761,37.5512971998751],[127.12966999922371,37.550549999997],[127.128569998606,37.549679999433],[127.1326659995046,37.5479337990201],[127.1323040998665,37.5468952000587],[127.1335902990779,37.5457241996163],[127.1328432000315,37.545258699499996],[127.1344092989334,37.543702499977],[127.1315403995368,37.5405000999568],[127.1321709993163,37.5401774998119],[127.13165449983279,37.539428600560804],[127.1278692006535,37.5403205000478],[127.1252093997288,37.543670900742406],[127.1233338003735,37.543073801061205],[127.1226354003436,37.5418133014359],[127.12036519994139,37.5426269001719],[127.1184826995247,37.5408755012245],[127.11769920030821,37.5414563006437],[127.1178758994472,37.5402898995077],[127.1186433994761,37.5402074993409],[127.1179604997683,37.5378263000613],[127.1189077995667,37.537729298814504],[127.11860899953571,37.5364812995709],[127.11994399936461,37.5360277991013],[127.11964309948931,37.5351129996603],[127.1210261996991,37.533657600070995],[127.12027189975841,37.5334013004914],[127.1198403000597,37.531726001774],[127.118090100031,37.5326666005518],[127.117740399334,37.5302945001634]]],[[[127.0995966981757,37.5464062991025],[127.1000613994368,37.544138199854],[127.1025545998519,37.5445700993098],[127.103250499156,37.5438906999892],[127.1006781987716,37.5429032990573],[127.10268860066739,37.5428245994943],[127.10325049958401,37.5438906991216],[127.1049701992549,37.5427704990875],[127.1042554005509,37.5431044000414],[127.1050626002107,37.543645099916596],[127.10409680042439,37.5448286998844],[127.1049021998986,37.5452471993327],[127.1069644002849,37.5443232990442],[127.1053974011754,37.5459296998216],[127.1076601003371,37.5465020998278],[127.1067500010392,37.546630000731],[127.106793399156,37.5480097010467],[127.1052529992088,37.5476357006031],[127.1039451003752,37.548324400302],[127.10367840000691,37.5472410007931],[127.1020029998481,37.5481163005839],[127.0995966981757,37.5464062991025]]],[[[127.0878704987301,37.5530690004946],[127.0894317988616,37.5518796002832],[127.0890413998618,37.5496466998885],[127.09088010097861,37.5497882994062],[127.0918605005169,37.5513375993485],[127.0909237005022,37.5527872004418],[127.08961500019659,37.5525850011069],[127.08811110004791,37.553659100165795],[127.0878704987301,37.5530690004946]]],[[[127.1103604992899,37.5167280026158],[127.1124258999133,37.5176825992422],[127.11360669974191,37.5164871987029],[127.1146068008787,37.5177075002569],[127.1134112994971,37.5186422012831],[127.1103604992899,37.5167280026158]]],[[[127.0786199996004,37.557305499521796],[127.0792148995362,37.556335599193595],[127.0806118011259,37.5566092994507],[127.0797625997528,37.5578952007066],[127.0786199996004,37.557305499521796]]],[[[127.1911244998758,37.5763943998896],[127.19111339986861,37.5764668001298],[127.19101449992789,37.576357700009005],[127.1911244998758,37.5763943998896]]],[[[127.0871420989554,37.5511896002836],[127.0871421011513,37.5511896009732],[127.0873466002277,37.5519505006056],[127.0871420989554,37.5511896002836]]],[[[127.1044380987353,37.5146108997451],[127.1044380981302,37.5146108991833],[127.1044381026677,37.5146108993009],[127.1044380987353,37.5146108997451]]],[[[127.18645809984919,37.5467443000311],[127.1864581005796,37.5467442999585],[127.18645810030199,37.5467443005266],[127.18645809984919,37.5467443000311]]],[[[127.2190780997077,37.5484277999744],[127.21904739997359,37.5483748998653],[127.2190780999051,37.5484278002875],[127.2190780997077,37.5484277999744]]],[[[127.15029249988001,37.5656860998364],[127.15029250022391,37.5656861000777],[127.1502924996453,37.565686100239404],[127.15029249988001,37.5656860998364]]],[[[127.15342459901649,37.566783300233396],[127.153424600314,37.5667832984468],[127.15342459974839,37.5667833015581],[127.15342459901649,37.566783300233396]]],[[[127.1685584998684,37.5632462998997],[127.1685585001691,37.563246299861],[127.16855850021031,37.5632463001251],[127.1685584998684,37.5632462998997]]]]}},{"type":"Feature","properties":{"interval":60,"stationId":"5915757375"},"geometry":{"type":"MultiPolygon","coordinates":[[[[126.9535848995447,37.5514551000348],[126.9542050001786,37.5523782988857],[126.9550104997131,37.5517759995317],[126.9556407990828,37.5511115001962],[126.9544272992926,37.550988599392795],[126.9551581999055,37.5501921993772],[126.955640800851,37.551111499310295],[126.9590077001332,37.551818699852696],[126.9584423003687,37.5531299998932],[126.95915100028641,37.554347799778704],[126.9581826004683,37.554284600582506],[126.9579780006729,37.5550832997838],[126.9587709001502,37.5555655999801],[126.9582679001783,37.555427500290904],[126.9584910004082,37.5573411996874],[126.9600689003364,37.5579070990484],[126.9639537011186,37.5571546994979],[126.96726480031299,37.5579659986351],[126.9675211001768,37.5586647003793],[126.9662411009391,37.5585429007074],[126.9662119009683,37.5598291994211],[126.9677584994217,37.5609815982687],[126.9683134009924,37.5598808995596],[126.9697126995931,37.5617202977202],[126.97265330036281,37.56094439968879],[126.9720382997145,37.561725700511595],[126.9717329000199,37.5611565010808],[126.9712921004382,37.5628555996417],[126.9723104994198,37.563165299332],[126.9745844001276,37.5600199992068],[126.97820799987089,37.5609550994471],[126.9785615995173,37.5604833999188],[126.9781909998998,37.5580646002921],[126.97680750004291,37.557511600196],[126.97613710071771,37.5579097002902],[126.97685150038359,37.5585533003547],[126.9758597998729,37.5589351001187],[126.9760516994928,37.557228299990996],[126.9737276996348,37.55652749998],[126.9747185000233,37.5561933999616],[126.97543499971701,37.5569906994032],[126.9765129000013,37.5548988998124],[126.9770680000637,37.555509299563],[126.9780335011133,37.5551616995565],[126.97864780020521,37.5567370988718],[126.98035830014881,37.556191999188705],[126.9821602003714,37.5580019997014],[126.9829847995468,37.55815959954381],[126.9842975999318,37.556711699512],[126.9840971014272,37.5578938987936],[126.98541950052521,37.5584620987064],[126.9861989996886,37.557237199447805],[126.987359699951,37.5578655991865],[126.9879043999268,37.5574139987499],[126.9905341001936,37.5599955995472],[126.9916876991605,37.559453099519295],[126.9930637993005,37.5574783001454],[126.9925444998853,37.556764899860696],[126.9935551001927,37.5563368996129],[126.9945145999272,37.5576854991182],[126.9964403003255,37.5571438995774],[126.9969784997873,37.558507298214],[126.9978719988938,37.5586428980784],[126.9992358979743,37.5570534991116],[127.0009515993894,37.556877198586605],[127.0023252993891,37.5551552990021],[127.0021614997066,37.5529313995092],[127.0033467998454,37.5549012986224],[127.0046509991474,37.5520757009143],[126.9996731973881,37.5442718038792],[127.0004818993088,37.5442469991212],[127.00100809893401,37.542630600433505],[127.0002373989753,37.542376599654396],[127.00126989794279,37.5406533013777],[127.0006139986764,37.538261500958995],[126.9988142004762,37.5379676012529],[126.9955398003291,37.5395730005366],[126.9940794998428,37.5369486013503],[126.9924616002111,37.5373790008324],[126.9912000999875,37.5365742007126],[126.9886885005465,37.536672800773395],[126.98725620025911,37.5373843001574],[126.9866821998004,37.5388092003908],[126.98683649963249,37.5348408007076],[126.9846046992441,37.534838299481294],[126.9864517992711,37.534878599238496],[126.9892954998227,37.5328104992717],[126.98889990066621,37.533362799607296],[126.9903660992,37.533518199451905],[126.9910489991724,37.5320832004207],[126.9899257998283,37.531817498762805],[126.99389050001511,37.5314467981571],[126.9948328002982,37.5303208995672],[126.9953932003391,37.531218399052904],[126.99688790115,37.5302420989442],[126.997048900989,37.531931497254796],[126.9995767015185,37.5344178987281],[127.00150159994429,37.5331236995388],[127.0016257010113,37.534125499419304],[127.0043221992717,37.5333868995731],[127.00569899789491,37.531695001265],[127.0033516990347,37.527220304870106],[127.0002399992766,37.5261300010984],[127.00207660497699,37.5243021944406],[127.00576780164751,37.5278788000611],[127.0111853015295,37.5306123007107],[127.0089658007332,37.531561700274],[127.0081739000816,37.534247900804296],[127.0067594999548,37.5342925004376],[127.0039264001297,37.538819500659805],[127.0051962009764,37.542854399470706],[127.00792540037581,37.544816599964896],[127.0078525006007,37.5458012992132],[127.0090591999621,37.5460050985589],[127.009166400835,37.5467832989074],[127.0106478993535,37.546786898903804],[127.0113744986269,37.5458233998673],[127.0100073990139,37.5445936999703],[127.0102740983618,37.5426984005669],[127.00952509764551,37.541499600570404],[127.01070369759519,37.5395094001696],[127.010321997848,37.53681059843],[127.0114349999762,37.5357905990138],[127.0136326001078,37.539420398816],[127.0153984998747,37.5392160988904],[127.0160407989743,37.538019999670105],[127.0201214942982,37.537420798766],[127.0229524983999,37.5334290966767],[127.0247633994013,37.5322831001583],[127.0237607999055,37.5316360003763],[127.0242701989571,37.5312611997403],[127.0235869989975,37.5300910004897],[127.02522979921831,37.5306718994156],[127.0240619992045,37.5283201993792],[127.0242477990287,37.5226057006241],[127.01861049932779,37.5229530008052],[127.017040800389,37.5213339006658],[127.0163644010654,37.5217663002334],[127.0166371997296,37.5225709003401],[127.0146510991366,37.5201474001994],[127.0156886007189,37.519881997681004],[127.0170215997706,37.5179060998022],[127.01640350000399,37.5167656007974],[127.0152059012016,37.516370801192195],[127.0147676001292,37.5179571003386],[127.01437689887871,37.516956200647],[127.0095712995876,37.5162598003572],[127.0070242991286,37.5148277014726],[127.00529420030409,37.5120727009311],[127.0043524994323,37.5123650010429],[127.00090089879761,37.5093842993373],[127.0015319995016,37.5095640995285],[127.0016522995695,37.508679299999294],[127.0007513004705,37.507497301181296],[126.9993960999348,37.5085166001414],[126.999135198221,37.5055980999325],[126.9977623995938,37.504793300737305],[126.99731789988739,37.5054377001603],[126.9977623994421,37.504793300599204],[126.99677470006651,37.5027243995512],[127.00005119925291,37.502350099109],[127.0008098984942,37.5010613003978],[126.9986316006725,37.500198401260704],[126.9977324994273,37.5007005012218],[126.9967701993481,37.499292499363],[126.9976088001153,37.4996218990596],[127.0004938996353,37.4980857996185],[127.0021196994439,37.4985312997877],[127.0017281999759,37.4978212993874],[127.0035153992153,37.4973089997124],[127.0034364988939,37.4959241001765],[127.0057891984517,37.4946256000173],[127.0035760999444,37.4929230017083],[127.00244220107831,37.4934125012188],[127.0021063002241,37.4947561013445],[127.00088830031,37.4943913008608],[127.00155459877661,37.4934557998262],[126.99983479816021,37.4919399003061],[127.00069189961461,37.492672499303694],[127.00026359977599,37.4916166998917],[127.0044237963115,37.4881455000922],[127.0042289991241,37.4869487992653],[127.00615189899001,37.4871421996765],[127.0061501996011,37.486075799892],[127.00684439954671,37.4862842992703],[127.0071819992233,37.485269098456996],[127.0083517000385,37.4860384987888],[127.0099995995099,37.485356399086],[127.0106038003718,37.485925598873905],[127.0111060001182,37.4848832997645],[127.0123366990379,37.4854528992266],[127.011225299702,37.4840377993547],[127.0173325997643,37.481750699425],[127.0189898013815,37.482479000213],[127.0195463008863,37.4846394997741],[127.0210817003796,37.485500599276605],[127.02117130066891,37.4863367007774],[127.0203614000114,37.4854268015236],[127.0196050007678,37.4858535010969],[127.01979620057661,37.4874369995134],[127.0207327004827,37.487908500141],[127.021100600638,37.4902620995756],[127.0221028001544,37.4913835994028],[127.0253334005636,37.4905602973865],[127.0270423998835,37.4910037982711],[127.02765979969209,37.4894340999969],[127.0318688995258,37.488823699550096],[127.03131809977269,37.4869407004757],[127.02864009956491,37.4839443000132],[127.02976579944391,37.4837620988269],[127.0312137999244,37.4806417974741],[127.0355745992109,37.4817606975171],[127.03773799941911,37.4809824982173],[127.0382410001081,37.4793721989556],[127.039500600495,37.482305600154994],[127.03824060055159,37.4832328998008],[127.0394046000802,37.4852109002049],[127.0382008004396,37.4852661010615],[127.0380368997144,37.486081401184904],[127.0352207998806,37.4874633016358],[127.03286110092901,37.4875253002865],[127.03229880092991,37.488605300291006],[127.0341409000277,37.4918030991268],[127.0345157994673,37.491037899244304],[127.03574499933431,37.4914062992052],[127.0370451996609,37.4905879993641],[127.0394233996964,37.4917682989952],[127.0399025004046,37.4908023997194],[127.0400499006391,37.4921420994264],[127.041745299463,37.4913604994549],[127.041137599663,37.490612999381],[127.0420459995129,37.490589299152404],[127.041745300844,37.4913604995007],[127.0438168012448,37.4932940000662],[127.0437831010111,37.4948904995536],[127.046021899436,37.4955362991139],[127.0458130993411,37.4939170997883],[127.0469131000937,37.4936012991888],[127.048105999117,37.494991498438395],[127.0493451012841,37.4931324990225],[127.0510450009009,37.4951071978187],[127.052554500188,37.4949863982438],[127.05458149868849,37.493533899983],[127.054401998868,37.4923995011174],[127.05128949894629,37.491848999922],[127.0493649990558,37.488263399688904],[127.0520605001221,37.4872971986531],[127.0529001994229,37.4883214990835],[127.05322359956949,37.4868889994313],[127.0539681998358,37.486738298351],[127.0551027003671,37.4876668984558],[127.05664559882419,37.4870533990693],[127.0570421006923,37.483492596435795],[127.0595108009387,37.483551897679504],[127.0580777012953,37.4848534991763],[127.0593026997505,37.4862989991231],[127.06042869872411,37.4850692003184],[127.059887100154,37.4847177992586],[127.0604287008277,37.485069199451196],[127.0593027014351,37.4862989991856],[127.0607291000087,37.4868894985951],[127.0616825003364,37.4858188984624],[127.0629487006277,37.4877938983404],[127.06633309835979,37.4868090996928],[127.0662753975913,37.4848426960255],[127.0676027001758,37.4861549980879],[127.0684457017434,37.4842773982767],[127.0715665009498,37.4874546967063],[127.07380289871341,37.487032197128805],[127.0747296979023,37.4857988982615],[127.0753869993961,37.4861958995215],[127.075133997498,37.484846399214],[127.0764360995093,37.4837022994007],[127.0758150951478,37.480898099030895],[127.08063599748439,37.477255997612495],[127.0804264976939,37.4759459989225],[127.0813158011438,37.4772380980567],[127.0862732994845,37.4790287965081],[127.086964199541,37.476014399341594],[127.0890794011445,37.4785318983764],[127.0908917002787,37.478367999057404],[127.08800860011499,37.478151601627594],[127.0842864028462,37.481388799151496],[127.08527640185619,37.4834877970525],[127.0866501010097,37.4836873969844],[127.0881598994999,37.4836291970426],[127.0921898989476,37.4813362970439],[127.093726100312,37.4814772969538],[127.09778899781121,37.477919498669095],[127.1008648006229,37.4778800995294],[127.1025735989141,37.4788955985139],[127.1050378994213,37.4757421992157],[127.10582239948789,37.4762596989737],[127.10632580007899,37.4753092979732],[127.105961400996,37.4768548988939],[127.10681990013751,37.477738498010304],[127.1076835992738,37.477866497882296],[127.1087420002908,37.47617369878299],[127.11340869893509,37.4783527975366],[127.1143094980343,37.4759542999351],[127.11287799985159,37.4742427000041],[127.1151464993218,37.474481499586105],[127.1150553991291,37.473364099448595],[127.118371697427,37.4722583999558],[127.1170160987254,37.470649700844],[127.1158131990793,37.4712002005851],[127.114198498494,37.4705330988811],[127.11627729866869,37.4695234983894],[127.1168602982807,37.4661116009408],[127.11347360068831,37.4659773010191],[127.1131921999434,37.4669409008622],[127.1132692991401,37.4652648990187],[127.1173854020346,37.4625112964218],[127.1183520024032,37.4652634986095],[127.120841101611,37.465342198455104],[127.119712301296,37.4655901000678],[127.1205771004312,37.4670202986376],[127.1232439012182,37.4661010982129],[127.1249976994644,37.466956197357796],[127.127031498002,37.4635682000864],[127.1260938986987,37.462042001142294],[127.1237035986285,37.4608467999478],[127.12430429831561,37.4524706009787],[127.12359169902821,37.451786301663],[127.1223629995423,37.4533254020449],[127.1210428994371,37.451835200522],[127.1222746985226,37.4506542005836],[127.1203435986624,37.4491017007648],[127.1244797962852,37.4468378975581],[127.1239716967933,37.441797402598596],[127.11981930094571,37.442326102069906],[127.1187858999626,37.443956902635406],[127.1182555892726,37.4429702981292],[127.1198030976263,37.4360436012675],[127.12143759923349,37.4354571988473],[127.12257809883509,37.431799399587405],[127.1211841992831,37.4297144987592],[127.1229968001545,37.4295440999469],[127.1221095012924,37.4299375005641],[127.1225781008238,37.4317993987022],[127.1241473992545,37.4313582991433],[127.1245030987648,37.4281665993948],[127.1263106998833,37.427870799569604],[127.12821399742,37.4257381996226],[127.1279540970844,37.4246929994153],[127.12929629965329,37.4237934984215],[127.12967070296921,37.4262297980531],[127.1312850023645,37.4273366979009],[127.1347317987703,37.4283489991417],[127.1360298982687,37.4274428980056],[127.13610630011989,37.4283184989817],[127.1381138005147,37.4278463993292],[127.13957340040591,37.4292407995882],[127.1385583008525,37.4296604006703],[127.1391274017522,37.4314672005878],[127.1382848014551,37.4340872992949],[127.13968680005311,37.4345846987975],[127.1420145007913,37.4327707969743],[127.14298120150629,37.432923197832395],[127.14276180226601,37.4338017990895],[127.1458128002535,37.434303899977905],[127.1445985017457,37.4365031990792],[127.1466423019655,37.4365671003676],[127.1450324012786,37.4369773004208],[127.1450896005943,37.4398362985575],[127.14688010064141,37.4404579983402],[127.1478766996448,37.4395586992395],[127.1484085005939,37.4413428987176],[127.1498511003637,37.440425999541205],[127.1504786997361,37.4420242979429],[127.1514835987312,37.442211997755194],[127.1531782991043,37.441106396822704],[127.15664819926151,37.4406448993616],[127.1582252982272,37.437928598466],[127.1637109999895,37.439643499735006],[127.1629515008433,37.440175100247096],[127.16442480047121,37.4418782001829],[127.1647741001142,37.445541998928604],[127.1670915003111,37.4473505002669],[127.1664170008882,37.4493320006075],[127.1696521007391,37.4516942001558],[127.1671044011832,37.4548689998918],[127.16830450018121,37.455489199383905],[127.1676237001919,37.456777599981706],[127.16555460054849,37.4573394002196],[127.1658296005745,37.4598176006293],[127.1650567002597,37.4589137011101],[127.1634110998533,37.4598063027838],[127.1622203000166,37.4591087008581],[127.1590272012554,37.4623816033181],[127.1568500003118,37.4629839007405],[127.1566437992665,37.4638163015311],[127.1546241982952,37.462243803457405],[127.1521959007235,37.4658654998357],[127.15136030041079,37.4658207002412],[127.151605500915,37.4676993999403],[127.1500017002453,37.4682009004252],[127.15023630075291,37.469144400244694],[127.14523150059159,37.4705597019105],[127.1433305001043,37.4724689015624],[127.1419928000914,37.4720497019575],[127.14060550044171,37.474379400111594],[127.14077930026791,37.4752356992553],[127.1424497001104,37.4754320000489],[127.1413897999713,37.4766538003714],[127.1401742003235,37.4758821006723],[127.1401375003602,37.4770586994957],[127.14135030018839,37.4773240998113],[127.1407629005822,37.4782085995314],[127.1429805001346,37.4789409993941],[127.14311090003349,37.4813476998758],[127.1442946999786,37.4798191996218],[127.145043800089,37.4809410994757],[127.1470245995358,37.481181499409196],[127.1469347998445,37.4805189989487],[127.1477444001081,37.4804448987674],[127.14840950025079,37.481594199667605],[127.1498969999637,37.4818094997676],[127.1495365004584,37.4830666986943],[127.1507867004911,37.4842556975496],[127.15675089699721,37.4843326970879],[127.1571415007502,37.4849959989968],[127.158063699828,37.484102399890396],[127.1589366996715,37.484756699232896],[127.15910470009091,37.483894899671206],[127.16084199977921,37.4854265987234],[127.1617954998367,37.4843933992574],[127.1620253011297,37.4859394994439],[127.1665529018037,37.4864801995554],[127.1660842013653,37.4901547013042],[127.16111810464399,37.4964304988573],[127.1641657019353,37.500151199787695],[127.1633895008643,37.503629800075196],[127.16137410147721,37.5050137012654],[127.16221890047049,37.5065252004823],[127.16107869688591,37.5051046015459],[127.15900759895699,37.5049377017128],[127.1564222992646,37.5060425014707],[127.15624869863011,37.5043303021934],[127.1540951007837,37.5031769033468],[127.1523476025312,37.5053435011802],[127.1529379000629,37.5082613001042],[127.1510026998782,37.504432101497905],[127.1472342009799,37.504967102195],[127.1469699012442,37.5079335992285],[127.1512809995987,37.5082806986116],[127.151977899509,37.5094901990593],[127.1529894005335,37.5091117991859],[127.1535145004526,37.5107359009856],[127.1518304998561,37.5099649012679],[127.1507948005204,37.5109537010713],[127.1492969000438,37.510142801129],[127.1483533009874,37.5116641996076],[127.1500999015404,37.5139621997003],[127.1514861002716,37.5139300998687],[127.1503759013625,37.5144725997843],[127.1517461000531,37.515613599338],[127.1564577002636,37.5145568001111],[127.1552151009688,37.5171582992659],[127.15543070118339,37.5196605980274],[127.1569168017656,37.5214497970552],[127.1589670000431,37.5187571996354],[127.1595396996389,37.5201776985353],[127.1605065006477,37.519465599380595],[127.1616733041787,37.520333699629504],[127.1597021018686,37.5204914012393],[127.15745030412039,37.522253499477195],[127.159374702196,37.5255910961396],[127.1609432006275,37.525992695738005],[127.16275829881239,37.5250848966458],[127.1631596009074,37.5260797998713],[127.1626646002716,37.5255086012705],[127.160943201993,37.525992700786404],[127.1622442009295,37.5278864005579],[127.1605312012449,37.5270211012282],[127.1609113008648,37.5296221986271],[127.1593668017382,37.5328886983121],[127.1637048001743,37.5318569997957],[127.16261870190439,37.5321434006174],[127.1635629009602,37.5350179977428],[127.1655529014903,37.5367605961733],[127.1681627988804,37.534064398869496],[127.1670085999952,37.5322600006325],[127.16417889970019,37.5317465999061],[127.1652499988319,37.5314027001587],[127.16547839828469,37.530014900899296],[127.16438649866451,37.528816198891604],[127.1659082981587,37.527271998679105],[127.1651072989043,37.524639000185],[127.1664628988158,37.5240566999924],[127.1660600001841,37.5231085992922],[127.1712883013233,37.5221416984693],[127.1730978995137,37.5225687980422],[127.17555829934341,37.521557099843506],[127.1751005998121,37.5213172994429],[127.1759082990044,37.5209747997854],[127.17448989954839,37.5191203005764],[127.1749822012249,37.5184684975485],[127.17590830236651,37.5209747992567],[127.1778721004877,37.5222400983811],[127.1820222963375,37.5218219987992],[127.1824469937601,37.520180395836604],[127.185247195938,37.5171594949316],[127.1923491976162,37.5142604965707],[127.1961625007865,37.509161397111406],[127.1992158993777,37.5101555971153],[127.2010796996381,37.512335197207705],[127.2022634984543,37.5103937991491],[127.2049349027497,37.5106180980139],[127.20511440098299,37.513079998160705],[127.20873140292761,37.5177076957585],[127.2133062983527,37.5147736986925],[127.2147312987817,37.5163013971636],[127.22391310113021,37.5147209964511],[127.22552679996569,37.5120703992721],[127.22389700084949,37.5173550972315],[127.2277911983343,37.5189275952639],[127.2295344006785,37.518261797230195],[127.2388140913988,37.5258627896292],[127.2444473995215,37.5195386902428],[127.2450900002902,37.5230650959655],[127.2482952041413,37.5218386963381],[127.2488914035451,37.5259815921952],[127.2570336067889,37.534877096281505],[127.2513365013912,37.538130203857996],[127.2465581034189,37.5395029038634],[127.2480936018834,37.544074799291494],[127.2511504008678,37.5436187995675],[127.2504797019251,37.546828600984696],[127.24826030154959,37.547365300721104],[127.24021570573669,37.55579060037],[127.23653420026939,37.5579711017157],[127.2354175992251,37.5567065001065],[127.23643439820829,37.5525685042445],[127.22579010885259,37.5498653069477],[127.2204854122869,37.5554117052233],[127.2131611093875,37.564982707025],[127.2120620090424,37.5676629061796],[127.2053602049595,37.5766483053933],[127.1987552016434,37.581843408115],[127.1924012003808,37.5821966004424],[127.1913924038939,37.583200008336696],[127.1847640923303,37.580886806288],[127.1787877964955,37.5805075060844],[127.178395796946,37.5788018988642],[127.17438029979249,37.576688500711306],[127.1729292011698,37.5764434011123],[127.1695160010703,37.5782133069128],[127.1662802950753,37.576732604991],[127.1644602002648,37.574787798390005],[127.1662802997453,37.5767325969037],[127.1670649989606,37.576335297301],[127.1682642001837,37.5771679981277],[127.1717333993777,37.5715640005659],[127.1720355995222,37.5683812006779],[127.17054249773929,37.5677769994806],[127.17190139936599,37.567064898549],[127.1723972989867,37.5655441994511],[127.1694480010275,37.563786201366206],[127.1615194008121,37.5675019003681],[127.1598017025298,37.5696473982226],[127.1610240013075,37.5711337967362],[127.1625003009143,37.5711477015713],[127.1610239995694,37.5711338002444],[127.1598017007917,37.5696474017308],[127.1569199011667,37.571781608007],[127.1549973979668,37.568858899638805],[127.1531729991934,37.5683413987432],[127.153424600314,37.5667832984468],[127.1531730009919,37.5683413994509],[127.1542491999553,37.567934899814],[127.1565685993065,37.5697160989805],[127.15697109895191,37.5674213011868],[127.15482039949211,37.5675464998859],[127.1569710985636,37.5674212991112],[127.1569408995552,37.5632284009056],[127.15644050005561,37.562913301220696],[127.15571299806071,37.5639192011354],[127.1547888989848,37.5627120023426],[127.1511847002546,37.5621201029535],[127.1485801006775,37.5640752011092],[127.1484019000982,37.565606200279795],[127.1473169983379,37.5663045002911],[127.1430426026123,37.5628965036991],[127.1416350045008,37.5667664067728],[127.1386374999517,37.5670523076807],[127.1378745008136,37.5760088005459],[127.13443029982831,37.5744376016667],[127.1330384012202,37.5758106002937],[127.13422010176589,37.576658299458195],[127.1346523004333,37.5810589000353],[127.1310579004267,37.5816887018963],[127.129640901188,37.583586701338696],[127.1264228009235,37.582652802625496],[127.1247651005814,37.584048602204305],[127.12321249889139,37.5836129009112],[127.1243836985749,37.582884200621805],[127.1217730953605,37.5789587017033],[127.1212610958725,37.5768293038327],[127.11458029982781,37.5761841028001],[127.11328659882139,37.578686902023904],[127.11456609957851,37.5758191997093],[127.1175723975925,37.5723591996756],[127.1161883980693,37.567163601606204],[127.11430009773589,37.5661617010525],[127.11204669973269,37.5670243000467],[127.1133419971045,37.565637500529704],[127.1128463976001,37.5624309037363],[127.1086192001204,37.5598771010215],[127.10520480353479,37.561066599831996],[127.1054251989128,37.5641680054576],[127.1044938979771,37.56379360155459],[127.10241100006,37.5646943006539],[127.0966863057847,37.564156501191704],[127.1003652021058,37.5682988970493],[127.0993951033548,37.5724335993285],[127.1014250017286,37.5728141993914],[127.10139500175859,37.576204896000704],[127.1055186038201,37.5794452016589],[127.1032646011469,37.5841828004858],[127.10131290132699,37.5838343008369],[127.102386900253,37.586588898082304],[127.1050412024359,37.587340799854196],[127.1040970013693,37.5872527010117],[127.10343180203449,37.589736298528095],[127.10433500091551,37.5907213999352],[127.1039902012904,37.5917320020433],[127.103063500202,37.5912235013395],[127.1014556014013,37.5927018000164],[127.10304310064019,37.5938016997076],[127.102223300424,37.594249500121194],[127.1030324007536,37.594822299953094],[127.1014418005457,37.595667900208504],[127.1010400003198,37.597384599588395],[127.102451100137,37.5980752993477],[127.1037213003293,37.601075400012796],[127.1013463005432,37.6020382001601],[127.1013954005088,37.6029645999937],[127.1047194001182,37.603497199306],[127.1041133008489,37.6047468992107],[127.1055292996654,37.6038658999799],[127.1056656997914,37.6026562996241],[127.1075407997396,37.6027876992656],[127.1081659000629,37.601838399590896],[127.11088050082269,37.6061282990131],[127.1074070995881,37.610829902145],[127.1067514985082,37.6099254010716],[127.10400209965711,37.609927900597],[127.1053844987102,37.6095561994633],[127.10565079800041,37.606815602034494],[127.10411329831629,37.6047469002358],[127.100980600239,37.602695300684104],[127.1008692004232,37.6037163006018],[127.0986828999465,37.6044555004656],[127.0978829001351,37.605571600221396],[127.0957879000731,37.6044387002688],[127.0956771006778,37.6055209004438],[127.09385999972291,37.6064500001739],[127.0926986992462,37.605808200529],[127.093254299058,37.6046444010978],[127.0924719989713,37.6041349012546],[127.09107350036979,37.6042249011646],[127.0909498004935,37.605504199885296],[127.0917795995513,37.6063564004399],[127.0904121009188,37.605278501517795],[127.0878570021413,37.606272701795],[127.0872689000751,37.6053964017424],[127.0856569016871,37.606252700886095],[127.0847134021457,37.609098799640996],[127.0864193015658,37.609995399349],[127.0861633017412,37.613372898701805],[127.09135130059249,37.6164913976872],[127.0929796989641,37.615779698398896],[127.09427740040529,37.616217099927],[127.0937011997812,37.6170807020256],[127.0913513006879,37.616491401158],[127.0905948987009,37.617650601471695],[127.08872500057079,37.617656101466196],[127.0880995011963,37.6189672001551],[127.0885396009418,37.6197897005098],[127.0871984005297,37.621003299993696],[127.08773020003109,37.6218366996734],[127.0888807004566,37.6213588998982],[127.0888591002031,37.6221863009538],[127.0874686008346,37.6227778014046],[127.0858323997589,37.6223786011146],[127.0855029998508,37.6234820005872],[127.08573839898919,37.6221808009688],[127.0838483008793,37.621235601914],[127.0805968008624,37.625657200925296],[127.0812750001842,37.6266489999335],[127.080744999939,37.6261053002291],[127.0803203003301,37.6274855997458],[127.08143010069661,37.6279116000283],[127.0794721000879,37.6304728005178],[127.0791169998471,37.6293245004517],[127.0770381010117,37.6290287008767],[127.0770007010491,37.6303382995671],[127.0782049006354,37.6303459000352],[127.07674299974269,37.631517600472705],[127.0764578994442,37.6307990009144],[127.0756430979268,37.631067799974296],[127.0754312986902,37.6297424998124],[127.0723393012306,37.6290938019483],[127.07286170098061,37.631850200008905],[127.0720580026787,37.6336904005126],[127.0736298011069,37.6355496986533],[127.0722509018251,37.6386700006951],[127.07260130057941,37.6399942002615],[127.0682730015736,37.641808500437904],[127.06630000372,37.646190001549996],[127.06641070169911,37.6492524007096],[127.0657264008969,37.6497815028557],[127.0634225010379,37.649260801743],[127.0626135018469,37.649996701007105],[127.062001600534,37.6540891984518],[127.0634388031845,37.654073198564],[127.06529850124329,37.6553787992723],[127.06423750083191,37.656042900114],[127.06493500023801,37.6566594006892],[127.06423750031871,37.6560429005424],[127.0641070001963,37.6571128014275],[127.06154580051151,37.6577676006376],[127.0614579002817,37.6584878003471],[127.0615973996055,37.6573014005417],[127.0605897998081,37.657195700357704],[127.0600529990542,37.655578800042],[127.0558036997446,37.654592701516805],[127.0562502989973,37.6534373007435],[127.05519479967829,37.6532680000577],[127.0592317993879,37.6531739976447],[127.0599444986752,37.6511071997115],[127.0612184996735,37.6512413991518],[127.06112590003849,37.6502816998622],[127.0626134985509,37.649996700147206],[127.06156969959471,37.648848201295706],[127.0593299976434,37.6483399994624],[127.0576036992776,37.6454196012161],[127.0565241998991,37.6455634001864],[127.0576036991277,37.6454195987876],[127.0578931996064,37.6433451989146],[127.0607653007233,37.6441080972512],[127.0640022988345,37.6414858002658],[127.06246349994021,37.641491200134396],[127.06351999896519,37.640449999169],[127.0634880989971,37.6393754002436],[127.0626252991538,37.639132199544],[127.0652084990811,37.638855199479],[127.0639047993709,37.6366069014129],[127.0622742991614,37.6361403012466],[127.0613205992849,37.637197299723496],[127.0622742983996,37.6361403000963],[127.0625985997568,37.632434100009796],[127.0612619998259,37.631598599896094],[127.06428199967151,37.6335071996366],[127.0649830002819,37.630974299695495],[127.0651507005463,37.6320407992705],[127.0669670987299,37.6327048986064],[127.0681492976408,37.629383201315896],[127.0637114989505,37.6254511996084],[127.0651284985894,37.6265716984968],[127.0656764980609,37.6239226009858],[127.0645316992057,37.6236686012398],[127.0637482999891,37.6244498004586],[127.06339549867509,37.6235564995238],[127.06618039666019,37.6223716983028],[127.0675637998621,37.6199171997687],[127.06824949990079,37.6208735990739],[127.0696417985085,37.620053899893605],[127.07013399810819,37.6182948013504],[127.0681940990503,37.616574200729104],[127.0641699997569,37.616930000963904],[127.0657762995485,37.616306999620896],[127.0657814995433,37.6155215004064],[127.06441649990539,37.6162049002816],[127.0634598998608,37.6153644999238],[127.0642013992026,37.615463399607805],[127.0635193998846,37.6142038008674],[127.06092860024219,37.6138435015098],[127.0607699997367,37.6130916005408],[127.05943869952951,37.6134221007527],[127.05822960045191,37.6123272008478],[127.0574768995686,37.6136214008108],[127.0579809988561,37.6125592009346],[127.0563199997736,37.6115100015897],[127.0535390990143,37.6131552008205],[127.0523441979711,37.6118483008381],[127.0519976996089,37.609557800420596],[127.0473130996461,37.6083914006701],[127.0472385993516,37.607065600500896],[127.04615389902989,37.6071433003685],[127.04588149937129,37.605837899811696],[127.0448670998299,37.6053406999793],[127.04536209992341,37.6045424994147],[127.0474496998347,37.606618599578496],[127.0476532001761,37.6058577987027],[127.0503359000266,37.6046641995428],[127.05178030126031,37.6052598999712],[127.052313500373,37.607145700237496],[127.0513879008127,37.6074579003448],[127.0517561004445,37.608121499681204],[127.05437500002009,37.608226599446205],[127.05529799993309,37.6072579989354],[127.055768300219,37.608972599600804],[127.0566786001297,37.6075880997349],[127.05965260008311,37.6083155993353],[127.0602871996321,37.6077017994593],[127.0606221006124,37.6085063001075],[127.05987190061511,37.6093832996634],[127.06139800054639,37.610739299195195],[127.0607558004434,37.611415599516],[127.0626220999805,37.6138610994998],[127.06421800015539,37.6125853996616],[127.06772979940119,37.6126091982201],[127.0671682004582,37.6136257998618],[127.0693084004955,37.6133005995437],[127.07204689889511,37.6148951994153],[127.0726234982864,37.6134139001133],[127.0708365993302,37.6131112998349],[127.0727736977173,37.612054900244],[127.0726954984895,37.6065583005139],[127.0699912991102,37.6048409011476],[127.06993199921949,37.602585501051806],[127.067857499737,37.6028046004109],[127.06717259997731,37.6016872006702],[127.0666451002813,37.603085100441504],[127.06582779981879,37.6022427002991],[127.06587289998791,37.6008739992185],[127.0694370983738,37.599525099885],[127.0678676994032,37.5971168999826],[127.0711949995167,37.5977819997683],[127.0708407987747,37.5926011008562],[127.0688043998518,37.5920990999578],[127.0709654985833,37.5920681985873],[127.0733301987877,37.5884785995396],[127.07116659978429,37.584601499953095],[127.0723650992335,37.5828599001484],[127.07134049958451,37.5824005005833],[127.0699615996482,37.5830311000748],[127.068983399744,37.5822131004367],[127.07003349946129,37.5820156995256],[127.069870099952,37.581017899707],[127.0700335003546,37.5820156990898],[127.0711452992428,37.5817945993109],[127.0705132996712,37.579760500602596],[127.06907929941819,37.579584500290906],[127.06929979972429,37.5773775003713],[127.0673966002552,37.5777945007231],[127.0665807993942,37.5765560005556],[127.0648914999433,37.5763794002756],[127.0657263990911,37.575758800386104],[127.06408380058481,37.572918803106894],[127.0633523013163,37.572931003094695],[127.062563602105,37.5732766027491],[127.0621830014085,37.5757497008909],[127.0645680002323,37.57828220012539],[127.0613560006729,37.5782071998499],[127.0620876004958,37.578240200072806],[127.0613560008677,37.5782072004906],[127.0608900013337,37.579338799359],[127.0623674002262,37.579115000034705],[127.0610653004344,37.5812715003507],[127.0563007999868,37.5812418004894],[127.05499180044059,37.5826045004195],[127.0555724997472,37.5846508988765],[127.0564368004713,37.5837873995835],[127.055572500391,37.5846509000469],[127.0572825005065,37.5854479996082],[127.0609750000033,37.5851637996335],[127.0636353001769,37.5874252997264],[127.0630733004828,37.5886111998567],[127.063682099874,37.5891253993425],[127.0641979003769,37.5885557995868],[127.0655809006725,37.5909739998052],[127.0646063002945,37.5911735006571],[127.0650466003224,37.592368200284405],[127.063758100236,37.5929627001209],[127.0627443997103,37.5922383999183],[127.0629220995326,37.591488700668],[127.06036360091291,37.591297700372095],[127.0615158002518,37.5938057003818],[127.0598680998051,37.592540800823805],[127.0582904006113,37.5931590999327],[127.0593880003764,37.593593599894795],[127.05895889995769,37.5943246001319],[127.0551621004097,37.5934400016463],[127.0545250001657,37.5926055003698],[127.054219900152,37.593277800581],[127.0525221994576,37.5926082000811],[127.0522540997257,37.5916104010789],[127.05076719896729,37.5914275000271],[127.0523833991561,37.5895041008544],[127.05132429988261,37.5897723002802],[127.0521247993848,37.5892577996377],[127.0510388991096,37.588484700079505],[127.0521247996467,37.5892577994737],[127.0521460996254,37.5884199003116],[127.05091510009859,37.5877207003053],[127.0500294003011,37.587600000395305],[127.0491534000859,37.5886805004339],[127.04762390015121,37.5881727000937],[127.04697709966241,37.589414700536196],[127.0445305999532,37.5875322005206],[127.0424430991491,37.5882804006646],[127.0373107994822,37.5828753005424],[127.03595249974359,37.5828294010047],[127.0340797998126,37.580653101382296],[127.0322894000164,37.5813839007362],[127.031629199476,37.5800059011234],[127.0300176992467,37.5801055006168],[127.0293567996385,37.5792766010651],[127.0264914008994,37.581071100653205],[127.0253721005683,37.5804901009407],[127.0240612005323,37.5816659006231],[127.0225432999895,37.58129740098],[127.021371300338,37.5828245001299],[127.0214782007494,37.584906799104],[127.02349410020439,37.5864709000303],[127.0182710997024,37.588260401275],[127.0162050978349,37.5854623010077],[127.0168326977728,37.5843128986584],[127.01551189909361,37.5819144010569],[127.0147258992415,37.5823078004215],[127.0136850987501,37.5802362005155],[127.01165929977371,37.5802951998751],[127.0135588994204,37.576948399665696],[127.01288029953321,37.5742863003659],[127.0090931998826,37.575681800197195],[127.00551010016379,37.5750986005422],[127.0037763003667,37.5734738005316],[127.0032728004146,37.5745458003159],[127.00245190068179,37.574393800490704],[127.0003088002448,37.5762309003497],[126.998500900509,37.576237400414996],[126.9969169010127,37.577836500691895],[126.997232299061,37.576844199696396],[126.9956215982789,37.5763527984155],[126.9966046981345,37.5733619993777],[126.995842198897,37.572014700725],[126.9940670005531,37.572039100012596],[126.9912928011011,37.5752462001536],[126.991999601233,37.578860699596],[126.9904898990234,37.5793214012158],[126.98782420034371,37.579339200816],[126.9882654994215,37.578736900598905],[126.98751490017209,37.5782733010625],[126.9867439001031,37.5782681008044],[126.9867200000011,37.5790708002695],[126.98517220055989,37.579063301204805],[126.98515599922361,37.5778647999635],[126.9838026999465,37.5775006001392],[126.98374339989739,37.576547700401996],[126.98254059965419,37.577284301203704],[126.9814762993778,37.576059900910494],[126.9794212996473,37.5769978007765],[126.975716800426,37.575072400727],[126.97442320067991,37.5760515000803],[126.9749576008459,37.5769905004819],[126.97402339990039,37.5775038007652],[126.9733278997525,37.5765003008064],[126.9721926997493,37.5770067001637],[126.971144099252,37.575942800024],[126.9719979994017,37.5754402000438],[126.96988279872099,37.5740965993717],[126.97063439879389,37.573264299658895],[126.9697272996975,37.5721053994402],[126.9715432992478,37.5709234998967],[126.9716454991456,37.5700634007568],[126.9697483998627,37.5702827003085],[126.9694395000267,37.5689675006036],[126.9681918995844,37.568945300822506],[126.9656585999071,37.570235600104596],[126.9659304996213,37.5695129006304],[126.96523780003079,37.5691374007311],[126.96470239993019,37.5702887002668],[126.9645054999599,37.5696595003635],[126.9633104003937,37.5703269002964],[126.9612308000726,37.5687884005696],[126.9615591991209,37.563993599519605],[126.9605174985221,37.563200099741],[126.95955269975731,37.5606011000106],[126.96002389955919,37.55993989997631],[126.95859509949679,37.5581891000556],[126.9595926989713,37.557562400198],[126.9575917006693,37.5573997002466],[126.9563984997079,37.5590718008936],[126.95631179937419,37.5579360009264],[126.9537043994362,37.557189800578904],[126.9550096995077,37.5562973998627],[126.9544430996311,37.5551903001447],[126.9548833996874,37.5540613999362],[126.95379489938921,37.5540337998327],[126.9535848995447,37.5514551000348]]],[[[127.1210692998263,37.4130695002072],[127.1223127995782,37.413606198832795],[127.1215950987468,37.4116078991994],[127.1242711985196,37.4100344000623],[127.1228858992061,37.408983499260096],[127.12455289864519,37.4093924992424],[127.1248123995313,37.4078437992745],[127.1269225999169,37.407511999194696],[127.1272988995325,37.4065575997507],[127.1273477005957,37.4073592995517],[127.128459399484,37.4074975994134],[127.1284019992758,37.4049790997079],[127.1300058009121,37.4061209992133],[127.128896500685,37.4062179009081],[127.1292085005784,37.4078988995055],[127.13044699969831,37.4082769991212],[127.1307591993861,37.407356200042],[127.1301482998114,37.4071106000029],[127.1307947001628,37.4068047992679],[127.13222900004469,37.4085521986373],[127.13336700027541,37.4084361995031],[127.1330912007889,37.4089969995555],[127.1343737002845,37.4094927995417],[127.1330655013099,37.4105318995594],[127.1343775010951,37.4108412000022],[127.13390550047579,37.4126171996121],[127.1349001003242,37.4142952001205],[127.1339230000058,37.4157788010091],[127.1329503998197,37.4144389011409],[127.1311055999152,37.4144110005538],[127.1310893003883,37.4168928018817],[127.1300375005947,37.4168703018996],[127.1291543014782,37.419100800801104],[127.12839510052251,37.4191144009542],[127.1279226992342,37.417808900584994],[127.12654739972291,37.4178089],[127.12597869912601,37.4152839008165],[127.12482390025309,37.4153058003171],[127.1243414997746,37.416170400131],[127.1243417996814,37.4148286003329],[127.123742099777,37.4153865002531],[127.1210692998263,37.4130695002072]]],[[[126.9765217991852,37.4835506997416],[126.9792284989237,37.482848399493605],[126.9795028986197,37.4818003000331],[126.9800641997446,37.4822789995054],[126.98082189957539,37.481191099412996],[126.98194849995811,37.4813894998307],[126.9808921003528,37.4827636994985],[126.9826886007113,37.482183499986995],[126.9827663013335,37.4839262987586],[126.9842397005762,37.483891898780605],[126.9885969982016,37.4861539973969],[126.99121019883779,37.4839708980901],[126.9919109000291,37.4842520985879],[126.99291649902351,37.4826924001476],[126.9919583992699,37.481403901143096],[126.9920967988717,37.480108100887605],[126.9911100999434,37.4793574969871],[126.995468798221,37.4793514973263],[126.9982423992022,37.477117896551306],[127.00072569944871,37.4767493988028],[127.004460000786,37.4827400004322],[127.0030829004874,37.4814170015133],[127.0028575007128,37.4827776001527],[127.0036117005171,37.4833928001014],[127.0023314000256,37.4836919009776],[127.00213759894349,37.4826505013272],[126.99976510110811,37.4816885023752],[126.9986993021739,37.4829798010839],[126.9993164021575,37.4847090007884],[126.9984275009505,37.4848237009658],[126.9987493006287,37.4870996986898],[126.9998061016678,37.4869875985098],[126.9996400003996,37.488391403117],[126.9960395997771,37.4914332010538],[126.99254559953,37.4914560012762],[126.99178669993711,37.4926122006999],[126.99082100026389,37.492211000824994],[126.9904802995738,37.4927747006652],[126.9893030990547,37.4888867008907],[126.98828349975969,37.4884738003794],[126.9890260988605,37.4873010010093],[126.98854299934361,37.4868004015099],[126.98600170060391,37.4858222007314],[126.9853348006586,37.487509200403096],[126.9832626000456,37.488287701267],[126.9824633000605,37.4894849005998],[126.98253919942451,37.488914100607104],[126.9806035000387,37.489016900422804],[126.9791550994806,37.4878327000106],[126.9798309992408,37.4869808005746],[126.9774696989418,37.4860794002823],[126.9765217991852,37.4835506997416]]],[[[126.9830335979489,37.5198066994111],[126.9834181008153,37.518484099263105],[126.9830336003332,37.5198066991456],[126.9836433998156,37.5201676993889],[126.9887839983339,37.5201183993184],[126.9895114003122,37.5172664996338],[126.9920996997477,37.5199200990052],[126.9926999991474,37.5192799996453],[126.9936601991365,37.519634099173295],[126.99251510005061,37.518043299271504],[126.9954124991257,37.519609798875095],[126.9943528007384,37.5189642009155],[126.9952759998152,37.5206895991901],[126.99988360148791,37.5223650999531],[126.9978912003571,37.5234384012152],[126.99667650048991,37.5229556007241],[126.99693910070211,37.5238864002366],[126.99667649991751,37.522955600979],[126.99320260054681,37.524096601482],[126.9918795002173,37.5256547005774],[126.9922641987706,37.5248881000537],[126.99069799981399,37.5234651005547],[126.9903145996893,37.520428000648],[126.9869598993771,37.5208153010916],[126.9859574004286,37.5197745006181],[126.984198101466,37.5213721014854],[126.9835594999704,37.5205777011997],[126.9828245002036,37.5218815008013],[126.9830335979489,37.5198066994111]]],[[[126.96703909548499,37.5199909997329],[126.9691447997795,37.5199403991898],[126.969385499568,37.5183775987142],[126.9696556009128,37.518933498868805],[126.9712625997092,37.5182148997775],[126.97102230007191,37.5177042997826],[126.97143850024851,37.5192025995184],[126.9723476003724,37.517932899137],[126.9728413010464,37.518935199402],[126.97400330085071,37.5185756991756],[126.97437360097321,37.5193494993967],[126.9756076999376,37.5190283998732],[126.977391399684,37.5199609989376],[126.97716770126509,37.5207605995731],[126.9801480005532,37.5209012994207],[126.97860919950189,37.5227897005965],[126.97503810128211,37.520940301083996],[126.9744296000673,37.5225549001145],[126.97360169982531,37.5226430998728],[126.9745599997913,37.522309999905296],[126.9744782997914,37.5211279009347],[126.97302450124519,37.5216151004475],[126.9727332010565,37.5237684995393],[126.9695145006487,37.5263996007304],[126.9678256999359,37.5248718021083],[126.9650939995767,37.5263841002469],[126.9661891985402,37.5216305011772],[126.9639864989835,37.5219134982494],[126.9652574977125,37.5211681989947],[126.9661891995809,37.5216304989123],[126.96703909548499,37.5199909997329]]],[[[127.125047098796,37.3929931998631],[127.1259042001405,37.3939416994129],[127.1270603992024,37.392053099984295],[127.128501599231,37.392705799255104],[127.12815639989499,37.3906232997033],[127.1304011002174,37.3935031994421],[127.1324181993583,37.3924197988748],[127.1308102021685,37.395725799458404],[127.1322211004381,37.3990730999675],[127.1286712003459,37.3993503004359],[127.1289081999771,37.400612800224195],[127.1284153994569,37.3993385007946],[127.1267075993703,37.399656200299006],[127.1267396994391,37.3982427001892],[127.1289121990183,37.3975132999589],[127.1285292994012,37.3966233008489],[127.1261174003559,37.3961260010308],[127.1253908989402,37.396781799712],[127.125047098796,37.3929931998631]]],[[[127.0546128995494,37.6637371004977],[127.05615779977519,37.663934999779705],[127.0562755001869,37.6631530990664],[127.0578137994991,37.6630321993223],[127.05857680006099,37.6614073997586],[127.0578958009209,37.6627618993999],[127.06123700073991,37.664556800631],[127.0602145002332,37.666009900340796],[127.05670780149289,37.6658099007883],[127.0572409001215,37.6675370002795],[127.05649659906601,37.6672941998097],[127.0570739994166,37.667151599459494],[127.0567077997702,37.6658099002766],[127.0556981000273,37.665100600845705],[127.0551180991098,37.6656135000534],[127.0546128995494,37.6637371004977]]],[[[127.1166268993327,37.39612440058],[127.1184389986623,37.395527699294306],[127.117999099607,37.3926885986201],[127.1192745006679,37.3929208989003],[127.1200264999159,37.392015699805505],[127.11953370125711,37.3935350005484],[127.1201454006454,37.3945929994904],[127.1213680994227,37.394618099465305],[127.1221247998701,37.3936456993185],[127.1232727001158,37.3937683997584],[127.1238028005323,37.3948631999947],[127.1229869005531,37.3961281007566],[127.1201275010536,37.3971619996228],[127.11986310021071,37.3983541006323],[127.1184959994301,37.3980370002145],[127.1182556999785,37.396802000554004],[127.1166268993327,37.39612440058]]],[[[126.9988046992781,37.5824397000549],[126.9998262991976,37.582206399986894],[126.9997290004258,37.5812481989777],[127.0019837986859,37.5817548992183],[127.0015688985859,37.579998500227404],[127.0021804000131,37.578902799694305],[127.0032816002077,37.579728299346996],[127.0033962004516,37.580872799290404],[127.0043120006436,37.5807432997401],[127.00427760073539,37.5833354004745],[127.0026938006436,37.5836989006758],[127.0028632004742,37.5844627999119],[127.00146980003649,37.585709800162995],[127.0002045996728,37.5832940008164],[126.998322899578,37.583477000175705],[126.9988046992781,37.5824397000549]]],[[[127.0267329988363,37.5863765001759],[127.0273193998933,37.5851598998907],[127.0288358999138,37.5860877991673],[127.028896500242,37.5843224994671],[127.0316056003309,37.5863771000125],[127.03070700058821,37.586341600202],[127.0307867002032,37.5870716000436],[127.0292426999953,37.5881418001239],[127.02872659968929,37.5863795007213],[127.02768740072851,37.5863837007171],[127.0279457999317,37.5873013000895],[127.0267329988363,37.5863765001759]]],[[[127.0405060995363,37.4853632001707],[127.043578999243,37.4846746992959],[127.044137199329,37.4832173992719],[127.0460435002435,37.4838051991197],[127.04697450019421,37.4828222981191],[127.0469500005805,37.4842140989303],[127.0480605008878,37.483156899352096],[127.0469500009615,37.484214100730604],[127.0471738007377,37.48507469987],[127.0489041004992,37.4854892000978],[127.04688950092661,37.4858701997853],[127.0471271005519,37.488391398358395],[127.0483646009122,37.487807599703494],[127.0479097008168,37.4884318015785],[127.0447787002132,37.489260700828005],[127.0425967997932,37.488781600837406],[127.04295849849319,37.4870314007608],[127.0405060995363,37.4853632001707]]],[[[127.1208734991432,37.3839318000479],[127.1231466000713,37.3841166984571],[127.1239045003659,37.383428699355505],[127.1233080002759,37.3840916000985],[127.1247879001839,37.3846432997529],[127.1243287008985,37.3849605997278],[127.12541259981461,37.3863736983147],[127.126668299646,37.3857155986453],[127.1273802006669,37.3865110012594],[127.1259546999011,37.3867567008882],[127.1248765996057,37.3880332003597],[127.1230772000332,37.387334201121895],[127.1216248998099,37.3878609008876],[127.1220506997369,37.3875074000309],[127.12069669917689,37.3865372994139],[127.12124609919519,37.386030299420405],[127.1208734991432,37.3839318000479]]],[[[127.0627579996604,37.5944606000963],[127.0633334998828,37.5940004998427],[127.0639244998697,37.5948772996691],[127.0644904002899,37.5940069999118],[127.06572439988089,37.5956565992783],[127.0664037004062,37.59536269984],[127.0657207001354,37.5978730006086],[127.0648035996147,37.597496300085204],[127.0650870997651,37.595986700325795],[127.0637697998585,37.5961214004109],[127.0627579996604,37.5944606000963]]],[[[127.0392189998802,37.6023158001624],[127.0406647990987,37.6021682993273],[127.0401174993153,37.5998131997445],[127.0429490999931,37.6004018997056],[127.0434345003443,37.602631800108995],[127.0422477996021,37.603762700252695],[127.0392189998802,37.6023158001624]]],[[[126.974845999535,37.4762545000585],[126.97550339947439,37.4765003992884],[126.9767495993611,37.4748361997975],[126.9762598007211,37.474488799675],[126.9786417000058,37.4747815996485],[126.9789930006169,37.475879299236404],[126.980853500149,37.4767247991103],[126.9823736005579,37.4766399999446],[126.98145329924189,37.4773156010372],[126.9803450005003,37.476495400294695],[126.9792509008099,37.4778307005395],[126.9773749998554,37.4784389004946],[126.9757962001772,37.4777974008127],[126.974845999535,37.4762545000585]]],[[[126.949429699634,37.5446646002503],[126.95035569963551,37.5431150991876],[126.9518809998178,37.5434684991094],[126.9524885007647,37.5448205996853],[126.95182410071669,37.5461619996359],[126.95278800039979,37.5464108002776],[126.9522093997071,37.5466836001658],[126.949429699634,37.5446646002503]]],[[[126.9713550992815,37.536441600127006],[126.9720031993554,37.5342684990074],[126.9735416990724,37.5327853997788],[126.974292001071,37.5329402995984],[126.9737159006438,37.5341319994533],[126.9751147992449,37.5345298990554],[126.97556739906041,37.5335610996333],[126.9768804004196,37.5335065997767],[126.9763963011363,37.5339931003165],[126.9775000005344,37.534536000021504],[126.9755470005453,37.5359839001337],[126.97452350061991,37.5355586005684],[126.9743691998313,37.5377882003264],[126.9713550992815,37.536441600127006]]],[[[127.037262699661,37.469102800133],[127.03905599962451,37.4691227984586],[127.0396896989908,37.4683299992514],[127.0391445989179,37.4673724992597],[127.0402179002556,37.4681719990223],[127.0411915011258,37.467599298955],[127.0402179008307,37.468172000665106],[127.04141930070931,37.4696594998667],[127.041288600396,37.471316801309996],[127.0387420995328,37.4719541006927],[127.03837809964921,37.4694235001148],[127.037262699661,37.469102800133]]],[[[126.9680203996148,37.4843399996895],[126.97109970067049,37.482687899641405],[126.97358460080609,37.48470549979049],[126.9727228001498,37.4844138005675],[126.9721017006314,37.485317299776796],[126.97301680105609,37.4857032011553],[126.97210170068179,37.4853173006859],[126.9697551004142,37.486975300274494],[126.96816219959929,37.486474200326604],[126.9680203996148,37.4843399996895]]],[[[127.0039605998426,37.587754000138595],[127.0076703005015,37.5871408995837],[127.0081369007043,37.5889194003015],[127.0066828005552,37.5888281010567],[127.0057836995493,37.5898715005734],[127.0046943995414,37.5895427008154],[127.0039605998426,37.587754000138595]]],[[[126.9638774991209,37.5299852000761],[126.9646091994734,37.528974399720305],[126.96406369955099,37.5285921986545],[126.9660785994662,37.5272522994259],[126.9669326004074,37.529831200318796],[126.9647861003199,37.529175101678106],[126.96445990064609,37.5304383004149],[126.9638774991209,37.5299852000761]]],[[[127.1423416998788,37.603841599249705],[127.1431779001374,37.6025152996717],[127.14376799946959,37.6035948989506],[127.14553810067879,37.602846900453706],[127.14449830000899,37.604351500673],[127.1423416998788,37.603841599249705]]],[[[127.1130298988799,37.379597999314],[127.1135416988089,37.3785342000144],[127.1127914987983,37.3779982991475],[127.1135746991051,37.3773077986871],[127.1163832004766,37.377331399744705],[127.1143413013026,37.380256301460896],[127.1130298988799,37.379597999314]]],[[[126.97588879969501,37.503699599966495],[126.9788764995067,37.5023019990808],[126.9788994011016,37.503359700029094],[126.9799938003007,37.5034532003891],[126.97673620004251,37.5042057017695],[126.9767721997588,37.503156000475094],[126.97588879969501,37.503699599966495]]],[[[127.0146700993954,37.5924261998644],[127.0168642996201,37.590839599525204],[127.0181248007652,37.5935543009067],[127.0161701997398,37.5942650011941],[127.0163488994736,37.5933587006405],[127.0146700993954,37.5924261998644]]],[[[126.9711195001626,37.5550632992729],[126.9726150001607,37.55371239945],[126.9736700004152,37.553829999392995],[126.9721855004462,37.5551915002543],[126.9729710999588,37.5558227003053],[126.9711195001626,37.5550632992729]]],[[[126.9603454997273,37.5382905003473],[126.9614833005673,37.5383174998711],[126.9616977003529,37.539026599162],[126.9627825000604,37.538599499985494],[126.9619005000156,37.540629200298696],[126.9603454997273,37.5382905003473]]],[[[126.9717134002381,37.5451914007539],[126.97252080007149,37.5433430995595],[126.9735710006755,37.54455569994369],[126.9717134002381,37.5451914007539]]],[[[127.0360582991591,37.5911674999496],[127.03653100001189,37.5895572999621],[127.0365696000409,37.591345200029096],[127.0360582991591,37.5911674999496]]],[[[127.0536323997506,37.6785190001141],[127.05586320096211,37.6772328997915],[127.0561531010353,37.6785510997927],[127.0554165007703,37.678644400798504],[127.0554242000212,37.679523001111],[127.0536323997506,37.6785190001141]]],[[[127.0581764993171,37.6576097998553],[127.0602690000678,37.6582609995166],[127.0601917003035,37.6587432004438],[127.0581764993171,37.6576097998553]]],[[[126.9530231994389,37.495746900148],[126.9542399001247,37.495708999870295],[126.95317629955909,37.4967034005158],[126.9530231994389,37.495746900148]]],[[[126.9622851993872,37.477468300237696],[126.96297300023501,37.476121299453006],[126.9634876009482,37.4769996990145],[126.9647908009583,37.4766284996252],[126.9636328001836,37.477855100294796],[126.9634875994576,37.476999700506],[126.9622851993872,37.477468300237696]]],[[[126.9461511987971,37.5400555009089],[126.9457079003763,37.5391405991296],[126.9468275006489,37.5396925995327],[126.9461511987971,37.5400555009089]]],[[[127.1188339996889,37.4322246999882],[127.1211105002115,37.4326303003065],[127.119511700198,37.432206900375895],[127.1192398997411,37.4325877003302],[127.1188339996889,37.4322246999882]]],[[[127.0601614995554,37.6230162003057],[127.0616342009845,37.6227739995906],[127.060840300303,37.6242633006131],[127.0601614995554,37.6230162003057]]],[[[126.9454796997397,37.556684699379595],[126.94586940000741,37.556051999604],[126.9467508007872,37.5567435996292],[126.9458810003047,37.5573445007079],[126.9454796997397,37.556684699379595]]],[[[127.0820107998294,37.627194099798],[127.08246400028351,37.627210899927604],[127.082441600273,37.6277535004414],[127.0820107998294,37.627194099798]]],[[[127.0559322993888,37.446981996785595],[127.0569137007018,37.4464354993945],[127.05677080067329,37.4473915004459],[127.0559322993888,37.446981996785595]]],[[[126.9630740988896,37.5319967010122],[126.96358640045659,37.5315945997273],[126.9631233000736,37.5326902002656],[126.9630740988896,37.5319967010122]]],[[[127.1080517997316,37.3661047001868],[127.1080554994236,37.3656132985047],[127.1084130007341,37.3661045013271],[127.1080517997316,37.3661047001868]]],[[[127.1152142989373,37.6355163000409],[127.1164414006509,37.634973600290905],[127.116441800496,37.6350938003606],[127.1152142989373,37.6355163000409]]],[[[126.9913081996621,37.5272595998151],[126.99172930014551,37.527219199914896],[126.9916874002308,37.527538300299504],[126.9913081996621,37.5272595998151]]],[[[127.01669889889409,37.523488900503196],[127.0168188002771,37.5231222994385],[127.0168352006858,37.5236503007449],[127.01669889889409,37.523488900503196]]],[[[127.0004398992544,37.551242300343596],[127.0006822005292,37.5511457992602],[127.0006574000052,37.5512713001522],[127.0004398992544,37.551242300343596]]],[[[126.97172449963739,37.540964600693805],[126.9719532993779,37.540967498449],[126.97204940107311,37.5409808993344],[126.9719532998649,37.5409675009032],[126.97172449963739,37.540964600693805]]],[[[126.9769276993522,37.5235162996252],[126.977252099925,37.5231156995921],[126.977558100553,37.523404999981196],[126.9769276993522,37.5235162996252]]],[[[127.0341132991288,37.5334176006615],[127.03465080088229,37.533561500430395],[127.034877900008,37.534860100759104],[127.0341132991288,37.5334176006615]]],[[[126.97195929965339,37.5511262010177],[126.9721443998947,37.5510944994184],[126.9721763001476,37.551089100267696],[126.97195929965339,37.5511262010177]]],[[[127.0756876987777,37.6390793052076],[127.0753636989373,37.638711398268995],[127.07568770145241,37.6390792990273],[127.0756876987777,37.6390793052076]]],[[[127.07394189949409,37.6610956993919],[127.0739800994559,37.6610760994115],[127.0739941998921,37.6610688991521],[127.07394189949409,37.6610956993919]]],[[[126.974884499887,37.556131800081204],[126.974907499968,37.5560005998897],[126.97510590007501,37.5560810999077],[126.974884499887,37.556131800081204]]],[[[126.9921007979003,37.5570227998125],[126.9921592001939,37.557031599919],[126.9921008002027,37.5570228001613],[126.9921007987474,37.5570228019496],[126.9921007979003,37.5570227998125]]],[[[127.06554769975709,37.630718099858605],[127.0656371000708,37.6307549002844],[127.0654739997909,37.6306968999729],[127.06554769975709,37.630718099858605]]],[[[127.1502759987504,37.4698578021638],[127.15027599989581,37.4698577996812],[127.15027600018641,37.46985780202],[127.1502759987504,37.4698578021638]]],[[[126.9589129998294,37.554900500390005],[126.9588827003385,37.5548219997509],[126.9589130003661,37.554900499858405],[126.9589129998294,37.554900500390005]]],[[[127.1249954999526,37.3842788999637],[127.12512730069871,37.3843723999818],[127.1251116001156,37.3843910002974],[127.1249954999526,37.3842788999637]]],[[[126.963870699203,37.508675099424096],[126.9638707003782,37.508675099612795],[126.9638706993633,37.5086751009134],[126.963870699203,37.508675099424096]]],[[[127.129352899734,37.4006421002036],[127.1293528998345,37.4006420991467],[127.1293529016701,37.4006420997068],[127.129352899734,37.4006421002036]]],[[[127.00908339951029,37.5340793998901],[127.0090834012396,37.534079400172004],[127.009083399967,37.5340794008222],[127.00908339951029,37.5340793998901]]],[[[127.102981199114,37.6128036013206],[127.1029812003574,37.6128035997032],[127.1029812005199,37.6128036006392],[127.102981199114,37.6128036013206]]],[[[127.1046383996078,37.4951138996726],[127.10470529998241,37.494969799885],[127.1046383998398,37.4951139003373],[127.1046383996078,37.4951138996726]]],[[[127.1174321995525,37.3976501003419],[127.1174322005553,37.3976500997017],[127.1174322004939,37.3976501006014],[127.1174321995525,37.3976501003419]]],[[[127.1268806982692,37.6424588004523],[127.12688069891131,37.6424587994938],[127.1268807003044,37.6424588001906],[127.1268806982692,37.6424588004523]]],[[[127.1471378996801,37.4739123998515],[127.1471379001634,37.473912399991605],[127.1471426998861,37.4740054001673],[127.1471378996801,37.4739123998515]]],[[[126.9608193996508,37.5665968997375],[126.9608194001272,37.566596899985804],[126.9608193999103,37.5665969006444],[126.9608193996508,37.5665968997375]]],[[[126.9747625997536,37.556120600131],[126.9747625999319,37.5561205997033],[126.9747626000716,37.556120600027],[126.9747625997536,37.556120600131]]],[[[126.9771881998872,37.535333200038295],[126.97719090000389,37.5352939999588],[126.9771882003603,37.535333199972094],[126.9771881998872,37.535333200038295]]],[[[126.986815699874,37.5175976996789],[126.9868157013067,37.5175976996544],[126.98681569972929,37.5175977002853],[126.986815699874,37.5175976996789]]],[[[126.9984987993353,37.5410528003742],[126.99849880020419,37.541052799101706],[126.99849880071389,37.5410528009782],[126.9984987993353,37.5410528003742]]],[[[127.03010059947209,37.5414836011498],[127.030100599865,37.5414835999002],[127.0301006017568,37.5414836001824],[127.03010059947209,37.5414836011498]]],[[[127.06857549984369,37.5788024000258],[127.068575500411,37.5788023998918],[127.06854919998041,37.578831900359],[127.06857549984369,37.5788024000258]]],[[[127.1075719995823,37.4987044996655],[127.107572000231,37.4987045004113],[127.1075719995073,37.4987045003514],[127.1075719995823,37.4987044996655]]],[[[127.1137129991322,37.6361084011781],[127.11371300043861,37.636108399448794],[127.11371300047941,37.6361084014789],[127.1137129991322,37.6361084011781]]],[[[127.1239419995771,37.4157937998458],[127.1239420002413,37.415793799936004],[127.1239420001741,37.415793800377706],[127.1239419995771,37.4157937998458]]],[[[126.9750161994844,37.5376608001317],[126.9750162000294,37.5376607995006],[126.97501620022899,37.5376608002776],[126.9750161994844,37.5376608001317]]],[[[126.9768291999039,37.5758687000016],[126.9768292000978,37.5758686999975],[126.9768292000062,37.5758687001075],[126.9768291999039,37.5758687000016]]],[[[126.99468039922519,37.5297115998923],[126.9946804004851,37.5297115997634],[126.9946803999879,37.5297116004948],[126.99468039922519,37.5297115998923]]],[[[126.9974917998023,37.5409637000491],[126.99749180020821,37.5409636994644],[126.99749180030621,37.5409637002044],[126.9974917998023,37.5409637000491]]],[[[127.01245129957009,37.5811895998777],[127.0124512999839,37.5811895995621],[127.012451300124,37.5811896001842],[127.01245129957009,37.5811895998777]]],[[[127.0134493996371,37.6026636999162],[127.0134494006407,37.6026637001019],[127.01344940007999,37.6026637005899],[127.0134493996371,37.6026636999162]]],[[[127.15029249988001,37.5656860998364],[127.15029250022391,37.5656861000777],[127.1502924996453,37.565686100239404],[127.15029249988001,37.5656860998364]]],[[[127.1685584998684,37.5632462998997],[127.1685585001691,37.563246299861],[127.16855850021031,37.5632463001251],[127.1685584998684,37.5632462998997]]],[[[126.9994072997938,37.5260703999852],[126.9994073003206,37.5260703996748],[126.99940730003121,37.5260704002615],[126.9994072997938,37.5260703999852]]],[[[127.06231239991159,37.6560754999829],[127.06231240002569,37.6560755000033],[127.0623123999816,37.6560755000565],[127.06231239991159,37.6560754999829]]],[[[127.1354868997479,37.4133875003005],[127.1354868993196,37.4133875003141],[127.1354868999922,37.4133874995948],[127.1354868997479,37.4133875003005]]],[[[126.9858114997128,37.5567980998894],[126.9858115000761,37.556798099886905],[126.9858115001332,37.5567981003704],[126.9858114997128,37.5567980998894]]]]}}]}