{"type":"FeatureCollection","features":[{"type":"Feature","properties":{"interval":15,"stationId":"6039313057"},"geometry":{"type":"MultiPolygon","coordinates":[[[[127.1408391994331,37.4950248007376],[127.1418425997324,37.4928075994383],[127.1434885987385,37.4919571998906],[127.1425036996775,37.4904200980255],[127.1434240999115,37.4895560992367],[127.1449736989263,37.4897232996891],[127.144045999673,37.4891698998978],[127.1443865984703,37.48842609935],[127.14640439984929,37.488653199573],[127.14698820033949,37.4871736995133],[127.1489699991951,37.488397498576],[127.14938559995541,37.4872090996567],[127.1504299992802,37.488016798896794],[127.1516277997059,37.486888799842504],[127.1537658003575,37.4871126997433],[127.1550888001079,37.4892445982811],[127.15680169917461,37.487427400814],[127.15623640003629,37.487037999950395],[127.15967760022359,37.4869323994134],[127.161890702497,37.489992799975106],[127.1602121022444,37.4921090002616],[127.16199500102981,37.4930066005402],[127.1607413022835,37.4938768996699],[127.1604824025424,37.4950988984479],[127.1616827040794,37.4975238977639],[127.16111320066601,37.5004379991729],[127.15894580053539,37.5018604001532],[127.15931609925259,37.5031069017463],[127.15794729985791,37.502517100449296],[127.15754869896001,37.5030000007037],[127.1569915995171,37.5022296014741],[127.15572120052751,37.503314101016194],[127.1546918002227,37.5018166011143],[127.153893399797,37.5025971007545],[127.1529061983817,37.5015796022621],[127.15116469899709,37.5014259020709],[127.14932469974809,37.502836601443505],[127.1484228988779,37.5019430020488],[127.1470601992578,37.5019754016981],[127.1471424994595,37.5011455007929],[127.1422519996401,37.501020401011104],[127.1433154991559,37.499370800926805],[127.14194229931239,37.499232499787],[127.1428241992601,37.497955700206695],[127.141739999637,37.4963471000108],[127.1425479991511,37.4953217003985],[127.1416124995763,37.4943274009227],[127.1408391994331,37.4950248007376]]]]}},{"type":"Feature","properties":{"interval":30,"stationId":"6039313057"},"geometry":{"type":"MultiPolygon","coordinates":[[[[127.11048769946059,37.5013020002172],[127.110790299567,37.499896599517896],[127.112251399203,37.4992980996537],[127.11153069976301,37.498830399713306],[127.1126826994646,37.498829099640105],[127.1122092998053,37.4970693997834],[127.11370459941591,37.4969961990816],[127.1145764987735,37.496011499609004],[127.1136171988547,37.4950881996351],[127.1133927974471,37.4928467992332],[127.1111316997082,37.491486600593404],[127.1119469979607,37.489798498638],[127.1135979991515,37.4910371975037],[127.118450199054,37.4875731979779],[127.119119801226,37.4888459998685],[127.1180484008302,37.4888279025079],[127.11701240186619,37.491139800196],[127.117475601403,37.4921785991572],[127.1195236993549,37.4916595996762],[127.1212881002578,37.48810949953],[127.12412740013731,37.491317499094],[127.1253893990621,37.4904265990525],[127.1262440000563,37.4915184993625],[127.1269529994986,37.4904133997236],[127.1288677002139,37.491127299630605],[127.1301565997679,37.4907477998184],[127.1299147001584,37.4901584995281],[127.1304727004347,37.49100029957631],[127.13193059950271,37.4900428002275],[127.1309249989916,37.488395100885995],[127.1314388001824,37.4880560991323],[127.1328316002886,37.4887778991382],[127.1356960995335,37.4881779993368],[127.13559199977941,37.4864199002048],[127.1346894003181,37.4858330004048],[127.1345050002335,37.4865804001908],[127.13377249953041,37.4864274996947],[127.1367055988116,37.4855868000525],[127.13636939878121,37.483559100282],[127.1385214994438,37.4794134996613],[127.1398262001683,37.4797487995962],[127.1415639997811,37.478106799633196],[127.14387099955161,37.4800132994472],[127.1443518001377,37.4789166997896],[127.1445145001272,37.4795126991915],[127.14677929989351,37.4794676997165],[127.1470943995784,37.478309200874996],[127.1460772996882,37.4779951001251],[127.1472045003776,37.4769811995113],[127.14782290066279,37.4781371993998],[127.1490072007039,37.477817899501396],[127.14906690020169,37.4787855993385],[127.15126879937979,37.4803370972211],[127.1519413006291,37.4798239973106],[127.1495365017413,37.483066698738604],[127.1518790993987,37.4845456972596],[127.15675089699721,37.4843326970879],[127.1591741003926,37.4830530979871],[127.1677512012006,37.4847620960337],[127.1701544051539,37.4825208969041],[127.16835660759949,37.4860355990904],[127.170578204737,37.4897826996812],[127.1737121016031,37.4906016988622],[127.1709570990284,37.493165902372404],[127.1701034992707,37.4896550031022],[127.1630248027373,37.493546801741],[127.16111810464399,37.4964304988573],[127.1641657019353,37.500151199787695],[127.16345820258829,37.5018966982554],[127.1652032008433,37.503649096503],[127.16798489965929,37.503979295872895],[127.16957680183741,37.5026495955767],[127.1705216013715,37.5061615985048],[127.1684700011086,37.5063641006579],[127.1682739002554,37.5072640003619],[127.1643164007815,37.507019502521096],[127.1636113014866,37.5088793006613],[127.1645819016033,37.5109600019439],[127.16393400010159,37.5128147001342],[127.1623116989853,37.5107218021942],[127.1598728014242,37.510260002656004],[127.15658779919809,37.5111354020071],[127.154914500095,37.5126110002232],[127.1518304998561,37.5099649012679],[127.1507948005204,37.5109537010713],[127.1492969000438,37.510142801129],[127.14854919980411,37.5108386008256],[127.14948439933181,37.5096116002269],[127.1489675998486,37.5083453014932],[127.1469698986342,37.5079336018594],[127.1472341990229,37.5049671028828],[127.1448939990447,37.5049716012226],[127.14269270124599,37.5075624986317],[127.1435395009151,37.5081444007832],[127.1413376016023,37.5078070014531],[127.1410887003962,37.5103790009525],[127.1394263975655,37.507302302464396],[127.1368226001693,37.5083799013868],[127.1368342001577,37.509673700093],[127.1326886002442,37.5091964010494],[127.12990690034779,37.511416900111904],[127.1304322998224,37.512104799424],[127.1307547006395,37.5113372994811],[127.1323419000869,37.5115364998181],[127.1318030007247,37.5121960998007],[127.1324800000477,37.5125964994003],[127.1337831001071,37.511821799477],[127.13671990133591,37.5139217991919],[127.1368184010807,37.5146296006496],[127.1362062996961,37.5142114009904],[127.1353186005838,37.5151442000576],[127.1362204009313,37.516744000322305],[127.134149602528,37.517654600321],[127.1335493031817,37.5201137991674],[127.1347287021059,37.520887298512],[127.13389840005911,37.5215247001618],[127.13292749964559,37.5197085005299],[127.1312207007875,37.5196582005548],[127.1299184995864,37.5207933027647],[127.130230398639,37.5195366010941],[127.12869929964059,37.519035101270006],[127.128137700137,37.5199028005474],[127.1264573984473,37.518807100385494],[127.124806898453,37.5158135019624],[127.125940699143,37.5158454988283],[127.126206698877,37.5148783997954],[127.12544819973459,37.5127624011378],[127.1247541004287,37.5124579014423],[127.1230320997889,37.5137065003431],[127.12196809977951,37.511959801583],[127.1203701996882,37.5124100017546],[127.11968370005799,37.5112267014331],[127.1177228995669,37.5120105010657],[127.1188112992787,37.5111642988457],[127.11875229949659,37.509736299187],[127.1197581988937,37.5093402994232],[127.11959669905521,37.5076758010877],[127.1185825991399,37.5069371998048],[127.1200034982931,37.5064146000921],[127.11994219822449,37.5051534986206],[127.1207351998948,37.50546769931319],[127.1217223006243,37.5043884994434],[127.12340859959001,37.504974699477096],[127.1217495994017,37.501726700887396],[127.1210298977223,37.5018663996286],[127.1206875984612,37.4995407007249],[127.1194334993924,37.499506000504994],[127.11865319981,37.49583730067],[127.1156287007924,37.495843200781806],[127.1142907005142,37.4983851006138],[127.1124896002599,37.4990237001688],[127.1124103017791,37.501363000979396],[127.11048769946059,37.5013020002172]]],[[[127.1309229996396,37.5291078000986],[127.13204429893861,37.5287945995918],[127.13205289937301,37.52730300020411],[127.13390719960769,37.5256449989146],[127.1348252996849,37.523493799688694],[127.13562160110149,37.525477497736304],[127.137675502195,37.524922598096396],[127.1392775008659,37.528031696672],[127.1405704003036,37.5277550010061],[127.1374711003795,37.5317191003657],[127.1372000997613,37.5310032009266],[127.13437690026771,37.5306682009433],[127.13395139889771,37.5295270009314],[127.13259120025789,37.5299130005454],[127.1309229996396,37.5291078000986]]],[[[127.0983423985313,37.4883754024993],[127.0994094981607,37.4866706008999],[127.09779919980839,37.485399399858],[127.09945580021841,37.4855932993976],[127.1017492001294,37.4845453974831],[127.10447000004561,37.4855499991216],[127.1038082006113,37.4854726007448],[127.1037707006488,37.486463899753495],[127.1053647995121,37.4882958979115],[127.1058681009951,37.4864092999864],[127.1065546004664,37.4886876998749],[127.1053470991215,37.4894077012521],[127.103345601123,37.488850801809],[127.1010809000565,37.4909016007137],[127.1014285991739,37.4901459001058],[127.0991151977585,37.4894768013979],[127.0983423985313,37.4883754024993]]],[[[127.1057150993413,37.5044880992352],[127.1061567004899,37.505042199512395],[127.1081872996465,37.5043097995364],[127.1076635005829,37.504857799942805],[127.10830690133851,37.505272000486094],[127.1057580000101,37.506678400484596],[127.1064452995588,37.5059001998756],[127.1057150993413,37.5044880992352]]],[[[127.1299833991009,37.5365301004623],[127.1304405992512,37.535960300326096],[127.1298412999675,37.5354254994929],[127.1317276996959,37.533886598739],[127.1356756008068,37.5349167995514],[127.1325271998848,37.5357257003006],[127.1314999999188,37.535083401152],[127.13112190029689,37.536153500081895],[127.1299833991009,37.5365301004623]]],[[[127.12212409786,37.486175298862],[127.1230728995686,37.4846053989239],[127.1242661005047,37.4859023994914],[127.1219960998153,37.4872203004147],[127.12212409786,37.486175298862]]],[[[127.1223494995544,37.5388936004005],[127.12308119967891,37.5374688991114],[127.12347360048359,37.538544799705996],[127.12439280046229,37.5382721000456],[127.12355699941361,37.539534300464396],[127.1223494995544,37.5388936004005]]],[[[127.0828378981149,37.4838073986008],[127.0841023988481,37.4822397001857],[127.0830176984303,37.4821069992135],[127.0841023990321,37.4822396993131],[127.0842864028462,37.481388799151496],[127.08505800046531,37.484371100637],[127.0828378981149,37.4838073986008]]],[[[127.0793451988731,37.493696100894304],[127.0797596010448,37.4936147004435],[127.0796114995074,37.4938224009431],[127.0793451988731,37.493696100894304]]],[[[127.1259387997726,37.4791514001778],[127.126227200855,37.4788791998226],[127.1261907000136,37.4792354002513],[127.1259387997726,37.4791514001778]]],[[[127.1479433987881,37.5276918010097],[127.1481089024056,37.5276450992163],[127.1481089007909,37.5276451024124],[127.1479433987881,37.5276918010097]]]]}},{"type":"Feature","properties":{"interval":60,"stationId":"6039313057"},"geometry":{"type":"MultiPolygon","coordinates":[[[[126.9765217991852,37.4835506997416],[126.98040979968721,37.4812059994089],[126.9823864001974,37.4813702991898],[126.9827663013335,37.4839262987586],[126.9842397005762,37.483891898780605],[126.9885969982016,37.4861539973969],[126.99121019883779,37.4839708980901],[126.9919109000291,37.4842520985879],[126.99291649902351,37.4826924001476],[126.9919583992699,37.481403901143096],[126.9920967988717,37.480108100887605],[126.99093000012351,37.4792999970446],[126.995468798221,37.4793514973263],[126.9982423992022,37.477117896551306],[127.00072569944871,37.4767493988028],[127.00118670142531,37.4783339000992],[127.0041698996875,37.479341399609204],[127.00412329947531,37.478548799242],[127.0057285986997,37.4787053994417],[127.0059753984529,37.4769153012318],[127.004555999454,37.476498797926304],[127.00637859940531,37.4759685956403],[127.0062831013338,37.477060299513],[127.008059399611,37.477650498944],[127.0112308990526,37.474619599585296],[127.0139371975855,37.4762501976259],[127.01641189792589,37.4751301978561],[127.0167723004517,37.4738980979712],[127.01792210558311,37.476366699808096],[127.0240335019735,37.4804233990405],[127.02520719991699,37.483181199402594],[127.0271905001229,37.4837784995985],[127.0287000986133,37.482525000852],[127.0277160990599,37.4796662996893],[127.0289437983101,37.4785731004763],[127.0288143990059,37.47677139952879],[127.0299042985437,37.4753542006888],[127.0298037979687,37.4736581996256],[127.02826309977391,37.472430299863696],[127.0300735002328,37.4725245990064],[127.0312715995992,37.473480198812794],[127.0325711986933,37.4717301998266],[127.03152709896901,37.4707033000646],[127.0318766996111,37.4699014994462],[127.0339906989079,37.4708858984357],[127.0331060993853,37.46917059994],[127.0337788987125,37.467983201127396],[127.03204429976519,37.466937099919804],[127.03400839849701,37.4655859997727],[127.0348811995107,37.463636898873794],[127.0365577997531,37.465863998436305],[127.0393774998328,37.463329199390394],[127.0434919005153,37.4650151977059],[127.0455717996394,37.462918099179504],[127.04608060059249,37.4632171996356],[127.0456829017922,37.4646264996201],[127.0476902002444,37.4708433004755],[127.0470730008616,37.4720533992654],[127.0479580004164,37.4726012990012],[127.0487281004529,37.471830698965796],[127.0498393001244,37.4725550987665],[127.05080650007699,37.4717625997011],[127.0498393012072,37.472555099529],[127.0556095988822,37.474051297083],[127.0579102989537,37.4753901981868],[127.0592232004097,37.4732135989918],[127.06394429700751,37.475339196816],[127.065538795413,37.4740486981065],[127.0662643997774,37.4754072978005],[127.0688779971638,37.47419699901079],[127.0681296979121,37.4712160019918],[127.0666011994406,37.470703802504005],[127.0671197993271,37.4702604976818],[127.07069539954071,37.4721506964607],[127.0722517032079,37.4719977973541],[127.077111598348,37.4750565942953],[127.0798557979429,37.4747412935878],[127.08454369452289,37.4727825945993],[127.08647759970529,37.4709390986701],[127.0865052017244,37.475355996908796],[127.088619700449,37.4759171965051],[127.09343659845841,37.4730852997077],[127.0916678000316,37.472048300236],[127.09020940046331,37.472551600370004],[127.0899804995786,37.4710114004032],[127.08852419920309,37.4707123003434],[127.0900932992959,37.469787000335394],[127.0878843982985,37.469683099926094],[127.090420796136,37.4670207992167],[127.0917744010479,37.4697222983984],[127.0931807996415,37.4707661973545],[127.0958591982944,37.468518798831596],[127.0979553994002,37.4682561996293],[127.0972465992037,37.467049798907595],[127.09934920014521,37.4657467995805],[127.1036707992923,37.4650178991089],[127.1058090979246,37.4637289996111],[127.1052814990183,37.4630795978856],[127.10767369953061,37.4620744978508],[127.1089652022979,37.4622800989042],[127.1102593010038,37.463746197438105],[127.1116126996504,37.46375719742711],[127.11339370003171,37.4621373986416],[127.11579469763069,37.462988797790196],[127.1173853960301,37.462511298083],[127.1194199939955,37.4589331016612],[127.11793829236521,37.4561133988949],[127.1187645992059,37.453919397856595],[127.1200480018573,37.4582874970828],[127.1241496977556,37.4591378962324],[127.12430429831561,37.4524706009787],[127.12359169902821,37.451786301663],[127.1223629995423,37.4533254020449],[127.1210428994371,37.451835200522],[127.1222746985226,37.4506542005836],[127.1203435986624,37.4491017007648],[127.12076499921501,37.4443960044258],[127.11874848974139,37.446592300881896],[127.1182555892726,37.4429702981292],[127.1198030976263,37.4360436012675],[127.119091398338,37.4340937032174],[127.1170416999161,37.4321976000044],[127.11838789836911,37.430279699088],[127.1165800990912,37.4279293007447],[127.1189541001443,37.430100998789904],[127.1197588992946,37.426877600960395],[127.1189865004181,37.4262661990876],[127.1215972016707,37.4296484979129],[127.1229968001545,37.4295440999469],[127.1221095012924,37.4299375005641],[127.1225781008238,37.4317993987022],[127.1241473992545,37.4313582991433],[127.12387869938121,37.4294939003455],[127.12563399827671,37.4253608005712],[127.1250384984761,37.4241083012683],[127.1237496990979,37.423616598033],[127.1249030998662,37.423531398269205],[127.12529089947479,37.4215321001672],[127.1244019982317,37.4210844991481],[127.12436719829279,37.4188987007183],[127.1234331992268,37.4176187019983],[127.11944629772631,37.4149072031083],[127.11991189783261,37.4126416002848],[127.1180839996605,37.4105129024135],[127.1175391997099,37.40818580251],[127.11478389931851,37.4093454006451],[127.1128870986357,37.4062525011811],[127.1104144001183,37.405108201884],[127.10967069805659,37.403210900190295],[127.1077295987315,37.4028986003155],[127.1077302987308,37.4016738015403],[127.1054701996437,37.401509501135905],[127.1046535999378,37.3998395017764],[127.1036950000027,37.3998460010748],[127.10414659936791,37.3993259995908],[127.10324589836681,37.398142299754404],[127.103573499999,37.397089799662204],[127.1042141996919,37.397783499033004],[127.1049576992335,37.3970742994376],[127.1049257996392,37.395816599108],[127.1065635998457,37.3957156999334],[127.10347149902199,37.392445199149094],[127.1045469000192,37.3924793993992],[127.1046313004192,37.393754799349104],[127.1056874994643,37.3938920991082],[127.1086226981551,37.392589401085296],[127.1084040998217,37.3869651997249],[127.108988700488,37.3873219993893],[127.10860940063671,37.3880152995059],[127.1100501991959,37.3885514989697],[127.1113577982101,37.3874450993898],[127.11100109687169,37.381212901800204],[127.1115243011679,37.383642599326],[127.11285219984,37.3835054994631],[127.11434129829331,37.3802563003345],[127.1130298996047,37.3795980009928],[127.1115999998387,37.380915800188],[127.1108021002709,37.3795226009561],[127.1083672988628,37.3789218007602],[127.109895598211,37.3770445993751],[127.109592598514,37.3751822012375],[127.1081334999782,37.3751821984175],[127.1097846001443,37.3733618986727],[127.11193899983991,37.375425798434705],[127.11318539918301,37.374778399196494],[127.1133781994696,37.3737811991257],[127.11580190010349,37.3742343990263],[127.1170337002142,37.373359099661805],[127.1164504006839,37.3738794996325],[127.1176930001822,37.373959999423796],[127.1178985999742,37.374882599445996],[127.11898099985251,37.3735471990611],[127.1200942006216,37.3739911002694],[127.119361600233,37.3751898994972],[127.12074579997,37.3749393993211],[127.1199094004235,37.3773648997807],[127.1206022004197,37.3773798004129],[127.119580901441,37.3783970993956],[127.1207000009855,37.3805154992302],[127.1227170001895,37.3797034990339],[127.1246044002822,37.381769898970504],[127.1253899006954,37.3810914000366],[127.1246398000277,37.381995400142],[127.1233933994486,37.3803617012096],[127.12231420052781,37.380758500812796],[127.12174640147151,37.3824814000924],[127.1231466000713,37.3841166984571],[127.1239045003659,37.383428699355505],[127.1235134000705,37.3843791998109],[127.1249955004223,37.3842788995564],[127.1263484994775,37.3858753984788],[127.1271747011767,37.385798899437795],[127.1282745012785,37.3882299972705],[127.13186830038859,37.3901580959805],[127.13717650038849,37.3900484991478],[127.13605710065501,37.390408900880495],[127.13575210096,37.3919847993046],[127.1378657006457,37.3917357002272],[127.1356735012195,37.3922861011459],[127.1336222032708,37.3942331991988],[127.13571970072499,37.396202199396896],[127.1356124005005,37.397224999087996],[127.1364450002498,37.396765799727596],[127.1365502009513,37.3994199001467],[127.13570610252809,37.401090503850604],[127.1345743003856,37.4005322031421],[127.1322664026935,37.403553200121095],[127.1310627016696,37.4035408008694],[127.13106350166879,37.4053523990578],[127.1324410002913,37.406814497595704],[127.1350048001125,37.4045655991224],[127.1353599011089,37.4062204989511],[127.1378861002605,37.4069242996452],[127.1381101008489,37.408047099398594],[127.1392210997379,37.4084605989851],[127.13907580045161,37.409665799159],[127.1403119003026,37.409388299964],[127.1389328004809,37.4113626002463],[127.1391088003049,37.4121937994151],[127.1397619005223,37.4117222998911],[127.14010230045939,37.4139866004323],[127.1378698009773,37.4156907017689],[127.1373578029402,37.4178439006343],[127.1381632023943,37.4250912998737],[127.1403684001891,37.4268717980932],[127.1460442005022,37.4271701997276],[127.14737930074399,37.428921599451705],[127.1475552007401,37.431964698464505],[127.1502738987185,37.433287397308995],[127.15126050090991,37.4310349998549],[127.1509590008113,37.4334711999039],[127.1560316004209,37.4395376968569],[127.1582252982272,37.437928598466],[127.15829319861841,37.434931798185],[127.1591761982802,37.4333548992174],[127.157722400987,37.4323725985171],[127.160496400921,37.4322648983957],[127.1604526003372,37.4333246994861],[127.16198440010979,37.433678099113],[127.1625234988939,37.4329028977577],[127.1647851002887,37.433323499612904],[127.16591940055521,37.4341552995571],[127.1659529007014,37.435133199637804],[127.1691991029908,37.437156999527296],[127.1679644045491,37.439095400578296],[127.1715192016112,37.441289800786],[127.1694334016796,37.445750698981996],[127.1696340015685,37.447212197797306],[127.1729228021384,37.4473401984036],[127.17583670310471,37.4525241021516],[127.17248700312311,37.455481999334204],[127.173472404498,37.4579290990504],[127.1712874006858,37.460533400267906],[127.1721038004564,37.4616192993891],[127.1705684014062,37.4645937999938],[127.17405820190861,37.4656071979149],[127.17511070257811,37.4681502990591],[127.1816500960387,37.4695232976861],[127.1819770038603,37.466235597665495],[127.181852303985,37.4684095954915],[127.1851212043629,37.4712295967489],[127.1878816016025,37.4717206962578],[127.1870416033444,37.473391398679695],[127.1907385996474,37.4757467963243],[127.1936080000279,37.474167399455496],[127.1909477030103,37.4756298988642],[127.19068420524091,37.4779888999472],[127.1938299020952,37.4805787973573],[127.19578580013929,37.47962609831],[127.19780350206581,37.4797126006511],[127.1951740981463,37.4807023060119],[127.191618401702,37.480682806031396],[127.1857542075662,37.4826698040444],[127.1901856999435,37.4901565016459],[127.18954649521551,37.488859300506505],[127.1856270991349,37.4866704026954],[127.1836468011152,37.4838823054835],[127.17894670581529,37.4846897046761],[127.1763611084009,37.488947400418404],[127.17609020867181,37.4962394931263],[127.18609140173389,37.4972364003134],[127.1805920074608,37.5074875972232],[127.1810737041735,37.5123801047794],[127.1762071062399,37.516017004163395],[127.1783598040872,37.5206211995592],[127.1820223037,37.5218219993103],[127.1814842042181,37.5251919001479],[127.1799129970265,37.523657504744],[127.1752209017186,37.524909503492],[127.1736967007313,37.528763301546505],[127.1740804992197,37.527600801066605],[127.17292139923761,37.5270747999898],[127.1687327034263,37.5267579003067],[127.16877570334479,37.528367800030196],[127.1707583013622,37.529746998651],[127.1686918003098,37.5307723017536],[127.1689079000937,37.5324503000756],[127.1676633004995,37.533275600788805],[127.1670085999952,37.5322600006325],[127.16417889970019,37.5317465999061],[127.1652499988319,37.5314027001587],[127.16547839828469,37.530014900899296],[127.16438649866451,37.528816198891604],[127.1659082981587,37.527271998679105],[127.1651072989043,37.524639000185],[127.1664628988158,37.5240566999924],[127.1660599991512,37.5231086003767],[127.1712883013233,37.5221416984693],[127.1730978995137,37.5225687980422],[127.1759082990044,37.5209747997854],[127.173954298633,37.517845400335496],[127.1749821992553,37.5184684981611],[127.1762070981271,37.5160170003297],[127.1715304028038,37.5157118006349],[127.17199750224,37.517019299610304],[127.1712629994325,37.5167223014721],[127.1714244982841,37.516114900839995],[127.16998139817319,37.515077499417096],[127.1716818988086,37.5141788003569],[127.1712846998736,37.5121836997197],[127.17991769148331,37.5118598985587],[127.1805919916322,37.5074875971874],[127.17526619695799,37.499799504875504],[127.1695609023322,37.5029751016913],[127.1705995016247,37.5061727985022],[127.1688857019047,37.5082289020735],[127.1677704989651,37.5073174012374],[127.1644958014691,37.5069563020679],[127.16509790086701,37.5095405994836],[127.16708270035579,37.511986800030705],[127.16551870066651,37.5107376021663],[127.1645819016033,37.5109600019439],[127.16403560214961,37.512948899955],[127.1671854012639,37.514772401169296],[127.1616733030289,37.5203337022716],[127.1631596009074,37.5260797998713],[127.1626646002716,37.5255086012705],[127.160943201993,37.525992700786404],[127.1622442009295,37.5278864005579],[127.1605312012449,37.5270211012282],[127.1609113008648,37.5296221986271],[127.1593668017382,37.5328886983121],[127.1637048001743,37.5318569997957],[127.16261870190439,37.5321434006174],[127.1615047020582,37.536040798977204],[127.1628874026655,37.537016299744295],[127.1633478009813,37.5392130989448],[127.16498330423221,37.541355899605996],[127.1628879002379,37.5427230004249],[127.1601879011168,37.5415439013252],[127.15744890385581,37.5459042969648],[127.1599975013072,37.546247196621906],[127.16073610189069,37.5482798986828],[127.1618780007488,37.5489184980442],[127.1634111001571,37.5476452988861],[127.1649343993116,37.5480859985284],[127.1659431984129,37.544100900653696],[127.1669009011444,37.544108398012],[127.16801820097321,37.54465740023],[127.1681053008861,37.545697499189906],[127.17077470066519,37.545975999420506],[127.1720064997992,37.5483011991263],[127.17431090003049,37.5489922996874],[127.17374340032981,37.5510762995862],[127.17492369969689,37.551744398877695],[127.176081700734,37.5507716991605],[127.1771192003719,37.5517864991089],[127.1732511021145,37.556199399994],[127.17443930092631,37.557203198990194],[127.1766339987316,37.5570014991919],[127.17799479990829,37.553917998754],[127.1782297007836,37.5546664990402],[127.17934889966439,37.5546617990449],[127.1806180991388,37.55222650063531],[127.1785586991979,37.5522603997929],[127.1799057993994,37.550546999573],[127.18098839965471,37.5513180992451],[127.1829676004913,37.5509908000735],[127.1818696017282,37.5526365997978],[127.1839988003059,37.5528931999802],[127.1867252005703,37.5579280984958],[127.1880692993493,37.5570083994668],[127.18769329972531,37.5563875000877],[127.1907948000354,37.5550712999131],[127.19154830012869,37.555747399363504],[127.1918834001511,37.5551178992278],[127.1941868000654,37.5555580986721],[127.1961670000769,37.5546874995324],[127.1965341991646,37.5530920981313],[127.1981571976403,37.5518427989628],[127.1978081985756,37.5492430007777],[127.1962521973284,37.5485269004469],[127.1984780981019,37.548215799483],[127.1982414993871,37.5466968999265],[127.1998497003412,37.5476267996397],[127.1989255008816,37.548536899567104],[127.1995619002452,37.5493701987338],[127.2013664984406,37.548930599173396],[127.200143099612,37.544813000435],[127.2007300990506,37.5419070005063],[127.1998894996031,37.5416236001142],[127.2008796995175,37.5411359995483],[127.2011056998225,37.5394700998366],[127.2016834996178,37.5397627994172],[127.2013986995721,37.5390451995398],[127.20243099981461,37.5381722996436],[127.2038327992504,37.5383066992856],[127.2030304997492,37.5372258995268],[127.2057564000161,37.5366385997844],[127.2079466005072,37.5378299991988],[127.2099759996455,37.537518399538],[127.21300130029161,37.5385056996506],[127.2123224007327,37.540753999529],[127.21315800053601,37.5425113002821],[127.212613500255,37.5437420004573],[127.21111050090191,37.543580200641],[127.2103169012477,37.5447382004784],[127.2106731001236,37.5466276001305],[127.2071278994931,37.5458559008501],[127.2056685005903,37.5471666996626],[127.2072624003313,37.5474009997533],[127.2090055000469,37.5492762998432],[127.2095468988811,37.548178700277404],[127.2090286999519,37.5470907993609],[127.2109278000642,37.548740599298604],[127.21227309986331,37.548411199601595],[127.2125339001142,37.5497564004823],[127.2114325007563,37.5505847998133],[127.2122667002458,37.5512546017193],[127.2103739012629,37.5530588999722],[127.21057220097791,37.5541194000744],[127.2054366003942,37.558575500712],[127.2041261000152,37.5582052010822],[127.2035254999696,37.5588195002512],[127.20276599967829,37.557011600487506],[127.2015457998515,37.5576610002908],[127.1998407001241,37.5567973999639],[127.2000451999927,37.5590847984497],[127.2014556002793,37.5583453997472],[127.2019863014599,37.5616615007663],[127.20017210098041,37.5636189000974],[127.2005655012277,37.564685102183496],[127.1995678005592,37.5644469003195],[127.1983076002935,37.566262299885196],[127.1982517014781,37.567888400597404],[127.199493200187,37.5692509001967],[127.1986460005059,37.568612300561],[127.19654130049621,37.570040901188605],[127.1956871002055,37.5687832005096],[127.1950024008902,37.5698376994551],[127.19583540038201,37.570151100032895],[127.19449570015941,37.5701854002801],[127.1940877999551,37.5709440001824],[127.1929231999162,37.569792300851105],[127.19141329969969,37.5718018005915],[127.1893331003468,37.5722710011417],[127.18775459964951,37.5721584001442],[127.1881252995246,37.5715728002156],[127.1861111995424,37.5694266000214],[127.186879099297,37.5689357999538],[127.18652299965309,37.5682288006608],[127.1837552996702,37.5669125001475],[127.1856847998021,37.5654272990874],[127.18597459941759,37.5634401005127],[127.1847328991876,37.5620665010685],[127.18367040004989,37.562961300576795],[127.1823138990636,37.561825300734505],[127.1802609011166,37.5614845010753],[127.1801966011809,37.5629312996285],[127.1819287000807,37.5645221001082],[127.17984530022089,37.5642036007921],[127.17754329985189,37.566168100683896],[127.1781711982904,37.564873399056204],[127.1759871997086,37.5616541018213],[127.1737801019157,37.563789499685896],[127.1751319007745,37.565052300327],[127.1729397005497,37.5648821007723],[127.1723972995041,37.565544201520694],[127.1694480010275,37.563786201366206],[127.1658745007128,37.5654776015919],[127.16710699862111,37.565048100167395],[127.167336098392,37.5637463014692],[127.16631149941661,37.5626990025165],[127.1624150020416,37.563009702967705],[127.1616238028328,37.5656772003002],[127.16260300185361,37.5666772993001],[127.16162379977371,37.565677201769404],[127.1600453013522,37.5668358006108],[127.15899850051339,37.566383801197595],[127.1579537001785,37.567854101421396],[127.15845419851689,37.5671460002753],[127.1567722987624,37.565393801138704],[127.1569408995552,37.5632284009056],[127.15644050005561,37.562913301220696],[127.15571299806071,37.5639192011354],[127.1547888989848,37.5627120023426],[127.1519815994577,37.5620344030392],[127.1485801006775,37.5640752011092],[127.1484019000982,37.565606200279795],[127.147317001228,37.5663045003535],[127.1430426026123,37.5628965036991],[127.1420378036171,37.565387801207805],[127.1406085992154,37.564921600538895],[127.1388127010497,37.5625559016981],[127.13928580053819,37.5649683004922],[127.1375753996325,37.563403901418894],[127.1364721007358,37.563761701061104],[127.1366451999655,37.5653160004534],[127.1351442998794,37.5652602003222],[127.1355932991777,37.5648793001362],[127.13443880033219,37.5640863009292],[127.1343958997858,37.5648111002696],[127.1336670000817,37.5637441010139],[127.13148010027541,37.5634192011671],[127.129974599073,37.5605793013085],[127.1291106999369,37.560386801501004],[127.12767809306139,37.5615666047691],[127.12390139518689,37.556838308906705],[127.11510870397959,37.5613228044222],[127.115034600237,37.5634230007262],[127.1147360989551,37.5609999014968],[127.1102874998759,37.5587781020442],[127.1035778008448,37.5620172015488],[127.0969278049465,37.5635443999243],[127.0959913025321,37.5768064956804],[127.097433003962,37.5789490972558],[127.1003506010444,37.579637296567604],[127.1025279004992,37.5789279000049],[127.1012169014236,37.5792462004744],[127.099482200973,37.581694401762604],[127.0965071014316,37.5826638009553],[127.09659620134249,37.5837552998638],[127.0981616002391,37.5840981999821],[127.09744700095371,37.5846691994111],[127.0980927001653,37.5872812997609],[127.10075289987401,37.5878195992979],[127.0989227008326,37.5886323002088],[127.0993280004273,37.5899296989114],[127.1010681004724,37.589326701229204],[127.0999022006264,37.5897381011696],[127.10024910027,37.5910050005293],[127.0993562008786,37.5913062003292],[127.0990405008358,37.5935412000119],[127.0980093006636,37.593116701218605],[127.0972386009607,37.593997200668596],[127.0965414005538,37.5933437010849],[127.0951055007444,37.5957106004542],[127.09672310012371,37.5968510999571],[127.0963698007712,37.5990481999474],[127.0970788002285,37.599175000049804],[127.0952327996255,37.6001552007747],[127.0923200001291,37.5992500009925],[127.0919380004341,37.6006145997521],[127.0928322001869,37.6012912000174],[127.09210610022099,37.602316000460405],[127.0898092009412,37.601064300917194],[127.0905541002415,37.6020889003323],[127.0894046009731,37.6020793002954],[127.0900725001922,37.6026290005552],[127.0888133000497,37.6021357007913],[127.0885200004076,37.6033800015293],[127.0857427012446,37.6038274007126],[127.0856569012022,37.6062527024871],[127.0817245013871,37.6072791008584],[127.0831651015483,37.608993800105],[127.0827788020444,37.611190900607],[127.0841844019789,37.6126760006969],[127.0808551005736,37.615291800463105],[127.08001880061221,37.6169717003473],[127.0816325002612,37.6195077992188],[127.08107270008391,37.6207614006902],[127.076004500486,37.6224052002105],[127.0760651009898,37.6238518001383],[127.0772858002539,37.625460099790395],[127.07651270084399,37.625734099999505],[127.0774914000641,37.627222100028995],[127.07690290014969,37.6279166003282],[127.0712392999787,37.6293490021006],[127.0703399978093,37.6287000006832],[127.0708399983406,37.6272100003605],[127.0695669981569,37.6269407988223],[127.06986649883311,37.6248491999029],[127.0709408981493,37.623726300503805],[127.0680483992328,37.6236032996782],[127.07094089892189,37.623726298331505],[127.0724682992836,37.6210183006106],[127.0721055998851,37.620252699458405],[127.07288479910589,37.6194280002831],[127.0720076981803,37.6185684003589],[127.0721315979934,37.6166111010762],[127.069974000151,37.6165934010939],[127.0693446995359,37.615754699920394],[127.0720561985396,37.6153766991903],[127.07288729973621,37.6138885995253],[127.07242879953209,37.6082673997804],[127.07417789972989,37.6073381996155],[127.07345979923569,37.6053970011613],[127.0743168992781,37.6027681002795],[127.0734520984433,37.6018178003533],[127.0740739997333,37.600939200459],[127.07109200076019,37.6011591003279],[127.0712274001778,37.6017182007745],[127.0705570994383,37.601270400337796],[127.0726305993769,37.5993757993922],[127.0721894999553,37.5984887998291],[127.0733055996522,37.5988744995477],[127.0736264994898,37.597390799639896],[127.07428780007139,37.597654499731696],[127.07502559965701,37.596977499974],[127.07455329973021,37.5965393999064],[127.07530989959619,37.5965552997016],[127.07556029954951,37.594345500232805],[127.0740366996678,37.593461499744194],[127.0768808980889,37.5924836995149],[127.0773198992982,37.591449298720704],[127.0757119990583,37.5887003993226],[127.07727149912739,37.5867363001366],[127.0745238994168,37.5861649999844],[127.0777052988174,37.5827090006144],[127.0753799993875,37.5814307012078],[127.0759959999389,37.5807611998156],[127.0755598999098,37.5799291001235],[127.07487070022721,37.579972099943696],[127.07510480001501,37.5812261000445],[127.0740814998603,37.5812068001878],[127.0746426990542,37.579891599525304],[127.0737122997745,37.5792705999182],[127.0757779000718,37.5787876990925],[127.0762581001117,37.5779671999505],[127.0757779004832,37.5787876997338],[127.0763895997722,37.579620499198],[127.07870059971461,37.5809244995686],[127.0792535993708,37.5775384001999],[127.077500999856,37.5749844013181],[127.0759861999769,37.575017800141396],[127.0745035999595,37.5733517004602],[127.0724220004684,37.5742058005097],[127.07212790000389,37.5752863000613],[127.07067529938071,37.5731072012053],[127.0692011000192,37.573802900671595],[127.0660291996861,37.5726060002584],[127.0633523013163,37.572931003094695],[127.0614376999952,37.5758030005556],[127.06110290027989,37.5751810004137],[127.06001400031589,37.5762714004569],[127.0601725992722,37.575508300384904],[127.05883610060869,37.5752344006588],[127.05859200055241,37.5775249000836],[127.0563311001941,37.578659200668],[127.05462719898149,37.5780187010077],[127.053027099834,37.5788345005521],[127.0522664999648,37.577203300785804],[127.0512689009624,37.5779398000493],[127.0518575991541,37.5786723006781],[127.05126889915739,37.5779398006784],[127.0454834015267,37.5780398009847],[127.04525890129959,37.5797103997687],[127.0474361002583,37.5803010998367],[127.0475325004433,37.582002699426894],[127.0499097005021,37.583442999606206],[127.0464213997431,37.5836451002597],[127.0466357000425,37.5814381001291],[127.04502430046449,37.5811414006142],[127.0446499997615,37.5819200007495],[127.0434821995158,37.5809159998874],[127.04407139920241,37.5804456997613],[127.04357539937459,37.579614899155104],[127.0449471988817,37.5793131997693],[127.0428390998349,37.576380900519496],[127.04025069961651,37.5758623008658],[127.03975340003639,37.5750780008172],[127.037468298949,37.5759756007566],[127.0373864989939,37.5747590012889],[127.03424149934439,37.573953299985696],[127.0347854994984,37.5739660995906],[127.0340670998002,37.572578999546195],[127.03448439938289,37.571818200307],[127.0332850998783,37.5710221006388],[127.0306342000124,37.5733740001759],[127.0305028997883,37.5719830005332],[127.0292931994622,37.57248530087659],[127.030502898805,37.5719830002175],[127.0294066999012,37.571077301123196],[127.0268708993547,37.5713194005687],[127.0256463996129,37.570452700573995],[127.0219486992421,37.5722204007361],[127.02028200053279,37.571914200979705],[127.01995960034141,37.5731648003256],[127.0172676001356,37.573591000217704],[127.01752759907359,37.5712160010468],[127.0161822000606,37.5708182007769],[127.0156272996961,37.5721625006953],[127.0149979990971,37.5702140001059],[127.01334040059811,37.569264701064],[127.0090624998674,37.5715944002846],[127.0083677993776,37.5710888998431],[127.0092786992871,37.5701277002752],[127.00772969967839,37.5682289004634],[127.0066452006605,37.5680707006213],[127.0067255989905,37.5703862006712],[127.006606299663,37.56927290032],[127.0058293998423,37.5692543998279],[127.0066190990526,37.56885660022569],[127.004470400068,37.567472402003396],[127.0036298009086,37.5675256019502],[127.00314420075499,37.569722800060404],[127.0020569006658,37.5706586003137],[126.99894020043921,37.5711877004639],[126.99760430041981,37.5731952001681],[126.9963897994524,37.5722610997536],[126.9976761990475,37.5723823995761],[126.9974602992634,37.571075300883194],[126.995385400158,37.570770600216306],[126.9952759005663,37.5720430999716],[126.9935033008221,37.572297700355],[126.9901777999382,37.5760525002346],[126.9870014997571,37.574598200511495],[126.98632429989031,37.5733271004469],[126.9854904001118,37.5735932005855],[126.9856922999618,37.571789799497296],[126.98682459930771,37.5720594994162],[126.9876388992675,37.5700999996482],[126.98948990083659,37.5696928997022],[126.99073270006569,37.5709980994113],[126.9922501990808,37.5692800999685],[126.99186899944979,37.5685019003159],[126.9870245996918,37.566769800063106],[126.9879361997447,37.5642956998348],[126.98887240011571,37.564641499539],[126.9902682987892,37.563161999787596],[126.9943584998292,37.563932299397095],[126.9943721998924,37.5625005005476],[126.9940327998544,37.563188700213395],[126.9928435999057,37.562180500717],[126.9930415999536,37.5609688002044],[126.9922440000053,37.5616861004991],[126.9915820998951,37.5611157004983],[126.9928428997687,37.5609306000107],[126.992565299487,37.5602254999639],[126.9932928994544,37.5597317998623],[126.9947065999298,37.5618159994101],[126.9960209994248,37.5611141995092],[126.9968673999032,37.561933699826994],[126.9994893991167,37.5611861998141],[126.9995821994629,37.5605337997566],[127.0004447997717,37.5612768990443],[127.0018603997154,37.560650898786],[127.0028913995337,37.559077298940196],[127.0055657996436,37.558975199901],[127.0049170004892,37.557567999447],[127.0068465997094,37.558807298753194],[127.0074581990978,37.5582687992917],[127.0061721999396,37.556924099847905],[127.0068541993415,37.557001699663],[127.0072705998962,37.5513391995365],[127.00773480004409,37.5525970991167],[127.0085143999417,37.5513841992109],[127.0098944002629,37.5520063993795],[127.01288750083961,37.5515238992068],[127.0136641999754,37.553259399070605],[127.0144703003873,37.5529345000702],[127.0125452018883,37.5539680999424],[127.0136150009987,37.5556377985985],[127.0149224996912,37.5555959986403],[127.0158957003495,37.5545282986676],[127.0168765993686,37.5533133998825],[127.0156170989878,37.551985099934505],[127.0163916002119,37.55232479881],[127.0172134994983,37.5501690998482],[127.0182250993238,37.5502473991503],[127.0176392999096,37.5489148004829],[127.01575990041951,37.5489630002721],[127.014290800113,37.5509701006764],[127.0133946998056,37.549708600211304],[127.0119201996446,37.5497767998287],[127.0126841999431,37.54865159871],[127.0125348010392,37.5493719993273],[127.0142826992913,37.550003098696195],[127.0154638981101,37.5482302004691],[127.0140805996555,37.5471437994528],[127.0150168992,37.5471626995794],[127.01521710032421,37.546391499371],[127.015463900007,37.548230198931996],[127.0164802991733,37.5469489002625],[127.0150236987846,37.5438763002117],[127.0163392986976,37.5435187999484],[127.0158757993435,37.5424154003627],[127.0151428989754,37.541196900661404],[127.01370919968349,37.5415468004402],[127.01335809952471,37.5405672994874],[127.0155803996661,37.5404043995687],[127.0164294996113,37.5387085993114],[127.0172795005879,37.5390733996873],[127.01685620084551,37.5404098995205],[127.0186300994163,37.5405689996049],[127.0182349005263,37.5399748993058],[127.0206221034719,37.542003201439],[127.0188150001143,37.542429600801896],[127.0185211001927,37.543363500622796],[127.0161531001978,37.544549000616406],[127.01568250066839,37.5453680997973],[127.0167034002414,37.546303099585906],[127.0190113008794,37.5459892992328],[127.0214812990465,37.547015898728695],[127.0227739998175,37.5459556992322],[127.0240452011123,37.5477680987932],[127.0260948997083,37.547310098926],[127.02717289971609,37.5480926992457],[127.0269814008434,37.5493547989167],[127.0277976000272,37.5497659985055],[127.02878870045771,37.5489418986236],[127.0325954999019,37.5501199994999],[127.0329161007134,37.548561897362404],[127.0335195001862,37.5489359000175],[127.0332286016217,37.5508161995524],[127.0354248998633,37.5512989998202],[127.03594730079641,37.5506829981169],[127.0392708993932,37.552960497118995],[127.0419446967194,37.5512665988129],[127.0363752974699,37.5474800014203],[127.0381339989094,37.5475002000061],[127.037993198758,37.54594610115],[127.035232999819,37.5441934000173],[127.0367305995828,37.5415859992859],[127.0373884005495,37.5425071990034],[127.03881579912209,37.5422808992297],[127.0391953996304,37.5405782993307],[127.0395417005988,37.5411808979243],[127.0422705993292,37.538783699317406],[127.0425241990756,37.538165299935805],[127.0414266997779,37.5379019000011],[127.0428564992157,37.5313979997789],[127.0423174997547,37.5306994004775],[127.0384558999047,37.5305957014618],[127.0379055004551,37.531523800533705],[127.03407989959639,37.5321652003712],[127.0338995987227,37.5304377009387],[127.0321262004961,37.5301659012105],[127.0317872999535,37.5310473001206],[127.0311343996083,37.5293916004312],[127.0301639999237,37.5307369003304],[127.0293745006094,37.530242900698696],[127.0288171008485,37.5311023006349],[127.0276182001773,37.5308186004898],[127.0268611000674,37.532024400163095],[127.0269946990979,37.5303289000504],[127.02540119901701,37.5290020001398],[127.0264675989861,37.5282179001467],[127.02541839948101,37.527212399984705],[127.0254560994689,37.5255318991777],[127.0268734992948,37.5257051989615],[127.0285323997662,37.524431999677596],[127.02837049999759,37.5237756998533],[127.0291304002845,37.5249839998212],[127.0306156002631,37.525476398971605],[127.03069530079401,37.5264793996289],[127.0326245994042,37.5264088994397],[127.033211399828,37.5243633995996],[127.03410099898201,37.5240821994157],[127.033199799185,37.5229918997365],[127.0331055995897,37.520412400104696],[127.0315106006396,37.5199100004383],[127.0304339002318,37.5205064009871],[127.03087499958059,37.519707100518],[127.0293592010964,37.5196142006109],[127.0268443006342,37.5213166004841],[127.02601320015219,37.520331400885105],[127.0255643001872,37.5219386007358],[127.0249093000528,37.521599600673],[127.0209535996097,37.5235439005027],[127.0175553997782,37.522357300825405],[127.017040800389,37.5213339006658],[127.0163644010654,37.5217663002334],[127.0168351990489,37.5236503007285],[127.0160224993342,37.521244800860096],[127.01265099924551,37.5185799010208],[127.0115347995835,37.5189157007881],[127.0104464997863,37.5172668012109],[127.0081323016614,37.5190269015213],[127.0070535953067,37.51874280603],[127.0059319995935,37.5163565992051],[127.0065690995838,37.5172246990756],[127.008161897991,37.516966299334],[127.0065849990159,37.5133420011787],[127.0052200987004,37.5132099005191],[127.00250850013491,37.5109819013717],[127.00146250035681,37.512270400047],[127.002650300243,37.5136583000615],[127.0007890975981,37.5131705077181],[126.99975639748429,37.511639200522396],[126.9975113993459,37.5104130009281],[126.9985898994242,37.510033700000704],[126.9965083997699,37.5088412005005],[126.9974623990901,37.5080607002619],[126.99641390013859,37.5065127018099],[126.9961481004044,37.5081557001669],[126.9957643002424,37.5072661009023],[126.9957349996913,37.508207301084504],[126.9957642991279,37.507266100559704],[126.9942520006402,37.5070644007614],[126.9936538996504,37.508312600537295],[126.99272740051701,37.507085801306395],[126.9921087010828,37.5087775007379],[126.9915904993303,37.507366599330396],[126.9924014991433,37.507516899409296],[126.9926808988639,37.5067400001862],[126.9903664000701,37.5032182030007],[126.98731360123169,37.5023149030907],[126.98557649667579,37.5048196995065],[126.98636959892761,37.500967599420704],[126.9853564999785,37.5001855998554],[126.987693801416,37.501443697785604],[126.9879803014004,37.5024319993936],[126.9909292990792,37.5014500980209],[126.9933209000135,37.502663198556704],[126.9950645994746,37.5014089000675],[126.99573959879959,37.4997476017288],[126.9943246987535,37.4978533995252],[126.99663939942981,37.4978992988964],[126.9967731997105,37.496743899383],[126.99765030063091,37.4978262991164],[127.00053080010291,37.4972392992621],[127.0024841992199,37.497959099249606],[127.0026132996737,37.4963566000131],[127.0041737994224,37.4957480994188],[127.00412589949751,37.4950818997653],[127.00088830031,37.4943913008608],[127.00155459877661,37.4934557998262],[126.9998347980805,37.4919399008442],[127.00069189961461,37.492672499303694],[127.00026359977599,37.4916166998917],[127.0044237963115,37.4881455000922],[127.00243179830349,37.486104702133],[127.0014738992614,37.4854974027403],[126.9998061009292,37.4869876012501],[126.9996400003996,37.488391403117],[126.99671860203189,37.4904262002755],[126.9976533003417,37.4916313006147],[126.9963102003879,37.4910277004744],[126.9910848998646,37.4930360007764],[126.98941879976489,37.4916360999042],[126.9893030990547,37.4888867008907],[126.9880431995968,37.488853200636804],[126.9884119992448,37.4867594014562],[126.985334100654,37.4864029008259],[126.9853348006533,37.4875091997196],[126.98599040045451,37.4875291001872],[126.9832626000456,37.488287701267],[126.9824633000605,37.4894849005998],[126.98253919942451,37.488914100607104],[126.9806035000387,37.489016900422804],[126.9786356996726,37.4878433000941],[126.97893459935351,37.4866093007535],[126.9774696989418,37.4860794002823],[126.9765217991852,37.4835506997416]]],[[[127.2183112993549,37.5407796996622],[127.2189183004255,37.539712199638096],[127.2198436998029,37.5411668990145],[127.2203597994834,37.5407116994521],[127.22024729958909,37.5391150003788],[127.2187975990943,37.5386882989869],[127.2202960999194,37.538487996991904],[127.2217221004652,37.5391535995087],[127.2218165997124,37.5405693992123],[127.22290440049291,37.539800299427704],[127.224365699211,37.54064689874],[127.22493009948289,37.5387770000366],[127.2240137003778,37.5374494994482],[127.2254221002586,37.5382603997082],[127.226329200309,37.537784800024994],[127.2257893008109,37.5392795988194],[127.2278063002012,37.5390288001242],[127.2265795005571,37.5395565002839],[127.2262305003701,37.5403261996789],[127.22681520024611,37.540212799950496],[127.2251554999566,37.541798900410505],[127.2232503997045,37.5414132003835],[127.223330099222,37.5407573005098],[127.2223709001812,37.540907100359995],[127.22209310011979,37.5419326004617],[127.221175000372,37.5410429003459],[127.2209164000286,37.5423859001603],[127.22075339941341,37.5414522002891],[127.2183112993549,37.5407796996622]]],[[[127.087442599249,37.202011100542],[127.09247889926381,37.1968743988853],[127.0931552006116,37.1983349986715],[127.0926607011197,37.1995950988303],[127.0959019990455,37.198307300120305],[127.09501789991731,37.196880798748104],[127.09758820084751,37.1969387999139],[127.0998471006723,37.1999567977044],[127.1017059999831,37.200676899563994],[127.10093880003099,37.2008824000963],[127.1011036001396,37.2015752995586],[127.1022009011218,37.201456300959094],[127.0986988002544,37.205321600744],[127.0979827000444,37.2045744013152],[127.0947583989999,37.2045956011997],[127.09313920061909,37.204891300904],[127.0930173999663,37.2058733002444],[127.0914449982398,37.2034380010871],[127.08970269922851,37.2032458005677],[127.0882225999209,37.2015692006358],[127.087442599249,37.202011100542]]],[[[127.1053020989351,37.3649669987499],[127.1047478997024,37.3633978000655],[127.109422200168,37.362937499253],[127.1110742006241,37.3633046996154],[127.113600600174,37.365571000979806],[127.1123500005594,37.365644500253005],[127.1116433007343,37.368546500057],[127.1106165995934,37.3681250012017],[127.1096958005142,37.3688584004683],[127.1099373002677,37.3697042003975],[127.1080429004458,37.3686783018744],[127.10706070120591,37.370051801349696],[127.1044228997077,37.368519499783],[127.1059545983888,37.3678224998392],[127.1047957979064,37.3666157004021],[127.1053020989351,37.3649669987499]]],[[[126.97961289961,37.5660111002342],[126.9814761993907,37.565694498666],[126.98218829991741,37.5634701998401],[126.98479600105361,37.5646752000571],[126.9840880006023,37.565985999845005],[126.98448190091581,37.5668047991563],[126.98589220063519,37.566038099688],[126.9827769001746,37.569006600175705],[126.9814136992352,37.5673958003013],[126.97978569941199,37.5668776001206],[126.97961289961,37.5660111002342]]],[[[126.9732513993428,37.5716084999976],[126.9749943994608,37.570225399851395],[126.97520199997649,37.5707847993152],[126.97551090025411,37.5701105993131],[126.9765626992023,37.5702782991454],[126.97684210000929,37.569024999515705],[126.9785909003834,37.5702716999955],[126.9769427005099,37.5704199003616],[126.97705090022899,37.57201620057],[126.9753750005005,37.5716164003229],[126.97457390069539,37.572953801032604],[126.9747234991622,37.5721410003462],[126.9732513993428,37.5716084999976]]],[[[126.9749777994032,37.4757888005242],[126.9761777992131,37.474413499880995],[126.9777359003106,37.474169099828394],[126.97772840056881,37.4747743993843],[126.9789837006262,37.4749879001278],[126.9789930006169,37.475879299236404],[126.980853500149,37.4767247991103],[126.98150530023669,37.4760202998736],[126.9825937001902,37.4771304004055],[126.97932030069549,37.477269400398995],[126.9793959005552,37.4785745004651],[126.9789614000429,37.477948900906604],[126.978011600009,37.4789297001983],[126.9754448001124,37.4779890008512],[126.9749777994032,37.4757888005242]]],[[[126.96776149935779,37.486800799430796],[126.96828479921261,37.4863741995776],[126.96784679945091,37.483961199137504],[126.969642799995,37.4830651990407],[126.9706107999404,37.483347699408306],[126.9709649003339,37.4824863993365],[126.97413870036429,37.4838220993954],[126.972318100415,37.4849690001251],[126.9732157008022,37.4854020997005],[126.972783501199,37.4860032009472],[126.9719080002565,37.485629100737796],[126.96956760007731,37.487182100571],[126.96776149935779,37.486800799430796]]],[[[126.9826935996204,37.5014816003949],[126.9840722990993,37.5003166984255],[126.9844740986223,37.4983321999454],[126.9829854997945,37.4974287999104],[126.9863634001965,37.49757549968611],[126.9867077002273,37.4983132994954],[126.98747700043769,37.497497900068396],[126.98778970014149,37.4983604003354],[126.98567010081949,37.4989285000631],[126.9853964000988,37.4999416999958],[126.9826935996204,37.5014816003949]]],[[[127.00524989961819,37.5489082004176],[127.0070709999184,37.546730499873604],[127.0089175010955,37.5485192995268],[127.0073886004783,37.5477714004126],[127.00745640046769,37.5495550992014],[127.0082721009194,37.549909899485804],[127.0076434999967,37.5507793003734],[127.0057411004764,37.5490662003738],[127.00638960027301,37.5499070998118],[127.0058092991448,37.5501510006182],[127.00524989961819,37.5489082004176]]],[[[127.1074038995842,37.3515340008888],[127.1083882003222,37.3517791995055],[127.10977719937709,37.35060819953021],[127.10992569922861,37.349503400635],[127.10882309988729,37.350029701255],[127.1088350999123,37.3486949999444],[127.109501499657,37.3491397994796],[127.1095684998284,37.347963199737706],[127.1103492003828,37.3480626994457],[127.1097772012662,37.350608200021],[127.1110371004866,37.3513197998886],[127.10912330021439,37.351311700348695],[127.1075621004533,37.352308000118704],[127.1074038995842,37.3515340008888]]],[[[127.0506224982095,37.4526111009749],[127.0507749959585,37.451406397441204],[127.0530016995441,37.450448799068496],[127.0546860978597,37.4481191013982],[127.0531685993772,37.4424831070342],[127.0524027975813,37.442221098317795],[127.0587630010685,37.4430292973924],[127.0604220015261,37.4408505983166],[127.060989703758,37.4436515036503],[127.0601507032055,37.4474150010628],[127.0575400008706,37.4500027997933],[127.0587066015881,37.4528900018328],[127.0557113997322,37.4525589002737],[127.0559177995258,37.4516521011805],[127.05139209929371,37.453136901429495],[127.0506224982095,37.4526111009749]]],[[[127.0661157986177,37.6346263002622],[127.0703145000897,37.6372055990451],[127.0707134014595,37.636374000067704],[127.071075601005,37.6376580002645],[127.0699370996968,37.6380274006762],[127.07031449861769,37.6372055998675],[127.06809960066249,37.636349001331105],[127.06722570113449,37.6379198010972],[127.0676068007534,37.638994000023],[127.0667508992977,37.6388504002279],[127.06785069751929,37.6362831000669],[127.06586559950439,37.635204601145404],[127.0661157986177,37.6346263002622]]],[[[126.9655708995817,37.5655538998969],[126.9662949995793,37.5655360997169],[126.9659181998326,37.564745899872996],[126.9667335000957,37.5653271992023],[126.967644100115,37.5646168989027],[126.96782250023979,37.5661650003904],[126.9656305002422,37.566777700638205],[126.9655708995817,37.5655538998969]]],[[[126.9852800994818,37.5607594999525],[126.98630349997701,37.5609757997873],[126.98658249989249,37.5602170994054],[126.987605000575,37.5611234007433],[126.98670920080761,37.5611056007415],[126.98666389988179,37.5617876011836],[126.9852800994818,37.5607594999525]]],[[[126.9622851993872,37.477468300237696],[126.9627483998995,37.4757561995309],[126.9634876009482,37.4769996990145],[126.9647908009583,37.4766284996252],[126.9643892009329,37.47806040015389],[126.9631978998459,37.4780246006639],[126.9634875994576,37.476999700506],[126.9622851993872,37.477468300237696]]],[[[127.0617785997879,37.644750100121804],[127.0636556983353,37.645362498832],[127.0647824002878,37.6434114985767],[127.06428250078511,37.645323698396],[127.06508210155239,37.645695699741495],[127.0634321992381,37.6469059008028],[127.0629365994841,37.6466078995047],[127.0635591988615,37.6455747005379],[127.0617785997879,37.644750100121804]]],[[[127.00142469937501,37.538217200122496],[127.00256620018901,37.5388715998178],[127.0017587006528,37.539288499981495],[127.0019555007476,37.5405361009325],[127.00142469937501,37.538217200122496]]],[[[126.9750783993227,37.504558499079],[126.97533649978129,37.5029932990474],[126.97588879985311,37.503699599013395],[126.9788764995067,37.5023019990808],[126.9788994011016,37.503359700029094],[126.9799938003007,37.5034532003891],[126.9750783993227,37.504558499079]]],[[[127.2007749989478,37.410845099719204],[127.2022146983138,37.4102976001751],[127.2035118974392,37.408194397665696],[127.2070243020956,37.4078296991015],[127.2058157073126,37.4099259016037],[127.2026882012392,37.4108143002158],[127.203427300205,37.4117163007301],[127.2016268994571,37.4115556005093],[127.2024985991641,37.4112607000339],[127.20221469944799,37.410297600997],[127.2007749989478,37.410845099719204]]],[[[126.9740761992944,37.563052199413704],[126.9762805002488,37.562550199818695],[126.9758637007864,37.5631414999466],[126.9769721003709,37.5639602003252],[126.97503659956949,37.564571800513505],[126.9740761992944,37.563052199413704]]],[[[127.1291818985846,37.3845232993153],[127.131663499461,37.3832825993932],[127.13199160044901,37.383957200206495],[127.13038780009809,37.385075300257895],[127.13010299941651,37.3842801006708],[127.1291818985846,37.3845232993153]]],[[[127.2514387992729,37.3997508002045],[127.25238609995999,37.3991122996646],[127.25358570064151,37.3994779992936],[127.2514387992729,37.3997508002045]]],[[[126.9530231994389,37.495746900148],[126.9544453003907,37.4953842995891],[126.95317629955909,37.4967034005158],[126.9530231994389,37.495746900148]]],[[[127.1072848997362,37.339355898711304],[127.1074046004636,37.340216999262104],[127.1088353990328,37.340734098744996],[127.1090761011921,37.3380524000142],[127.1095808002017,37.3407250014264],[127.107404598917,37.3402170001145],[127.1072848997362,37.339355898711304]]],[[[127.02434489956501,37.5309927995623],[127.0252298008628,37.5306718997074],[127.0246535002707,37.531415700186194],[127.02434489956501,37.5309927995623]]],[[[127.11197269907099,37.3506334999666],[127.1120451000031,37.3494571996942],[127.11232440053911,37.3505671000021],[127.11197269907099,37.3506334999666]]],[[[127.0038423995228,37.5475625999478],[127.0039700002511,37.547402499699096],[127.0045569007676,37.547554100747796],[127.0038423995228,37.5475625999478]]],[[[127.02440489994949,37.5750449000016],[127.02579490100719,37.5744198995471],[127.02531780010929,37.5754134008135],[127.02440489994949,37.5750449000016]]],[[[127.0778192000801,37.6278467000135],[127.0778911998479,37.6275638997546],[127.0779911999792,37.6276018993792],[127.0778192000801,37.6278467000135]]],[[[127.0604050995581,37.6545061996502],[127.0608068004231,37.6544548999845],[127.0605503999786,37.6547543006019],[127.0604050995581,37.6545061996502]]],[[[127.2225078990007,37.543222300328694],[127.2228353000071,37.5428040995061],[127.22334760059499,37.5429035997748],[127.2225078990007,37.543222300328694]]],[[[127.0484799991572,37.580690000438],[127.04860720020031,37.5797720991421],[127.0484800010498,37.5806900001364],[127.0484799991572,37.580690000438]]],[[[127.0578296996386,37.5893137998196],[127.0579288001996,37.5891181999437],[127.0581210000904,37.5895348000721],[127.0578296996386,37.5893137998196]]],[[[127.10630279844129,37.3514196002665],[127.1063580981005,37.350074500001696],[127.1065083005907,37.350072399793405],[127.10630279844129,37.3514196002665]]],[[[126.963870699203,37.508675099424096],[126.96424890110791,37.5082878992789],[126.9638706993633,37.5086751009134],[126.963870699203,37.508675099424096]]],[[[127.0240408994909,37.5751101000873],[127.02404090002901,37.5751100993953],[127.0240952002616,37.5751842007042],[127.0240408994909,37.5751101000873]]],[[[127.0496742994061,37.581413799982],[127.0498107002224,37.5815815001815],[127.0497180996811,37.581468000629],[127.0496742994061,37.581413799982]]],[[[126.9816216992066,37.5019347001454],[126.9818869003507,37.5016767999207],[126.9816217009141,37.5019347002028],[126.9816216992066,37.5019347001454]]],[[[126.9882964996347,37.4983466003492],[126.9884744000062,37.4984089990535],[126.9885673009647,37.498441899758106],[126.9882964996347,37.4983466003492]]],[[[127.0228724984799,37.533976696129095],[127.023166703849,37.5335236004976],[127.0228724974494,37.533976703645195],[127.0228724984799,37.533976696129095]]],[[[127.1063543978121,37.349420099227004],[127.1066719003983,37.348686399403],[127.1063544000206,37.349420100453905],[127.1063543978121,37.349420099227004]]],[[[126.96297730047101,37.5607667999568],[126.9631508002979,37.5608162003331],[126.9630500002105,37.5608925003354],[126.96297730047101,37.5607667999568]]],[[[126.99448359946679,37.534544499914304],[126.9944907005191,37.5344927994914],[126.99448360103919,37.534544500071604],[126.99448359946679,37.534544499914304]]],[[[127.00073899962649,37.5595053995972],[127.0008237007521,37.5597881996487],[127.00082369996859,37.559788200099],[127.00073899962649,37.5595053995972]]],[[[127.0677746991929,37.615338598927],[127.06777470064151,37.6153385988411],[127.0677747005511,37.615338600065],[127.0677746991929,37.615338598927]]],[[[127.1109713993767,37.3487036997453],[127.1109714000368,37.3487036997453],[127.110972800006,37.3487767003244],[127.1109713993767,37.3487036997453]]],[[[127.1548203997425,37.5675465003913],[127.15509349970081,37.5673247997318],[127.1550935018776,37.5673248000965],[127.1548203997425,37.5675465003913]]],[[[126.9789781999285,37.566009900157795],[126.9789782002328,37.566009899923095],[126.97897820016411,37.566009900236395],[126.9789781999285,37.566009900157795]]],[[[127.0744535996247,37.5946960996337],[127.0744536005833,37.5946961000951],[127.0744535998566,37.5946961004262],[127.0744535996247,37.5946960996337]]],[[[127.1046383996078,37.4951138996726],[127.10470529998241,37.494969799885],[127.1046383998398,37.4951139003373],[127.1046383996078,37.4951138996726]]],[[[127.1079767995438,37.3486917997165],[127.107976800786,37.3486918000849],[127.10797679910691,37.3486918007521],[127.1079767995438,37.3486917997165]]],[[[127.1146170995201,37.3661465993567],[127.114617100157,37.3661466000012],[127.11461709956801,37.3661466007249],[127.1146170995201,37.3661465993567]]],[[[127.1383074995866,37.3897033001776],[127.138307500697,37.3897032994469],[127.13830750067629,37.389703300664],[127.1383074995866,37.3897033001776]]],[[[127.220038699281,37.541886300514804],[127.2200387002552,37.5418863000571],[127.2200386997718,37.5418863009017],[127.220038699281,37.541886300514804]]],[[[126.9527592998186,37.481301900130596],[126.95275930010399,37.481301899810695],[126.95275930016379,37.4813018999575],[126.9527592998186,37.481301900130596]]],[[[127.0031658002557,37.5139470000242],[127.003148399897,37.5139706001528],[127.0031657998865,37.5139469998609],[127.0031658002557,37.5139470000242]]],[[[127.1075719995823,37.4987044996655],[127.107572000231,37.4987045004113],[127.1075719995073,37.4987045003514],[127.1075719995823,37.4987044996655]]],[[[127.1130829998485,37.3673014001384],[127.1130829996855,37.3673013995677],[127.1130830001552,37.3673013995713],[127.1130829998485,37.3673014001384]]],[[[127.1542491992457,37.5679349005261],[127.1542491999553,37.567934899814],[127.1542492007482,37.567934900923994],[127.1542491992457,37.5679349005261]]],[[[126.9782108998799,37.558401099955596],[126.9782109007208,37.558401100259296],[126.97821089995979,37.5584011003457],[126.9782108998799,37.558401099955596]]],[[[127.1685584998684,37.5632462998997],[127.1685585001691,37.563246299861],[127.16855850021031,37.5632463001251],[127.1685584998684,37.5632462998997]]],[[[127.1688579966949,37.535462001298605],[127.1688579997848,37.535461999280805],[127.1688580010306,37.5354620010758],[127.1688579966949,37.535462001298605]]],[[[127.2527802995658,37.398788699988195],[127.2527803004581,37.398788699426596],[127.2527803000835,37.39878870016],[127.2527802995658,37.398788699988195]]],[[[126.9645911997163,37.5597795998221],[126.964591200048,37.559779599926095],[126.9645911999315,37.5597796001969],[126.9645911997163,37.5597795998221]]],[[[127.0313352997497,37.4665535000817],[127.03133530044029,37.466553499427405],[127.0313353004742,37.466553500303405],[127.0313352997497,37.4665535000817]]],[[[127.1087586992275,37.3534012006973],[127.1087586995947,37.3534011994228],[127.10875870011769,37.3534012014921],[127.1087586992275,37.3534012006973]]],[[[127.1831762998363,37.564129799956305],[127.1831763005289,37.564129799534705],[127.18317630018029,37.5641298005806],[127.1831762998363,37.564129799956305]]],[[[127.2082007998317,37.5479583000159],[127.2082008002518,37.547958299507094],[127.2082008001084,37.547958300249995],[127.2082007998317,37.5479583000159]]]]}}]}