{"type":"FeatureCollection","features":[{"type":"Feature","properties":{"interval":15,"stationId":"6102706367"},"geometry":{"type":"MultiPolygon","coordinates":[[[[127.1367309968183,37.5192812008326],[127.1368440993273,37.5176834994277],[127.1372197000109,37.518808299606704],[127.1412259002077,37.518295197321294],[127.1401641010793,37.5187633007758],[127.14039590084751,37.5205042990348],[127.142872398371,37.522240597298506],[127.1450039962394,37.520027099512],[127.14443389969469,37.5183950992261],[127.1469125002149,37.5204253991281],[127.1479338991935,37.5198922996612],[127.1476565985801,37.5187671981964],[127.1485873003581,37.518969399563005],[127.1477644009473,37.5192046002376],[127.1483176025082,37.5222838979154],[127.149993802123,37.5236482980856],[127.1517181034149,37.5277717995347],[127.1536101015229,37.5301216971848],[127.1555939007962,37.5300975987929],[127.154733601704,37.5316922995652],[127.1564587001633,37.531689799425806],[127.1569047024621,37.532633700255],[127.1544373026868,37.5323049022055],[127.1522315016613,37.534725601027205],[127.1525676013252,37.5364526993001],[127.1540435007192,37.5364046000962],[127.1525676012157,37.5364527007908],[127.15303230012391,37.538564101442304],[127.1513149996361,37.537658900830095],[127.1513870993755,37.536217901375295],[127.1479673997975,37.537566900528],[127.1471017997754,37.5372266005369],[127.1465925998788,37.5356521008646],[127.1454946002793,37.5357591009014],[127.1428682998674,37.5340598001885],[127.1406358000453,37.533798700655396],[127.1396138994891,37.5346338003387],[127.1393105995116,37.5324523011539],[127.13785059911079,37.532084799845],[127.1386439991837,37.531235900194],[127.1374223001995,37.5309503005285],[127.13703030016981,37.5299118010914],[127.13627459969749,37.530144400088],[127.1376460992181,37.5291674996742],[127.13681219994699,37.5287113998683],[127.1392774985906,37.5280316975677],[127.1401433975321,37.5247037002189],[127.1428723975795,37.522240600710205],[127.13963859751179,37.521467901576095],[127.13814979855799,37.5196491030184],[127.1367309968183,37.5192812008326]]],[[[127.1303492993847,37.5157524982398],[127.13096280011821,37.5148407992099],[127.1324959011773,37.515013601126604],[127.13144830011831,37.5173304001873],[127.1303492993847,37.5157524982398]]],[[[127.1532188988979,37.521548900184996],[127.153073098913,37.5211498997371],[127.15334090109971,37.5212991003413],[127.1532188988979,37.521548900184996]]]]}},{"type":"Feature","properties":{"interval":30,"stationId":"6102706367"},"geometry":{"type":"MultiPolygon","coordinates":[[[[127.0845682983491,37.5040243004689],[127.0855267988766,37.5037824998926],[127.0856882007051,37.5016557990343],[127.0908435998375,37.502632399633704],[127.0935861993257,37.5010785993867],[127.093247299452,37.4999867997482],[127.0947622983926,37.4993914002365],[127.0946836982341,37.4987809001476],[127.096156098467,37.4993030990683],[127.0965956999778,37.4974868997088],[127.096737100638,37.4991551987891],[127.0987762016435,37.499299100029404],[127.0988076014944,37.500101799827],[127.1016064990921,37.5007707993994],[127.1022673994056,37.499876698685505],[127.10525669932579,37.500042399463496],[127.1046392999775,37.4994671999602],[127.1052566994089,37.500042399399696],[127.1056792000701,37.4991436998727],[127.1085493001982,37.501078899593104],[127.11048769968,37.501301998553004],[127.110790299567,37.499896599517896],[127.1124895996577,37.4990236994455],[127.1131022013213,37.5001879008868],[127.1124138017756,37.5018099005325],[127.1149440992453,37.5037344986079],[127.1181667005855,37.5037740977209],[127.1210750004474,37.505966098933605],[127.12239560101301,37.5054547995199],[127.1210750012859,37.505966100309905],[127.123572700319,37.507407298991],[127.1246774992142,37.5064490999492],[127.1238746995339,37.5056854992892],[127.1263660998,37.5069238985912],[127.128865598932,37.5055969988193],[127.1281140996835,37.5042141002022],[127.1286117994553,37.503378100784296],[127.1278590002081,37.5033739007885],[127.1279453001218,37.5041042000582],[127.1260611002858,37.5040804006282],[127.12537109911399,37.5032404005998],[127.1254543997288,37.5020260997128],[127.1263492988339,37.5019760997628],[127.1260134990046,37.5001080000469],[127.1279301998312,37.5001130979945],[127.1301956001024,37.500973598678904],[127.13062380030759,37.5022585998209],[127.1295641003197,37.5027058003984],[127.1303135001074,37.5042567003181],[127.1289091011607,37.5036787011719],[127.1288656012042,37.505596999253605],[127.13059129977161,37.5059598997532],[127.1314085001306,37.5052319999286],[127.1344470007947,37.506653699298305],[127.1353904005292,37.5062325997638],[127.1365973993222,37.5074648985315],[127.13631240003889,37.5058199996277],[127.1394264002559,37.5073022995935],[127.1403789007352,37.5069508998259],[127.1399226010364,37.5074926999782],[127.14148489984109,37.511331498432895],[127.1434051992875,37.508610498952],[127.1453201016498,37.509070598863],[127.146749202067,37.5110168988216],[127.1488456004513,37.510816799326],[127.14655010199449,37.513128699976704],[127.14810960043499,37.5150688980365],[127.1495453989992,37.5151867979186],[127.1500998986646,37.513962198126805],[127.1514861001542,37.513930099732406],[127.1503759013625,37.5144725997843],[127.15125330054589,37.515383299568306],[127.15342699840569,37.515240498995794],[127.154951700477,37.5125895991443],[127.1556234996446,37.5144884989032],[127.1587024016747,37.5145700994833],[127.1579244018906,37.5163277997725],[127.1590101008049,37.518392597707695],[127.1611542025312,37.5188461977427],[127.1616733041787,37.520333699629504],[127.1593668017382,37.5328886983121],[127.1605774020413,37.5357329964104],[127.1628874026655,37.537016299744295],[127.1628879018731,37.5427229993205],[127.1601879011168,37.5415439013252],[127.1574189025786,37.54626719998],[127.155860100704,37.546462600385496],[127.1563197001606,37.549368201598504],[127.15304100004,37.547753900622595],[127.1525298964177,37.5465793002749],[127.1449485010662,37.5458608006687],[127.1431640001377,37.54695280075],[127.1417068000098,37.5442781010321],[127.1392727999781,37.5439258009406],[127.13880920005539,37.5429693010526],[127.1373681002996,37.543352900545],[127.1363878999925,37.5422719003499],[127.13592990016129,37.5430554006137],[127.1342321001744,37.541949800645796],[127.1334649996536,37.542391000785],[127.1325211988904,37.5409667010727],[127.12999000055011,37.5411100004587],[127.12937380052159,37.5400507010905],[127.1266130007518,37.541350700517505],[127.1272596002146,37.5431602004126],[127.1251001006281,37.5433701004429],[127.12545170028609,37.544337000786896],[127.12262230013181,37.5436916013037],[127.12177009987971,37.5423699012364],[127.1210380006118,37.5433044003019],[127.1210214996139,37.5425670007658],[127.1191828997894,37.5430081004271],[127.1197086994237,37.5422816003622],[127.1184826995247,37.5408755012245],[127.11744879901201,37.5418895011816],[127.1178758990423,37.540289900469],[127.1166192993027,37.538057500292],[127.11913239899759,37.534773299216695],[127.1184335996875,37.5323909008275],[127.11768910018881,37.5338220002373],[127.1168537997177,37.533485400187004],[127.116886599708,37.5328387984797],[127.11836739822719,37.5324287988897],[127.1178226987719,37.5304286008899],[127.11639769908679,37.5296804999536],[127.11798239898441,37.5264772004421],[127.11503349975719,37.5233099013881],[127.1135571979725,37.5241064006364],[127.111326699729,37.5230708016741],[127.1105452995116,37.5203493020308],[127.10888510059779,37.52117960110721],[127.107655899207,37.5204862003955],[127.10799429929371,37.5190848004667],[127.1066665999272,37.5194540002866],[127.1054856999262,37.517767201001405],[127.1049486994917,37.5180262004097],[127.1062601982505,37.5155309001015],[127.1044380993345,37.5146108999802],[127.1025227998243,37.512089600045705],[127.1031506996899,37.5114329001186],[127.1021097998447,37.5110503000529],[127.10252319967209,37.510006700651395],[127.1016441999336,37.5111459000874],[127.1022550982284,37.5082207008107],[127.1001285994036,37.5072287010778],[127.1000910991373,37.5057980006986],[127.0987816994442,37.506444000503905],[127.0977830004429,37.5058020011459],[127.0975175991464,37.5074158012889],[127.0973454997403,37.5065240002802],[127.0960975999208,37.5067251001111],[127.0957561991546,37.5055491005292],[127.0948064990885,37.505698600563406],[127.0944443990256,37.504612300677195],[127.093306998912,37.5049342007217],[127.0928648988957,37.503895700717],[127.0905712010503,37.5057081997165],[127.0907423000077,37.5073331002069],[127.08888639869791,37.5062029011887],[127.0874190990922,37.5070195007295],[127.08678869861,37.5056059007804],[127.0846689993633,37.505816100186394],[127.0845682983491,37.5040243004689]]],[[[127.09830369762041,37.5476377005618],[127.09806649978181,37.5467904998089],[127.10017069760171,37.5458851996236],[127.0994981982742,37.543992201516595],[127.0985811998664,37.5438203995541],[127.1004606991893,37.5434722997516],[127.1008130997941,37.5421222966593],[127.10217920026119,37.5417660997798],[127.10146300060859,37.542809599669596],[127.10268860066739,37.5428245994943],[127.10325049958401,37.5438906991216],[127.1037579002662,37.5424049995693],[127.1057714009243,37.5428435000821],[127.10570850001571,37.5439346994393],[127.107024901068,37.5444191998959],[127.1057887007841,37.544892300859004],[127.1053974011754,37.5459296998216],[127.1059834005894,37.5464256993256],[127.1091184011436,37.546172600136096],[127.1054482005318,37.5491910017149],[127.1044906004201,37.5484456007955],[127.1015198998197,37.5489203018408],[127.1012138984364,37.547543701046095],[127.0998079998423,37.5468432017466],[127.09830369762041,37.5476377005618]]],[[[127.07233639930939,37.511147799689304],[127.0789246987225,37.5087221990913],[127.0809417002448,37.509459998904696],[127.0811406002527,37.5106226989084],[127.08298830150069,37.511587900118904],[127.0819626005182,37.5111975010604],[127.0784819001842,37.5121099002594],[127.0780639006022,37.5126408997284],[127.07911160147421,37.513813800415704],[127.0774256995127,37.516107000720595],[127.0777452984741,37.5114372003002],[127.0755489998315,37.510479100949],[127.07398830139219,37.5114023000258],[127.073462601974,37.5118783999367],[127.0738683009243,37.5139706014628],[127.0734625998071,37.5118784017189],[127.07233639930939,37.511147799689304]]],[[[127.086600598697,37.553563600507],[127.0875742987128,37.5525561005038],[127.0865800993882,37.5522788002754],[127.08759859994791,37.54874129960751],[127.0876429002253,37.5493214994693],[127.0918587006372,37.5491944997247],[127.09229370064939,37.5502899996281],[127.09318130047569,37.5504246002243],[127.0923774010552,37.5506861006159],[127.0926757007321,37.5523553009072],[127.0904231994205,37.5539045011695],[127.08868410051039,37.553929201076],[127.08833079911669,37.5545810003255],[127.0880253990459,37.553539900794796],[127.086951499422,37.5541473004622],[127.086600598697,37.553563600507]]],[[[127.05722779920221,37.5139904995777],[127.0592277982546,37.5134174989605],[127.0599956986873,37.5123402980903],[127.06233140141741,37.5135606974186],[127.0618239014284,37.5145351993464],[127.06349300092339,37.514819700146994],[127.06185959982511,37.5161089008421],[127.0609081004883,37.5154697010708],[127.06008720079569,37.516493500545806],[127.0593574005933,37.5161316007003],[127.0589530004684,37.5168805003902],[127.05924639929991,37.5147951007065],[127.05722779920221,37.5139904995777]]],[[[127.0771186999487,37.5580131999005],[127.0786788999107,37.5554036986446],[127.08026560086661,37.5560284990492],[127.0810666003271,37.557411599874705],[127.08041739980341,37.558828301084105],[127.07764809954611,37.5572338009059],[127.0771186999487,37.5580131999005]]],[[[127.12533209954809,37.5511499001243],[127.1269898992018,37.5485963994325],[127.12856999950769,37.549679998636805],[127.12996000044879,37.549069600177106],[127.12864810035191,37.5512972010032],[127.12533209954809,37.5511499001243]]],[[[127.1336536990944,37.4980289007469],[127.1337504998918,37.4967609995032],[127.13509929960429,37.4973622991239],[127.13685000042899,37.496989999765994],[127.1363698001228,37.4990360010719],[127.1336536990944,37.4980289007469]]],[[[127.14392699984481,37.4932538000821],[127.14437659991191,37.4928052997937],[127.1446572005835,37.4931061998772],[127.14392699984481,37.4932538000821]]],[[[127.0429324994613,37.5100098998462],[127.043868199748,37.5102768991878],[127.0441295019012,37.5095988003906],[127.0435807001586,37.5110343009426],[127.0429324994613,37.5100098998462]]],[[[127.1439490986103,37.5515057000978],[127.1440300005817,37.551499999258],[127.1440300001628,37.551500000457395],[127.1439490986103,37.5515057000978]]],[[[127.0646239999042,37.561392000013996],[127.0647819004365,37.561366299275704],[127.0647819005699,37.561366299919904],[127.0646239999042,37.561392000013996]]],[[[127.1007700998,37.513339999921996],[127.1010005001754,37.5134197998621],[127.1010005001555,37.51341980024],[127.1007700998,37.513339999921996]]],[[[127.11611759961589,37.5417291997052],[127.1161176000647,37.5417292001936],[127.1161175994135,37.5417292003854],[127.11611759961589,37.5417291997052]]],[[[127.1277356991885,37.5429539993969],[127.1277356996416,37.542953998933704],[127.1277357003179,37.5429540003147],[127.1277356991885,37.5429539993969]]],[[[127.0817852001273,37.5561333998582],[127.0817851997428,37.5561334008374],[127.08178519995249,37.5561333999266],[127.0817852001273,37.5561333998582]]],[[[127.1020894992215,37.5138007999112],[127.10208950074001,37.5138007995183],[127.10208950006941,37.513800800225],[127.1020894992215,37.5138007999112]]],[[[127.1660905999078,37.5438224002115],[127.1660906001498,37.5438223985683],[127.16609060002581,37.543822399976506],[127.1660905999078,37.5438224002115]]]]}},{"type":"Feature","properties":{"interval":60,"stationId":"6102706367"},"geometry":{"type":"MultiPolygon","coordinates":[[[[126.883310899911,37.5260622999826],[126.88499899930159,37.5258011992976],[126.88440759989301,37.524561800537],[126.88377199961229,37.524659199627806],[126.8850082994538,37.5244697987577],[126.88546959988159,37.5227550995195],[126.8894148001132,37.5246637995501],[126.8906871996767,37.5244717991843],[126.8909143997439,37.523302999864896],[126.8928371010269,37.5217094987014],[126.89306960109981,37.523169598474304],[126.89459929957009,37.5242082974356],[126.8959231982462,37.522585299058605],[126.8954025997837,37.5212733990755],[126.8967646006368,37.5225623987117],[126.8981354999584,37.5226566994605],[126.8992922998529,37.5223739993644],[126.9009806000044,37.5200744994762],[126.9015910995525,37.520488199534306],[126.902335598808,37.519856700165796],[126.9021587991678,37.5191466996951],[126.90352819891109,37.518658899620895],[126.9033516990759,37.5180555001112],[126.9035804004497,37.5190105991481],[126.9047016993284,37.518915899242806],[126.9047012006591,37.517985199419996],[126.9066567001682,37.5180424995011],[126.9068118009097,37.5187382995702],[126.9085717991497,37.5182031001054],[126.9075051995521,37.5172876996107],[126.90933459937709,37.5171762990781],[126.9099578988477,37.5156969004214],[126.9056687996764,37.5137675013624],[126.9058494997673,37.511411099837694],[126.9085852996918,37.5113736993972],[126.9105449990633,37.5101487996246],[126.9120810005144,37.5120708001827],[126.9116707006557,37.5143743996905],[126.9125713018634,37.5163143003117],[126.91420330011739,37.5175345993039],[126.9152626996543,37.517784599086],[126.9149261996643,37.5156468993405],[126.9166220002908,37.5134113987578],[126.91734650024749,37.5147208979634],[126.9196673001584,37.514006799852396],[126.9189095008735,37.514242600046806],[126.9198532001503,37.514838800655],[126.91870740061721,37.5155051002969],[126.9193300999945,37.5169246988773],[126.9200025999089,37.5167956992962],[126.9233185987368,37.5140573999989],[126.9223261995592,37.513266300224295],[126.9244468988422,37.5104018002886],[126.9221157991072,37.5088597007836],[126.9226335001703,37.509054998653795],[126.92331469948911,37.5075935001153],[126.9229234994786,37.5063191005435],[126.92211039973199,37.5061732006842],[126.9220997001144,37.5046957994021],[126.9233147010017,37.5075934979773],[126.92526460094831,37.5087880975532],[126.926257201659,37.5085223982712],[126.926591200446,37.5127055994245],[126.9306174002143,37.5131784981899],[126.93217369899591,37.5087902005761],[126.92926439902119,37.5072019998579],[126.930585598811,37.5078848991504],[126.9322924971041,37.5070866999486],[126.9328573964467,37.5060867984785],[126.93513869976769,37.5052202996636],[126.9351067997996,37.503540399763295],[126.93686959991709,37.5023963994831],[126.939149199444,37.5036245975637],[126.9410871999672,37.5019238995449],[126.9404114007343,37.50276859974],[126.94145809968761,37.5035110989975],[126.9438786998261,37.503594399501196],[126.9442709991652,37.501858199604],[126.9451936993694,37.5018334994529],[126.9448820998976,37.5003310995858],[126.9468937003776,37.5018915986948],[126.9480004997269,37.501533299166],[126.94783530018219,37.499824999268604],[126.95055859946059,37.4997384991149],[126.95091949900039,37.4982646000334],[126.94948079867021,37.4974092005757],[126.9492611995249,37.495494799754006],[126.9498462011827,37.49683799866909],[126.95127679975211,37.497014198492906],[126.9522233988055,37.4961224993846],[126.9515373994915,37.494968400538696],[126.9508772991458,37.495122699672706],[126.95229539997379,37.4951589990483],[126.95416990016669,37.4916486987909],[126.9551177009829,37.492296098896595],[126.9563149002239,37.4915760996399],[126.9582104006264,37.494451999671],[126.96038899980071,37.494726899179206],[126.95896030021291,37.495819900191904],[126.9591097002461,37.497407598685704],[126.9627554997337,37.5014298975209],[126.96393789855131,37.5008804980703],[126.9670919993533,37.4955363996045],[126.9724685006916,37.4956728977902],[126.9755975009802,37.4985712978578],[126.9772233993543,37.4985757978533],[126.977318500777,37.4965947991505],[126.98051249877591,37.4971903972969],[126.9817352975531,37.495042699444596],[126.980980398308,37.4937347007526],[126.9767744989483,37.4921620002439],[126.9775773989024,37.4902752012144],[126.9763276001522,37.4902382012514],[126.9761278992585,37.4912305005924],[126.974865799686,37.4910100003313],[126.9749026999908,37.490185500541905],[126.9741794992349,37.4907840997818],[126.97445939866451,37.4891656007812],[126.9716305994338,37.4895115002362],[126.9731123981704,37.4879376002157],[126.97223279905,37.4863936017597],[126.9708995003833,37.4871444010089],[126.97099949998601,37.48789830059],[126.9704385002922,37.4874108010498],[126.96982250005041,37.4879401014541],[126.9688379996665,37.4868719012618],[126.9672190012855,37.4880243001094],[126.9681386998633,37.4904745003995],[126.96702339864551,37.4894227006253],[126.9645988010963,37.4894043002317],[126.9643795994404,37.490861300871195],[126.96444819998531,37.488956100463106],[126.96359179842321,37.488530599270696],[126.9668119954529,37.482864199558804],[126.9665410957238,37.481973400449604],[126.9631629991019,37.481084001339],[126.9624236992145,37.480078701158],[126.9607711002271,37.4808269008216],[126.95987630028361,37.4793129007753],[126.9595198001971,37.480735000754805],[126.95936669963021,37.4801154003567],[126.95754100056041,37.4801306007065],[126.9561780006315,37.4825715001182],[126.95598249980351,37.485385800361705],[126.9495119996709,37.484046700232604],[126.94939189943629,37.4831617003603],[126.9474930996632,37.4825308008569],[126.9479648995321,37.4806220997535],[126.9511186998564,37.4777814991414],[126.9522272993489,37.4777680988437],[126.95242209935871,37.4767283988352],[126.95222730106511,37.4777680990803],[126.9534995006576,37.477390499450095],[126.95699859957601,37.478848599481],[126.9590739996752,37.4745589979808],[126.96435660023461,37.4720887986026],[126.9651438997599,37.472858999036],[126.9668239004498,37.4721366999312],[126.9666820005941,37.4728678996757],[126.97006449935161,37.4746515994144],[126.9721154989087,37.4742140990547],[126.9727734982507,37.4729453003235],[126.9716560992677,37.4724049997347],[126.9723844988041,37.4711504000482],[126.9737498013712,37.470326798442],[126.9751042000168,37.4711846975841],[126.9765471998375,37.469903198317596],[126.97627640053601,37.4704969993735],[126.9786298019736,37.4715412994668],[126.9821758001299,37.472439699600905],[126.9830119000273,37.4719308999619],[126.9847799007224,37.4759263979371],[126.9872567994412,37.4754984977098],[126.98843720035411,37.4781655976594],[126.9937160999737,37.4797750969027],[126.995468798221,37.4793514973263],[126.9982423965709,37.4771178987405],[126.99744459900869,37.4736691997899],[127.0015529008134,37.4748253969183],[127.0035819015201,37.473407298049096],[127.0044283015471,37.478147098768204],[127.00572860055449,37.478705398354904],[127.0067875994955,37.4775769994833],[127.00794829992789,37.480072399139296],[127.0090670992737,37.4803943988529],[127.0100323998683,37.4788984991665],[127.0106082995388,37.4795115992454],[127.0131002001932,37.4783423992432],[127.015919397374,37.4791833984022],[127.0165458002548,37.4778570980422],[127.02037130057079,37.482691997731],[127.02186090004739,37.482710897322804],[127.02333179857649,37.4814064986272],[127.02599839999631,37.483798099234605],[127.0271905001229,37.4837784995985],[127.0287000986133,37.482525000852],[127.0277160990599,37.4796662996893],[127.0289437983101,37.4785731004763],[127.0288143990059,37.47677139952879],[127.0303982994055,37.474463299194895],[127.0299051995721,37.473477499688904],[127.0307701993033,37.473712898811705],[127.0309107993955,37.471341700189306],[127.03012289982699,37.471028699891896],[127.0311996985883,37.469172399064995],[127.0294688999358,37.4676474002247],[127.0297605986473,37.4667731986754],[127.0304717995657,37.467110199041],[127.0342299982306,37.4645499999552],[127.0325147988054,37.4640589985612],[127.0341918995867,37.4619960995628],[127.0355715999404,37.4633044998712],[127.0374379997795,37.4614658985555],[127.0403546000641,37.463498999653],[127.0419828005213,37.4618284997158],[127.0409843013208,37.4629840989797],[127.0418117004934,37.4645728973909],[127.0434919005153,37.4650151977059],[127.04509469927261,37.4635679989979],[127.0441982997232,37.461987300012396],[127.0451908991423,37.4619135996229],[127.04553360045,37.4608096988136],[127.0483621007436,37.4621339993615],[127.04637170030139,37.4612262016266],[127.0456829017922,37.4646264996201],[127.0465971023156,37.4681599978035],[127.0491440023326,37.4702782985261],[127.0487281008351,37.4718306992186],[127.049532700431,37.472349798971806],[127.0490328007269,37.4733248994751],[127.0498487008169,37.4744410999888],[127.0487748003643,37.4742865002367],[127.047815300537,37.4751995000857],[127.0480112000603,37.476814400523004],[127.04560350013679,37.47659320119531],[127.0447785005913,37.4780155997027],[127.0455111008991,37.478452900477],[127.0446487007587,37.4782831004604],[127.04378670122429,37.479790699762106],[127.0446460018285,37.4814326996217],[127.04697449950001,37.4828222982321],[127.0487998990563,37.4818279993821],[127.04751449952161,37.478816599915504],[127.05072280060361,37.4772616995618],[127.0521944002654,37.4784852991746],[127.0532226001521,37.478203499556],[127.0520702001739,37.4794415001177],[127.052355099889,37.480258399300794],[127.0548087990867,37.481847998312396],[127.0576427971793,37.4798790993533],[127.0555199994037,37.478201300924106],[127.05439970020481,37.477917800712],[127.05409249960739,37.478628700389],[127.0536476998061,37.4779226995612],[127.0543996995292,37.4779177989886],[127.0547654997747,37.4765060995775],[127.0568740001488,37.477755099301206],[127.05837120279969,37.4773182997807],[127.0582170029539,37.479580997518006],[127.06111580005509,37.480680296418704],[127.0627051984657,37.4779543991446],[127.0654296999013,37.4777348980513],[127.0650907017015,37.4789552988287],[127.07018909660309,37.4825540952299],[127.06761490202379,37.4775613974563],[127.0701890984539,37.4825540950361],[127.0726319983309,37.484060395868596],[127.0758150951478,37.480898099030895],[127.0728639980989,37.478698001231],[127.07523779726499,37.4774454008829],[127.07711159926869,37.4750565940289],[127.0848130014293,37.47474909732129],[127.092127700806,37.477346898629904],[127.0945595004591,37.4775123985262],[127.09561479915111,37.476223998612205],[127.0995805001282,37.4777619978276],[127.1014876997967,37.4774094983644],[127.1041634985861,37.4754686991143],[127.10333890052429,37.474352398243504],[127.10632580007899,37.4753092979732],[127.1069528002494,37.473234899740405],[127.10849260012961,37.4739915001066],[127.1069889017523,37.475616799520594],[127.11058259845021,37.4767685981881],[127.1123437986143,37.4758893978202],[127.1122495987085,37.4733817003279],[127.1108424988071,37.4732164990656],[127.11218959792109,37.4727262989624],[127.11269249757339,37.469414200280305],[127.11130179877871,37.4649553016436],[127.1097847995843,37.4662182006203],[127.1083793000465,37.4655631018125],[127.10878530017989,37.4642394980406],[127.1145562988374,37.464001398136],[127.1173854020346,37.4625112964218],[127.1183520024032,37.4652634986095],[127.120841101611,37.465342198455104],[127.119712301296,37.4655901000678],[127.1205771004312,37.4670202986376],[127.1232439012182,37.4661010982129],[127.1249976994644,37.466956197357796],[127.12614759831449,37.4654507988632],[127.1247993996627,37.463662500651495],[127.1260938986987,37.462042001142294],[127.1237268006259,37.4614238017787],[127.1235904995858,37.4634842003163],[127.1221109000485,37.4626509005831],[127.12201229954839,37.4615286004815],[127.1208648987276,37.4615207992353],[127.1241496972828,37.4591379002519],[127.1203631998781,37.458881100006096],[127.1241496977556,37.4591378962324],[127.12430429831561,37.4524706009787],[127.12359169902821,37.451786301663],[127.1223629995423,37.4533254020449],[127.1210428994371,37.451835200522],[127.1222746985226,37.4506542005836],[127.1203435986624,37.4491017007648],[127.1244797962852,37.4468378975581],[127.1239716967933,37.441797402598596],[127.11981930094571,37.442326102069906],[127.1200765986719,37.4444425021498],[127.1182555892726,37.4429702981292],[127.1198030976263,37.4360436012675],[127.12143759923349,37.4354571988473],[127.12257809883509,37.431799399587405],[127.1201735996531,37.429857599277796],[127.1229968001545,37.4295440999469],[127.1221095012924,37.4299375005641],[127.1225781008238,37.4317993987022],[127.1241473992545,37.4313582991433],[127.1245030987648,37.4281665993948],[127.1263106998833,37.427870799569604],[127.12821399742,37.4257381996226],[127.1279540970844,37.4246929994153],[127.12929629965329,37.4237934984215],[127.12967070296921,37.4262297980531],[127.1312850023645,37.4273366979009],[127.1347317987703,37.4283489991417],[127.1360298982687,37.4274428980056],[127.13610630011989,37.4283184989817],[127.1392157994127,37.4281992989763],[127.14009660047101,37.4292461000093],[127.13941080078979,37.43033069942],[127.1420145007913,37.4327707969743],[127.14298119982459,37.432923196821896],[127.1450914019097,37.4307581993653],[127.1455543006214,37.4340580979516],[127.1479492020239,37.4347163990746],[127.1473105020262,37.435636799878],[127.15002170081179,37.4374624992899],[127.1502148011441,37.4399671985001],[127.15317829818059,37.441106397360905],[127.1582252982272,37.437928598466],[127.158149200144,37.436372398559406],[127.1603057999399,37.4372425989993],[127.1624617004033,37.4366202993225],[127.1652364002846,37.438592599322],[127.16602240023211,37.43830179973],[127.1664587004295,37.4426632992706],[127.1672875000847,37.4428751999662],[127.1655573015456,37.443037400387],[127.1692840001494,37.446007899742796],[127.1696340015685,37.447212197797306],[127.1674026013733,37.4476174009372],[127.1664170008882,37.4493320006075],[127.16815170015049,37.4509150986908],[127.16942250231139,37.450281199470496],[127.1725316002462,37.453142299691],[127.17130610107189,37.4534287002079],[127.17020070018269,37.4574027998872],[127.1679128004577,37.4595344001235],[127.1680030006037,37.4616803004581],[127.1668037995908,37.4609880008186],[127.1661141995689,37.461543400335394],[127.16636599924979,37.4606600009462],[127.1634110998533,37.4598063027838],[127.1610566996119,37.4633327026794],[127.1590272012554,37.4623816033181],[127.1571618031208,37.4637244019753],[127.15539560051471,37.4632007021467],[127.1532369026734,37.465759399588],[127.1533068003543,37.467568999674],[127.1542292001303,37.4681991001624],[127.15332550042929,37.4681693003738],[127.1529463005909,37.469399600327],[127.1518042999777,37.4697937021377],[127.15137090012661,37.4722649001432],[127.150447700219,37.4726904007118],[127.15030600005,37.4738713001012],[127.1487145000406,37.4739996003347],[127.1489352005655,37.4751314004995],[127.1457259994381,37.4730140004192],[127.14681799945839,37.4737638988542],[127.1477909987171,37.4729149995377],[127.1463053995177,37.4706151018551],[127.14523150059159,37.4705597019105],[127.1443891007842,37.4717168010145],[127.14480190030031,37.4732129998393],[127.1442182009459,37.4745298989033],[127.145953600127,37.476071199538],[127.1459372002287,37.4773684988515],[127.146968100814,37.4763038995595],[127.14875379978919,37.4765279995827],[127.149890400587,37.4776829996628],[127.15190410052129,37.4770485999257],[127.1517593000813,37.4807617003621],[127.1502062010716,37.4814976003077],[127.1495365017413,37.483066698738604],[127.1507867004911,37.4842556975496],[127.1557761979719,37.4844768969437],[127.1591741003926,37.4830530979871],[127.1677512012006,37.4847620960337],[127.170154406102,37.482520898400395],[127.16835660759949,37.4860355990904],[127.1705782053779,37.4897826953433],[127.170957100377,37.4931659020145],[127.1701034992707,37.4896550031022],[127.1630248027373,37.493546801741],[127.16111810464399,37.4964304988573],[127.1641657019353,37.500151199787695],[127.16345820258829,37.5018966982554],[127.1652032008433,37.503649096503],[127.16798489965929,37.503979295872895],[127.16957680183741,37.5026495955767],[127.1705995016247,37.5061727985022],[127.1688857002908,37.5082289025613],[127.1677704989651,37.5073174012374],[127.1644958014691,37.5069563020679],[127.16509790086701,37.5095405994836],[127.16708270035579,37.511986800030705],[127.16551870066651,37.5107376021663],[127.1645819016033,37.5109600019439],[127.16403560214961,37.512948899955],[127.1671854012639,37.514772401169296],[127.1616733030289,37.5203337022716],[127.1631596009074,37.5260797998713],[127.1626646002716,37.5255086012705],[127.160943201993,37.525992700786404],[127.1622442009295,37.5278864005579],[127.1605312012449,37.5270211012282],[127.1609113008648,37.5296221986271],[127.1593668017382,37.5328886983121],[127.1637048001743,37.5318569997957],[127.16261870190439,37.5321434006174],[127.1635629009602,37.5350179977428],[127.1655529014903,37.5367605961733],[127.1681627988804,37.534064398869496],[127.1670085999952,37.5322600006325],[127.16417889970019,37.5317465999061],[127.1652499988319,37.5314027001587],[127.16547839828469,37.530014900899296],[127.16438649866451,37.528816198891604],[127.1659082981587,37.527271998679105],[127.1651072989043,37.524639000185],[127.1664628988158,37.5240566999924],[127.1660599991512,37.5231086003767],[127.1712883013233,37.5221416984693],[127.1730978995137,37.5225687980422],[127.1759082990044,37.5209747997854],[127.173954298633,37.517845400335496],[127.1749821992553,37.5184684981611],[127.1762070981271,37.5160170003297],[127.1715304028038,37.5157118006349],[127.17199750224,37.517019299610304],[127.1712629994325,37.5167223014721],[127.1714244982841,37.516114900839995],[127.16998139817319,37.515077499417096],[127.1716818988086,37.5141788003569],[127.1712846998736,37.5121836997197],[127.1812024993106,37.511601397175504],[127.1762071062399,37.516017004163395],[127.1783598040872,37.5206211995592],[127.1820223037,37.5218219993103],[127.1814842042921,37.5251918993111],[127.18607620146041,37.5249007987099],[127.1851560042616,37.5280895991354],[127.18247299930721,37.5279181031957],[127.17834589899759,37.5289638018739],[127.177001500342,37.530314500523204],[127.17526140109139,37.5304787016312],[127.1740009022822,37.533502998692],[127.1820596988182,37.5346750987663],[127.1840753999149,37.533284199409096],[127.1847203999668,37.5354398976344],[127.18666480145531,37.5353974996951],[127.1860513020688,37.5396670954255],[127.187484105036,37.5410189955793],[127.1867807018622,37.5454045998109],[127.1885336006724,37.5479111988973],[127.1894992997067,37.547549699258795],[127.189586899056,37.5466460985694],[127.19133330057309,37.5469361978766],[127.1935554988942,37.5458317992318],[127.1939023996204,37.5446701990059],[127.1964649993921,37.5440385998806],[127.1963847992571,37.5431234006169],[127.1952196992376,37.5429470002719],[127.19590049964039,37.542198500030096],[127.19570539847669,37.5391944990956],[127.1968872989136,37.538350598410204],[127.19663009917079,37.5367396000212],[127.1993948990802,37.535998900071],[127.19826309898451,37.5346788995177],[127.1991908994017,37.533549199996806],[127.1986466998164,37.5334713998091],[127.2007187997488,37.5336814991934],[127.2010666998757,37.532051099522896],[127.2032343000757,37.532558299588],[127.2030967001005,37.5339240999268],[127.2071727024974,37.536031096954204],[127.2101602995098,37.535448397536896],[127.2106634990066,37.534268298717],[127.212099600446,37.5349334993236],[127.2130293995162,37.534528199728896],[127.2128492002323,37.533722699397096],[127.21398830055979,37.5337467993952],[127.2147123015221,37.53565299731051],[127.2167989017852,37.536774196575706],[127.22021549836859,37.53547989787],[127.22125099978939,37.5342598975027],[127.22752920010011,37.5342297994773],[127.2284506001771,37.5359330997299],[127.2298328046037,37.5350404985443],[127.23100490176431,37.536543299603295],[127.2326940028981,37.53646870154],[127.23346600197131,37.538261299995604],[127.2330333992758,37.5392952014475],[127.23055359915449,37.537709400777395],[127.2296644999937,37.5379442005088],[127.2308155008709,37.5432470997281],[127.22962940067279,37.5429131013573],[127.2270641018388,37.5440745008729],[127.2275070003937,37.5453982004937],[127.225289199976,37.545834400454495],[127.226005999149,37.5452761002827],[127.22443490072011,37.5442815012773],[127.2225750007443,37.5448569013601],[127.221603400337,37.5474461005669],[127.2215724992812,37.5460662003405],[127.2203652004885,37.5459812004255],[127.22055359996111,37.5467823002536],[127.2186545989522,37.5464509996578],[127.2182414001018,37.54545130028551],[127.2170651005417,37.5457873003215],[127.2159496005446,37.5471105009345],[127.2162895002047,37.549528698516305],[127.2180803002986,37.5491230001017],[127.2152554003178,37.5505144013786],[127.2091832007282,37.5577354018755],[127.2034462018929,37.562427802616405],[127.2033850019541,37.565392099652094],[127.2040896013786,37.5660145002524],[127.20307200056081,37.5660914018466],[127.2026159010169,37.5674634004746],[127.2039725010344,37.5693291003796],[127.2025870020118,37.5708842027052],[127.20268580191299,37.573264600324805],[127.2016075995102,37.571774501345395],[127.2003283995918,37.5728036032285],[127.1996773966118,37.572367701664504],[127.2006499984919,37.5704586999487],[127.19918889898099,37.569965900329],[127.19915189881631,37.5691733009862],[127.1977360999223,37.5693439004755],[127.19621740082009,37.5701840010455],[127.19471860020221,37.5751409014016],[127.1935909997142,37.574715001039195],[127.1929091998645,37.575994101282],[127.1913373999852,37.5748891003247],[127.1893870009494,37.575051000826804],[127.19002400048919,37.5764746000716],[127.1895170003493,37.5766009001277],[127.18753579994241,37.5769488000989],[127.18672279993349,37.5755681004537],[127.18531179990069,37.5760207002812],[127.18432869974349,37.5747034002332],[127.1820196995233,37.5740240002887],[127.18198029984681,37.5717356004201],[127.180862299925,37.5716587999839],[127.1808291998108,37.5702081009598],[127.1790203997853,37.5704043001547],[127.1799015993628,37.5702712995482],[127.1791062001582,37.5691662006533],[127.17823489999671,37.5709907006265],[127.1784354997098,37.5700802002519],[127.17737370039491,37.5691115011065],[127.1767290004147,37.570161600152],[127.1752843997562,37.5691966007145],[127.1719669997664,37.5702979012661],[127.1720355995222,37.5683812006779],[127.17054249773929,37.5677769994806],[127.17190139936599,37.567064898549],[127.1723972989867,37.5655441994511],[127.1694480010275,37.563786201366206],[127.16151939828231,37.5675019021455],[127.1595119002898,37.567581402066004],[127.1587574010443,37.5695881000593],[127.15768110009981,37.5698597005359],[127.1581321994335,37.5692755005334],[127.1572426003231,37.568602901206],[127.1565686001085,37.569716101625],[127.1542491992457,37.5679349005261],[127.1565685993065,37.5697160989805],[127.15686889900621,37.5693076993889],[127.15697109895191,37.5674213011868],[127.15482039949211,37.5675464998859],[127.1569710985636,37.5674212991112],[127.1569408995552,37.5632284009056],[127.15644050005561,37.562913301220696],[127.15571299806071,37.5639192011354],[127.1547888989848,37.5627120023426],[127.1519815994577,37.5620344030392],[127.1485801006775,37.5640752011092],[127.1484019000982,37.565606200279795],[127.147317001228,37.5663045003535],[127.1430426026123,37.5628965036991],[127.1416350031153,37.5667664076951],[127.1390681001938,37.5668924079328],[127.1364229000507,37.5658691005178],[127.13305430176389,37.5679201058674],[127.13181109871189,37.565070005780896],[127.12767809649179,37.5615666072067],[127.1211030986987,37.5670993022895],[127.1190882994009,37.5657450027217],[127.1178451006441,37.5673065011602],[127.1181310992079,37.5682885004547],[127.1143000991401,37.566161702482],[127.112036001669,37.567214202475505],[127.1054561047644,37.5641243023909],[127.1024710004744,37.5653482020477],[127.10036520258019,37.568298899097],[127.10274990113551,37.5717620987442],[127.1014250017286,37.5728141993914],[127.10139500175859,37.576204896000704],[127.1055186024585,37.5794451974741],[127.10385700239,37.582831499219196],[127.1055816017408,37.583478099489504],[127.10385700085901,37.5828315013174],[127.1023869018739,37.586588898233],[127.1050412024359,37.587340799854196],[127.1040970013693,37.5872527010117],[127.10343180203449,37.589736298528095],[127.10433500091551,37.5907213999352],[127.1030431006808,37.5938017003304],[127.1037860014935,37.594775399371],[127.1014255006593,37.5965928003029],[127.10292610029511,37.600224900277304],[127.1002269999626,37.602294300394995],[127.0981686005202,37.6018726003508],[127.0988045003057,37.6031066006098],[127.09815320021269,37.602384300815494],[127.0974492003016,37.6041446001922],[127.09638770010969,37.6036237004818],[127.0954884000346,37.6045925007026],[127.0952203994882,37.6037119002482],[127.09314070100001,37.603977400599696],[127.094345300803,37.6053536999931],[127.0938600004049,37.606450000224804],[127.0926987008153,37.6058082007688],[127.09133089866741,37.6067963012714],[127.09041209958619,37.6052785027892],[127.0878570021413,37.606272701795],[127.0872689000751,37.6053964017424],[127.0856569016871,37.606252700886095],[127.0847134021457,37.609098799640996],[127.0854752013839,37.6097871989526],[127.08680720117789,37.6093705999738],[127.08625670231551,37.6148024002974],[127.0878040007682,37.6162104988893],[127.09238360009451,37.6170650999574],[127.090594900225,37.6176506003658],[127.0885396008827,37.6197897005567],[127.08929860012371,37.6210746992717],[127.0911184003476,37.6204433998021],[127.0902314004222,37.6217427994942],[127.0912647002952,37.6213687997563],[127.0905774009404,37.6220261003705],[127.0914763001516,37.6228270999165],[127.090444599878,37.623962100336],[127.08981489945499,37.6225990007149],[127.0884277004449,37.6221263009371],[127.0875543009519,37.6227443011464],[127.08846540026471,37.6239493001119],[127.0864351002235,37.6249944019203],[127.0820013018234,37.624284800308395],[127.0831066003763,37.6274529000901],[127.08269270019609,37.628393300035],[127.08143010051991,37.627911600593194],[127.079634600174,37.6312937000267],[127.07931259967829,37.6303982005496],[127.07817680081409,37.6308589000889],[127.07847540012641,37.6318331003945],[127.07702929998791,37.632292400153794],[127.07564309982939,37.631067800354394],[127.07356990027239,37.631042100817005],[127.0720580026787,37.6336904005126],[127.0742674004476,37.6359396999365],[127.0756877007623,37.639079305368696],[127.07030330031401,37.641242301309],[127.0698466007707,37.6422464003049],[127.0707400002254,37.645290001935805],[127.0666345033855,37.6454372023028],[127.06641070360931,37.649252398487604],[127.0681098019102,37.649961997778],[127.0695769004687,37.6492014000991],[127.06735570052359,37.650352502431794],[127.0634225010379,37.649260801743],[127.0626135018469,37.649996701007105],[127.06280730165311,37.6517740992297],[127.0641291024942,37.6520776005596],[127.0634388031845,37.654073198564],[127.0663149003013,37.656121400950006],[127.0654205004499,37.6562446001673],[127.06562529954769,37.6568173005313],[127.06423750031871,37.6560429005424],[127.0625819000626,37.6589119007485],[127.0621741998831,37.657550200855006],[127.06154580051151,37.6577676006376],[127.0617396003079,37.658834900028104],[127.0602359002593,37.6586196005674],[127.0587610001722,37.659825200817004],[127.0593181984925,37.658134801065096],[127.0574935980547,37.6574650986444],[127.06033680006111,37.657777599775805],[127.06110050008199,37.6588840995029],[127.0613773995571,37.6568623007941],[127.0605897998081,37.657195700357704],[127.0600529990542,37.655578800042],[127.0551602000553,37.6546730003068],[127.0547377989584,37.6533220999021],[127.0592317993879,37.6531739976447],[127.06038239854719,37.6501143992512],[127.0576036992776,37.6454196012161],[127.0565863986607,37.646171599779],[127.05692529980611,37.645021199186004],[127.0576036991277,37.6454195987876],[127.0578931990878,37.6433452003167],[127.0569232994682,37.6434570998086],[127.05717080032879,37.6428500994097],[127.05937470052551,37.643621497126205],[127.0603604002647,37.640854398891605],[127.05940190208669,37.6436309977283],[127.0607653007233,37.6441080972512],[127.06243289905571,37.6429106984486],[127.0624851990876,37.639618999735106],[127.06177909943389,37.6386761998435],[127.0652084990811,37.638855199479],[127.0639047993709,37.6366069014129],[127.0622742991614,37.6361403012466],[127.0613206000074,37.637197300825996],[127.0606054987434,37.6369208008638],[127.06134929931311,37.637150599157195],[127.0622742983996,37.6361403000963],[127.0625985997568,37.632434100009796],[127.0607204995116,37.6312589998398],[127.0614876001667,37.6311166998437],[127.06428199967151,37.6335071996366],[127.0653047995364,37.6305767002469],[127.06339549867509,37.6235564995238],[127.06618039666019,37.6223716983028],[127.06755759968681,37.6194032979],[127.0696417986004,37.620053899591305],[127.07013399810819,37.6182948013504],[127.0681940990503,37.616574200729104],[127.0638311990094,37.6182648024097],[127.0608357990943,37.6158090008105],[127.06052030003829,37.614021001574],[127.0583397002392,37.6151869015197],[127.05818580014001,37.6143066997937],[127.0605202984479,37.6140210001538],[127.05822960045191,37.6123272008478],[127.0574768995686,37.6136214008108],[127.0579809988561,37.6125592009346],[127.0563199997736,37.6115100015897],[127.05353910067379,37.6131552010425],[127.05340000066779,37.6142700000621],[127.05495580035421,37.6151809006091],[127.0513800996972,37.6154711005597],[127.0520206993942,37.6144783001429],[127.05152369968681,37.6141114000302],[127.05255339908359,37.6139756999305],[127.05234419929279,37.6118483020579],[127.0510559992593,37.6135788991075],[127.0523441979711,37.6118483008381],[127.05077449993651,37.6106866008433],[127.0497082998819,37.6113366003786],[127.0483879002299,37.6104154004792],[127.04820599966469,37.6110379001116],[127.046959199998,37.609061500950304],[127.0453726987074,37.6096301019916],[127.044793300116,37.607514600696405],[127.0437730993277,37.6069962005394],[127.04447239926701,37.6061728002838],[127.0429725995722,37.6058967008314],[127.0427389995323,37.6043879011888],[127.0413780999221,37.6054527002359],[127.04117549925009,37.6045678003718],[127.0393690995697,37.6045378004216],[127.0367377998471,37.6027501000105],[127.0395669996287,37.6009821999228],[127.0386351987479,37.599596400280404],[127.0395551989829,37.5991133991362],[127.0393952994644,37.5977733999761],[127.0397904005351,37.5990900986707],[127.0412232991022,37.598835798925],[127.0412266002444,37.5977871996191],[127.0429046004304,37.599200399822],[127.0428493007829,37.602201599604804],[127.04422530008989,37.603502499502596],[127.04702950001679,37.603964599277596],[127.04593920099741,37.604310100137496],[127.0476532001761,37.6058577987027],[127.0503359000266,37.6046641995428],[127.0550612002419,37.6060852991482],[127.0545199007112,37.606424399769004],[127.05529799993309,37.6072579989354],[127.0561921990389,37.607255898937495],[127.056399001004,37.60629769808],[127.05706230022,37.6074136991308],[127.0593211998971,37.6056166996442],[127.0604406002183,37.6067306991793],[127.06177000014999,37.6060699996601],[127.0622640004363,37.6068893995486],[127.0614839004585,37.6077447995607],[127.06283500039791,37.6084344994985],[127.0639463001974,37.6109431994686],[127.0648337999524,37.6103892997345],[127.0654229998315,37.6112510994794],[127.0671879999992,37.6104620993386],[127.0691802993841,37.611821799051604],[127.0697114001166,37.6107150988866],[127.0699925004985,37.6129126993862],[127.07083659965441,37.6131112991876],[127.0727736977173,37.612054900244],[127.0726800977492,37.6112863999981],[127.0705638996992,37.6109157997647],[127.07281229790459,37.6105977987047],[127.0726954984895,37.6065583005139],[127.07079320039179,37.60486220221],[127.0703596990713,37.6067309005831],[127.0699067992396,37.6040690005931],[127.06556210020429,37.605489100371],[127.065773099304,37.6043127996961],[127.0645316999211,37.6032693008626],[127.0636896993594,37.603740600615005],[127.062861,37.6016955008502],[127.0620574971091,37.6016971007083],[127.065325699948,37.599590899161],[127.0644658995911,37.5964673006387],[127.0636283004287,37.5965323005737],[127.0632401987732,37.5975385005813],[127.06182440003451,37.5962421011562],[127.0614103000608,37.5982992003104],[127.0598059997445,37.596801900913704],[127.0585889994974,37.597986499833695],[127.0589161996658,37.597198900040105],[127.0576645996633,37.5967743997965],[127.0590636995733,37.5962619004069],[127.0576265005738,37.5954798007022],[127.0568765004563,37.5954554010425],[127.0570634001218,37.5984037007552],[127.0571776996843,37.5977310006432],[127.0555340998167,37.5977151005004],[127.05578129958691,37.596873200664],[127.0544597001126,37.5963220002826],[127.054083100038,37.5971199002228],[127.0536742999214,37.5964382001171],[127.0517686003212,37.5971054003914],[127.04822329923691,37.5930458013886],[127.0460766002958,37.5932056023483],[127.0453597996418,37.5916325003014],[127.0435144995409,37.593330000388505],[127.0416894992053,37.593227901402905],[127.0426220990397,37.5929003991399],[127.04169529997971,37.591289700335494],[127.0406129003465,37.5913691006794],[127.04062719916931,37.5921270005788],[127.0406128995051,37.591369100476705],[127.0392425001393,37.591355700657104],[127.0359859998915,37.5934976000203],[127.0349577995686,37.5914188999934],[127.0363500993226,37.5905165000898],[127.0342188998327,37.588201700118496],[127.0368844994975,37.5879087998656],[127.034500699938,37.5863699002225],[127.033338200127,37.5879442002607],[127.0322221000316,37.5874005001379],[127.0324561003198,37.5885196000472],[127.03140240078551,37.588686800123696],[127.0315884003533,37.5892237000149],[127.030362400338,37.5882962006324],[127.0292137011252,37.5888622002402],[127.0299592004987,37.589830599650696],[127.0292514998925,37.590207700303104],[127.0286048998246,37.5888080006942],[127.0270951998733,37.5893312001499],[127.02809289900651,37.587843500255396],[127.0268399000665,37.5865338013553],[127.0196600005942,37.5894200003058],[127.0216346005416,37.5910016998627],[127.02091520060151,37.5913272011595],[127.0211311005485,37.5934569993986],[127.0218060014893,37.5937904995851],[127.0213849011047,37.5957260005382],[127.0191544006649,37.5966931006901],[127.016212200171,37.5964912006537],[127.01516250034081,37.5977666004157],[127.0133641992731,37.5959667003932],[127.014849598655,37.5951877997575],[127.01234820032451,37.592931701930404],[127.0095209009253,37.5937810008165],[127.00804529808761,37.5937792016454],[127.00701439866991,37.592714001328],[127.00478440053861,37.5936357015382],[127.0037436991567,37.5930383018366],[127.0005466998179,37.5936990008487],[127.00090519915271,37.5923738009011],[127.0000653991263,37.5918098995315],[127.0011476998025,37.5921954989901],[127.001759199191,37.5907227004629],[126.9985459995799,37.5900137005616],[126.9976424993085,37.588056300446695],[126.9967944991616,37.588054100484804],[126.996779998269,37.586080000763104],[126.99543899961,37.5850099018332],[126.9942193994823,37.5867605004188],[126.9964206987477,37.5829201008549],[126.9950103998638,37.5824054011374],[126.9942293992939,37.5830154006539],[126.994175898909,37.5799920995944],[126.995790699597,37.5795010996915],[126.9954534996315,37.5787931999797],[126.9963843995931,37.5777668005325],[126.9956298996815,37.5777444997795],[126.997232299061,37.576844199696396],[126.9956215982789,37.5763527984155],[126.99660469819901,37.5733620003201],[126.995842198897,37.572014700725],[126.9935033008221,37.572297700355],[126.9912928011011,37.5752462001536],[126.99187330071919,37.577472998359895],[126.9932326009652,37.578456698972595],[126.9929537001312,37.5794970000895],[126.9909007015954,37.579450101370405],[126.98934030035349,37.581268900231095],[126.9892808991666,37.5793541009832],[126.9850565000037,37.5806070003613],[126.9831816996223,37.5789289003267],[126.9819094996844,37.5790475001247],[126.9825405995271,37.5772843010101],[126.97956999975669,37.5782758012901],[126.9794212996473,37.5769978007765],[126.9782540000337,37.5777603003088],[126.97780179914399,37.57661560039929],[126.9768774993949,37.5765068000214],[126.9774819994486,37.576497099476896],[126.9769716998568,37.575491600316596],[126.975716800426,37.575072400727],[126.9741960009071,37.576440599691196],[126.975803501041,37.577472399546295],[126.9737656999733,37.578926900395196],[126.9738414995427,37.578260500426296],[126.9718653997639,37.5780995004589],[126.9698575997989,37.5761636002201],[126.970396099261,37.5759667990565],[126.9698827997743,37.574096600926694],[126.9686037987963,37.5734682999129],[126.96942829909331,37.5729232001423],[126.9687008998852,37.572345099439296],[126.9699850994459,37.571958799561195],[126.9688597995774,37.5690427008509],[126.9665251010408,37.569515401052],[126.9669285001975,37.5709442005501],[126.9655656998867,37.5703402006821],[126.9642862997784,37.570920900233794],[126.9637313999727,37.5702232004001],[126.9627503998916,37.5712609001066],[126.9606122999229,37.569983000562104],[126.96005379929049,37.5664331001004],[126.9616996988553,37.5655213993049],[126.9615591989958,37.5639936008327],[126.9590563994307,37.5626839000644],[126.9584458997122,37.5613471006648],[126.9567551003149,37.5609370009905],[126.9568890001663,37.5619566001279],[126.955499699732,37.5625695003137],[126.9561063990161,37.559965401016],[126.9553475997529,37.5587794000774],[126.9534243002983,37.559132400574605],[126.9530490999683,37.5603835001442],[126.95191509872589,37.5577046014269],[126.9487864003834,37.5575479008628],[126.9477964001222,37.5593607002359],[126.9454394997326,37.5606197005108],[126.94037160044691,37.55637990062],[126.936962999903,37.5577104007711],[126.93325369958579,37.5564528001497],[126.93426649951431,37.554077000036],[126.93373379979,37.5529108997889],[126.9343649000334,37.5533526994259],[126.9373091999378,37.5519645996172],[126.9377977008872,37.5534191995666],[126.93900960183491,37.5539987990526],[126.9391375010283,37.5552848993381],[126.9412658001568,37.5559850995972],[126.9420675996335,37.554978599881096],[126.94366439930181,37.5549157001129],[126.9447187999786,37.5534117995597],[126.94592039939971,37.5534216988331],[126.9479964001195,37.5537941995391],[126.94853770025111,37.555791199755504],[126.9509878002077,37.5566137980271],[126.9520287991667,37.5561125985283],[126.95201699977339,37.553703899870705],[126.9527757001327,37.5544434996895],[126.9531840997243,37.5538665002665],[126.95219369981659,37.5525351999495],[126.95305809966031,37.552281899917496],[126.95305909980961,37.550558099720305],[126.9535612001587,37.551416498964905],[126.9544272992926,37.550988599392795],[126.9544508000845,37.5492577996947],[126.955293000495,37.5494729994986],[126.95541570002051,37.550546499386506],[126.9561686015451,37.5497600991479],[126.95696780108901,37.5511255981709],[126.9598598000677,37.5513157999267],[126.9601333003192,37.554374499572404],[126.9614268997128,37.5555093988281],[126.963559500606,37.555716099932795],[126.96285320070339,37.556340600338096],[126.9631170004396,37.5576143990643],[126.966862500057,37.5566504996412],[126.9676861000463,37.5551761996265],[126.97141049987161,37.554938299397904],[126.9727757003831,37.5531623990983],[126.9730308003634,37.5540854991239],[126.97408519995531,37.553222999428904],[126.97485690035951,37.5535273996943],[126.9746184003368,37.5548638004792],[126.9739498004594,37.5549745006705],[126.97543499971701,37.5569906994032],[126.9765189008539,37.5540540995024],[126.9778083005002,37.554618999828904],[126.97864780020521,37.5567370988718],[126.9803582993227,37.5561919990033],[126.98096960067919,37.5551336996924],[126.9821740006537,37.5566739998125],[126.9845027005771,37.5561326994209],[126.9858115000761,37.556798099886905],[126.9840971018476,37.5578938992746],[126.98541950052521,37.5584620987064],[126.9861989996886,37.557237199447805],[126.9873107005205,37.5570520991118],[126.9895814999204,37.5591268994238],[126.99084819865371,37.5589723995783],[126.99204969883499,37.5558371953458],[126.9926265001484,37.556505199209994],[126.9934605009796,37.5550892983885],[126.99838299907721,37.5556381977174],[126.9995773978828,37.5531201002355],[126.99870559944539,37.5507907002088],[127.0008229980045,37.550340200165],[127.0018499966698,37.548067301887],[127.0002803967809,37.5445045036465],[126.9989119977733,37.5424677019381],[126.99528889992001,37.54210720025149],[126.9958119990949,37.5413529994084],[126.9947027002042,37.5401375006239],[126.993660698785,37.5401989003341],[126.9941582996795,37.5389498005282],[126.9921223998459,37.5387885004814],[126.9916012999217,37.538076700457],[126.990074399988,37.5388245007457],[126.98841589983961,37.537333600621295],[126.98725620025911,37.5373843001574],[126.9872005002662,37.5390246992677],[126.9888353001354,37.539218399922106],[126.9880910004721,37.5392301005597],[126.98845330003161,37.540306900088],[126.9870439001194,37.541095300274606],[126.98683649963249,37.5348408007076],[126.9846046992441,37.534838299481294],[126.9864517992711,37.534878599238496],[126.9892954998227,37.5328104992717],[126.98889990066621,37.533362799607296],[126.99036609953511,37.5335181992315],[126.9910489991724,37.5320832004207],[126.98992579900009,37.5318174996329],[126.990510799715,37.5318991988646],[126.9913838992277,37.5293944991648],[126.99138310049369,37.5305482986107],[126.9936915986982,37.5294898991775],[126.9934863993132,37.528089899147595],[126.9951654994092,37.529474998838495],[126.99728299977289,37.5282838993843],[126.9980378998418,37.5291862993282],[126.9984560999255,37.528358699580295],[127.00139879773441,37.5324661955938],[127.0023864009653,37.5320903951299],[127.0043222011916,37.533386898832006],[127.00690610050229,37.5327431989061],[127.0079696009135,37.5332132999304],[127.0081739000816,37.534247900804296],[127.0067594999548,37.5342925004376],[127.005896100116,37.535316100407805],[127.00590340036189,37.5383319000738],[127.0039264001297,37.538819500659805],[127.0044534001864,37.5408233988492],[127.00617260086,37.5423250992107],[127.006281900649,37.5438548981995],[127.0073544998161,37.544445097624894],[127.0086359008892,37.5432652982343],[127.0116466991809,37.545404798506],[127.01380829788219,37.5440879995049],[127.0115531000687,37.5426181004807],[127.0112414995468,37.5416006006839],[127.01011730011831,37.541668800779796],[127.0096331979121,37.5405226006129],[127.0114657005241,37.5396997992163],[127.0144639003241,37.5407589992641],[127.01609599930251,37.5399613992547],[127.0160407989743,37.538019999670105],[127.0201214942982,37.537420798766],[127.0208889985318,37.5297236990806],[127.0198601995745,37.5275340012585],[127.01642580141919,37.526705800838904],[127.0124065003083,37.5278878034352],[127.01143009927709,37.5291729008043],[127.0110761963391,37.528742899197],[127.0115213001105,37.529212299200495],[127.01240649922529,37.527887800525],[127.0118891997426,37.522126906285905],[127.01003299976071,37.520504000044205],[127.0102327995609,37.5184777020705],[127.0079280946802,37.5191792059839],[127.0070535953067,37.51874280603],[127.0030453953418,37.5141234067652],[127.0007890975981,37.5131705077181],[126.9961535995404,37.5153761043064],[126.99453820087429,37.5184849011249],[126.99604699789191,37.515334302534896],[126.9950602973204,37.5125834046002],[126.99121579667221,37.5087417067612],[126.9853333988917,37.5064730006469],[126.98559759893931,37.5049780018238],[126.98225230228459,37.5043262024756],[126.9808113001508,37.5065723082724],[126.9780711013287,37.5054134008368],[126.9693090038014,37.507606207965196],[126.9713472017632,37.5161886993827],[126.9732650017005,37.516281000045296],[126.97232410051599,37.5163915000198],[126.97247920032119,37.518179099082296],[126.976644300553,37.5170008987343],[126.9780526000118,37.5182913993929],[126.97934000182039,37.5178641988281],[126.9785235010596,37.519250899934306],[126.97964680065189,37.520756498750096],[126.9830335979017,37.5198066995862],[126.9831076985163,37.5186313991574],[126.9836433998156,37.5201676993889],[126.9908769004091,37.5204123990063],[126.9927000000967,37.5192799995274],[126.9954412009365,37.520528600351795],[126.99392280011621,37.5214914004622],[126.9923000006874,37.5204794018662],[126.9911613018261,37.5208718014738],[126.9909044996075,37.5235023005175],[126.9903145996893,37.520428000648],[126.9869598993771,37.5208153010916],[126.9859574004286,37.5197745006181],[126.98352990023649,37.5217774007783],[126.9835522006456,37.5235973002318],[126.98045020005021,37.5232663010212],[126.9794682005892,37.5250980011176],[126.9794491989921,37.5245509007392],[126.97764599967509,37.5252147011641],[126.9769276993522,37.5235162996252],[126.9779168992602,37.5228559998518],[126.977317499565,37.5217209001247],[126.97503809923161,37.5209403011223],[126.97302450124519,37.5216151004475],[126.97442960038589,37.5225548999593],[126.97244580097251,37.5225521997751],[126.9727332010565,37.5237684995393],[126.9679798012762,37.5271948998531],[126.9687768008534,37.5287904990289],[126.9702459994418,37.528330699405],[126.9714153008142,37.5301171996497],[126.97238690039781,37.5300027997652],[126.97163430095141,37.5308122998579],[126.9733185003313,37.5312840996307],[126.9734705005178,37.5323344993683],[126.9753629993314,37.5325386993158],[126.975210099973,37.5316692998461],[126.9753630004968,37.53253869980681],[126.9768869000545,37.532351599426796],[126.97730000020739,37.5332832993206],[126.9782776011249,37.5331530997692],[126.9792269001756,37.5341477987745],[126.9803563001323,37.5338450993571],[126.9808706010788,37.534675199526205],[126.9790473004891,37.534836300673504],[126.9785150000528,37.5363775003104],[126.9776689005128,37.5360831005984],[126.9774900001579,37.5377355003742],[126.9750456002223,37.537161400656004],[126.9750161998452,37.5376608003238],[126.9742997002009,37.536743901048595],[126.97436920014229,37.5377882001794],[126.9738390003331,37.5376053005061],[126.9729330012391,37.539570898540504],[126.9743412002999,37.5416696001319],[126.9735553006348,37.5426112003339],[126.9733818003362,37.5452646995546],[126.97510770065209,37.5454798996495],[126.97582570083681,37.5470166996172],[126.9739432001355,37.5469525003435],[126.9716408002085,37.5488826003361],[126.9718415988888,37.5482062004317],[126.9701109994813,37.5476582002739],[126.9673443994597,37.5447849996757],[126.96857789936129,37.5439372999326],[126.9674320996991,37.5425612000639],[126.9676779993068,37.5402272994138],[126.968532599365,37.5405716994888],[126.968288399361,37.539597899475496],[126.9693552996252,37.5399947991392],[126.9708529999847,37.538910799181195],[126.97085040044131,37.5407801986362],[126.97312249971141,37.540315299244405],[126.9724616003723,37.537435702124],[126.97133189940459,37.536567400452405],[126.9702782998938,37.533519701833],[126.9674886991725,37.530902901954704],[126.9681784991421,37.5309988992418],[126.9677661995544,37.529823900416794],[126.96678279993121,37.5295647003366],[126.9667300000648,37.5306300000353],[126.9651060009517,37.530853200048305],[126.96547580118539,37.5318992009584],[126.9641262010199,37.5327233007132],[126.9646816007417,37.5343499010602],[126.9637352008753,37.534466800176595],[126.9645146999055,37.534905800263196],[126.9620935982188,37.5346637001362],[126.9614132997951,37.532379200223204],[126.9640429989554,37.5313218987394],[126.963614699942,37.5272467011616],[126.9630731993618,37.5275254009586],[126.961641998472,37.525937499447],[126.96304479924841,37.5251396992051],[126.96284340045639,37.5240211989631],[126.96455690017251,37.5236312991764],[126.9659947987346,37.524311998495705],[126.9661891985402,37.5216305011772],[126.9639864989835,37.5219134982494],[126.9670391019144,37.5199909971008],[126.9691447997795,37.5199403991898],[126.96965559926869,37.5189335001967],[126.96915489979861,37.5172119998798],[126.96980719919631,37.5168811001913],[126.9651209038826,37.5094379076345],[126.9610049015192,37.5115603081636],[126.9594213030654,37.5181203016167],[126.956001400267,37.519075602724804],[126.9496101048411,37.516606806081796],[126.9485689953585,37.5172146028571],[126.9496100982931,37.5166068004743],[126.9446839002544,37.515911800854],[126.94298340021311,37.516735901064],[126.9424306997055,37.515941301497],[126.9397551990746,37.515739199697],[126.9402656007561,37.5147901995654],[126.9414130010053,37.5158816990251],[126.9425480000704,37.514911699622],[126.9440775985408,37.5152959992377],[126.94340889975139,37.5131289005404],[126.94220000021829,37.5141000008068],[126.9409438001256,37.513271200692195],[126.9392270009524,37.5137152002702],[126.93913020035829,37.5144439002129],[126.9383625999079,37.513099600264795],[126.9376676000766,37.5130788002582],[126.9373216005244,37.514139100150004],[126.93665420002351,37.5133752007953],[126.93535199907929,37.5139606009352],[126.93488019955109,37.513147301748496],[126.93352780090349,37.514892800003],[126.9338652010312,37.5167859990115],[126.9382710009484,37.5176412997565],[126.93595600046281,37.5200025002748],[126.93640570048649,37.521908000294104],[126.9347170000655,37.5212103010507],[126.93255160087969,37.523146100104796],[126.9341870996526,37.5257388987004],[126.93601800028621,37.524389799890905],[126.93684320012609,37.5258437001254],[126.9350845999284,37.5283036003399],[126.9316298995608,37.530231500429096],[126.9312500999862,37.529591500475505],[126.93043689939691,37.5302602004895],[126.929951799752,37.5269314017022],[126.9286051010987,37.526982501651105],[126.9279867001088,37.5288879009037],[126.92584919967881,37.529268701516706],[126.9244834007438,37.5286336012458],[126.9237279010587,37.529410500910096],[126.9213742995053,37.5281812014532],[126.9197684011112,37.530767598866795],[126.9211714000408,37.531516000167805],[126.91976840042399,37.5307676015302],[126.9167585007741,37.530951700432205],[126.9156022002902,37.532096501368],[126.9165901990331,37.5308554006075],[126.9136869997606,37.5307860003706],[126.91294579973591,37.5297321998341],[126.913507399253,37.528276300406404],[126.9129892986332,37.5266711993315],[126.91418180080909,37.5260780993371],[126.9154905002496,37.5281161995339],[126.9187316988843,37.5248498007663],[126.9163489998577,37.5233915007855],[126.915849898426,37.5239736986625],[126.9170603994283,37.5220263995531],[126.9165248998515,37.518391802024304],[126.91354990021621,37.5216621000856],[126.9133702994063,37.5206742008404],[126.9122235999145,37.5213844010569],[126.910752400478,37.520635900807605],[126.9103043009261,37.52103060041291],[126.91134810086349,37.523601400105896],[126.90934269985989,37.523332601013],[126.9086289005737,37.5238192005264],[126.90814000055211,37.5261708001198],[126.9086453997021,37.5263658011716],[126.90676710089069,37.5263811009719],[126.9058059006517,37.527290400323196],[126.9068620003824,37.5300278984636],[126.9081109991334,37.529378699112804],[126.9080627004132,37.5286130989612],[126.9084136012975,37.5309620993846],[126.9066791013698,37.5321714998658],[126.9073356012234,37.533103400775104],[126.90507740037809,37.5343952007746],[126.90490460055089,37.5358248993449],[126.9057906000752,37.5365529988672],[126.90653120171531,37.5360770985822],[126.9063324042247,37.5366295073039],[126.9019772999213,37.5390803002944],[126.90293129975501,37.5375823993272],[126.9041697993499,37.5373940987754],[126.9049627998681,37.5352325001587],[126.9033538999799,37.5355234001056],[126.8999973998139,37.5382833005113],[126.89959239943481,37.537365601202],[126.8976395999753,37.5380847002592],[126.895588499467,37.537639000795],[126.8961418987848,37.536183400601296],[126.8955944987613,37.5354698006103],[126.89701559866711,37.5328970000929],[126.8964111988719,37.5322819985577],[126.89773549877269,37.5316758985589],[126.89743749907069,37.5297741004607],[126.89503859986701,37.5288168011924],[126.8921437990171,37.525692400728595],[126.8888652008476,37.5252032007215],[126.88835780019599,37.527577900838295],[126.8852715998418,37.5269175005864],[126.88499899911119,37.52580120072059],[126.883310899911,37.5260622999826]]],[[[127.1205969993149,37.413201799439804],[127.12311199951651,37.408615199524],[127.124716298336,37.408104900049196],[127.1250335001203,37.407178599150505],[127.1264637996274,37.4075813998891],[127.1272988995325,37.4065575997507],[127.1270778999952,37.4054058998937],[127.1283273993504,37.4055263993694],[127.12853490013791,37.4048947977991],[127.13143680129551,37.4063385980716],[127.1307592008263,37.407356199835505],[127.13222900004469,37.4085521986373],[127.1343818005458,37.408554200001696],[127.13387110057259,37.4094479993732],[127.13510130037331,37.4117917000006],[127.13438240071731,37.412613799618605],[127.1354754008872,37.4126020999521],[127.1348076004283,37.413938699865],[127.13572410046021,37.4142872999967],[127.13444050013689,37.4157704001359],[127.13341389935009,37.415776900000296],[127.1329503998197,37.4144389011409],[127.1311055999152,37.4144110005538],[127.1305965004091,37.4158173995815],[127.1320777018511,37.416730400057496],[127.1300375005947,37.4168703018996],[127.1291543014782,37.419100800801104],[127.12767989965481,37.419463900317695],[127.1258130999128,37.4178616001764],[127.1265349991866,37.416957000626596],[127.1250217006999,37.416301401282205],[127.1245465998925,37.4168240001684],[127.1205969993149,37.413201799439804]]],[[[127.125047098796,37.3929931998631],[127.12441959930379,37.392527899819896],[127.1251469999975,37.392962498867206],[127.1259105995097,37.3922506992026],[127.1263559999068,37.3931967988406],[127.1270591992036,37.3926506993867],[127.12701669969479,37.391354300021405],[127.1277325997557,37.3919608994933],[127.12836770004729,37.3901877992339],[127.1304011002174,37.3935031994421],[127.1325554009488,37.3922327995583],[127.1326029005047,37.3942118997742],[127.1308102021685,37.395725799458404],[127.13265920125521,37.3990406006107],[127.1286712003459,37.3993503004359],[127.1293493016737,37.4016596986892],[127.1282578997006,37.401832400327706],[127.1289081988546,37.4006128002909],[127.1284153994569,37.3993385007946],[127.1267076003385,37.399656200476905],[127.12670050007449,37.4003654004231],[127.12670759963041,37.3996562004066],[127.125233799962,37.3993158999955],[127.1273725991846,37.3974295002387],[127.1261174003559,37.3961260010308],[127.1253908989402,37.396781799712],[127.125047098796,37.3929931998631]]],[[[127.0546128995494,37.6637371004977],[127.05577179959481,37.662645399119],[127.0578137994991,37.6630321993223],[127.0574399990181,37.6612438994243],[127.0589315000812,37.6610010999423],[127.0578958009209,37.6627618993999],[127.05900670007999,37.6636437990997],[127.06062470025421,37.6635554993086],[127.0620642010441,37.6654512998402],[127.0610390000312,37.6650695009477],[127.0596992998109,37.6661164004874],[127.05670780149289,37.6658099007883],[127.0572196009811,37.6671743994238],[127.0585955007327,37.667548599702506],[127.0568733997075,37.6674815001497],[127.055448899644,37.6671100001995],[127.0570739994166,37.667151599459494],[127.0559466002354,37.6651401009057],[127.0548626993585,37.6660535998877],[127.0546128995494,37.6637371004977]]],[[[126.9487265995098,37.5449679002622],[126.949441999525,37.5425785994274],[126.9499912001556,37.5423026991384],[126.9503557000738,37.5431150991632],[126.9513711990583,37.5421612001171],[126.9508356993111,37.5418372996038],[126.9530972993331,37.5430703988678],[126.95412300035039,37.5424457001768],[126.9530973005881,37.543070399847394],[126.9539915002044,37.544556900555804],[126.9533652998879,37.543454301051604],[126.9524885006591,37.5448206000189],[126.9527880005743,37.546410799400995],[126.9537886005612,37.5464100997412],[126.9536897004038,37.5474256002901],[126.9514462995299,37.54728030031],[126.9517706000419,37.546261200185896],[126.9487265995098,37.5449679002622]]],[[[126.9380839995745,37.4831786000068],[126.9392494996172,37.4798489997064],[126.94026689959719,37.480430999324106],[126.9412930994522,37.4791870996718],[126.94315210005061,37.4795880994729],[126.9431963003233,37.4804394997032],[126.94420019990079,37.4800315994616],[126.9440264002191,37.480900399599506],[126.9463363004285,37.481844799951396],[126.9438057999848,37.4842555006359],[126.9418615001736,37.4840405005506],[126.9415091006319,37.484779000753605],[126.9380839995745,37.4831786000068]]],[[[126.87008739960861,37.5470061004144],[126.8711231995068,37.545418398871604],[126.87161000004251,37.5465799986911],[126.87266079993671,37.544809999767395],[126.87329769963169,37.5453117994498],[126.8731157999455,37.5440712997002],[126.8739443996585,37.5436434995381],[126.8748080994443,37.5442666991408],[126.87610069955609,37.5434838992974],[126.87685480104591,37.545074799215705],[126.879532000117,37.546161199973604],[126.8797944001383,37.547547700225],[126.8786063005136,37.5478141004852],[126.8788157002155,37.548720900319196],[126.8781594000472,37.548869500078304],[126.8771092005099,37.548017301026896],[126.8763897012294,37.5491146999295],[126.876877499448,37.5498039001449],[126.8740712001746,37.5478699006391],[126.87041639974869,37.5479850003214],[126.87008739960861,37.5470061004144]]],[[[127.1202213995961,37.384500199700696],[127.1215443998994,37.3824092997222],[127.1231466000713,37.3841166984571],[127.124153600483,37.3836111996256],[127.1233080002759,37.3840916000985],[127.1247879001839,37.3846432997529],[127.1243287008985,37.3849605997278],[127.12541259981461,37.3863736983147],[127.126668299646,37.3857155986453],[127.1273802006669,37.3865110012594],[127.1259546999011,37.3867567008882],[127.12448230050279,37.388392900475],[127.1216248998099,37.3878609008876],[127.1210499002765,37.388528000315],[127.12031229959109,37.3877059999999],[127.1202213995961,37.384500199700696]]],[[[126.9575014991004,37.5408715008528],[126.9585998989414,37.537127400424005],[126.9603355996223,37.5362435997424],[126.9643684006782,37.5378635005413],[126.9635397001766,37.5417471014186],[126.9608348000293,37.5421112005533],[126.96073769982439,37.5414684997365],[126.961916098646,37.5409279002771],[126.9607890994405,37.5396913009155],[126.9596981005315,37.5398534007534],[126.96021209981741,37.540812800752995],[126.9575014991004,37.5408715008528]]],[[[127.02183329883209,37.6046370006992],[127.02263479964431,37.6046098993653],[127.0222972988207,37.6025451998695],[127.0227757999027,37.603910398866496],[127.023776498902,37.6034152993616],[127.02260339935259,37.6012515991505],[127.0252418999529,37.6014396993809],[127.0250814008392,37.6028289991435],[127.0273327020079,37.6028035997599],[127.0279714006418,37.6064219006084],[127.023775099739,37.6068274007758],[127.023547898589,37.6047642009881],[127.02183329883209,37.6046370006992]]],[[[127.1070665994164,37.395907398986196],[127.1090838973991,37.394889900003704],[127.10965799896469,37.3923653002241],[127.1112239998295,37.3912652984348],[127.11356090256079,37.3917705013107],[127.11386140051171,37.3961139994206],[127.1149803009793,37.3963252003792],[127.11295590133,37.3971577996915],[127.11269780007491,37.398310200724595],[127.11165099956189,37.3971555008255],[127.1096906999972,37.3979123007501],[127.1094489984298,37.3963493020743],[127.1070665994164,37.395907398986196]]],[[[127.0488319991212,37.4535860010256],[127.0506224966489,37.4526110992051],[127.0507749959585,37.451406397441204],[127.05254579418771,37.449517299330296],[127.0524027950458,37.442221103885096],[127.0532781979579,37.4415551975571],[127.0575137010209,37.443128194934395],[127.0598314987031,37.4404216976409],[127.06332880810889,37.4427551006878],[127.060989703758,37.4436515036503],[127.06026350382321,37.4460724019471],[127.063356201233,37.4484778015447],[127.0584834041438,37.4519174007154],[127.0606023020196,37.4546071012269],[127.05870660053259,37.452890002968],[127.0570736990373,37.452615702112304],[127.052755700459,37.4546358009458],[127.05253110023929,37.4538034005353],[127.0517985999109,37.4550735005136],[127.0503171996775,37.454446000943996],[127.0513920992085,37.453136900377196],[127.05062249978761,37.452611100507],[127.0488319991212,37.4535860010256]]],[[[126.8934233992458,37.519197498010996],[126.8946446986521,37.517273699566694],[126.89390989981659,37.514568999554804],[126.8945413000211,37.5157919986779],[126.8962071006301,37.5152189991749],[126.8958208020385,37.5166339997511],[126.8972942005651,37.517444798940296],[126.8980893011275,37.5169371999133],[126.8959795007078,37.5171433016841],[126.8953564001511,37.5201779001209],[126.89463089923309,37.5191708012401],[126.8934233992458,37.519197498010996]]],[[[126.9273753992734,37.4840754001343],[126.9278784000126,37.483502099303905],[126.928508799713,37.483931999527606],[126.92858629935431,37.4829795989668],[126.9298873001788,37.482281399348295],[126.9320097005014,37.4844590002036],[126.9293036999107,37.486320500212095],[126.9279830996617,37.4849583003456],[126.9281320996265,37.4841034008124],[126.9273753992734,37.4840754001343]]],[[[126.9441366994366,37.538187399981],[126.9450496998328,37.5388454991934],[126.9460842001195,37.5382701994681],[126.9474554002223,37.5387261998468],[126.9467962006643,37.53876610008199],[126.9474967003874,37.5399915996045],[126.9486145004528,37.5404467002475],[126.94808980016691,37.541067500252396],[126.94828059956781,37.5403229005795],[126.9468116999364,37.540537801936104],[126.9447861997985,37.5390470007593],[126.9442356996467,37.5394555007217],[126.9441366994366,37.538187399981]]],[[[127.1059500998454,37.3685263999993],[127.1078588990428,37.3683807994449],[127.10786609961299,37.3655732985447],[127.1083296008228,37.368263999260705],[127.1096085995624,37.368431899447394],[127.1097352004971,37.3678616996582],[127.1100238005928,37.3686566994683],[127.1059500998454,37.3685263999993]]],[[[127.1121476987948,37.3785908991254],[127.1127914987983,37.3779982991475],[127.1119653995125,37.376804799637306],[127.11316869920431,37.3776728987759],[127.1169674000839,37.3767460998928],[127.1157687015242,37.378902099245096],[127.1165736001027,37.3807148009465],[127.1150016010348,37.3795841016107],[127.1143412992678,37.3802563010924],[127.1121476987948,37.3785908991254]]],[[[126.9129513993156,37.550494999531],[126.9130129993961,37.548467599276904],[126.9142290999957,37.548766599431204],[126.91417300046811,37.5503949003176],[126.9137444001393,37.5498393007971],[126.9129513993156,37.550494999531]]],[[[127.053291998691,37.678646099397305],[127.05523859950219,37.677531599497904],[127.0552449998873,37.6760759996954],[127.0568253007307,37.677024399526104],[127.0571884012279,37.6783437985753],[127.0554242000212,37.679523001111],[127.053291998691,37.678646099397305]]],[[[127.02913689936109,37.6121159003714],[127.0301687999617,37.611431799032296],[127.0302882009323,37.6123429992763],[127.0316316005472,37.6128837997273],[127.0295703004719,37.6147503005461],[127.02913689936109,37.6121159003714]]],[[[126.98788369826529,37.4627706003607],[126.9881783005592,37.4611806987985],[126.9889542997832,37.4622149977642],[126.9908179027513,37.4626821010054],[126.9909467012035,37.464941501102004],[126.9892881993733,37.4665728008295],[126.9878109996086,37.4661179999576],[126.98846669954591,37.466082499841896],[126.98788369826529,37.4627706003607]]],[[[126.8728552994688,37.5247728997959],[126.87390570040779,37.523807798876604],[126.8748709998515,37.5245924988214],[126.87715930081811,37.5242684997575],[126.8760954009995,37.52441919999929],[126.8754923995576,37.5259857009947],[126.8751562991307,37.5249690009797],[126.8728552994688,37.5247728997959]]],[[[127.10565079800041,37.606815602034494],[127.105703200213,37.6055816990195],[127.1070414002016,37.6060740000033],[127.10565079800041,37.606815602034494]]],[[[126.9227601998275,37.555995100251295],[126.9237776991288,37.556961099008205],[126.925379500635,37.5562548000947],[126.92516120055271,37.557646400438806],[126.9236415997342,37.5574791009117],[126.9227601998275,37.555995100251295]]],[[[126.94148529930659,37.547975199897],[126.9415058005173,37.547184799383494],[126.94279250008489,37.547430000061],[126.94148529930659,37.547975199897]]],[[[126.95673789988129,37.5753603993274],[126.9579967003498,37.5743408993789],[126.959566300228,37.574750699731105],[126.95673789988129,37.5753603993274]]],[[[126.8544361992566,37.561679999560106],[126.854864399775,37.5605138995535],[126.8554672008493,37.5609614995197],[126.8556355999008,37.5617166002841],[126.8544361992566,37.561679999560106]]],[[[126.9266270986746,37.4997496000413],[126.9282696983478,37.4997460997112],[126.9280987998987,37.4985200990984],[126.9294391010575,37.4997255993317],[126.9274258990504,37.5006438005134],[126.9266270986746,37.4997496000413]]],[[[127.004538398701,37.5270260991726],[127.0073117001036,37.5283227996171],[127.0076801997282,37.5308125008368],[127.00634029935871,37.5306946010004],[127.0057677975839,37.5278787993415],[127.004538398701,37.5270260991726]]],[[[127.1233552994853,37.3946239998102],[127.1232727001158,37.3937683997584],[127.1235444001122,37.3957575011298],[127.1233552994853,37.3946239998102]]],[[[127.1184312998337,37.432949799994304],[127.1189490002182,37.4317061990818],[127.1211105001509,37.4326302996869],[127.1184312998337,37.432949799994304]]],[[[126.892307398853,37.5380805001564],[126.8938240004411,37.5380757002094],[126.8929532987766,37.5389388006425],[126.892307398853,37.5380805001564]]],[[[127.0023797981812,37.4515342998282],[127.0030952006398,37.450584099734],[127.0031083007915,37.452071200593],[127.0023797998181,37.451534301096096],[127.0017198997474,37.4524108010324],[127.0023797981812,37.4515342998282]]],[[[127.06053489937909,37.623025999758006],[127.0616342009845,37.6227739995906],[127.0610959006198,37.6236978007233],[127.06053489937909,37.623025999758006]]],[[[126.97187749805971,37.5503701004895],[126.97221140054431,37.5502872995623],[126.9724126000387,37.5517549007604],[126.97187749805971,37.5503701004895]]],[[[127.2000590999809,37.5322214998842],[127.2005173003914,37.5324936001186],[127.20013869987649,37.5325643004077],[127.2000590999809,37.5322214998842]]],[[[126.89161059942761,37.509523200831495],[126.892789399164,37.5078041007865],[126.89277510027509,37.5074366996485],[126.8927894006471,37.5078041002648],[126.89161059942761,37.509523200831495]]],[[[127.1199702992197,37.3948926991725],[127.1207908009153,37.3940833995624],[127.1201454006226,37.3945929998827],[127.1204312005547,37.394955500870005],[127.1199702992197,37.3948926991725]]],[[[126.96891679977371,37.5757280999291],[126.968802499888,37.5756441000131],[126.968901399817,37.5755774995883],[126.96891679977371,37.5757280999291]]],[[[126.94950899935351,37.4933144003571],[126.9507765010262,37.49291869942709],[126.95067020159901,37.4940359001714],[126.94950899935351,37.4933144003571]]],[[[126.9569724999188,37.4966070999253],[126.9571936002199,37.496749499701],[126.95725610021809,37.496838800154],[126.9571935999536,37.4967495000991],[126.9569724999188,37.4966070999253]]],[[[127.13364249971809,37.3981631998939],[127.1340383005571,37.398478600461495],[127.1336920999191,37.3983887003248],[127.13364249971809,37.3981631998939]]],[[[126.9204050994221,37.5004072000267],[126.92030289996329,37.4999213996702],[126.9204115005149,37.4999182996688],[126.9204050994221,37.5004072000267]]],[[[126.9296841997862,37.5289991999518],[126.92986519983859,37.5289021997314],[126.9298652001858,37.5289022000475],[126.9296841997862,37.5289991999518]]],[[[127.0576033996553,37.5977568999459],[127.057932200176,37.5977920995473],[127.0579540001324,37.597809000011196],[127.0579321999992,37.5977921004353],[127.0576033996553,37.5977568999459]]],[[[126.86504899928,37.5260369001071],[126.8651633009148,37.5260198990522],[126.86516330062791,37.5260199003359],[126.86504899928,37.5260369001071]]],[[[126.9122622995648,37.548898199901494],[126.9123495995366,37.548785999321],[126.9123496001567,37.5487859999865],[126.9122622995648,37.548898199901494]]],[[[126.95604710005351,37.4909432002495],[126.9560891000281,37.490977899853696],[126.9561094999911,37.4910224001703],[126.95604710005351,37.4909432002495]]],[[[126.9892608996154,37.5392437001884],[126.9892609000595,37.5392436999885],[126.9893443001491,37.53930660016481],[126.9892608996154,37.5392437001884]]],[[[127.0220672989203,37.6017582999604],[127.02206730021881,37.6017582997609],[127.02206730018851,37.601758300249],[127.0220672989203,37.6017582999604]]],[[[127.1194880984502,37.4572667988466],[127.1194881024172,37.4572667981035],[127.1195003005477,37.4574348008527],[127.1194880984502,37.4572667988466]]],[[[127.1249954999526,37.3842788999637],[127.12512730069871,37.3843723999818],[127.1251116001156,37.3843910002974],[127.1249954999526,37.3842788999637]]],[[[127.0260597992661,37.626400700076395],[127.0260598003119,37.6264006999676],[127.0260597999522,37.6264007002928],[127.0260597992661,37.626400700076395]]],[[[127.10882309988729,37.350029701255],[127.10882309921459,37.3500296994156],[127.10882310037469,37.3500296990677],[127.10882309988729,37.350029701255]]],[[[126.8813225991378,37.5039419993835],[126.8813225998792,37.503941998814305],[126.8813226008186,37.5039419996962],[126.8813225991378,37.5039419993835]]],[[[126.91242799974201,37.5495369001295],[126.91242800045531,37.5495368998391],[126.9124280001842,37.5495369001984],[126.91242799974201,37.5495369001295]]],[[[126.9652667995708,37.571139299966596],[126.96526680089849,37.5711393004286],[126.96526680046199,37.5711393010109],[126.9652667995708,37.571139299966596]]],[[[126.97061959958731,37.5368594000624],[126.9706047000319,37.5367913997772],[126.9706196001169,37.536859400160395],[126.97061959958731,37.5368594000624]]],[[[126.97470319966169,37.491502700404695],[126.9747298001722,37.4914814995797],[126.9747298003367,37.491481500084596],[126.97470319966169,37.491502700404695]]],[[[127.0529012997185,37.6643964001542],[127.0529013004639,37.664396399408],[127.0529013004584,37.6643964001873],[127.0529012997185,37.6643964001542]]],[[[127.102981199114,37.6128036013206],[127.1029812003574,37.6128035997032],[127.1029812005199,37.6128036006392],[127.102981199114,37.6128036013206]]],[[[127.1046383996078,37.4951138996726],[127.10470529998241,37.494969799885],[127.1046383998398,37.4951139003373],[127.1046383996078,37.4951138996726]]],[[[127.1223523996319,37.394729600557895],[127.1223524004882,37.3947295997046],[127.1223524007906,37.394729600568596],[127.1223523996319,37.394729600557895]]],[[[127.13645029921501,37.413321700241895],[127.13645030088881,37.413321699512],[127.1364503004377,37.413321700331096],[127.13645029921501,37.413321700241895]]],[[[127.2030110992036,37.409364200933396],[127.20301110038899,37.4093641990756],[127.2030111006237,37.409364200359896],[127.2030110992036,37.409364200933396]]],[[[126.8912614992493,37.508528999228304],[126.89126150057609,37.5085289991096],[126.8912615006919,37.5085290000616],[126.8912614992493,37.508528999228304]]],[[[126.9578954000801,37.4973737001853],[126.95789539990629,37.4973737000509],[126.9578953999729,37.4973736998276],[126.9578954000801,37.4973737001853]]],[[[126.9668100995519,37.5549505994288],[126.9668101006737,37.554950599947496],[126.96681010005,37.5549506005489],[126.9668100995519,37.5549505994288]]],[[[126.9768494993888,37.5457071994779],[126.9768495005422,37.545707199607506],[126.976849500375,37.5457072005332],[126.9768494993888,37.5457071994779]]],[[[127.0093374006926,37.5297070999938],[127.00933739908331,37.529707099384304],[127.0093374008951,37.5297070994334],[127.0093374006926,37.5297070999938]]],[[[127.046684999874,37.689252800388395],[127.0466849996606,37.689252799897396],[127.04668500029369,37.6892528000584],[127.046684999874,37.689252800388395]]],[[[127.05269749980499,37.4799078998049],[127.05269750057029,37.4799078997497],[127.05269749987549,37.479907900271],[127.05269749980499,37.4799078998049]]],[[[127.06950139930359,37.5905369001313],[127.0695345002006,37.5904386995787],[127.06950140004739,37.59053690011859],[127.06950139930359,37.5905369001313]]],[[[127.1075719995823,37.4987044996655],[127.107572000231,37.4987045004113],[127.1075719995073,37.4987045003514],[127.1075719995823,37.4987044996655]]],[[[127.1354547997203,37.4096400995453],[127.13545480000761,37.4096401004512],[127.1354547992637,37.4096401001946],[127.1354547997203,37.4096400995453]]],[[[126.9133309994995,37.4872173004012],[126.9133309998981,37.487217299959],[126.91333100041889,37.487217300152196],[126.9133309994995,37.4872173004012]]],[[[126.9398423998435,37.5146865000027],[126.9398424001627,37.5146865000014],[126.9398424000863,37.5146865001796],[126.9398423998435,37.5146865000027]]],[[[126.95012769975439,37.582706800415195],[126.9501276997618,37.582706799771394],[126.9501277003384,37.5827067995752],[126.95012769975439,37.582706800415195]]],[[[126.9534788998499,37.544971599903995],[126.9534789003607,37.5449716000674],[126.95347889988629,37.5449716005042],[126.9534788998499,37.544971599903995]]],[[[126.9608412998516,37.521334499958705],[126.9608413003497,37.5213344998319],[126.9608413004163,37.5213345006635],[126.9608412998516,37.521334499958705]]],[[[126.9649508006419,37.5395767012421],[126.96495079986289,37.5395766993503],[126.96495080105569,37.539576700705695],[126.9649508006419,37.5395767012421]]],[[[126.9768291999039,37.5758687000016],[126.9768292000978,37.5758686999975],[126.9768292000062,37.5758687001075],[126.9768291999039,37.5758687000016]]],[[[127.0111852995219,37.530612299364904],[127.0111853015295,37.5306123007107],[127.01118529990899,37.5306123004547],[127.0111852995219,37.530612299364904]]],[[[127.0134493996371,37.6026636999162],[127.0134494006407,37.6026637001019],[127.01344940007999,37.6026637005899],[127.0134493996371,37.6026636999162]]],[[[127.0989359995363,37.4747566003323],[127.09893599962139,37.47475659957],[127.09893600047789,37.474756599631796],[127.0989359995363,37.4747566003323]]],[[[127.15029249988001,37.5656860998364],[127.15029250022391,37.5656861000777],[127.1502924996453,37.565686100239404],[127.15029249988001,37.5656860998364]]],[[[127.15342459901649,37.566783300233396],[127.153424600314,37.5667832984468],[127.15342459974839,37.5667833015581],[127.15342459901649,37.566783300233396]]],[[[127.1685584998684,37.5632462998997],[127.1685585001691,37.563246299861],[127.16855850021031,37.5632463001251],[127.1685584998684,37.5632462998997]]],[[[126.88310009925789,37.544206099327496],[126.8831001002243,37.544206099885294],[126.88310009968029,37.5442061006521],[126.88310009925789,37.544206099327496]]],[[[126.9665465998391,37.5337430001327],[126.9665465999012,37.5337429998726],[126.9665466002636,37.5337429999515],[126.9665465998391,37.5337430001327]]],[[[126.98951539991201,37.5399045998138],[126.98951540053571,37.5399045997525],[126.98951539999081,37.5399046000527],[126.98951539991201,37.5399045998138]]],[[[127.06231239991159,37.6560754999829],[127.06231240002569,37.6560755000033],[127.0623123999816,37.6560755000565],[127.06231239991159,37.6560754999829]]],[[[127.0703976999381,37.5846329999873],[127.0703977000838,37.584632999962196],[127.0703977000915,37.5846330001803],[127.0703976999381,37.5846329999873]]],[[[127.07396039947561,37.6610861994014],[127.0739604001601,37.6610862001519],[127.0739603999815,37.6610862000095],[127.07396039947561,37.6610861994014]]],[[[126.93809159965261,37.513465199871796],[126.93809160005921,37.5134651999806],[126.9380915997544,37.5134652008239],[126.93809159965261,37.513465199871796]]],[[[126.9546666999131,37.495713700045904],[126.9546667000148,37.4957136998346],[126.9546667000474,37.4957137000257],[126.9546666999131,37.495713700045904]]]]}}]}