{"type":"FeatureCollection","features":[{"type":"Feature","properties":{"interval":15,"stationId":"7872218776"},"geometry":{"type":"MultiPolygon","coordinates":[[[[126.89777839759431,37.253984797726694],[126.899970298324,37.253160096821304],[126.90106180071999,37.2545805978461],[126.90277569900611,37.2526803997463],[126.90321509856669,37.2509966014301],[126.9013097003995,37.2482409041412],[126.900026999676,37.2480025994122],[126.9048461943428,37.248491097005704],[126.90860810106139,37.246901298853096],[126.9094276014049,37.2481414979908],[126.9110051002545,37.2461945994433],[126.91378120220381,37.2487336987597],[126.9149744011987,37.251367796637695],[126.92123220206851,37.250895299389306],[126.9153400041638,37.2515000034783],[126.90778290473371,37.2581883022795],[126.9085497027169,37.2612302025433],[126.90743119936161,37.2584382030266],[126.90515109876429,37.2590233035065],[126.9056077950777,37.2582396983132],[126.90106179962369,37.2545806019723],[126.9005057973756,37.2561025028727],[126.89777839759431,37.253984797726694]]]]}},{"type":"Feature","properties":{"interval":30,"stationId":"7872218776"},"geometry":{"type":"MultiPolygon","coordinates":[[[[126.88562229791759,37.2586718016195],[126.8899475991127,37.253586199438104],[126.89194759711269,37.2525278004965],[126.89013729892301,37.2497705032538],[126.8874398959222,37.2491377986448],[126.8891300978905,37.245530800347396],[126.8887696996792,37.244623600008495],[126.88962600042511,37.2442292993912],[126.8899126006182,37.245288199391396],[126.89355330042119,37.243987797334796],[126.89401570149009,37.2460105976432],[126.8965519989538,37.246266997386805],[126.8966471004465,37.24376259755989],[126.8994470984554,37.2441646980907],[126.9006476981774,37.243018198428004],[126.9009076012846,37.2411326979252],[126.9076039993557,37.2472902935144],[126.9097137972459,37.2453814954232],[126.9123337014619,37.244384897903],[126.9133368004588,37.246702495585396],[126.9173370028794,37.24639109449409],[126.9236034966129,37.242665198219996],[126.92437650012569,37.2428994970281],[126.9258287999974,37.2404585981654],[126.9322243016048,37.246804999892],[126.93025820149249,37.2465013007641],[126.9304423028369,37.2491943047951],[126.9273850005527,37.2526443008316],[126.928296502194,37.2557700050957],[126.9253931050974,37.2583596025061],[126.92000150777619,37.266061805309405],[126.911990299073,37.2640001046238],[126.9106268001327,37.268855200279795],[126.9002422095885,37.2689104024528],[126.8990977000694,37.2681928014758],[126.90270939656071,37.2664654989358],[126.9039153953547,37.262529802871505],[126.8978813985701,37.25897520277],[126.89626600018549,37.2587775029677],[126.8944601954135,37.2603765033082],[126.89402889638069,37.2592065989039],[126.89138449902511,37.257788600321895],[126.8915125993631,37.256319501465995],[126.88956210042001,37.2573899006566],[126.8891670007067,37.258877504807195],[126.88562229791759,37.2586718016195]]],[[[126.9631054996436,37.243083999830205],[126.9630774000675,37.242675999877505],[126.965557201202,37.2443497006054],[126.9631054996436,37.243083999830205]]],[[[126.8839212982798,37.262000401258796],[126.88369880000481,37.2617756995604],[126.8841267019576,37.2620016028284],[126.8839212982798,37.262000401258796]]]]}},{"type":"Feature","properties":{"interval":60,"stationId":"7872218776"},"geometry":{"type":"MultiPolygon","coordinates":[[[[126.7769949966465,37.3269146008107],[126.7767200979008,37.3259818989195],[126.77991539826509,37.323599196218794],[126.7814805008013,37.323772799148],[126.7844433978384,37.3268316960891],[126.7857801965016,37.325935896984895],[126.78717619826061,37.3221900965965],[126.7867923006217,37.31910479831],[126.789923801472,37.3198304961199],[126.7906886020333,37.323827996661],[126.7918115009104,37.323890996598],[126.7971054974657,37.3192158981007],[126.79865219939241,37.3187161950671],[126.80015519788941,37.315469898313395],[126.7995272992052,37.3141441981557],[126.8017152970172,37.3146817976181],[126.803969699305,37.3134505971762],[126.8049746999685,37.310972198517604],[126.80811850073201,37.311635099097295],[126.80902439988459,37.313550599405396],[126.81229549795411,37.3135492990742],[126.8120174982321,37.3117443008792],[126.8098517990572,37.3116177013383],[126.8099886989154,37.3108607983379],[126.81479639902571,37.3086095994435],[126.8154864988365,37.3079871998489],[126.8153359992031,37.3063048974373],[126.8179693997744,37.3055032992553],[126.81828909992561,37.3040565994879],[126.8197731991838,37.304968099196],[126.8196137993009,37.3033864985286],[126.8213605012447,37.3036619982201],[126.8226482999963,37.3053217992029],[126.8235113997717,37.3047765989868],[126.8246947007961,37.3056057990702],[126.82355560114681,37.305271200463],[126.8256761999401,37.3085642986737],[126.8268704996309,37.3078520994029],[126.8267290010626,37.306155598476195],[126.8285201005978,37.3085469991349],[126.83170869734549,37.3066635000246],[126.83193489925709,37.304006797843904],[126.83562119973321,37.303447399062904],[126.8379967996016,37.3007844994524],[126.83778290015309,37.3001983995307],[126.8403350998155,37.299194397478594],[126.8425097991872,37.3000838972947],[126.8443098973871,37.298149599229],[126.8421043983887,37.2942746019103],[126.8393755977523,37.2948510988504],[126.8420356952317,37.2921337000407],[126.840463396804,37.2879638042106],[126.8382831989842,37.287948204226204],[126.83726039862711,37.2869005961803],[126.8405070981424,37.2822109988292],[126.84202309860211,37.2815245986856],[126.8426313999181,37.278969696343395],[126.8441726000558,37.2801815987881],[126.8470967986237,37.2784721999146],[126.8476257953842,37.2760361940192],[126.849816194507,37.2746374944731],[126.8509036944514,37.2724355954548],[126.8518179010893,37.273553297801705],[126.8540948048271,37.272741797133],[126.85805980086211,37.2741491957256],[126.8602455991038,37.2732489964513],[126.86062989871951,37.2695566001437],[126.8589983975525,37.2685945987106],[126.8619347990849,37.2675163984216],[126.8653264963948,37.2632079988878],[126.8616690974129,37.261003800128094],[126.86289409984431,37.2603989980214],[126.8662232973889,37.2614368983785],[126.8657694978427,37.258954100861295],[126.8668536976913,37.2563873005962],[126.86502819743839,37.2530674003031],[126.8667944988083,37.2534939985807],[126.8697020972154,37.2517305981997],[126.8710251958923,37.2489322009981],[126.8708286956396,37.2468438995029],[126.8666563980697,37.2452432955894],[126.87071739400871,37.238621602211104],[126.8668794978466,37.237842102990605],[126.8642726993647,37.2384262020702],[126.8668794979748,37.2378420993616],[126.866509398363,37.2364792006041],[126.8649953986417,37.2364049984741],[126.86837899720001,37.23521769693],[126.8719021984512,37.2319078961144],[126.8732540993136,37.229101794792],[126.8754154002707,37.2284579996397],[126.87628070253689,37.2305411011924],[126.8738725049451,37.2347180970154],[126.8770984017192,37.2382216935118],[126.8801667012207,37.2394033001289],[126.8805779015702,37.2432365001795],[126.8821568999912,37.245768997647005],[126.8832532988948,37.2448510985649],[126.8870205979733,37.24587819817],[126.8836136977737,37.240343199189],[126.8856969948548,37.2369617951404],[126.88961959336321,37.235118796422505],[126.89465119048779,37.2261842925103],[126.8989038977758,37.2212515943992],[126.9022684053622,37.2222383960215],[126.9065524030361,37.2286456936172],[126.91108199850649,37.2306470916158],[126.9205005016129,37.2328465899704],[126.9243400977733,37.226647896169105],[126.92487170121319,37.221032695106004],[126.92593240342609,37.2239398970249],[126.925160903387,37.2260243003731],[126.9253851031628,37.2296531967442],[126.93284819651029,37.225586595378196],[126.9350632995569,37.2260471988564],[126.93503680108661,37.224909098442296],[126.93807410014759,37.2247391988792],[126.9394818015461,37.2263176004585],[126.9384372017211,37.2270770006993],[126.9388288014913,37.2310506972861],[126.9428866991249,37.2338573944217],[126.9453666003506,37.2305975973251],[126.9480349026515,37.2303182978765],[126.9515031993655,37.2317294966269],[126.9517931997533,37.2266688997558],[126.9541323976296,37.2258971003914],[126.951777200065,37.2228397998026],[126.9534969998507,37.223909799043405],[126.9547517015221,37.223389999096305],[126.9554616023788,37.2252456002129],[126.9576176011959,37.226269400086],[126.9571343007005,37.2295783985736],[126.95881759901721,37.231406896745106],[126.9611171011141,37.228322496075094],[126.964213400755,37.2291689971703],[126.9664158008379,37.226918698460196],[126.9671218001319,37.2278705975083],[126.96920039999641,37.2283952966839],[126.9703680988287,37.22522919985],[126.9719519986636,37.2254318985855],[126.97257209883479,37.224128798528604],[126.9741062020172,37.228696297437004],[126.9782610010744,37.232891495388],[126.9827253011681,37.2324719960968],[126.9849771008776,37.230829997813196],[126.9839582028866,37.233897399040494],[126.9868059993575,37.2352420991958],[126.9881945020864,37.2335682990346],[126.9890448013038,37.2381642014187],[126.9880591022895,37.2389717006112],[126.9927027014342,37.2441257009042],[126.99233320204141,37.248705696975],[126.99426730010731,37.252454693226],[126.9982742032052,37.2536207970523],[126.99947340121,37.2572956964025],[127.0009279997554,37.2571425965556],[127.00312319781321,37.2541807990908],[127.00499859936369,37.2530685995109],[127.0054656997932,37.2515964996675],[127.0069050996004,37.2512945990113],[127.0070536000333,37.2501275995746],[127.0081160001285,37.250642698893],[127.00986720040841,37.2496622984037],[127.013153800382,37.249955999601596],[127.01451139993131,37.2513924989606],[127.0163437001867,37.251259599083895],[127.0171001998258,37.2526248987471],[127.0180729998734,37.2522944985261],[127.0187773998804,37.253636798446],[127.0225099983433,37.253208298190096],[127.02280979804351,37.2509617004367],[127.023601500241,37.2513929995691],[127.02582219873429,37.2500278996789],[127.0253145990667,37.2491699998407],[127.026654299543,37.2490581999084],[127.0264735001078,37.247940999890794],[127.0299008011469,37.2490103993603],[127.0303900007944,37.250148199777996],[127.02990079943889,37.249010400565204],[127.0272531000431,37.2484424008501],[127.026600200934,37.2502755998013],[127.0277366997975,37.2508499992269],[127.02885380018539,37.2501494996339],[127.0294908998607,37.2516270991906],[127.0311271994133,37.251820298682595],[127.03196049935279,37.250200599272],[127.03181429956669,37.247887000126696],[127.0326392996735,37.2484598992855],[127.03378359852921,37.2478518998935],[127.03192359969749,37.2457534994543],[127.0337836001166,37.2478518978716],[127.0350810992231,37.246330799289105],[127.03507399923019,37.2448453007746],[127.0336791988314,37.2452822003868],[127.03242779928169,37.2445216987552],[127.0350195996727,37.2417628990184],[127.03697790096659,37.240985897920595],[127.0383901995543,37.2413630975434],[127.0386607001106,37.2433953979806],[127.0389106990338,37.2413543975521],[127.0401827005309,37.2431757994146],[127.04266819863139,37.2433907990775],[127.04380859992341,37.2425705995635],[127.0435937006372,37.244738499248896],[127.0466339999733,37.245190899695196],[127.0495327969574,37.2424217012053],[127.04609099949731,37.2413683996091],[127.0497276989939,37.241111198319196],[127.0500984998101,37.238899598790006],[127.0540064993562,37.2392296994403],[127.0536291987261,37.236658999782],[127.0542834003481,37.2375860990703],[127.0563788989149,37.2368418993657],[127.0563669003794,37.236176998484694],[127.0573683997002,37.2370420986722],[127.0602892002025,37.236675099840596],[127.05981850064741,37.2369684999884],[127.0605000009008,37.2385117991419],[127.06228520080741,37.2392836995662],[127.0632809013177,37.2411069988428],[127.0674664004224,37.242168099215604],[127.0681620021408,37.2427718995712],[127.0676285011168,37.2449636989218],[127.0698585006035,37.2444154998157],[127.06835030065821,37.2455593996539],[127.07265289911449,37.2470234992378],[127.0728505001915,37.2452600996409],[127.0738492011505,37.2452092996097],[127.07477610015789,37.2465632992025],[127.0757593012648,37.245945398393395],[127.0785183005027,37.246258599288694],[127.0791747007209,37.2476647993994],[127.0799519009519,37.2474056995769],[127.0807376006599,37.2501641999075],[127.0789968007028,37.251508000080705],[127.0794097003332,37.2531971997982],[127.08083240045981,37.2536551996482],[127.0807611005311,37.2545694987339],[127.0849192004909,37.256384599711794],[127.083685401494,37.258579199509],[127.0839898025784,37.2602667996132],[127.0814897008406,37.2608410019529],[127.0809576013727,37.262321500472396],[127.08241720026069,37.264478499712204],[127.0831397995381,37.264677899512805],[127.08337110116449,37.2638235001047],[127.0835034003838,37.2656366998949],[127.0822746004452,37.2655320003331],[127.082033199856,37.2666729003585],[127.0782909008268,37.264226901540795],[127.0775460003825,37.265711901258],[127.0758688998051,37.265798001444196],[127.0766505987324,37.2650500006657],[127.0758281968865,37.2637930001856],[127.07618479672739,37.2619122990413],[127.0750047979074,37.2606194003342],[127.07229929961889,37.2598319007107],[127.07073709780511,37.2571388019078],[127.0656931014592,37.2573672005652],[127.0657632991326,37.2586433005076],[127.0643979992883,37.257739399803],[127.065235798429,37.2566614001693],[127.0631353993696,37.2555604016084],[127.06228399969261,37.2527010017017],[127.0610739009027,37.2534754009273],[127.0602393993353,37.2554249009176],[127.0596349980991,37.2510176000824],[127.0587972989368,37.250119500980496],[127.0576880991229,37.2504471011498],[127.0583395984654,37.249648800261205],[127.0574835993214,37.2488148010952],[127.05669590010909,37.2492735006365],[127.05467539798009,37.247591801451],[127.04910600134089,37.2481742011795],[127.0473523030946,37.2512834980702],[127.0505896998572,37.2495325998211],[127.0515889002034,37.250493598987696],[127.05223870041681,37.25003279901],[127.0527886002609,37.250712099920804],[127.0522386999972,37.2500328010253],[127.0519128003231,37.250897100161005],[127.0530420004647,37.2531428997783],[127.0516936012118,37.2542196016611],[127.0515688013366,37.2565747993059],[127.0530325002207,37.2569154000254],[127.0515806004414,37.2592875005596],[127.0504460000719,37.2579152006965],[127.0499973008588,37.2593888002339],[127.0488922011004,37.2595812004395],[127.04906200105691,37.2623290000269],[127.048158299885,37.2613955009188],[127.0467991997996,37.2622079004197],[127.0463652002336,37.2617902008374],[127.0441592007824,37.2655785997907],[127.0430530002461,37.265353300449505],[127.0432768005207,37.2671948003874],[127.04235920045541,37.2664549011371],[127.0414426005494,37.267455800391204],[127.042035098677,37.26881620190581],[127.04029569942931,37.2655751031259],[127.03749670222831,37.2660517026493],[127.03683840288659,37.2693117993892],[127.0379988017262,37.2697765989244],[127.0379639006202,37.2712066994602],[127.0394160998565,37.2718564991181],[127.0405078002043,37.2710285996934],[127.040811900626,37.272112400160296],[127.0406479994523,37.2715442004962],[127.0397739003264,37.271963400077],[127.0398922003722,37.2729360000628],[127.03928329987609,37.2726566007187],[127.0387083005632,37.2742415012358],[127.0379476999941,37.2738110012637],[127.0371420983651,37.274938500997195],[127.0361230986639,37.274036701498204],[127.0331912999345,37.273859400373],[127.03187949986071,37.2725231010433],[127.0308179003447,37.2726877009161],[127.030437999727,37.273786301218195],[127.0297826997682,37.2727340012422],[127.0276736009845,37.2739243005029],[127.0287079005022,37.2752513993953],[127.0280131012765,37.277435100759796],[127.0271492993556,37.2768469015989],[127.02591260059229,37.277331801114],[127.02577400024269,37.2788294007215],[127.0239327000652,37.279852400780506],[127.02196840101031,37.2793751012734],[127.0213083006482,37.280600200972906],[127.01959410081601,37.2800381003661],[127.01993950100241,37.2814737001584],[127.0184001998954,37.281866901087696],[127.0180741999203,37.2811962006547],[127.01470339974381,37.28147100040071],[127.0144667998174,37.2800248007004],[127.0136563999503,37.2803222002175],[127.0126816997475,37.279250000755894],[127.0118996999468,37.280104400598],[127.0104825996827,37.277848001676496],[127.00761180255351,37.2794918000327],[127.0080134019797,37.2808481000499],[127.0065717006034,37.281707501018005],[127.00638259990049,37.2829418010034],[127.0040564992788,37.2819128011027],[127.00194219927191,37.2825683013305],[127.0027505990757,37.2819110997452],[127.0012847985995,37.2810393004475],[126.9986205002542,37.281055200664],[126.9961193996923,37.2830456009562],[126.9943912996207,37.2823414010987],[126.9941526996251,37.281485000479606],[126.9916980998499,37.2813613022426],[126.9939413988009,37.2778656996685],[126.9929108998314,37.2763201012141],[126.9925746001677,37.2768114007228],[126.9902822975976,37.2758651039468],[126.9886072984823,37.273578401194996],[126.9871150999745,37.2727139020595],[126.984974701377,37.2732692015676],[126.9844403973142,37.2764067049262],[126.98131089893799,37.2748707030892],[126.9827350991225,37.2695193002865],[126.9820433989724,37.2683839008814],[126.9800931985859,37.2686756001124],[126.981137798121,37.2664278008149],[126.9743995011728,37.263723801897704],[126.9734981020742,37.2658478997736],[126.9719447994505,37.2667455008804],[126.97084479892979,37.2637029017529],[126.9685658989043,37.260943602160694],[126.965824400002,37.2628993020151],[126.96589309878931,37.260915099779595],[126.9646173000651,37.2598574008373],[126.9639023007801,37.2598395008552],[126.9641967001353,37.2612426004155],[126.95975990062449,37.2614322041129],[126.9593652984121,37.2586930026993],[126.9545808996124,37.2589047005286],[126.9553775991326,37.258866399858],[126.9532006986076,37.253668904484904],[126.94997999872899,37.255733503910996],[126.9482268004822,37.2556941039504],[126.94661360209541,37.2574958021487],[126.94818650052251,37.2608100988344],[126.9492464994625,37.261629898014604],[126.9506390013848,37.2610007989276],[126.9491586993632,37.2617151002705],[126.948186499914,37.2608101012271],[126.94678880153889,37.2622522002557],[126.9484708008074,37.2664914006475],[126.9481661995999,37.2651651020988],[126.94538989920879,37.2655442030588],[126.9436014991061,37.2643226030912],[126.9423512003564,37.2645937028201],[126.9403025024051,37.2676376997761],[126.9396514002984,37.2672681003937],[126.9389253992263,37.268308500478106],[126.9361848971297,37.2629449046849],[126.9317538015608,37.2618520057778],[126.9291453041693,37.2693296983001],[126.92953560377899,37.2699603976694],[126.9331215001931,37.2697176979121],[126.9361611019754,37.2705975986049],[126.93533340214121,37.2720577020253],[126.9337075996731,37.2717661013672],[126.9283795990237,37.2745097044521],[126.9127392146641,37.2714330075288],[126.90816440053,37.2750423040654],[126.90014720854721,37.2750103040974],[126.9001877085067,37.2813824977252],[126.8995438951918,37.282392012600205],[126.8938885944277,37.2808298079779],[126.89555869929559,37.279001699986004],[126.893603301127,37.2774878014714],[126.891381598791,37.2799513014523],[126.8893436007929,37.2790884020004],[126.8859013042352,37.2808826002062],[126.8867962011991,37.2833966032074],[126.88428249732699,37.2829018025736],[126.8828586959773,37.2808511027542],[126.8837220991516,37.280752199976504],[126.8847352975986,37.2781814020495],[126.8824027999311,37.275721504509406],[126.878335301227,37.2759610040237],[126.87649600092381,37.2778146012858],[126.8753731990653,37.2771324999253],[126.8759602984782,37.276144100913704],[126.873557598082,37.27533890029],[126.87333269830691,37.273519702109205],[126.87120369664609,37.2740419022253],[126.8673408993607,37.272766700432],[126.86553709831699,37.2737978006667],[126.8637217002131,37.2720733006891],[126.8620283005043,37.2725126012808],[126.85987410112399,37.2763652995813],[126.86340200124339,37.2774972988135],[126.8665068997828,37.2774931972751],[126.867987799862,37.279068697198504],[126.8696879019517,37.277476498152396],[126.868764102756,37.2798643988791],[126.87025460219,37.2814316979336],[126.8702098007963,37.2843332978499],[126.8712919020689,37.282636597351996],[126.872694901826,37.2835715012176],[126.8724910020299,37.2867382980508],[126.87477040150651,37.2873384986738],[126.875470601994,37.2898127997779],[126.87713580018061,37.2916573997046],[126.8764627991912,37.2920802010568],[126.87554440010959,37.2910112021258],[126.87413930058919,37.2931921003976],[126.8742241008899,37.2948181995513],[126.87573380049321,37.2947622995392],[126.87631060032379,37.2959379992437],[126.877484404088,37.295904998165994],[126.8767748008792,37.3001549964699],[126.8799575057139,37.3024515985718],[126.8758000045167,37.3024135017667],[126.8750015019636,37.303370703610405],[126.8747254018524,37.3066562005812],[126.8753535011936,37.3073274002971],[126.8735818006965,37.3073708014397],[126.8729659006185,37.3086780005279],[126.87361490283881,37.3109939000857],[126.8727859019801,37.311790203982795],[126.87167259862909,37.3110782021852],[126.86912530041859,37.312991100856195],[126.8660200993854,37.3122699011481],[126.8647003007052,37.3134058000122],[126.865025100276,37.3155857003673],[126.86271209995469,37.315357000484696],[126.86187410046199,37.3145448009765],[126.8593822000387,37.3148542008937],[126.8580501000013,37.3130154013125],[126.85718180086961,37.313330200997704],[126.8559120008988,37.317870300754606],[126.853853001701,37.3195479999561],[126.855150101451,37.321187302523995],[126.8538529988337,37.3195480025922],[126.8519538007329,37.3191421029981],[126.8486021998949,37.3209265018847],[126.8469767003675,37.3250957002557],[126.8469026992113,37.3243895002753],[126.8454422006718,37.3245649000999],[126.8458479996132,37.325733900703206],[126.8446935992354,37.3250681001776],[126.8450039994253,37.3243266999475],[126.8440670003227,37.3228930008934],[126.84360150026521,37.323462800351905],[126.84321940036719,37.3229746005754],[126.84162740195919,37.3235576999923],[126.8429744006784,37.3248805994356],[126.8439058005235,37.3247947994794],[126.84298180084271,37.325008200382],[126.8430274005504,37.3258802000209],[126.8417273003306,37.3250233004151],[126.8410363010451,37.3262522996835],[126.84164270026149,37.3270202004756],[126.8410362998411,37.3262523007064],[126.83998920088821,37.3264006005581],[126.8383602002709,37.3274326002465],[126.8388920011357,37.3279978015811],[126.83746120040051,37.3284743007757],[126.8371219997959,37.326440502184795],[126.83531879641619,37.326074103309],[126.8312857004493,37.3227986065845],[126.8278636038714,37.325483003900096],[126.82858900314599,37.3288316005515],[126.82728790001791,37.3272771015882],[126.8224610996841,37.3272424041005],[126.8191729008343,37.329045102407704],[126.8172499997724,37.331645300434396],[126.8169096979467,37.3291328991942],[126.8138773992722,37.3275200004478],[126.8134755993296,37.3263303005233],[126.8122938995869,37.3266719003189],[126.81192949989641,37.325368501011305],[126.8093694007987,37.3260316005636],[126.8099829006533,37.3274612004793],[126.8095021003752,37.3278515003386],[126.80567530000201,37.326682002667795],[126.8030068008302,37.3281012022011],[126.8021582994722,37.3270805017408],[126.8000025971316,37.3269886007014],[126.798113199021,37.324653003037],[126.7975048996293,37.3245011031889],[126.795761999729,37.3269023010442],[126.7932573996298,37.3239720023321],[126.7911760012059,37.3245387020269],[126.7899443024376,37.325963200602395],[126.7917566006253,37.327136099429495],[126.7908860004711,37.327627600662],[126.7910224003347,37.3287611995284],[126.79153170087109,37.328533100177005],[126.7909425000469,37.329473300885994],[126.7888082007924,37.329785100293904],[126.78928300131639,37.3321845019887],[126.7867245994751,37.3292549012067],[126.78454530084811,37.330691801128],[126.78480330019279,37.3321096006577],[126.7825602991937,37.331515702291696],[126.7835597976846,37.3298333006834],[126.78166669925,37.326615103479696],[126.7769949966465,37.3269146008107]]],[[[126.9295954986934,37.3571935989669],[126.9296646999676,37.3559001992863],[126.9306757001506,37.3571150987901],[126.9324393995999,37.356307599638704],[126.9309187998265,37.3550475988906],[126.9337347994701,37.354759998622],[126.93484749981181,37.3553757995321],[126.9352978001331,37.354816899481904],[126.9376701016137,37.3557554974287],[126.9384307006341,37.3588051003405],[126.9372711005679,37.36019429996951],[126.9385268008173,37.3605391004405],[126.9378276991797,37.3606932006894],[126.93692399980891,37.3593205010203],[126.93586480052801,37.3600816006486],[126.9364778005296,37.3611804002022],[126.93449959996539,37.3601164004367],[126.9338723003304,37.3608784999825],[126.9348395001266,37.3609764998454],[126.9344365000107,37.361465000103905],[126.9323686996043,37.3615060004814],[126.9315774996986,37.3591249003685],[126.92988049974619,37.359340500310005],[126.9308258992292,37.3582145996835],[126.9295954986934,37.3571935989669]]],[[[126.9649612999187,37.3014211006736],[126.96613699900671,37.3011912992767],[126.96627379866429,37.2992458001488],[126.9682716996053,37.2969765994967],[126.97157160000451,37.2960780981805],[126.9735508001464,37.2978025991877],[126.9762063002406,37.297601699728204],[126.975332200377,37.2981156000677],[126.9779137007758,37.299932899813705],[126.97730250021009,37.3019556005443],[126.9726253999973,37.3056902001579],[126.9723988994824,37.3043472009766],[126.9699621993088,37.3042280010472],[126.9663283000341,37.302503701153],[126.96618289942,37.3015020005257],[126.9649612999187,37.3014211006736]]],[[[126.75789359777771,37.3384676007609],[126.7596405001979,37.340783098637004],[126.7622945010001,37.3409090979725],[126.7645992986953,37.342156596725005],[126.7655887980673,37.3387304999724],[126.76667979951061,37.3389927992128],[126.7671794997827,37.3378500995167],[126.7694155987178,37.3369907001818],[126.7690132990198,37.335355301693305],[126.7679745995636,37.3350681997709],[126.7710209995832,37.336030399297],[126.7737811003756,37.3350011987623],[126.774255401212,37.3339072999415],[126.77434960138099,37.3379293019082],[126.7738543018763,37.3397199001176],[126.77234280156381,37.3409652002024],[126.77428520361279,37.3421434002981],[126.7722286996859,37.343249101752],[126.7673182002888,37.342745100186804],[126.76018260001689,37.3446534025195],[126.7576481991382,37.34290329911801],[126.7575039997582,37.3412600997545],[126.7592278981324,37.3398476011052],[126.75789359777771,37.3384676007609]]],[[[126.7363523992212,37.3519413008141],[126.73861939846661,37.3504537985869],[126.7372375998484,37.3490381000026],[126.73800220024259,37.3485764979182],[126.73991439946221,37.3500746997882],[126.7402458998978,37.3485509987125],[126.74187329953129,37.3488663992273],[126.74179870032161,37.3478051998012],[126.743066700323,37.3485809993212],[126.7439790003166,37.3480197993085],[126.74576109985699,37.3488511993464],[126.7469911002501,37.3484977995415],[126.7467207016534,37.3520942978299],[126.74961950092809,37.351191799832],[126.7488600006938,37.3513293029481],[126.74751880203499,37.353951400326],[126.7437642015343,37.3564719005627],[126.7439704998314,37.3575459023311],[126.7417393998553,37.3575636020973],[126.7391773002949,37.3554546012274],[126.73829139984049,37.3566226023641],[126.7384238981419,37.3541951010086],[126.7363523992212,37.3519413008141]]],[[[126.89829949896969,37.3067294999015],[126.9007794001872,37.302491699010396],[126.902245600659,37.302623698553],[126.9017695015052,37.3033438002425],[126.9027456005291,37.3043463992399],[126.9051047007159,37.303841599219595],[126.9111656016431,37.3064627931278],[126.91072250167471,37.3105182010531],[126.9116271001984,37.314402599968304],[126.9109540008715,37.3149107994601],[126.9113286007219,37.3168310975325],[126.91412379792669,37.3152800990835],[126.9138450994718,37.314351798122495],[126.9148362010539,37.315229000331],[126.9129679009679,37.3182184012348],[126.91065560083919,37.3175066016734],[126.90394849990079,37.3191409005596],[126.9041127980494,37.316364901556206],[126.9026934994687,37.316485701435404],[126.9007164990832,37.317979999927395],[126.9026018978106,37.3158368984345],[126.902599497813,37.314290799980604],[126.90156709884539,37.3132508010206],[126.899573999531,37.313547999579896],[126.9018983972066,37.3121525009754],[126.9029422950303,37.3098614972727],[126.89829949896969,37.3067294999015]]],[[[126.9080817994311,37.325758299610996],[126.91167929882451,37.3265812970487],[126.9136038968999,37.3243607992692],[126.91273579836569,37.3226942982649],[126.9153899007403,37.3235068973816],[126.9167755993546,37.3219405989479],[126.91811849998071,37.3228610979159],[126.91966549969479,37.3224470985194],[126.91811850091541,37.3228611019131],[126.9181542008797,37.3246387001355],[126.92121330114891,37.3289146974708],[126.9247766018884,37.3282635995701],[126.9241143011766,37.3280533014533],[126.9225196027713,37.3307941987124],[126.9241864007644,37.331849001131495],[126.921000801269,37.3336737013014],[126.9219803002895,37.334976999998105],[126.9214630001601,37.3354072008009],[126.9198533001603,37.3357543012266],[126.91698770162901,37.3334811057581],[126.914971600962,37.333942305963696],[126.9158825977793,37.3312922024495],[126.91541749824441,37.329963403778294],[126.9116792961937,37.3265813001803],[126.9080817994311,37.325758299610996]]],[[[127.03160869870571,37.2103932996875],[127.03395049890321,37.2068413997157],[127.0350051987788,37.2066760991854],[127.0347310993855,37.2050262993496],[127.0361565995588,37.2028199987069],[127.0359071007271,37.2047575986078],[127.0372546015268,37.2049425996015],[127.0370739017075,37.206395898148195],[127.0389176009244,37.207328698719195],[127.0382166010638,37.2102004001506],[127.0376493002992,37.2096549009338],[127.0372403996432,37.210328000732694],[127.037309999467,37.209520000737],[127.0359067008703,37.2085031017539],[127.0343161016289,37.210714900716],[127.0327886000111,37.210003400431],[127.031608701191,37.2103933000411],[127.03248170131481,37.2110436004313],[127.0314620996398,37.2121025004684],[127.03160869870571,37.2103932996875]]],[[[126.9842399993567,37.284243699849895],[126.9874067991646,37.2825266975728],[126.9876065002734,37.2799742998376],[126.98820570026979,37.281265499139806],[126.98924980096099,37.28136689995],[126.9899480009019,37.2843258994912],[126.9909582003469,37.284056299676706],[126.9914254005647,37.284897799189004],[126.9898555012313,37.2849394005072],[126.98975540052031,37.2856684008377],[126.9884256000012,37.2842712006685],[126.9842399993567,37.284243699849895]]],[[[126.921302596568,37.3464315002946],[126.9225700997504,37.344701198437406],[126.9232379996137,37.345340899198796],[126.92617040003731,37.3443323995615],[126.92683430102319,37.3467839995229],[126.9290186028806,37.3481112008851],[126.92686350223529,37.350628800516006],[126.9279544017716,37.3523839004207],[126.9275018005925,37.3542373016039],[126.9254507002215,37.3542751006973],[126.92523660004811,37.3548878002961],[126.924593097939,37.354348900937],[126.9233961980039,37.3471406021492],[126.921302596568,37.3464315002946]]],[[[127.1127808991697,37.2755138995215],[127.1135433988937,37.2737386975188],[127.1157939991755,37.2726824992287],[127.1154588009366,37.272123299135295],[127.11626980086069,37.272471601107206],[127.1158614012732,37.2751848987724],[127.1188494013596,37.2760296998687],[127.1172787001728,37.2760824005271],[127.1174985005902,37.2774621994358],[127.1163812995449,37.277853400925395],[127.1166003989697,37.2764798001324],[127.1158534997166,37.275797500814704],[127.1127808991697,37.2755138995215]]],[[[127.10426189864519,37.2615067005018],[127.104929400805,37.2602279989083],[127.108868398465,37.261788496951205],[127.10955400125991,37.2591313988799],[127.1095822012317,37.2605559974553],[127.11141710348069,37.2618934989952],[127.109720401099,37.263437002413106],[127.1103932004262,37.265817900032204],[127.1087257010251,37.2655281007645],[127.1083744995395,37.266807301294406],[127.10886839721971,37.2617884995623],[127.1060832000049,37.2605845007663],[127.1057563000247,37.2637994009972],[127.1055896994322,37.263027900510195],[127.1043796987409,37.262817999607],[127.10426189864519,37.2615067005018]]],[[[127.0091461994144,37.2450248000315],[127.0111494002813,37.245922698934905],[127.0119849994457,37.245233599624],[127.0130710007697,37.2411156997245],[127.01198500074389,37.2452335996133],[127.0130366008091,37.2458644004991],[127.0091461994144,37.2450248000315]]],[[[126.73415909895719,37.3612350018491],[126.73572279934531,37.3603164983855],[126.73566319940491,37.3586243000777],[126.73615240093339,37.358800199394395],[126.7357228009987,37.360316499580605],[126.7382228007134,37.3617872001658],[126.7378939008997,37.3638082990228],[126.739521600199,37.366252000392606],[126.7377728000976,37.3638572029584],[126.7352013993276,37.3648333028814],[126.73384349927281,37.36345089963319],[126.734433298683,37.363309999774096],[126.73415909895719,37.3612350018491]]],[[[126.9434138002442,37.3733013000099],[126.94461939951279,37.3707457989359],[126.9442547020211,37.3720175004972],[126.9434138002442,37.3733013000099]]],[[[127.1112234991638,37.2846256980798],[127.1120817998476,37.2855272988449],[127.1134123011172,37.284818800369194],[127.1122041999477,37.2856490008102],[127.1112234991638,37.2846256980798]]],[[[126.9256802992705,37.3331166998638],[126.9258450994824,37.332509799518995],[126.92649780047151,37.332446199737],[126.9256802992705,37.3331166998638]]],[[[127.1147061990686,37.277453999958],[127.115014100556,37.277231199381],[127.1150071003142,37.2774501003083],[127.1147061990686,37.277453999958]]],[[[126.7410799992206,37.3915534987308],[126.7422887007633,37.3910906002104],[126.74180110018321,37.3916178010585],[126.7410799992206,37.3915534987308]]],[[[127.0441868982996,37.1876605994723],[127.0446758005171,37.18782319896739],[127.04467580209969,37.1878232008555],[127.044675799349,37.1878232013001],[127.0441868982996,37.1876605994723]]],[[[126.96285059927159,37.26461480069],[126.9629781987164,37.2641652001406],[126.96297820044609,37.2641651996145],[126.96285059927159,37.26461480069]]],[[[126.7464446991565,37.3807741026113],[126.7464446998767,37.380774098363496],[126.7464447010773,37.380774100379995],[126.7464446991565,37.3807741026113]]],[[[126.79471979809189,37.3128160996334],[126.7954219005714,37.3129894994208],[126.7946763998948,37.312925604391],[126.79471979809189,37.3128160996334]]],[[[126.91872119157239,37.2849348033346],[126.91872120249029,37.2849347989316],[126.9198321006009,37.285806803728],[126.91872119157239,37.2849348033346]]],[[[126.9430576995248,37.3715357000006],[126.94305769969979,37.3715356996613],[126.94336900014841,37.3716348000601],[126.9430576995248,37.3715357000006]]],[[[127.0294090996709,37.276298599105495],[127.02940910035059,37.2762985989612],[127.0294361007109,37.2763677017904],[127.0294090996709,37.276298599105495]]],[[[126.85762799958161,37.3152277000512],[126.8576280012015,37.3152276999959],[126.8575958001936,37.3153045017576],[126.85762799958161,37.3152277000512]]],[[[126.9436634996273,37.3717234996748],[126.9436635003465,37.371723499777005],[126.94364249997379,37.371767000053],[126.9436634996273,37.3717234996748]]],[[[127.0428193994552,37.241340198861],[127.0428194015845,37.2413401988195],[127.0428193984802,37.241340201128104],[127.0428193994552,37.241340198861]]],[[[127.11324779929559,37.2866870000765],[127.11324780040539,37.2866869999249],[127.1132477999978,37.2866870007573],[127.11324779929559,37.2866870000765]]],[[[126.7357053995402,37.3640898998986],[126.735705400372,37.3640898999082],[126.7357053994462,37.36408990023121],[126.7357053995402,37.3640898998986]]],[[[127.03050239973311,37.2090954000642],[127.0305024002008,37.2090953993762],[127.030502400398,37.2090954003932],[127.03050239973311,37.2090954000642]]],[[[127.0140762992705,37.245252799855],[127.014076300288,37.2452527998405],[127.0140762999182,37.2452528007775],[127.0140762992705,37.245252799855]]],[[[127.0532353999602,37.2414439000229],[127.0532353999917,37.2414438999589],[127.05323540003171,37.2414439000446],[127.0532353999602,37.2414439000229]]]]}}]}