{"type":"FeatureCollection","features":[{"type":"Feature","properties":{"interval":15,"stationId":"8874550904"},"geometry":{"type":"MultiPolygon","coordinates":[[[[126.9397701975367,36.772934799443405],[126.94191289861921,36.7688091007997],[126.9412681992639,36.7671423024665],[126.9392977985961,36.7692374002566],[126.94126819888629,36.7671422994183],[126.94502609949821,36.7675487948423],[126.94864230152601,36.765907397656704],[126.9503305998743,36.763753699788005],[126.94883270249609,36.766119797794],[126.9511100019337,36.7695000006454],[126.95149720114311,36.771867398286695],[126.9535578017568,36.7701333991085],[126.9531543019865,36.7728162972412],[126.95466540047539,36.7736093964481],[126.95704289809791,36.7719070981504],[126.9576251008506,36.7705444956049],[126.9580639006569,36.7718873000624],[126.95704290003951,36.7719071021617],[126.95601520085529,36.7739846015359],[126.9532816013928,36.773890801389896],[126.95330100137339,36.7770049982757],[126.9543869028909,36.777622100167804],[126.9525256022341,36.7787305020262],[126.9511882900735,36.7778586023568],[126.9522941984788,36.7754831010263],[126.948968896922,36.7751436016591],[126.9485920961391,36.7723197026249],[126.94447389840461,36.7721174029766],[126.9399363002705,36.7740846009348],[126.9397701975367,36.772934799443405]]],[[[126.95794929892119,36.774692600827905],[126.95815509892729,36.7746310994377],[126.9582261026857,36.7746032004217],[126.9581550998204,36.774631101073304],[126.95794929892119,36.774692600827905]]]]}},{"type":"Feature","properties":{"interval":30,"stationId":"8874550904"},"geometry":{"type":"MultiPolygon","coordinates":[[[[126.9294431972708,36.7774023007865],[126.9295559991416,36.77389969835],[126.931528898194,36.7714817001575],[126.92998259773711,36.7708028990858],[126.9330141000858,36.769512599302296],[126.9330820004326,36.7709448994346],[126.9370199981966,36.770056099063694],[126.9357219988679,36.7685599988104],[126.9401544944354,36.7665606008098],[126.9397998969729,36.762771298575494],[126.9407006007204,36.7611960958293],[126.94243439990619,36.7628060983511],[126.94537050060859,36.7618832986222],[126.944524302756,36.762391100314204],[126.9472940999862,36.7660609966443],[126.948642298638,36.7659073967979],[126.950168297112,36.763564099141206],[126.9500650984743,36.7600151958545],[126.9542005002777,36.761149198544196],[126.957549697997,36.7602240987158],[126.9571390016805,36.7561782971212],[126.9577233021386,36.7582984987934],[126.9599451019543,36.7573564994849],[126.9630797994182,36.7599285978459],[126.9642791994628,36.7590138965349],[126.9665004004362,36.7596486976647],[126.96663770104591,36.760778000574],[126.9637522022793,36.763075199789405],[126.9622913046748,36.765489600982804],[126.9642376027285,36.7693428971295],[126.9706452001874,36.7705530967687],[126.966330704832,36.7735626975181],[126.9610194005311,36.781918901831304],[126.9607550007955,36.7840118997383],[126.9634022024733,36.785869900727],[126.9599659993647,36.7870264002116],[126.96041789936369,36.78647229992],[126.9591555002192,36.7839742022553],[126.9573029020718,36.7851553010742],[126.9542695030259,36.7854989006029],[126.9551859021095,36.7885332975685],[126.9589370009627,36.7872749020319],[126.9558052013059,36.789813602121804],[126.95393279988501,36.7902953005464],[126.9518531993872,36.7895307999923],[126.9487675964528,36.7854266020421],[126.9456379995824,36.7848054026633],[126.94376509930669,36.7811611999281],[126.94589089718089,36.776802704286595],[126.9422236010116,36.7807729032439],[126.9386812000494,36.779969300215996],[126.9376366974964,36.7816274023038],[126.93564939948371,36.7798553040759],[126.929871098064,36.779743503543],[126.9294431972708,36.7774023007865]]]]}},{"type":"Feature","properties":{"interval":60,"stationId":"8874550904"},"geometry":{"type":"MultiPolygon","coordinates":[[[[127.0757385969077,36.7858996978455],[127.0806941978645,36.7837459970581],[127.0845033975695,36.779832298350506],[127.0888816998859,36.7801465996436],[127.0894165999116,36.7810409989585],[127.0917063989055,36.7800578989694],[127.0910427009689,36.7789057981668],[127.09306699894461,36.7791422979303],[127.0938529991908,36.7777781976796],[127.09566060358681,36.7785501983115],[127.0948504030523,36.7824414002442],[127.0956475022552,36.7853674973181],[127.0983451995575,36.783882198803404],[127.0988338006347,36.7840095999305],[127.0979363008097,36.7856051985943],[127.1006310994906,36.784241099195604],[127.1031719995177,36.784120999623],[127.1041828982201,36.7828778998563],[127.1022699010035,36.7817591962158],[127.1069375012587,36.7826802982415],[127.1052431002386,36.782157500403095],[127.1041484012143,36.7830297999701],[127.1044584011332,36.7841578990163],[127.1065288997478,36.784728999691],[127.1097279992569,36.7840292988133],[127.110161003185,36.782675999405],[127.1105465020235,36.7842920001566],[127.1117906007794,36.785333099115505],[127.11266330034549,36.7846872999402],[127.1117906012419,36.7853331001848],[127.1128211008797,36.786148300286],[127.11200720211299,36.7882144988433],[127.1170586005556,36.7857297980379],[127.1228126994817,36.787974098411496],[127.1225032004098,36.7863781992392],[127.122812700867,36.7879740984916],[127.12417669950301,36.7868350996306],[127.1245406999212,36.787790299532695],[127.12532640009941,36.7874284998518],[127.12665470054141,36.7884632995227],[127.1287289997757,36.7882684993414],[127.12907840013119,36.7904100996643],[127.1313738010853,36.790204499592],[127.1302095007658,36.7910810999579],[127.13242719947469,36.7922525986032],[127.1324562002842,36.793388399455495],[127.13370030079061,36.7934203996245],[127.1319124002115,36.7962480002709],[127.1325507007137,36.797850700236594],[127.13518860025391,36.798617799904704],[127.13638949970341,36.7999991986362],[127.137207900825,36.798909099897806],[127.1385153996563,36.800677798125406],[127.13889879974661,36.798685299481704],[127.1397326001709,36.7994846990744],[127.1414400006384,36.7992203991118],[127.14111050165229,36.800150899984295],[127.14459960038951,36.8014127992237],[127.144610100618,36.8032650996823],[127.1455359006997,36.8034368002723],[127.14461010001419,36.803265101047295],[127.1434498004642,36.8043106006612],[127.1426082004186,36.8066836999615],[127.14084050053279,36.8073582006268],[127.1410391000401,36.808065400171195],[127.1403030994597,36.808179000892004],[127.1401110994795,36.8073914008558],[127.13868140001469,36.8082911003237],[127.136197600062,36.807117900821204],[127.1345229001783,36.8072213012344],[127.1342003004958,36.808582100616306],[127.13349820008311,36.8072801003011],[127.13053429858809,36.806704400662404],[127.1302534985239,36.8053211006509],[127.1270228998677,36.8049239004044],[127.1273506994835,36.803430301284806],[127.1223334996765,36.8032101006457],[127.1213106005587,36.8040080003692],[127.11981469982291,36.8026319006032],[127.1189652989007,36.8032529001625],[127.11786739957739,36.802371900054695],[127.1196066992901,36.8015481997038],[127.11887879975251,36.7998300009919],[127.1185426001825,36.801197500092904],[127.1161241002408,36.8007895011386],[127.11564479973279,36.8014173000337],[127.11612409949949,36.8007895004784],[127.1151478997096,36.7993809002726],[127.1148096997802,36.7964373007386],[127.113604697294,36.7964811989644],[127.1139113969873,36.7923812030644],[127.111533597068,36.790236604178],[127.1077995008021,36.792128002286596],[127.1065400014915,36.796238800110096],[127.1065474015297,36.7970520993848],[127.1082595998175,36.7976069988299],[127.108555900257,36.796952599596395],[127.1099102019007,36.7994481983876],[127.1094032002081,36.8003224003887],[127.1078268001922,36.800107500437704],[127.105603999968,36.801636200553396],[127.10349159979789,36.799708001774704],[127.1003051012132,36.8004897013443],[127.0993308957487,36.801957103148105],[127.0964698969162,36.7997300973487],[127.0929177994238,36.7942455017267],[127.09144240089921,36.794275501696696],[127.0908097998744,36.79348260112],[127.0897697017003,36.796118900427906],[127.0909929014215,36.7976716999692],[127.08676729921041,36.800720503650396],[127.08140339846,36.7991024048299],[127.0794102986224,36.7937954036669],[127.07819649692081,36.7934306018004],[127.0765351970791,36.7904804014189],[127.07927699586851,36.7897395976651],[127.0757385969077,36.7858996978455]]],[[[126.9067933980361,36.783100299634],[126.9080157990204,36.7820546994428],[126.90738499864281,36.780458200371],[126.9096823984179,36.7796853993937],[126.90891000003491,36.7785611935547],[126.9127115984487,36.7778927964253],[126.9162713948889,36.7737966005215],[126.91752189470999,36.7692069009656],[126.9150249972069,36.7677807023918],[126.91206559410051,36.7643798022239],[126.9135300960002,36.7598802999529],[126.9083676988582,36.7584097999226],[126.9135301051742,36.7598802864598],[126.91920040545719,36.7589160917289],[126.925706103744,36.7538028961108],[126.9333904960596,36.7589121910015],[126.9386529907971,36.7509715989421],[126.9359197968806,36.7467012951318],[126.93865300073091,36.7509715913462],[126.9459051979256,36.754340888458],[126.95136989492741,36.7473465942243],[126.9547686038119,36.747090790068405],[126.9595863989941,36.743521793637406],[126.9649063040241,36.7452140919053],[126.9705846983457,36.7424944946249],[126.9716006032712,36.744091600221296],[126.9708717040001,36.748420595892306],[126.9744086004632,36.74965289466],[126.97652429974609,36.7481529965451],[126.9782794994953,36.744750699382294],[126.9796936025008,36.744526997715795],[126.9808207007724,36.7458271980433],[126.98254490031499,36.7453548975501],[126.9856995010411,36.746420899325294],[126.9837869031572,36.749512000382204],[126.9880179998995,36.7540865974987],[126.9895690988011,36.7517800995499],[126.9890861993396,36.7512354993155],[126.9895691023236,36.7517800999239],[126.9884671020465,36.7545324001098],[126.9887716011339,36.7561848999932],[126.9877805000256,36.755091801658104],[126.9835567033949,36.756111302136],[126.98238930410889,36.758852400540604],[126.9818432069612,36.768135594063104],[126.98793740195401,36.770956996840304],[126.9916659982254,36.7711955966017],[126.9926511986068,36.7667079957637],[126.9949769000709,36.7661135952035],[126.9993985042389,36.7697989946009],[126.9989540014689,36.7713940997272],[127.0011430008174,36.7738167993965],[127.0023520990513,36.7721836997272],[127.0064216972157,36.7700403943595],[127.01001289829931,36.7709541998449],[127.0121975983232,36.7692743965913],[127.0121809983398,36.7658797999859],[127.0130040015719,36.7658782981031],[127.0147111046209,36.7708835983932],[127.0174561018965,36.772453997119],[127.0221526015802,36.7712157988629],[127.0228311008783,36.7744608995586],[127.02411719959221,36.7754888985306],[127.0277136018145,36.775684099687],[127.02497939986881,36.7763707008208],[127.0242671005811,36.7781076990838],[127.02809770069891,36.780903698836305],[127.0253680002445,36.781463801132],[127.0242399004018,36.782779000598],[127.0229441009735,36.7822193010491],[127.0221587016519,36.7842132995182],[127.022728601082,36.7849382987932],[127.02517830298399,36.7844730990479],[127.0251700022599,36.785307602585604],[127.0227187019262,36.7864620009921],[127.0225923019021,36.7899621009297],[127.0207891008262,36.7910258027607],[127.0193069017386,36.79353440375],[127.01810550058731,36.793413903651995],[127.0163666005248,36.7966651039231],[127.0091521992275,36.7959272022596],[127.008266700113,36.798320599866194],[127.01059070035059,36.798705598451996],[127.0106861015969,36.7992817002831],[127.0078152023725,36.8002521008634],[127.0075157015483,36.801279902092894],[127.0059478982448,36.798018501615],[127.0050367991559,36.797962601670896],[127.0028502013425,36.795170204463304],[127.00081209871921,36.794998204002205],[126.9973813004729,36.7927368033559],[126.9958848014726,36.794930201115804],[126.9934825003111,36.7964266023994],[126.99146669881931,36.7965054010617],[126.9906302002107,36.7955351009615],[126.9893248989682,36.7965721004284],[126.9892932994695,36.7956201993343],[126.99063019813259,36.7955350994194],[126.9888313999314,36.7923257026288],[126.9830149003506,36.793683904466995],[126.9791637013483,36.7969850019693],[126.9793989011131,36.7979894009649],[126.9776026012835,36.7997974030147],[126.97667630056229,36.7997393007073],[126.9767275020204,36.8006535026447],[126.9762609975673,36.7993546022386],[126.9720886990634,36.7970119036473],[126.9697433006192,36.7983040026894],[126.96691180163151,36.798070703014496],[126.9671402014031,36.8009969000883],[126.97056030124071,36.802914099247104],[126.96886480235021,36.8042489011144],[126.9704379029792,36.8058516010751],[126.9627230979532,36.810549604042],[126.96055079994099,36.8087289028232],[126.9602313991639,36.8114064035758],[126.9581868995607,36.808543103492504],[126.9484052998322,36.8083258016256],[126.9464465989941,36.807733200212404],[126.9445511008896,36.8051738027718],[126.94248279832999,36.806426902495495],[126.9429429987809,36.8053290000062],[126.94161149957179,36.8039008008295],[126.9395109996203,36.8032042999144],[126.9408096989611,36.8031577995431],[126.94177049800031,36.800883201817705],[126.9392145005563,36.8001684025325],[126.9388846008862,36.802230200470696],[126.9368269995648,36.8026289008852],[126.9360098971043,36.8003819991311],[126.9392144951684,36.8001683970724],[126.9402573941255,36.7952944019464],[126.9330928012901,36.794785802455],[126.9304667039162,36.7960355012053],[126.9302328036444,36.8005601005933],[126.9290055013353,36.802104801413705],[126.929989499884,36.8035555003488],[126.929005500868,36.8021048017995],[126.926796599049,36.801396501076205],[126.9255130964263,36.7994735006034],[126.9224947945816,36.799309499531],[126.9236630931802,36.7975250988914],[126.9199857968575,36.7920549043616],[126.9163685973808,36.7913593002524],[126.9162909974471,36.790108699513596],[126.917683096055,36.787930601691706],[126.9139504960377,36.781526902600405],[126.91076529922289,36.7816056025217],[126.9067933980361,36.783100299634]]],[[[127.0365515979759,36.7765219016189],[127.0359844995909,36.772860699130206],[127.0378918003513,36.773364099227],[127.03903869950871,36.773117199778],[127.03834689932789,36.7724590975551],[127.0421093978423,36.7723975980797],[127.04270439631881,36.7696577980354],[127.04379780128059,36.7722877973709],[127.0458902991881,36.7716439980147],[127.0461531988529,36.7694243970329],[127.0561082010123,36.7689147963079],[127.0594149977055,36.7660371991855],[127.05798009970569,36.764477897048],[127.0598043012931,36.7658481992009],[127.0591001017457,36.7687320999267],[127.0613877999813,36.7705044981613],[127.06357660000181,36.7688542998175],[127.065395801492,36.7703272993141],[127.06524400156351,36.7715456001235],[127.06813050132439,36.7734510001213],[127.0684058010491,36.774702398869906],[127.06995780059779,36.7747735000506],[127.0698296005029,36.7764321006335],[127.0689584003557,36.776732200978294],[127.0680961998695,36.7769817007713],[127.0676562995714,36.775861300444106],[127.06552840169931,36.776152400153],[127.0649633030024,36.7790581986948],[127.06661840358869,36.781957398080706],[127.0651865016897,36.783502501901296],[127.06558220018799,36.7866920002701],[127.05909650316579,36.7872422008217],[127.0543433997856,36.7912891028917],[127.0495910981303,36.7893751037032],[127.04712739487569,36.7903291025406],[127.04722629829601,36.7855019017638],[127.0451652003571,36.7864358008299],[127.0435685997176,36.78613150067331],[127.04262850037841,36.7849447012537],[127.04252819892241,36.7861861005712],[127.0424908981132,36.7833872031666],[127.0404733972062,36.7813241031047],[127.0376389999431,36.7808813035386],[127.0365515979759,36.7765219016189]]],[[[127.1457100995501,36.8056255996763],[127.1465292997063,36.8045946991144],[127.1479142005334,36.8046330987212],[127.148232801194,36.806529198741],[127.1498792995475,36.8062623990078],[127.15010969895481,36.8048815991948],[127.1502231007171,36.8055902993207],[127.1523771008856,36.8054960989862],[127.1522704007846,36.8060845995878],[127.1534539006301,36.8062405994268],[127.1524434009354,36.807634399041696],[127.1526273005941,36.8094380990106],[127.1544672010169,36.8101188000566],[127.15322210134569,36.8107736014383],[127.1529250016449,36.8125007999663],[127.1512829012001,36.8125259007499],[127.1515751009079,36.814378798897],[127.150945501006,36.8144319014034],[127.1505966004371,36.8162758006534],[127.15006429989539,36.8153793010887],[127.14852659986259,36.8156174002752],[127.1483191986305,36.8148024997719],[127.1494903985093,36.8135882000776],[127.1480425986989,36.8133216996774],[127.1490284983597,36.8121990986835],[127.146749998871,36.8089999992461],[127.1477269990351,36.8082272995161],[127.1470680985146,36.8062052002506],[127.1457100995501,36.8056255996763]]],[[[127.14782719908129,36.8358622996394],[127.1483931995816,36.835108299071],[127.14923039976959,36.8355809995065],[127.150188698966,36.833360099818],[127.1487495999383,36.8327786996429],[127.151042600122,36.8304765989566],[127.15360230157701,36.8317991987113],[127.1519564999101,36.8324862007635],[127.1510267004718,36.8342880006304],[127.1515395002749,36.8351903002333],[127.1497231004098,36.8356012010134],[127.1490793005037,36.837034600442905],[127.14782719908129,36.8358622996394]]],[[[127.0701004986156,36.7843576001692],[127.07010050504499,36.7843576030471],[127.0698351992602,36.7845037047747],[127.0701004986156,36.7843576001692]]],[[[127.0879713992624,36.7791053002888],[127.0881349004766,36.7788239991801],[127.0879714004171,36.7791053005434],[127.0879713992624,36.7791053002888]]],[[[127.14350549980381,36.870587501229],[127.14350550066891,36.8705874994068],[127.1435055008921,36.870587500296196],[127.14350549980381,36.870587501229]]],[[[126.9883779999021,36.750581999981705],[126.9883779999922,36.750582000748004],[126.98837799958879,36.750582000266604],[126.9883779999021,36.750581999981705]]]]}}]}