{"type":"FeatureCollection","features":[{"type":"Feature","properties":{"interval":15,"stationId":"9213388326"},"geometry":{"type":"MultiPolygon","coordinates":[[[[127.1159568996582,36.7921544008816],[127.11678719963321,36.792276299864795],[127.1177626996979,36.789993699688594],[127.1185042997319,36.7907295997259],[127.1194954000214,36.7901130999014],[127.11929540029,36.790851399279504],[127.11998489960051,36.7907399993909],[127.1196418002549,36.790077899847],[127.12009570103429,36.790701600629795],[127.1193064018236,36.7915306998007],[127.1201703009597,36.7927690985623],[127.12224950033199,36.7920490992477],[127.12285380025,36.7929987993258],[127.1238687995367,36.791494799133105],[127.1235831004801,36.7923706994655],[127.12461929983151,36.7927006993241],[127.1265808000351,36.7923232989956],[127.1263263006264,36.7933030998373],[127.1273772000789,36.7947128998271],[127.12609110085769,36.7965401000242],[127.1268031006396,36.7971594008486],[127.12574789935039,36.7977540004161],[127.1260910999217,36.7965401002129],[127.1242288006092,36.7962446010242],[127.1242065004072,36.7975606003605],[127.1230276999564,36.7988535004557],[127.1224547999053,36.798043900255806],[127.1200087995248,36.7981241005265],[127.12090219834731,36.7954756013982],[127.11876020048929,36.7959576009162],[127.1174132998646,36.794106900509504],[127.1165629999705,36.794724100354706],[127.1159568996582,36.7921544008816]]],[[[127.0757385969077,36.7858996978455],[127.0793932991654,36.7841344966696],[127.0821158999596,36.783790799390296],[127.0825457983358,36.7814970977889],[127.0872280007434,36.7798049993003],[127.0903700990628,36.785109497105594],[127.09055099922101,36.7823722992504],[127.0909965997767,36.7828180991762],[127.0914481000484,36.782037299471],[127.0909966005585,36.7828180992594],[127.0916744002235,36.782984699214],[127.09238280018269,36.7818307997023],[127.0918416003057,36.7830077998713],[127.0926900007684,36.7830741991721],[127.09235340066719,36.7842992999783],[127.0931825008057,36.7847185008081],[127.0923271006649,36.7850783008452],[127.0919598010322,36.7866225993009],[127.0931444998475,36.7874928984306],[127.0941730010139,36.7856995001975],[127.094364001483,36.7876075997639],[127.0936480009812,36.7887619990755],[127.0942069019931,36.791554597096194],[127.0960690016212,36.7929427993137],[127.09428099978919,36.792682600922],[127.09330200076819,36.79298700061759],[127.09318960170721,36.794029002549905],[127.09144240089921,36.794275501696696],[127.0908097998744,36.79348260112],[127.0896243004546,36.7967813016295],[127.08763130001759,36.796268401847506],[127.087291599949,36.7979188002848],[127.08708829904691,36.7954562016663],[127.0823654993892,36.795677401499205],[127.0821129985765,36.794423801730595],[127.0794102986224,36.7937954036669],[127.0789369992595,36.7918740015566],[127.0765351970791,36.7904804014189],[127.07927699586851,36.7897395976651],[127.0757385969077,36.7858996978455]]],[[[127.1315168997521,36.79995979988951],[127.13542620033719,36.8012477995331],[127.1356452013236,36.802334199647795],[127.1391040000284,36.8029587002627],[127.137375099966,36.8034848003165],[127.1351729985624,36.802839901576405],[127.13347549951371,36.8035299009596],[127.1324588996423,36.8016861005747],[127.1317884999041,36.8017773000962],[127.1324588992633,36.8016860997516],[127.13164379949801,36.8006799002669],[127.13242249929631,36.8001610001671],[127.1315168997521,36.79995979988951]]],[[[127.1016573981602,36.7926590993978],[127.102037600802,36.791268798610496],[127.1063163009718,36.791385899598204],[127.1073740996908,36.792933498901796],[127.1077995037341,36.7921279981086],[127.1065400014915,36.796238800110096],[127.1049000998913,36.7969737004665],[127.1049882990813,36.7960884004533],[127.10315669995,36.7952921003497],[127.1007271001209,36.7971761010017],[127.1009866995291,36.7951361991808],[127.1015594005134,36.7953944978557],[127.1030441990475,36.793837599323105],[127.10277659931509,36.7924908006699],[127.1016573981602,36.7926590993978]]],[[[127.1025444984479,36.786550401490004],[127.1035129999435,36.785486299713],[127.1034554003528,36.7865983987571],[127.10561510040169,36.7858212985925],[127.10739700223361,36.787254598629396],[127.1055903017061,36.787037500938496],[127.10652900060799,36.788787901278305],[127.1046197017563,36.789620201238804],[127.1041959990711,36.788425000050694],[127.10299299957259,36.7882427000733],[127.1025444984479,36.786550401490004]]],[[[127.1477895995986,36.810358600524],[127.1481039999182,36.809351899755406],[127.1491188008464,36.810089299808],[127.1477895995986,36.810358600524]]],[[[127.1083844994275,36.7891333997501],[127.1083845025245,36.789133399542294],[127.1083845031491,36.7891334011032],[127.1083844994275,36.7891333997501]]],[[[127.11568779964101,36.7936682000185],[127.11572220015229,36.7936554998715],[127.1156877996701,36.7936682004435],[127.11568779964101,36.7936682000185]]]]}},{"type":"Feature","properties":{"interval":30,"stationId":"9213388326"},"geometry":{"type":"MultiPolygon","coordinates":[[[[127.0612441977549,36.784944900696],[127.0630833989774,36.7819679971854],[127.0646551006312,36.7827824968517],[127.0666184015472,36.781957396333404],[127.068716101491,36.784526795511304],[127.0744848975624,36.7820705969953],[127.07264630087,36.7837451992812],[127.0739542007398,36.7830337991906],[127.07574220004649,36.785772696526905],[127.0806941978645,36.7837459970581],[127.0847878974584,36.7786866979239],[127.0874892971927,36.777598298139104],[127.0902656011662,36.7747922974497],[127.09603700279189,36.776517597266],[127.09566060358681,36.7785501983115],[127.1009087023647,36.7814878964871],[127.1089849010812,36.7828425997902],[127.1133459971969,36.782080999238595],[127.1136308034429,36.780352097345],[127.11469240302509,36.7813103986454],[127.1236550985322,36.7823749962865],[127.1230953011382,36.784812797554096],[127.1253278989056,36.786119896247],[127.1267012008091,36.7855426968954],[127.1283835001028,36.783199599039705],[127.12970160042771,36.784658199606405],[127.1306276016022,36.784622000818196],[127.12867180060101,36.7857172002981],[127.1292943999784,36.786621099394196],[127.13113320067819,36.7863354995611],[127.1323054007352,36.7875870991597],[127.1348974002208,36.7877879997184],[127.13446500090001,36.789295398931],[127.13745920030419,36.790014898897006],[127.1380515020552,36.789273699914204],[127.1389760012278,36.7922083001717],[127.1379581006162,36.795123100183595],[127.1385843999899,36.7966087986979],[127.14092739764689,36.7978095974971],[127.14282870137579,36.7971191965897],[127.1446323012903,36.7982126965942],[127.1466876992349,36.7958576989492],[127.1460967017591,36.7982571988919],[127.1483517008064,36.7981613989039],[127.147769900625,36.7988062006095],[127.1489074002082,36.8005572991491],[127.1513111000277,36.799405499005296],[127.1519165008083,36.801144798582605],[127.1532528994719,36.800620299107095],[127.1533848001684,36.7998243992052],[127.1531446008464,36.801619199812194],[127.15520190007949,36.801583199152304],[127.1544494008934,36.8017365004173],[127.1551049002379,36.8026183995354],[127.1575474007621,36.803542800003804],[127.1568433013124,36.8048468001199],[127.15740970072041,36.806362198731605],[127.1587070999435,36.8051429996031],[127.1588083006131,36.8062955990344],[127.15996060062261,36.806368499102994],[127.1593503005308,36.8063001005558],[127.15914360113689,36.8080728000084],[127.1602674011797,36.8085672995193],[127.16036540125761,36.8095515000568],[127.15910840124859,36.8098026002218],[127.1590022013591,36.811236399188],[127.1600604003009,36.8112537991706],[127.1600294009493,36.8118111006003],[127.1582450999914,36.814547400274904],[127.15952099888129,36.812823200569596],[127.157804700391,36.8120669013271],[127.1562607005503,36.8124300020975],[127.1548219019891,36.8142464002811],[127.1551386019172,36.8162149000231],[127.156466800589,36.8167138995241],[127.1564875011308,36.8175312003184],[127.1551392013499,36.817860199982796],[127.1543016003034,36.8204384005972],[127.1521303001568,36.820993000636804],[127.1501586999688,36.8185740004098],[127.1461890005024,36.8178521010983],[127.14538090003781,36.8186889010943],[127.1443543001395,36.8167789011137],[127.143277699327,36.817356000091195],[127.144339799134,36.8165047998667],[127.14357989929161,36.8159048997441],[127.144766799313,36.8113453003617],[127.1440635000163,36.8107143009927],[127.1431350009448,36.8116007001063],[127.1433403000332,36.8123997003279],[127.1423901005332,36.812018100250604],[127.14245030026109,36.8135616014063],[127.1385967012581,36.8131897004614],[127.1385901988832,36.8140505003007],[127.1385966985544,36.8131897000622],[127.1371719999791,36.812652900599005],[127.1343730000168,36.8133659005097],[127.131182599692,36.8108657005192],[127.1297092997455,36.8110573000491],[127.1294792999755,36.809830401276],[127.126780097589,36.8096039995714],[127.12689449747461,36.8071898019856],[127.1248982994708,36.8051343040411],[127.1230593013098,36.8056405035349],[127.122381101988,36.8070326021428],[127.1204433995758,36.8071065011544],[127.1195797996533,36.806041500728696],[127.1188678008842,36.8072358008386],[127.1178544000347,36.8072400004926],[127.118884399226,36.806743700060096],[127.1179591996955,36.806004900328496],[127.11651039931469,36.8064298005798],[127.116280699257,36.8052481006166],[127.1147911999266,36.8064186010105],[127.1140783995768,36.8048129013871],[127.1131001996649,36.8052508006013],[127.11407839864779,36.8048129000729],[127.1128268998993,36.803492301393504],[127.1120790000156,36.804855600053905],[127.1101744011615,36.8043688005826],[127.10990569981689,36.805314300685396],[127.1071211002517,36.805812601146705],[127.1062037011691,36.8066817002776],[127.1071692998907,36.8075985002225],[127.1055680997342,36.806794200648],[127.105822499316,36.8054271014474],[127.1028244996561,36.803857801770704],[127.10130360076859,36.8054659030366],[127.0978727991221,36.8055591039079],[127.0993308957487,36.801957103148105],[127.097423597656,36.8001035050017],[127.09241440126199,36.7976409071065],[127.089820403856,36.8034147013327],[127.0939608002937,36.8054570993053],[127.09290450070941,36.8057983001426],[127.093156999399,36.806801902874106],[127.0906961987732,36.8056280008759],[127.0866698016181,36.8064650000127],[127.0863759987473,36.8091470030596],[127.086434896574,36.806699001472204],[127.0827650997024,36.80619780187],[127.0818651996575,36.807945100592995],[127.08211919873939,36.806411001509794],[127.0797574982219,36.8045524010768],[127.0786956970118,36.8046225996515],[127.07796569774179,36.8007556035185],[127.0712933988108,36.7998306003457],[127.07183879826829,36.7979891995002],[127.0702535998535,36.7964115010779],[127.06819739800561,36.796482402279004],[127.06524589926529,36.794984202729204],[127.0622622968342,36.7880638991783],[127.063863599547,36.7907043968666],[127.06601829739229,36.7875474000236],[127.06307509913981,36.7840787020341],[127.0612441977549,36.784944900696]]],[[[126.99628129864321,36.7831488993022],[126.99748509964891,36.7796443993232],[126.9986783989992,36.7796440999358],[126.9976300996124,36.7786502995742],[126.9987460995062,36.779615998794995],[126.9987710994812,36.7781768002342],[127.000059599692,36.7767835995378],[127.00183509917069,36.7773113993544],[127.0022725000636,36.7760724997954],[127.0033194990166,36.7772625986053],[127.0043071988848,36.7762423984999],[127.0045216003552,36.777109098808296],[127.005624200777,36.7769405995829],[127.0063138015353,36.778915198701],[127.008278099571,36.779059198557],[127.0086299001304,36.7775683990819],[127.0112144010074,36.7799313998063],[127.01049490033989,36.7814508011375],[127.0092305007634,36.780992201789],[127.00849830149559,36.7819948007864],[127.0094549007723,36.784114701014005],[127.00825590026909,36.7851323003119],[127.0072453008269,36.784891700656004],[127.0054863007047,36.7870944004558],[127.00505249953261,36.7862183008071],[127.00193960006,36.7860503005459],[127.0014644003862,36.7850840010575],[127.0005061000248,36.7855286003249],[126.99997809965481,36.7838681009764],[126.99901819930659,36.7845322011244],[126.99628129864321,36.7831488993022]]],[[[127.04143929918709,36.7777442992193],[127.04092329972491,36.7770030997037],[127.0414392999946,36.7777442993469],[127.0431104983234,36.777455699635496],[127.0457015976871,36.7748711990582],[127.04476349964901,36.7731139997915],[127.0505972992572,36.7735178985346],[127.050656899323,36.771894599500804],[127.05260039894401,36.770935798614694],[127.054921299567,36.7718401988211],[127.05649460025809,36.770597699488704],[127.0567830999427,36.7721016986829],[127.0581700006395,36.7722964980043],[127.0574615008919,36.773227499857],[127.0601063014208,36.7751970001003],[127.0582902004646,36.776105300626895],[127.0585604002361,36.7767864009209],[127.05739650025599,36.776327101275804],[127.056301501351,36.7769315006714],[127.05748540016711,36.7783734992294],[127.0602477007985,36.778730600167506],[127.058952099756,36.778476301643],[127.0545710028276,36.7809140003896],[127.05599200140661,36.7827211985824],[127.0573930025383,36.7829157006341],[127.0559920004907,36.7827212021449],[127.0559920006124,36.7850018009156],[127.0527896005303,36.7862660013816],[127.0524446973305,36.785188401060104],[127.04975040002479,36.783703102545395],[127.0473680983605,36.783577301403895],[127.0452976996976,36.779769103683],[127.0429163996958,36.7796410031781],[127.04143929918709,36.7777442992193]]],[[[127.1413430987755,36.835594700444204],[127.14253789992179,36.835576198416],[127.1436831987765,36.833926600065595],[127.1427888990192,36.833444100063],[127.1444832990888,36.832691999455605],[127.1452173998729,36.830872398881496],[127.14545130064971,36.8319393990115],[127.14657079953021,36.8318393991115],[127.1506634983672,36.828273599009805],[127.1501748995977,36.824678197958704],[127.1514960007289,36.8270211978006],[127.1528348005198,36.826453898961695],[127.1524844005381,36.8270316001112],[127.1532703000364,36.827627900014505],[127.1524906008161,36.8293088983335],[127.1543795996423,36.8274632993424],[127.1551792997742,36.830510496966106],[127.1576816007085,36.8290667991255],[127.1569062005878,36.829248601313196],[127.15593870156509,36.8331490984435],[127.15744620161749,36.8354029004418],[127.15556300096,36.8343615016982],[127.1545984019246,36.8350414010183],[127.1554559017982,36.8368190016234],[127.1534899006498,36.8363453031438],[127.1519389009334,36.840069900859504],[127.1508582991258,36.8390629030011],[127.14572219905469,36.8391952027141],[127.1450266987854,36.837751500453706],[127.1425662994303,36.8368344009433],[127.14253789941549,36.835576201262896],[127.1413430987755,36.835594700444204]]],[[[127.1263872960195,36.915890399607704],[127.1272954008096,36.9158686994179],[127.1263726965185,36.9161217016255],[127.1263872960195,36.915890399607704]]],[[[126.9486990979446,36.768910999411105],[126.95071880459581,36.7690883001536],[126.951103301537,36.7702016999524],[126.94965589945879,36.770502100861805],[126.9486990979446,36.768910999411105]]],[[[127.05487549969199,36.7693062004141],[127.0551586004272,36.7699285006068],[127.0550375994507,36.7699197007416],[127.05487549969199,36.7693062004141]]],[[[127.1493836994735,36.7984117005714],[127.14937689978119,36.7981176989476],[127.1497071006554,36.7984086997454],[127.1493836994735,36.7984117005714]]],[[[126.95338269811451,36.7704775013899],[126.95352489951881,36.7702067999386],[126.9535578017568,36.7701333991085],[126.9535249016159,36.7702067998507],[126.95338269811451,36.7704775013899]]],[[[127.1409886995818,36.8743665002172],[127.1413435019987,36.8744232974033],[127.141343500358,36.874423301528495],[127.1409886995818,36.8743665002172]]],[[[127.1435054993193,36.8705875009744],[127.14350550066891,36.8705874994068],[127.1435055008921,36.870587500296196],[127.1435054993193,36.8705875009744]]],[[[127.0631031993327,36.7957008998034],[127.06307629935961,36.7955689999353],[127.0631032003501,36.7957009000189],[127.0631031993327,36.7957008998034]]],[[[127.1188865992381,36.8080831000077],[127.1188865998974,36.808083099555894],[127.1188866008654,36.8080830999913],[127.1188865992381,36.8080831000077]]]]}},{"type":"Feature","properties":{"interval":60,"stationId":"9213388326"},"geometry":{"type":"MultiPolygon","coordinates":[[[[126.92811859790291,36.768217299618506],[126.9315730976975,36.768690898631505],[126.9326723965982,36.7677750995473],[126.9335138901225,36.7634290006318],[126.9367727966177,36.7613467975654],[126.9438770010162,36.7610968975276],[126.94597909891411,36.760505498119],[126.94616620237319,36.7595685963011],[126.9487701997692,36.7604904953792],[126.9500650984743,36.7600151958545],[126.9514906970487,36.7593222965474],[126.9525852982427,36.7550982937169],[126.95340200050529,36.7561817984505],[126.9542765010286,36.755596998602],[126.9571389981661,36.7561782980207],[126.9560489998443,36.751478399450605],[126.9564813014876,36.7537128991389],[126.95881950037631,36.7532994978724],[126.9595063007875,36.7557639975051],[126.9617032003382,36.7553677984084],[126.9625492011928,36.7577698977789],[126.9642791994628,36.7590138965349],[126.9669365974314,36.7573133978826],[126.96871449967381,36.7575021986617],[126.969704999643,36.756051299430105],[126.9714310002816,36.7571391997803],[126.9707064002771,36.7569080005261],[126.9702369005515,36.7580580995649],[126.9705707012224,36.7604873977511],[126.9717163000866,36.760956800448405],[126.9705003009577,36.7610038006112],[126.9690335025732,36.762594599367],[126.970621602976,36.764641499633505],[126.9711627060558,36.7710807968329],[126.9791705980479,36.770969196944506],[126.979696397535,36.769053497941],[126.9818431953882,36.7681355988589],[126.98880439769381,36.7621986971943],[126.98864489785329,36.760414498978506],[126.9899218982042,36.759324198971804],[126.9897190001865,36.757932198245896],[126.9932792006258,36.758365698014096],[126.99313450075249,36.7592916995012],[126.9940230001918,36.7593195999907],[126.9928970012145,36.760515599120396],[126.99405870070909,36.7614360985122],[127.0002255022855,36.7599053985558],[127.0042518005015,36.762528597746304],[127.00363740207351,36.7643998978242],[127.008183897527,36.762997699226396],[127.00945709944831,36.7600491987472],[127.0152648000295,36.7615836963016],[127.0177160000099,36.758795899493705],[127.0176514016523,36.7608281998088],[127.0190355011694,36.7611333998753],[127.01727170277499,36.762596699624005],[127.02020820105079,36.767203296946995],[127.0223998039427,36.766907699266],[127.0245204018221,36.7700799960937],[127.02858929879919,36.7658473999438],[127.0281180997371,36.765481699785106],[127.02939480008051,36.7656793998539],[127.02499280568951,36.7702069970798],[127.0295354011469,36.7719873952994],[127.0309444997378,36.7717789955078],[127.035671895992,36.7669515986333],[127.0335912986581,36.7626023013868],[127.0306729015765,36.760972103017],[127.0283694969187,36.7623926996464],[127.0328079983525,36.759650397497396],[127.032785698614,36.7578522991896],[127.0328080004754,36.7596503984175],[127.0345661988077,36.7597400982751],[127.033573499412,36.7577784998133],[127.0346801987953,36.7565721983997],[127.0378197009628,36.7569013973654],[127.0388401999423,36.758485695781104],[127.04480720180909,36.760183097213],[127.046850299766,36.763646093750005],[127.0542012998242,36.7598398913767],[127.0598312941942,36.7556286955879],[127.0613130061538,36.755813295177],[127.0650809015459,36.7593558987241],[127.06598990063691,36.7598213982586],[127.0670322011334,36.758944899556006],[127.0669645012011,36.761086997413905],[127.0707231995038,36.76310259556541],[127.0721084981185,36.760816297851704],[127.07599429581731,36.7602166990212],[127.0771457008346,36.7591928962894],[127.0788977042768,36.7605203979167],[127.0791154032499,36.7653999955082],[127.0826940996712,36.7653385955696],[127.0833879001586,36.7606008991503],[127.08404330067751,36.762089597903106],[127.08615130340179,36.760584293139],[127.08977989977319,36.7609336927896],[127.0935955959575,36.7575074962158],[127.0957121002001,36.7583782980673],[127.0999302995486,36.7567170983241],[127.1009354012319,36.7586525973216],[127.10315040102161,36.7578125971047],[127.105105400188,36.7608985962246],[127.1079507012123,36.7591211974826],[127.10581290333751,36.7617486978952],[127.1077118019914,36.76453449551661],[127.1158117001514,36.7684669967318],[127.1182427977203,36.7642020009968],[127.11745740000251,36.760486998319095],[127.1185437042232,36.7615755987601],[127.1182428045241,36.7642019961337],[127.11922700353989,36.766256594079096],[127.1257396024761,36.7677119953465],[127.1274211007946,36.7668299962285],[127.13152390172951,36.767270294923],[127.13447020332819,36.7691206979299],[127.137985000726,36.769004397961],[127.13861950352211,36.7731204960225],[127.139712602429,36.7735845955584],[127.1429891002082,36.7703442986127],[127.1440088013577,36.7762539999266],[127.1467630004,36.776162997096996],[127.1466820029692,36.7773883003885],[127.1508156989687,36.7801207989102],[127.1503963998786,36.777453399856896],[127.1521612021221,36.7772786978705],[127.1536425006408,36.7776608974883],[127.1536809016871,36.7794387986803],[127.156205000876,36.7799963982373],[127.1574169003558,36.7812025997316],[127.1570636004938,36.7816982995797],[127.1584302997951,36.781787699632304],[127.158416000011,36.7811095996288],[127.1600021013182,36.7822512998318],[127.1648893990842,36.7827239996259],[127.16547159985521,36.7815605990491],[127.1661714004491,36.7818023996971],[127.16532050136841,36.7830770988674],[127.1660486006403,36.7846360973084],[127.168564898124,36.7847972971472],[127.16986150092279,36.783860597820095],[127.1716254008343,36.7863569006684],[127.1689435008748,36.7875614005958],[127.1678821016071,36.78995050028141],[127.1688846006046,36.7913940988378],[127.1698236996655,36.7913980988338],[127.1714375000356,36.7888632996313],[127.1702226005584,36.7909391002703],[127.1715378992431,36.791765899443504],[127.1730662000761,36.7892797994263],[127.1734374006024,36.7898801001843],[127.1728617009063,36.789663400863105],[127.1717933019747,36.791475999050505],[127.1747376042011,36.792979102988],[127.1730244999828,36.7931806022614],[127.17153789979331,36.791765900349],[127.16982369993259,36.7913981011923],[127.1682567999147,36.7926309002009],[127.168554899251,36.7917274007238],[127.1675606997848,36.7912903009774],[127.1647983009632,36.7927659000479],[127.1656088007617,36.7945611991578],[127.16710950089539,36.7943723997313],[127.1669179010095,36.7953151994993],[127.1693727036346,36.7974487979932],[127.1699174012785,36.7995033984728],[127.1715947996011,36.80044739752881],[127.172958604279,36.7978920989258],[127.17524030199729,36.8007095961083],[127.1735124042443,36.8032502963049],[127.1769450008117,36.8110887884664],[127.1814796044863,36.8133490985627],[127.1839475020184,36.8131233987884],[127.18499260267541,36.8174974989872],[127.18409540088561,36.8165601010356],[127.1817504031251,36.816229202142104],[127.1781652013742,36.8166692056806],[127.17655190298751,36.8200205023293],[127.17694790259151,36.822787799562],[127.1753817016523,36.8228308030194],[127.1725744044596,36.8278108980393],[127.1795060006491,36.8306440994017],[127.17952600086359,36.831610301413704],[127.1751818019348,36.833631501184],[127.17346220373351,36.8360671993455],[127.17607130112441,36.8378083976043],[127.1760960001328,36.8393319995807],[127.1776485001307,36.8385712992864],[127.178125500951,36.8391879004962],[127.1776484997528,36.8385713009005],[127.17609600060361,36.8393320003357],[127.176272200098,36.8404618003156],[127.1749953013749,36.8416480991293],[127.1764988980819,36.8426519032647],[127.1740779000625,36.841304900306596],[127.17341690072351,36.8419831996283],[127.1740141007554,36.842460100356995],[127.1711610026037,36.845895197867804],[127.17113500318571,36.84878500146],[127.1682742022096,36.848662402097304],[127.1646879056528,36.8506247008376],[127.16430800132521,36.854474801795696],[127.1612978009638,36.8558410008162],[127.1592142018622,36.8551643015659],[127.1596148022486,36.8580135044971],[127.1577357002762,36.859079105168405],[127.1559037994169,36.8586455024765],[127.153581701739,36.8596123015097],[127.1522856005154,36.8589184020124],[127.15169559986299,36.8612163008585],[127.1475107982129,36.8569683012256],[127.1447885009352,36.8558031023908],[127.143960300404,36.857339001972804],[127.14152389938519,36.8541689032732],[127.1389675983432,36.854179902717696],[127.13766269931531,36.8528604003738],[127.1386684983095,36.8478574053768],[127.13002199935289,36.846297908674906],[127.1263844987287,36.8439093069448],[127.1233917989282,36.843954801585],[127.1263844994303,36.8439092985015],[127.1284753973394,36.8420770003338],[127.12496329869481,36.8420305004264],[127.1249303986907,36.8411301005413],[127.1236335999875,36.8401956014758],[127.1194571990986,36.8403970016462],[127.11854239727559,36.8386460008391],[127.11994439830369,36.8381322993181],[127.12048749776059,36.836983400467],[127.11993029783439,36.835833300941694],[127.1174309003338,36.8355031012719],[127.11678379752179,36.834468302001795],[127.1183972995223,36.8300990972704],[127.1196194983001,36.8292286981408],[127.1186119990018,36.8271169996218],[127.1191365992631,36.826990799059594],[127.11888099951871,36.8252847007657],[127.1171255012742,36.8253143007361],[127.11722650022121,36.8260712001888],[127.1163101002823,36.8250929009522],[127.11601260060971,36.827387700202806],[127.1155041996584,36.8263359008813],[127.1142233009393,36.8264856007316],[127.1139423994001,36.828144802684896],[127.1141071992146,36.825548300540504],[127.11300419986131,36.8260306001618],[127.1120986000047,36.823505000918],[127.111110300993,36.8229791014439],[127.1091648010629,36.8267674033023],[127.1059280996593,36.824821203518205],[127.1036749019125,36.8249865033529],[127.1035496003162,36.8280130012139],[127.1008510985358,36.818177701181696],[127.0984160000298,36.816619702763994],[127.0951963989434,36.817247103540204],[127.0903652987734,36.8142082038362],[127.0893472997914,36.8151931028513],[127.0857545033842,36.8154019026425],[127.0841381041413,36.8195732996269],[127.0863777017026,36.821605099158496],[127.0883603001657,36.820922199783595],[127.0908394020029,36.8258223962339],[127.0925588053701,36.826495098189504],[127.09361679987221,36.8295190004462],[127.0903660979636,36.8269329030441],[127.0869584013713,36.8271932027838],[127.0860763988125,36.826237003237296],[127.0830005993554,36.826030002516205],[127.07872819828481,36.826682003046095],[127.076993998544,36.8242575028047],[127.0759011996368,36.824132302929904],[127.0744878000974,36.825780001462],[127.0776828953095,36.8223400968848],[127.07761219470571,36.815367903220796],[127.0747251961123,36.8116584047039],[127.0706757001618,36.808768207594106],[127.0593119942885,36.8109205000098],[127.0576602959402,36.8060087049216],[127.0531972975757,36.8001420076341],[127.04930009899239,36.806419700801],[127.04600529763171,36.7978344999525],[127.0440380989235,36.796483801159894],[127.0420998004386,36.793239302858105],[127.0394857030527,36.7955618005356],[127.0424883997687,36.7991731024147],[127.0386171990975,36.796098404035],[127.0424883963845,36.799173096795194],[127.0394856993872,36.7955618004065],[127.035354400629,36.7953031022178],[127.03379279976001,36.7928796027524],[127.0315337020191,36.793263002369],[127.0218046015638,36.797610702613],[127.020379402989,36.8003371998865],[127.0207876001884,36.801630800423695],[127.0205489987413,36.7976466027228],[127.0173621007765,36.8023576999301],[127.0151606022735,36.803108199480995],[127.01531280133861,36.803668103172804],[127.0101405018579,36.803874602372],[127.0083847006939,36.8071274007673],[127.00586730198651,36.8071596013305],[127.0058432018462,36.808119402197704],[127.0045876992648,36.8070732025937],[127.00247799870459,36.8016161047317],[126.9973295989541,36.800297001704],[126.99651299977069,36.8006914013096],[126.99697709792669,36.8002677004338],[126.9937936011102,36.7988260018755],[126.9942169006869,36.800318500383],[126.99251620168519,36.799867700745],[126.9916372014245,36.8011757037219],[126.9887921019496,36.8019160025583],[126.988408801598,36.8040650031109],[126.9874854988068,36.8039030017576],[126.9881722962797,36.8021252988482],[126.9874452970067,36.7997412012323],[126.9853260991259,36.797485503488],[126.98336550108651,36.798150902822606],[126.9817403971457,36.8001060027061],[126.98336549714651,36.7981509008034],[126.9791637013483,36.7969850019693],[126.9793989011131,36.7979894009649],[126.9786657989368,36.797948301849104],[126.9784487980148,36.794827201146504],[126.9753519997951,36.7936999019544],[126.97550019920939,36.791778401888095],[126.9737469973398,36.7913017998627],[126.9723147982302,36.78728710197],[126.9693696994562,36.7879917007173],[126.9699227003877,36.7868594972199],[126.96950170073069,36.7877338994266],[126.97213089937469,36.787019698019705],[126.974071597434,36.7874921975472],[126.97661409801,36.7854269952169],[126.98079499382911,36.778548902095],[126.9753965992275,36.778398902245],[126.9761985972936,36.776017101269],[126.9711627023295,36.7710808062053],[126.9663307037471,36.7735627038071],[126.9610194005311,36.781918901831304],[126.9607550007955,36.7840118997383],[126.9618073997431,36.7851766985735],[126.9640498983764,36.7846409984154],[126.96448900086,36.7838243983284],[126.9658755011523,36.7865969019602],[126.96340219977981,36.7858699029679],[126.96065110125981,36.787565401573495],[126.9589370009627,36.7872749020319],[126.9558052040945,36.7898135994932],[126.9571110996775,36.7919354016005],[126.955805199088,36.7898136017083],[126.95432199984421,36.791142200645304],[126.9532780003339,36.7898842008289],[126.95162549965441,36.7902049004354],[126.9487675964528,36.7854266020421],[126.9456379995824,36.7848054026633],[126.9437650994701,36.7811612028556],[126.94202520121,36.7807206032962],[126.9392306986791,36.781438901388],[126.9351331027767,36.7839311988957],[126.9351527945971,36.7847651066616],[126.93171579621931,36.7800892031973],[126.9298710962023,36.779743501734],[126.929443197317,36.7774023008708],[126.9278636988503,36.7767053014835],[126.9295559954982,36.7738996986104],[126.92763939885441,36.7699221995544],[126.92639239983309,36.7692086999671],[126.9272179995794,36.7693906998147],[126.92811859790291,36.768217299618506]]],[[[127.28668249970569,36.6022576000409],[127.2892162993884,36.6018707991892],[127.2894616990818,36.6002906003216],[127.2870506985892,36.5982834997008],[127.2890904995936,36.5971053002487],[127.2880125995608,36.5966148995153],[127.289445200028,36.5960664997692],[127.2906537995821,36.596711899201004],[127.2911795990563,36.5963081996047],[127.29027429937729,36.5952944997125],[127.2909939998232,36.594594999927295],[127.2930404996456,36.5951032993378],[127.2934017998153,36.5934053995993],[127.2955184001737,36.5939988991556],[127.2984279996613,36.592584899726],[127.2997799004729,36.5942753988199],[127.3009848003794,36.5938546990383],[127.3013518006652,36.5962792994621],[127.3048905004591,36.5990468998412],[127.3052417023055,36.600090901192],[127.30401160037259,36.60095720006721],[127.3064370010714,36.603674000365395],[127.3052068007837,36.6032194006389],[127.3041978005891,36.604513500819],[127.3024575006208,36.604411900285],[127.3008996003893,36.60656810010369],[127.30092139965619,36.6059531003184],[127.2997834004031,36.6061672002765],[127.2992864004004,36.6072148998019],[127.2999741005703,36.6071444008474],[127.297372400052,36.607918701428],[127.2967046000639,36.6094182001437],[127.2967995988311,36.6080963010631],[127.29511480051589,36.6069550022044],[127.2933333996656,36.6098578001844],[127.29290999966611,36.607864500274395],[127.2893641997151,36.606053600338605],[127.2892563999311,36.60497140015249],[127.2881683998232,36.6048683998736],[127.2887220989809,36.6040558002252],[127.2875639996101,36.6039294001108],[127.28668249970569,36.6022576000409]]],[[[127.0658394976949,36.995270399389405],[127.0672996969982,36.9917482972156],[127.071768496782,36.9893169976429],[127.0706426979078,36.98601990094],[127.073188997801,36.982309200124405],[127.0710629977194,36.980376500487395],[127.0707015977555,36.9788829009221],[127.0740128994514,36.9794061973336],[127.0759130975512,36.9759162008236],[127.0756719010965,36.974428698282495],[127.0762935004749,36.9750934976177],[127.07847580046611,36.9749425969802],[127.0786922015815,36.976132698160704],[127.0825910016937,36.9751273977448],[127.0848515009678,36.9795009971475],[127.0869010011557,36.9785574977183],[127.0910367977845,36.98153249606],[127.0964812944045,36.9805955956357],[127.0981562004745,36.9788381973859],[127.0999983025382,36.9826960000253],[127.09849070216809,36.9848947992187],[127.1006875999712,36.9871440969694],[127.1043964007479,36.985601797257495],[127.1041553007878,36.9865947002751],[127.10518660008519,36.987052600011495],[127.1057066005941,36.9894990998646],[127.10508940075749,36.989626300241795],[127.1054630009418,36.9911513003331],[127.1045187005013,36.992626999917896],[127.1037411999876,36.9927189000826],[127.10397540000359,36.9910574005088],[127.1011742002478,36.992063200962995],[127.1017955011228,36.9950676995804],[127.10277180038,36.9951545996499],[127.1026708004339,36.9957865007327],[127.1011618005796,36.9960372012544],[127.09927570155641,36.9949834019947],[127.09735310347901,36.9966158003623],[127.09812650270561,36.9995151974629],[127.0998650001917,36.9998227998141],[127.0997603015012,37.002402800732696],[127.09863079944799,37.0006832017446],[127.0932528015055,37.0025840996356],[127.094724300034,37.0025280996916],[127.0954669004988,37.004409900681],[127.0935167002711,37.00488070155],[127.0918619012497,37.0062954006252],[127.0922321999852,37.0069081003794],[127.0916595991147,37.0059606009279],[127.0899399992353,37.006580600672],[127.0895184990814,37.004760600556594],[127.087486599124,37.0038899013791],[127.08641200019859,37.0049429003261],[127.0848155993231,37.0055292018097],[127.08336690077181,37.0050107023282],[127.0824671998342,37.0058685024342],[127.0792708004693,37.005215401974596],[127.0786886006376,37.005707301710196],[127.0773788992789,37.0038031018004],[127.0751794995803,37.0051463010901],[127.0748214990922,37.004360601196],[127.07305769910121,37.004193100555504],[127.0710454981096,36.999260901167204],[127.068993100162,36.997137103291],[127.0670903981025,36.9982644011467],[127.06695089861769,36.996627599650395],[127.0658394976949,36.995270399389405]]],[[[127.04354979724529,37.0518493001625],[127.0439082000275,37.0505970993218],[127.0439363005067,37.0516837989156],[127.0455228989201,37.0519792986201],[127.0477437992201,37.0485318007472],[127.0469112989781,37.0480837996372],[127.0479872999161,37.048090099783906],[127.04930400041901,37.0467121997823],[127.0497127004197,37.047723800002],[127.04886000126311,37.049370598809205],[127.0513825017846,37.0489953992175],[127.0544132000658,37.0503554995813],[127.0573380996316,37.0489705984795],[127.0563307004676,37.0504209998355],[127.05684219995611,37.051162499094],[127.0583596004942,37.0503805997207],[127.0581315002343,37.0511839998223],[127.0602095004742,37.052698200452404],[127.0577851006811,37.054616600008906],[127.0586015011573,37.0550619995941],[127.0580740005355,37.0558334002573],[127.0557865000669,37.0569332004314],[127.053296500089,37.0562150007473],[127.05217109971379,37.056769800415196],[127.0532964993938,37.0562149993209],[127.0534482993772,37.0541564011236],[127.0518028008687,37.053405501889195],[127.0502349002125,37.0537517012916],[127.04983520061221,37.0552539997893],[127.0509768009081,37.056927000258],[127.0489067009522,37.0575977009775],[127.0489187999837,37.0589437014552],[127.0489066982132,37.0575977011281],[127.04707480004511,37.0575884011374],[127.0464703983737,37.0562753014986],[127.043900599954,37.0550438000358],[127.0451048986982,37.0540199003841],[127.0455241990399,37.0521005008887],[127.0439044005177,37.052436900552294],[127.0438694997923,37.053082701321095],[127.04354979724529,37.0518493001625]]],[[[127.1176637977131,36.8769217007444],[127.1206458991508,36.8758315995036],[127.1205774989066,36.8748142997051],[127.12315130192691,36.873660196018704],[127.1258206996588,36.8738252989766],[127.12565099982851,36.872798000003904],[127.12736939995011,36.8708624998939],[127.1274843999317,36.872622898757],[127.1300129974031,36.8735061978737],[127.1343795987476,36.8721657966887],[127.1374025972709,36.868732898693295],[127.1373715015838,36.8671298986833],[127.1391928011422,36.8692619992821],[127.1374025989456,36.8687329038126],[127.1343796019686,36.8721658003797],[127.1352090011392,36.8725942999512],[127.1353455010027,36.8738976986478],[127.1368066012213,36.874630498347905],[127.14098869995239,36.8743664993631],[127.142764000745,36.8753054965668],[127.14469509881391,36.875084796787505],[127.1459425975664,36.8723411995311],[127.1435054993193,36.8705875009744],[127.1443975999435,36.8708836991564],[127.145110598682,36.8677359016869],[127.1415761978723,36.866107700181104],[127.1417519989723,36.8654279965063],[127.1451823985806,36.8652396978115],[127.14439729910639,36.8629524985168],[127.14637619999151,36.8625308982201],[127.1482367016645,36.8636125990701],[127.15046690372749,36.863623600195396],[127.1540502024463,36.868409899804504],[127.1571776025714,36.8745541998843],[127.15686030313421,36.8765404002038],[127.15992460259889,36.8778360002792],[127.15821160020501,36.8800495024595],[127.1557063008469,36.8800663024216],[127.1546237007551,36.8822812012948],[127.15570629847821,36.880066300102904],[127.15409410009039,36.879527700641496],[127.15402259993651,36.880300000239],[127.1504260014062,36.880990499915704],[127.1490339994875,36.8828824041926],[127.14799930083089,36.8812594016198],[127.1471857013358,36.8829704041046],[127.1429943010984,36.8855773047877],[127.14146170017649,36.8884382001821],[127.1389198020832,36.8872560013929],[127.1386222007032,36.8888217022658],[127.1368762991682,36.886235501775495],[127.1347796012649,36.88506100295],[127.1332985974887,36.885570402116],[127.1347795986407,36.8850609998865],[127.1384125947284,36.880003601981905],[127.134377998763,36.8751880067975],[127.13040100111651,36.876549704405996],[127.1292266004574,36.8776993030255],[127.127241103195,36.8838162984281],[127.126725398913,36.8843437004179],[127.1261956995612,36.8825760007435],[127.1251673003374,36.882505200496794],[127.12465439872129,36.8848225015959],[127.1209342998733,36.883232801583],[127.11896469785411,36.881101301825396],[127.1205779978737,36.8794086997875],[127.1176637977131,36.8769217007444]]],[[[127.0458231977136,37.075172201094595],[127.0473152984747,37.071659499043506],[127.05233010073681,37.0673257985249],[127.05491890067971,37.0664387990442],[127.0556822008868,37.0684737987528],[127.0568671013151,37.067568799545796],[127.0579299002523,37.0685800985345],[127.0590261004283,37.0683303991875],[127.0593123007034,37.0697614996883],[127.0610729009046,37.0695907999201],[127.0607663012873,37.071124100205395],[127.0620368003994,37.0717934000958],[127.0596764016082,37.072359900643406],[127.0608501020966,37.0748973993691],[127.0606455017342,37.076715399788796],[127.0642586993116,37.0779831997055],[127.0632561004457,37.076057299497805],[127.064619500416,37.0776720004044],[127.0641696005237,37.0782808007176],[127.0631029006602,37.0779728009853],[127.0624134008,37.0791172005681],[127.0627868009235,37.080113300188],[127.0590601008017,37.081880100529],[127.0594330004288,37.082606599802496],[127.0579597002582,37.0841991003763],[127.0574910003164,37.0835141008977],[127.0569336002836,37.0839985012631],[127.0567017998021,37.083383700259496],[127.0543033995907,37.0833638010486],[127.0542137992899,37.0824406009399],[127.05347569906151,37.0824195999473],[127.05518679903341,37.0824011987737],[127.05587539834481,37.08124199993291],[127.0553658988543,37.080555500619404],[127.05396020026001,37.080309400865495],[127.05347260030081,37.081121700728296],[127.0505597997663,37.0817189003078],[127.0500678991125,37.0804349004265],[127.0492027991359,37.080300000103804],[127.04981669838149,37.0777950007458],[127.0458231977136,37.075172201094595]]],[[[127.1072619980825,36.901268901514],[127.1086604015386,36.9014793985024],[127.11126339943449,36.903866396287],[127.11278219791569,36.901142199011204],[127.1123667009534,36.8993020980918],[127.1178473977715,36.899728598277],[127.11827249858621,36.8987203965964],[127.12180520011,36.8966389980137],[127.1216964012417,36.898620298776095],[127.1234644994736,36.8993959980004],[127.1257860979454,36.8973363985379],[127.12513419875461,36.8953498992692],[127.125786100626,36.8973363981337],[127.1277549986571,36.8979257975443],[127.1290388972401,36.8962887971016],[127.1302194004798,36.8966179981311],[127.1313515004575,36.8949619981529],[127.1320225011371,36.8951449006712],[127.13119450196511,36.896942098874],[127.132433600726,36.898642097174005],[127.13524770465469,36.8971136981275],[127.13599550357331,36.903024198580695],[127.1396250999437,36.903800897804],[127.140041203769,36.9031154954652],[127.1408661029441,36.9041725944081],[127.13931770210671,36.9062578000165],[127.14021820068051,36.9082096987681],[127.1416871992115,36.908341198636606],[127.1420420000594,36.9075164997944],[127.14267599952049,36.9085904988344],[127.1443978001054,36.9084012995255],[127.14413640126449,36.909578099408996],[127.147077407569,36.9105310028301],[127.1430412051441,36.9129066029721],[127.14155630481511,36.918148600639704],[127.1385162049003,36.922346405272],[127.1369966064719,36.9283617995451],[127.1341125001702,36.9292306028252],[127.1338511004316,36.9315542005016],[127.1341124989133,36.9292306023431],[127.1310566015179,36.9273494043445],[127.1271940037788,36.9305430023095],[127.1285382024346,36.9325682002843],[127.1305275017435,36.9330068019339],[127.1297473003564,36.9348513019975],[127.1295563992027,36.933017401483895],[127.12853820022089,36.9325682019331],[127.1227904025718,36.932341802025],[127.1226747025141,36.9342465020278],[127.11424960234689,36.9341451036305],[127.1154869969687,36.9321402980099],[127.114948697787,36.9256703035385],[127.111689701046,36.925893803315],[127.109280703455,36.9283727008361],[127.1115082009475,36.930245999904194],[127.1105147972756,36.9299316026795],[127.10912909734701,36.9285292028747],[127.11173919654661,36.9257170004794],[127.11083169694591,36.9221407010969],[127.1080320997455,36.9198642033734],[127.1053071979589,36.9214317006221],[127.112740696649,36.9158561970236],[127.1144893949003,36.9131950996847],[127.11293879645089,36.9098621030177],[127.1080846942535,36.9085216029161],[127.107466494164,36.9074586025013],[127.1086841980788,36.9065707989174],[127.1080685986944,36.9048504006378],[127.1059649984225,36.902953600498996],[127.1072619980825,36.901268901514]]],[[[127.0577262957431,37.020796299946],[127.0623196984846,37.020339098049],[127.06327789825511,37.0191760977302],[127.0656409993618,37.0184894966724],[127.0661339007909,37.0162534978585],[127.0694087979267,37.016455897685795],[127.0695700008008,37.0183499996461],[127.0709678996742,37.0184688995414],[127.0721983984437,37.0166160013943],[127.0724656000748,37.013911497356],[127.0718170024648,37.020480999213596],[127.07489799938381,37.0205467991478],[127.07525560012411,37.0192111983209],[127.0763620000508,37.0216011997038],[127.07702619938661,37.021566899738104],[127.0789374993406,37.0198858991502],[127.078616599773,37.016671797253],[127.085965199719,37.016665996212],[127.083311402665,37.017944399857896],[127.0844876014888,37.0190400987622],[127.0868203007466,37.0188276992054],[127.084289701298,37.0198754004364],[127.084316501658,37.0215130014546],[127.0825122003973,37.0235560004783],[127.08057460139901,37.022189001910895],[127.0788897988884,37.0235936008898],[127.07702810075011,37.0216543028291],[127.07620440157379,37.021845502637895],[127.0754010023772,37.0240765004069],[127.0725948019232,37.025355601874296],[127.0725659019521,37.0265808006491],[127.0743440020237,37.0275302010295],[127.0736673018171,37.028732502575494],[127.0708771996601,37.0301075030945],[127.0710714977357,37.0258596006723],[127.0678194966233,37.0260715996322],[127.06704459750101,37.022147501943],[127.0659617985838,37.021673302417206],[127.062358998821,37.0226478014594],[127.0615558996241,37.0215048026024],[127.0592552995547,37.0226060013723],[127.0580704000739,37.0213016018961],[127.0574110989985,37.0216468002995],[127.0577262957431,37.020796299946]]],[[[127.3196217983993,36.6106009030458],[127.320732199943,36.610975897672496],[127.3217716004779,36.6090262980159],[127.3277014992523,36.6092788990766],[127.32834250272161,36.6084326977647],[127.33117149989259,36.6095348966625],[127.33380269955,36.611894998008495],[127.3357846014227,36.6103406966378],[127.3393632993568,36.612903298606696],[127.34001650078301,36.612361100215104],[127.340740601291,36.614854400956595],[127.3402183018204,36.61840689800739],[127.3422812022297,36.6200012006802],[127.3410554026888,36.6201793027038],[127.3396966008644,36.622112704633004],[127.3390021988614,36.6217546025535],[127.33772909986361,36.6242692007321],[127.3342040032377,36.6243277006552],[127.334135603466,36.627209898422095],[127.3358412017604,36.62868199695],[127.3341675018371,36.62980369924259],[127.335065299758,36.632577502699895],[127.3319443993361,36.630561802680205],[127.3305206007599,36.6317012015408],[127.3289656994205,36.6306189012003],[127.32818909835581,36.6314210010441],[127.3274238992114,36.628784202],[127.3258483970312,36.630703801947696],[127.3250028978767,36.6292172034343],[127.3210999990979,36.6266683050971],[127.3216837999154,36.624657699382404],[127.3219664998636,36.6253937988219],[127.3237201981099,36.6241200000957],[127.3212865003127,36.622647101393],[127.3205896999799,36.623268901052],[127.3202264995286,36.620088498935004],[127.3216844001729,36.6206231992201],[127.3264536959641,36.6174522008549],[127.3260169964008,36.615576002731096],[127.3226528987524,36.6151941022056],[127.3213319988597,36.616140600330304],[127.3201152991046,36.6147965990779],[127.3216985975213,36.611945301929204],[127.3196217983993,36.6106009030458]]],[[[126.96164200079299,37.5259375025465],[126.963603999784,37.5248212994901],[126.966457701368,37.5254251994466],[126.9698499006447,37.5302818999322],[126.9688399008519,37.5306066004527],[126.9696669003969,37.5314940001316],[126.9689137989493,37.5320165020719],[126.9674886991725,37.530902901954704],[126.9681784991421,37.5309988992418],[126.9677661995544,37.529823900416794],[126.9665407001733,37.5296072002941],[126.9667300000648,37.5306300000353],[126.9640430001283,37.5313219003782],[126.9630883988753,37.532854800154105],[126.9644598993969,37.5304382995648],[126.963614699942,37.5272467011616],[126.9630731993618,37.5275254009586],[126.96164200079299,37.5259375025465]]],[[[126.9383625993816,37.513099600237396],[126.93970079915469,37.513434099306295],[126.9394725997416,37.5119178994595],[126.943367999425,37.510987898931006],[126.9475760008064,37.5133928005368],[126.9459162988435,37.5143340011961],[126.943239299921,37.513091100578194],[126.9426760001494,37.513797100180795],[126.9383625993816,37.513099600237396]]],[[[126.99612909871381,37.2653831005887],[126.9984547002651,37.2638221995523],[126.9997161998201,37.2644197997452],[127.0004006005126,37.2636458003254],[126.9992403001643,37.2645702005494],[126.99971000056789,37.266160001044],[126.9985536998772,37.266113699933896],[126.9992402997315,37.2645702006216],[126.99838700000399,37.263933301102],[126.99755490083609,37.2650109000244],[126.99824000000389,37.265524300046],[126.9964810003751,37.2647738012381],[126.99612909871381,37.2653831005887]]],[[[126.95875389925061,37.540433700202],[126.9594961992307,37.538817199931295],[126.9590068989455,37.5379797003417],[126.9608209995146,37.5366959995476],[126.9643975006491,37.538848699556105],[126.96374450046821,37.538806701306605],[126.9634732002525,37.5404364005432],[126.96213810051121,37.541503400102705],[126.96173019849941,37.5400751005317],[126.9607890994405,37.5396913009155],[126.95875389925061,37.540433700202]]],[[[127.0543179964553,37.1108005011149],[127.05886680255091,37.1057425979838],[127.0619686014514,37.1085493993216],[127.0635587001764,37.1085036995407],[127.0607888012958,37.108596600561896],[127.0619285011931,37.1099733998456],[127.0624686008763,37.1130948001507],[127.059984202608,37.1141929997748],[127.0600985002211,37.115155701861305],[127.0598624974338,37.113197301243005],[127.05707239987849,37.112461902001],[127.0565464998557,37.1106308019187],[127.0543179964553,37.1108005011149]]],[[[127.43139889936721,36.3307832997669],[127.4325825994192,36.3311448992879],[127.43345410015661,36.3298528995242],[127.4355362008429,36.3319454000549],[127.4343863009397,36.3318893007182],[127.4321235997184,36.3335646011324],[127.43236399923771,36.3316483002357],[127.43139889936721,36.3307832997669]]],[[[127.07244149833309,37.006788797937304],[127.07240749975139,37.005638399110204],[127.074440699473,37.006616398940196],[127.07439480132369,37.0088327985986],[127.075983499735,37.0092674981639],[127.0768406001727,37.00780059926],[127.07812520081801,37.0103909996714],[127.0777953004941,37.0110636004373],[127.0751694001789,37.0104232010721],[127.0727275998128,37.0112841999833],[127.07244149833309,37.006788797937304]]],[[[126.9706043994388,37.541492199521],[126.9718181995668,37.5418706997907],[126.9717244996067,37.5409645984519],[126.9731225002057,37.5403152993058],[126.9727811007742,37.542281100330094],[126.9706043994388,37.541492199521]]],[[[127.0632638988308,37.1477425017921],[127.0634699995241,37.1469599985732],[127.0664383001989,37.1469851997315],[127.06742300021071,37.149050000102406],[127.0652706001694,37.1505801010843],[127.0644399002006,37.1493887012222],[127.06353499892751,37.1494632008708],[127.0632638988308,37.1477425017921]]],[[[127.4414879995374,36.3307662003672],[127.4439339998807,36.3281303989851],[127.44500020035609,36.3285833993459],[127.4450742004176,36.3299809004951],[127.4439940004352,36.3310513007421],[127.4414879995374,36.3307662003672]]],[[[126.97369659961619,37.5357882000662],[126.97416680018691,37.535287499427206],[126.97452350061991,37.5355586005684],[126.97369659961619,37.5357882000662]]],[[[126.9266508996253,37.5140035000259],[126.9273706005951,37.514490899487996],[126.9270280004161,37.514641499984606],[126.9274251011418,37.5151634015962],[126.9266508996253,37.5140035000259]]],[[[126.9508356995938,37.541837300440996],[126.9518176008304,37.5418319991945],[126.95252340057391,37.5431727998976],[126.9508356995938,37.541837300440996]]],[[[126.9976682988185,37.268815499576],[126.9980971000214,37.267083098708],[126.9974863997719,37.2690373004534],[126.9976682988185,37.268815499576]]],[[[127.0612700986395,37.1695330998575],[127.062898300264,37.16845669997],[127.0624447005209,37.1698476004335],[127.0612700986395,37.1695330998575]]],[[[127.12804899596401,36.865207998385],[127.13079909447181,36.8643031956717],[127.13183740055669,36.8649456000444],[127.13103300095341,36.8665049006102],[127.1280281994165,36.8668742016583],[127.1274762964555,36.8665076998002],[127.12804899596401,36.865207998385]]],[[[127.4404224994653,36.328532099793094],[127.4411071003638,36.3285274998935],[127.4407016005447,36.3292521006551],[127.4404224994653,36.328532099793094]]],[[[127.0996101966917,36.826623902162204],[127.0998532005202,36.8253807981743],[127.10041630018391,36.827361800252795],[127.0996101966917,36.826623902162204]]],[[[127.4251346990892,36.3283719997409],[127.4259679009304,36.3286756003413],[127.4258672997043,36.3287340010679],[127.4251346990892,36.3283719997409]]],[[[126.9188019994795,37.516974499274404],[126.9200026003284,37.516795699654004],[126.9189885003846,37.5171858015876],[126.9188019994795,37.516974499274404]]],[[[127.4372962996228,36.3329696996541],[127.4376610001468,36.333122699595194],[127.4377822007984,36.3331833001843],[127.4376609994751,36.333122700419395],[127.4372962996228,36.3329696996541]]],[[[127.4472952989497,36.3195928996223],[127.44765340134549,36.320130499582596],[127.4471744998097,36.3199525006795],[127.4472952989497,36.3195928996223]]],[[[126.9722453992904,37.534123899032],[126.9724036991321,37.5340293991265],[126.97258220095951,37.5339092988761],[126.9724037001744,37.534029400834804],[126.9722453992904,37.534123899032]]],[[[127.14669529988761,36.7893879000204],[127.14667330059041,36.789473799975504],[127.1465556997424,36.7895720999708],[127.14669529988761,36.7893879000204]]],[[[126.9678825974664,36.781409200743596],[126.96788260023979,36.781409198502196],[126.96873760082529,36.7816310992287],[126.9678825974664,36.781409200743596]]],[[[126.9960872995854,37.267610999474],[126.9966188006909,37.2676497998805],[126.9960872994581,37.2676110006615],[126.9960872995854,37.267610999474]]],[[[127.0005782993631,37.2634588000806],[127.0005782998981,37.2634587980043],[127.0005783013605,37.263458798194605],[127.0005782993631,37.2634588000806]]],[[[127.12929379959719,36.9218319991406],[127.1292938006795,36.921832000555],[127.12929379949689,36.921832000506605],[127.12929379959719,36.9218319991406]]],[[[127.2885841999272,36.6052789999267],[127.2886560998553,36.6052661999395],[127.2886561002895,36.6052662007164],[127.2885841999272,36.6052789999267]]],[[[127.4368389999091,36.332737199734794],[127.4368390001276,36.3327372002346],[127.4368118001548,36.332806000165796],[127.4368389999091,36.332737199734794]]],[[[126.9695144997415,37.526399600648396],[126.96951450071731,37.5263995987807],[126.9695145014793,37.5263995999538],[126.9695144997415,37.526399600648396]]],[[[127.0651949966574,37.013971199259004],[127.065194999175,37.0139711980781],[127.0651950017298,37.0139712001408],[127.0651949966574,37.013971199259004]]],[[[127.1097680989403,36.7791659996198],[127.10976810159299,36.779165997818595],[127.1097681021141,36.7791660007362],[127.1097680989403,36.7791659996198]]],[[[127.41967429886729,36.3249499990478],[127.4196743006918,36.3249500003894],[127.41967429962439,36.3249500007165],[127.41967429886729,36.3249499990478]]],[[[126.9262374997972,37.5136809988985],[126.9262375003537,37.5136809990246],[126.9262375000387,37.5136810003484],[126.9262374997972,37.5136809988985]]],[[[127.05328359949,37.0471987996013],[127.0532836000294,37.0471987995546],[127.0532835999575,37.047198800087195],[127.05328359949,37.0471987996013]]],[[[127.10080599925071,36.999056200580696],[127.10080600002611,36.999056197921895],[127.10080600087471,36.999056198628395],[127.10080599925071,36.999056200580696]]],[[[127.1424552977102,36.8697205998378],[127.1424553004584,36.8697205994634],[127.14245530036949,36.8697206018413],[127.1424552977102,36.8697205998378]]],[[[126.9652876997811,37.531886300045194],[126.9652876999427,37.5318862998275],[126.96528770009171,37.5318863000429],[126.9652876997811,37.531886300045194]]],[[[126.97195479973351,37.555194099848],[126.97195480002681,37.555194099872104],[126.9719548000524,37.555194100171605],[126.97195479973351,37.555194099848]]],[[[127.05324259945421,37.0479753996144],[127.0532425999985,37.0479753993106],[127.0532425999245,37.0479754002375],[127.05324259945421,37.0479753996144]]],[[[127.1347490996366,36.9136318002475],[127.1347490996773,36.913631799716995],[127.13474910018509,36.913631799744095],[127.1347490996366,36.9136318002475]]],[[[127.1700949997078,36.7925402004501],[127.1700949996613,36.7925402000502],[127.1700950000522,36.792540199959696],[127.1700949997078,36.7925402004501]]],[[[127.4468438992675,36.3204912007759],[127.4468439000337,36.3204911998209],[127.44684390014031,36.3204912001408],[127.4468438992675,36.3204912007759]]],[[[126.9253524001355,37.5123805001718],[126.9253523999432,37.5123805000191],[126.9253524000298,37.5123804998733],[126.9253524001355,37.5123805001718]]],[[[126.93809159965261,37.513465199871796],[126.93809160005921,37.5134651999806],[126.9380915997544,37.5134652008239],[126.93809159965261,37.513465199871796]]],[[[127.04379729987069,37.0550642000014],[127.04379729999819,37.055064199905594],[127.04379730005729,37.055064200015394],[127.04379729987069,37.0550642000014]]]]}}]}