{"type":"FeatureCollection","features":[{"type":"Feature","properties":{"interval":15,"stationId":"10814394643","profile":"off-peak"},"geometry":{"type":"Polygon","coordinates":[[[126.618126699491,37.6458641005815],[126.62739189919081,37.6378821996409],[126.6475830995944,37.6393771984132],[126.6330080009851,37.644020500848],[126.6350305999934,37.6506281982105],[126.6366371990821,37.6479553001615],[126.6288923007002,37.6537498998637],[126.618126699491,37.6458641005815]]]}},{"type":"Feature","properties":{"interval":30,"stationId":"10814394643","profile":"off-peak"},"geometry":{"type":"Polygon","coordinates":[[[126.6048699981843,37.6454571991949],[126.6118626974644,37.6362896981581],[126.6235179956731,37.6344575974222],[126.6307185001511,37.6265674985639],[126.63191549972821,37.6322128945302],[126.63948359720891,37.629767697730905],[126.643198000933,37.6336558973441],[126.64702799710301,37.62983000117],[126.65753139969709,37.641166998083804],[126.6632758986954,37.635489200327505],[126.6809126990155,37.6368555990954],[126.6785757008082,37.6469292985039],[126.6962929005536,37.649892699332305],[126.6916430000195,37.6542199010542],[126.6854350003963,37.651803702466104],[126.68063070119939,37.6618141006119],[126.675547999323,37.6596964008125],[126.6758771985185,37.6523375012108],[126.6559262004222,37.6510635017187],[126.6532964985533,37.6425219020456],[126.6459533025334,37.647494299897296],[126.6505796007347,37.6524866986967],[126.6468115021461,37.6557221003283],[126.6278501045353,37.6640985027085],[126.6126458019097,37.6580722011427],[126.6048699981843,37.6454571991949]]]}},{"type":"Feature","properties":{"interval":60,"stationId":"10814394643","profile":"off-peak"},"geometry":{"type":"Polygon","coordinates":[[[126.5812973993061,37.648357501414104],[126.5919432963332,37.6437931995899],[126.5884539998225,37.6417568016263],[126.5912679976734,37.6325213009846],[126.585823300479,37.630155601718705],[126.5917804980393,37.621470199693995],[126.6083950989072,37.6147058998464],[126.6155798992036,37.6164815977758],[126.6263276986968,37.6075266989271],[126.6447696982555,37.6091641986812],[126.6380143054484,37.6165878013354],[126.6417095017532,37.619716398206805],[126.6485719980057,37.619360998961895],[126.6501795984523,37.6124082016089],[126.6612400990086,37.6212744945542],[126.6731084985563,37.6153021996725],[126.67707340124849,37.6250953954955],[126.6826681979335,37.612161400460195],[126.7013163972137,37.6098533961744],[126.72526409881411,37.5900811970277],[126.7447202973811,37.5928788976898],[126.74844899821099,37.5980267961169],[126.7694039985222,37.5858370972622],[126.7798687002766,37.591522097678],[126.7897442986361,37.5876971984558],[126.7846020041661,37.596110797788995],[126.7877400005908,37.603410499363804],[126.7845775031717,37.6101980993491],[126.7672508066662,37.6189987126851],[126.765887398632,37.6087440035864],[126.7619701025493,37.6102287021017],[126.7607997034062,37.616657098835695],[126.7641905000154,37.616444299048496],[126.75910019836431,37.613733701363394],[126.745057399763,37.6187912039185],[126.7456261991942,37.6264169962927],[126.73458530363041,37.6259087997377],[126.7322577072408,37.636029311645494],[126.7104103006216,37.641336901388996],[126.7092955029372,37.6471675971324],[126.6642497152325,37.676066005778296],[126.6530177990809,37.6693292011356],[126.6415528009296,37.680443601971895],[126.629180200799,37.669328101222],[126.6271820995188,37.6738588975859],[126.6309869988554,37.6715592993603],[126.6271821022698,37.6738589003157],[126.63236260044849,37.6800144986828],[126.6083991001972,37.6827541014861],[126.6081670993773,37.6755590012294],[126.60043020125761,37.6751259019338],[126.585421300913,37.6615077005043],[126.5883889003112,37.651768401640204],[126.5812973993061,37.648357501414104]]]}}]}