{"type":"FeatureCollection","features":[{"type":"Feature","properties":{"interval":15,"stationId":"12455789582","profile":"off-peak"},"geometry":{"type":"Polygon","coordinates":[[[126.7360122984568,37.66740390059179],[126.74322770077441,37.6577572019883],[126.74629299895679,37.6618030979293],[126.7580997004044,37.6590126988151],[126.7590051004085,37.6669134995179],[126.75304100005529,37.6746784000904],[126.7360122984568,37.66740390059179]]]}},{"type":"Feature","properties":{"interval":30,"stationId":"12455789582","profile":"off-peak"},"geometry":{"type":"Polygon","coordinates":[[[126.723629499557,37.664328599907094],[126.7413376981416,37.6614970998739],[126.7429967980456,37.6510594007444],[126.73953830016211,37.650036100959504],[126.7507068997555,37.6498122987612],[126.7548970009419,37.656089395784896],[126.765124099047,37.651210097415],[126.76978150027149,37.6625351996055],[126.76423600020149,37.6804258999123],[126.7583714007791,37.683932500392494],[126.74031140035859,37.6804639020513],[126.73424109767831,37.6744430040321],[126.729963401956,37.6773945010806],[126.723629499557,37.664328599907094]]]}},{"type":"Feature","properties":{"interval":60,"stationId":"12455789582","profile":"off-peak"},"geometry":{"type":"Polygon","coordinates":[[[126.7004153981049,37.6765529012958],[126.7003371996675,37.6685297007017],[126.71951218966309,37.6551438920717],[126.7122326970628,37.6443000028676],[126.7196301950977,37.6550431879033],[126.7255269938727,37.6555019866401],[126.7813689998698,37.6298233997854],[126.802487101241,37.632496199418],[126.79866050270239,37.6530838017654],[126.801388300388,37.6618115997952],[126.791948301751,37.6657627004343],[126.7932416001386,37.675787897965904],[126.7869913004795,37.6781655003427],[126.7806284006475,37.6934440998878],[126.77120430321399,37.695774101418],[126.7690971044256,37.702266301463496],[126.7626910001573,37.7014824002988],[126.76277520004099,37.7167240997974],[126.7587646983843,37.7106147005505],[126.7608413991048,37.704396001145504],[126.7166234006754,37.6937558004012],[126.7112613994027,37.6898285015634],[126.7132282979788,37.685433103262596],[126.7061099997853,37.682780001946],[126.7074419958389,37.6782226019132],[126.7004153981049,37.6765529012958]]]}}]}