{"type":"FeatureCollection","features":[{"type":"Feature","properties":{"interval":15,"stationId":"1790506663","profile":"off-peak"},"geometry":{"type":"Polygon","coordinates":[[[126.8071237993569,37.5613637001884],[126.8117651994849,37.5572917991985],[126.8152090011199,37.560931098157596],[126.8229610988912,37.5590225993833],[126.84157999918419,37.5390576993504],[126.83944000196169,37.5507128991155],[126.8505324002942,37.5566599990645],[126.8394304007785,37.56825170079],[126.8335446001005,37.5638479001828],[126.8071237993569,37.5613637001884]]]}},{"type":"Feature","properties":{"interval":30,"stationId":"1790506663","profile":"off-peak"},"geometry":{"type":"Polygon","coordinates":[[[126.7901986966138,37.5765488995943],[126.79889969513621,37.571171502968795],[126.7954243971228,37.5683864041951],[126.7993937003088,37.5758302957253],[126.8043332988424,37.5680287006308],[126.7984198005241,37.563155202025094],[126.8139417975667,37.5471032001008],[126.815482000446,37.549886799277104],[126.8274755985343,37.5445907005683],[126.8241466998524,37.5392725010983],[126.8274978996719,37.5339028995602],[126.8447432994492,37.517027400035104],[126.8609768982051,37.5084648997021],[126.8736865996808,37.514282199455096],[126.8707000006944,37.518719999816405],[126.88355609869701,37.519861999248604],[126.87988870027439,37.512826401027404],[126.8862141997151,37.511029399774095],[126.887169900916,37.5201542990402],[126.894342798954,37.5160417007987],[126.89751080114381,37.5210182987861],[126.909584200208,37.5203781995216],[126.9058059006517,37.527290400323196],[126.8995637999205,37.523663902266],[126.89743750146239,37.5297741006369],[126.88411020050279,37.5265218005405],[126.8775485002408,37.532968900092],[126.8707011004514,37.5305139006244],[126.8541223011998,37.5391294013901],[126.8564216009937,37.5484086992747],[126.8681624994429,37.548810399160004],[126.8618656018399,37.5525359004598],[126.8604609013265,37.5640083001638],[126.8384187063841,37.5774975065542],[126.8302648991172,37.5717741013174],[126.82047930131141,37.5733103030441],[126.81085570091011,37.5851057017647],[126.80069690174531,37.5803942017788],[126.7971407003606,37.584697801415004],[126.79951389937669,37.5789520999992],[126.7901986966138,37.5765488995943]]]}},{"type":"Feature","properties":{"interval":60,"stationId":"1790506663","profile":"off-peak"},"geometry":{"type":"Polygon","coordinates":[[[126.61841649920119,37.6459518004938],[126.63987589771561,37.631104800342605],[126.6560012950335,37.6380008972913],[126.6761860997796,37.6333905997312],[126.6841258997828,37.6397439985147],[126.6838615991647,37.6321626016377],[126.69499160069209,37.6193598969835],[126.7119308965036,37.617341698923894],[126.71086109730051,37.6015158994077],[126.72047209891869,37.595245699508396],[126.7288316992573,37.5930293970739],[126.7450060993199,37.5978584981754],[126.7540274968308,37.590276098729596],[126.7547190973456,37.581349799293996],[126.7603930005004,37.5906033966823],[126.7661997955459,37.5870850006154],[126.7706253993343,37.5692126987865],[126.7765714976929,37.5755430975846],[126.7904878988427,37.566374692500794],[126.7993937003088,37.5758302957253],[126.8035801992859,37.5713500991522],[126.7984198005241,37.563155202025094],[126.8139417975667,37.5471032001008],[126.80718159838241,37.538683202811605],[126.7920488026687,37.547512600654095],[126.7916018986611,37.543068501893494],[126.78488249962369,37.5418163003581],[126.79724069599351,37.53790510039801],[126.7859471011206,37.5384869000914],[126.7870517972544,37.5339478011687],[126.7740216994769,37.5318144039809],[126.7701279991888,37.5154703007953],[126.76019049968889,37.5122773018079],[126.7546739992342,37.515915000534896],[126.74722470033771,37.511438303343205],[126.7337171009037,37.5155516005455],[126.7313900015591,37.5259729981388],[126.75525250081,37.542138296606396],[126.7493095999603,37.5406386005989],[126.7454433008109,37.5459952987308],[126.75179019988481,37.558545697645705],[126.7612608987706,37.5587983992307],[126.75625560173481,37.567019898673095],[126.760922399187,37.5723925961111],[126.7533707002529,37.567738401363805],[126.74673870296239,37.5727140981436],[126.75142789827319,37.575113395744296],[126.7496760016272,37.5787639999911],[126.7357988998941,37.586743800868],[126.71847660099151,37.577045601013396],[126.7203728969074,37.5710666027768],[126.7087587009086,37.5715312017186],[126.7073430995802,37.5687637003514],[126.71557109860781,37.5691755972065],[126.71791469626419,37.5649803014018],[126.71426739991149,37.5635469028352],[126.71791469850389,37.564980297359],[126.7222952987339,37.555184400316],[126.7061788005534,37.5302514013013],[126.7161062972855,37.521251901340904],[126.7080827994093,37.518987601389505],[126.7098991987574,37.5164743993738],[126.718788197516,37.516629899478396],[126.71293869771479,37.5094514016383],[126.7048430005036,37.5152635009017],[126.69660240004801,37.5094090010491],[126.7023829004071,37.502016098528095],[126.70570380070279,37.506684797203704],[126.711983399349,37.5047826995668],[126.7163828980727,37.4914214015756],[126.7037440003603,37.4888594013206],[126.7042203986976,37.4809779004216],[126.6949060013879,37.4767205015327],[126.6961272984517,37.4646593001785],[126.6854854013025,37.464692301549206],[126.6776874999648,37.474912200877796],[126.6802330990306,37.4709583010443],[126.66801959989819,37.465260400837195],[126.685485398941,37.4646922991865],[126.6965988991791,37.458509798871404],[126.71037480014989,37.4652247995539],[126.7137173022721,37.481871996651506],[126.72643099719211,37.4842800989815],[126.7785005954918,37.4717542971964],[126.78418719878691,37.463971200734505],[126.7804161987659,37.4509789024338],[126.7680768973872,37.4433312037836],[126.7723789985314,37.4408856989183],[126.7711047006744,37.4289669029002],[126.79293769994139,37.4241640992816],[126.8075289996362,37.4351862995185],[126.81428820298979,37.4527789996153],[126.8065729061458,37.453327201905694],[126.80880120391751,37.4584609967719],[126.8147050980136,37.457205898027],[126.81757119922061,37.4619812994373],[126.8131570007849,37.4648344998765],[126.8175964014266,37.4742022968612],[126.8248304000702,37.469061499805704],[126.8305117007993,37.4849576949153],[126.8508625989354,37.4682087996863],[126.8566027992495,37.4706057995979],[126.8775823987679,37.4650987994226],[126.8860095998863,37.449331799886906],[126.8986383983611,37.444671898738],[126.8964246015898,37.4486501994998],[126.90690580027301,37.4531341995332],[126.904256301396,37.470866800686906],[126.9083210998364,37.4726775980718],[126.93347799882079,37.4603340975333],[126.94600539996661,37.468423198438096],[126.9493070996972,37.4617322990198],[126.9537161999259,37.4703373968341],[126.9578834957586,37.4685551986163],[126.95371620421301,37.4703374008129],[126.9562774016518,37.4741764969738],[126.96207339824869,37.472514798523996],[126.96423119820611,37.4659469989328],[126.9747017988564,37.4659587999409],[126.9857053003744,37.472919397576405],[126.9933763979029,37.4722495990642],[126.99240980128,37.479656997020804],[127.0032521991141,37.4740317977119],[127.00894420152841,37.482984200019295],[127.02037130057079,37.482691997731],[127.0199639012495,37.4939067994103],[127.0291234991704,37.4929407996852],[127.0393710004157,37.4991953991072],[127.03772210022639,37.5062204994875],[127.0500370993886,37.5023043977573],[127.052189400445,37.5048424990481],[127.0467751005186,37.5093198001212],[127.0599956986873,37.5123402980903],[127.06376209893861,37.507542899647],[127.064389100495,37.516975600128504],[127.0579737003585,37.5190146001194],[127.0503903993781,37.513787800497504],[127.0398200998233,37.518629200467],[127.0357665997581,37.5101076003967],[127.0344584008657,37.516314100166404],[127.02511250046591,37.51431380051049],[127.0193959007594,37.51970790037],[126.99194370124779,37.508904900610496],[126.9878880023202,37.5155029009669],[126.9995844000301,37.522228299520805],[126.9852753009248,37.5199647005145],[126.97707610144491,37.5312093003956],[126.97891520048731,37.5340094989128],[126.9808681997948,37.5277886000046],[126.9852200004632,37.5323165999563],[126.9729330012391,37.539570898540504],[126.9768494993888,37.5457071994779],[126.9869864993195,37.5410889999692],[126.9934863988306,37.5280898998628],[127.00576780164751,37.5278788000611],[127.0087072008465,37.5483392993506],[127.0158957003495,37.5545282986676],[127.016282999235,37.5462285003172],[127.0302524995802,37.555937198423905],[127.03911119930629,37.5565419000325],[127.0453993008679,37.5685584999757],[127.0244387007453,37.568262600668895],[127.0178907002,37.5751567999961],[127.00219440104979,37.577511100922],[127.0028462002541,37.5850992008338],[126.995842198897,37.572014700725],[126.9878049025115,37.5855781013324],[126.9707470003963,37.584380200263595],[126.9645834996401,37.577333402361],[126.95618659985199,37.5771379014127],[126.93859140041181,37.5967009001914],[126.94126340172309,37.6106956993696],[126.9353337007908,37.6172728006569],[126.94023420131131,37.6225703961278],[126.9260330000442,37.627606803880404],[126.9271026006481,37.6394589989085],[126.92320800054401,37.6380456029648],[126.9237357000163,37.64287039814],[126.9132450006569,37.65294630017571],[126.9149082957584,37.6391517017291],[126.91140439942619,37.6342342015648],[126.9192716983476,37.628696599989595],[126.91017289964101,37.6219491997603],[126.9079434002949,37.6092366010156],[126.9017051034411,37.6059713011812],[126.8998854960372,37.593601702351],[126.8934395014202,37.5891805021057],[126.8844878044938,37.600373799239],[126.8785350002102,37.5990812005293],[126.88484410002259,37.6063766981949],[126.8814028998486,37.6054981033691],[126.877131301404,37.6199511012121],[126.86612310346139,37.6152553036742],[126.8607743020957,37.6215755016551],[126.8622934961774,37.6128716037522],[126.8486847010613,37.632298698232496],[126.8443336001,37.6272952034382],[126.8383783033406,37.631684400854596],[126.8491910011532,37.64930789590429],[126.8544300000837,37.6479499997097],[126.8491910054277,37.649307905266696],[126.8458898046778,37.6582751997724],[126.8500450005226,37.6607621972854],[126.8335325005431,37.6597144008082],[126.8263104987538,37.6411353023284],[126.8142160029911,37.6408767028341],[126.81287230194029,37.6491003985789],[126.820226202207,37.6509883985319],[126.8128603016657,37.6552184023109],[126.8167091010717,37.667237397955],[126.80080290105259,37.6824071995116],[126.7854117032043,37.6870628000812],[126.76834370074181,37.6996939999322],[126.7462090996097,37.680520800977],[126.7392256005522,37.6811588003772],[126.7406819989318,37.6707099004309],[126.7622422980318,37.6610524992199],[126.7637437998652,37.6467008000801],[126.768925698345,37.6493076000255],[126.7750804972546,37.644803197024196],[126.7737836985052,37.6368330008193],[126.7864253981564,37.6302281989397],[126.7785912045639,37.6124295134087],[126.7672508066662,37.6189987126851],[126.745057399763,37.6187912039185],[126.7435194021068,37.6271621992548],[126.74313889840221,37.6236750024702],[126.734585302778,37.6259087974171],[126.7317838004739,37.635786200243096],[126.7317492001275,37.6301051031947],[126.7259583045587,37.6341441002325],[126.7307601997568,37.636361598015],[126.71452960354101,37.635259601096095],[126.720837997543,37.6383739979847],[126.71939970612729,37.6421421133599],[126.70384710258601,37.6447135020935],[126.7005682032603,37.6530741968246],[126.6747056082085,37.665990112339905],[126.6656457003135,37.653405102229904],[126.6541994996019,37.651275801444],[126.6549380975665,37.6432285031606],[126.6256710007161,37.654014700759],[126.61841649920119,37.6459518004938]]]}}]}