{"type":"FeatureCollection","features":[{"type":"Feature","properties":{"interval":15,"stationId":"1906756403","profile":"off-peak"},"geometry":{"type":"Polygon","coordinates":[[[127.0334179992385,37.471459800188],[127.0365577991591,37.4658639995053],[127.045077100748,37.4678029988488],[127.0414176007731,37.4754089000701],[127.0334179992385,37.471459800188]]]}},{"type":"Feature","properties":{"interval":30,"stationId":"1906756403","profile":"off-peak"},"geometry":{"type":"Polygon","coordinates":[[[126.9765217991852,37.4835506997416],[126.9885969982016,37.4861539973969],[126.9982423965709,37.4771178987405],[127.0034910001008,37.480457098869],[127.01672219968971,37.4757258994043],[127.0306644991221,37.4576815003359],[127.0459835996163,37.4596232989244],[127.0460271971276,37.4503479027913],[127.0377966050376,37.449345103404],[127.0433234949404,37.4508386944969],[127.04457879368509,37.4402141051215],[127.0407989974649,37.4382830070526],[127.04725259771779,37.4322285973755],[127.0699220000119,37.4341684996747],[127.0723027017981,37.442386196871205],[127.0666571054002,37.4464463004604],[127.07081430044879,37.4554602988906],[127.0640789038419,37.461644896737205],[127.0573689022269,37.4585222041018],[127.05237340101229,37.4789810003293],[127.0739125001491,37.4913724993261],[127.0840256996942,37.4900814987973],[127.082395102665,37.496759000632196],[127.0791189010719,37.4947655009348],[127.0681259026486,37.5056757008094],[127.0716458007976,37.5108370999241],[127.08608429999299,37.508004399681],[127.0901197998855,37.5133078992833],[127.06703290038661,37.5123579007472],[127.06478060096731,37.517596300488],[127.05171320024239,37.5228770001142],[127.03999400056979,37.5232289000705],[127.0372163997677,37.518128700488],[127.0323848010234,37.522728399627],[127.0339293007533,37.531830499402],[127.020321908255,37.5376219039081],[127.0234068006872,37.5439053995368],[127.0176618008774,37.5446678003865],[127.0227894006719,37.5481889995314],[127.00699260025921,37.5627455000145],[127.0015757998007,37.5594369012567],[127.0067765987013,37.5522420003651],[127.0134558002713,37.5516733990573],[127.0111310996664,37.5411147003973],[127.0228724984799,37.533976696129095],[127.0220786997637,37.5271061002681],[126.9855547997424,37.500359200029095],[126.9944972988371,37.5018471993727],[127.0041737994224,37.4957480994188],[126.999765101316,37.481688502289195],[126.9996400010953,37.4883913998463],[126.99108490063891,37.4930360002761],[126.9878075995364,37.4866884013983],[126.9801864997212,37.4886115005004],[126.9765217991852,37.4835506997416]]]}},{"type":"Feature","properties":{"interval":60,"stationId":"1906756403","profile":"off-peak"},"geometry":{"type":"Polygon","coordinates":[[[126.8354547991363,37.5685908997445],[126.8389914986251,37.5633222001313],[126.845756698353,37.5648203996839],[126.8507585993501,37.553110600040895],[126.8635398979833,37.553806000914705],[126.8673546987778,37.538947399978596],[126.8850778996734,37.5373234998738],[126.8818278005203,37.5423054012089],[126.8861292977481,37.546200497523195],[126.8917593992208,37.533773398696404],[126.8827901003325,37.524809201225],[126.8734281000567,37.52947850027],[126.8681504999232,37.5254699008893],[126.85566300119031,37.528589700481994],[126.8516194000793,37.5242208005126],[126.8836082985468,37.5207221995511],[126.8738857999229,37.5065344014555],[126.8751694977728,37.499973402181304],[126.86883030083929,37.5015358000909],[126.8661651988435,37.498877100358705],[126.8700972987555,37.4966289993789],[126.86512279971639,37.4928343019222],[126.85652250095569,37.4972942004351],[126.8534907001672,37.4942530021426],[126.8722757984603,37.4890148003178],[126.88014269761709,37.494228898908204],[126.8744709974129,37.482480700009006],[126.8618953001637,37.481569900305],[126.85735000027249,37.4856021005905],[126.8461397000354,37.4823604001826],[126.85123299928539,37.4726066002246],[126.8632444978896,37.4765182983297],[126.86860979932901,37.4674873003267],[126.8788331987194,37.4741437986553],[126.88586989715691,37.4706895987304],[126.8938512002967,37.4777833996872],[126.9101446987068,37.4751362990225],[126.9121303998044,37.4792756978929],[126.9110960999161,37.4722506015418],[126.9208421997526,37.4703759993206],[126.9313230987817,37.4602119005532],[126.94600539996661,37.468423198438096],[126.9463680976922,37.462461001246396],[126.9525923992795,37.4595961000388],[126.968676296073,37.462033995921004],[126.9660403987089,37.4565765013785],[126.97480109595709,37.4587189957643],[126.9806033997507,37.4710080979516],[126.9884666994664,37.4660825001595],[126.9903535987343,37.4442588046065],[126.99453269627769,37.443519800074796],[126.98466100074491,37.4311341025752],[126.9831299994093,37.4233687003356],[126.9886674969443,37.4196604007127],[127.0112878984502,37.4278766987994],[127.0128309002925,37.4359683940701],[127.0188159996794,37.43597679902],[127.03341119351721,37.434615093458305],[127.0417664938484,37.4174206997679],[127.0507008990158,37.426171793195095],[127.0595695898116,37.414545998959504],[127.08099640225231,37.4171912958698],[127.080723809122,37.4311709925091],[127.0944326988261,37.427440697353695],[127.0891747047586,37.4310396992546],[127.0894600039219,37.436594899346005],[127.09421579916611,37.4372729986679],[127.08839320435119,37.4538025002555],[127.0954100017647,37.4649219983313],[127.1047632989075,37.4682166968012],[127.1078904997832,37.462021900052605],[127.11579469763069,37.462988797790196],[127.11793829528621,37.4561134033359],[127.1241496977556,37.4591378962324],[127.1149804984113,37.419760602309296],[127.1122443011475,37.4220743999955],[127.11021420050051,37.4172748043844],[127.1052234002477,37.4221980002383],[127.1088931974434,37.414705899557],[127.1032990001174,37.4095027004621],[127.1033468013879,37.4223931992288],[127.09243269713231,37.416254005659205],[127.09292219997981,37.4087578999025],[127.0857773987358,37.407094405604695],[127.08542679712349,37.398620902169],[127.0808913008782,37.397877001817804],[127.08317689882159,37.3935159018437],[127.07723230006381,37.3921375008252],[127.089362094749,37.3827694925223],[127.0925983915127,37.3719990032928],[127.0806275991729,37.3601099082195],[127.0771128026877,37.366477601851805],[127.07953089625539,37.344740103176605],[127.0721684981163,37.3398797031431],[127.0733951977917,37.330958300281296],[127.06508139897839,37.3266179997534],[127.06697119937469,37.322051103302904],[127.0581879995898,37.3239946007258],[127.05645879792161,37.3190933009075],[127.0658958974944,37.2973407992284],[127.0607735026168,37.2942423023269],[127.0516021038659,37.3047404031079],[127.0541355000491,37.311536198742],[127.04771700176241,37.3074055023592],[127.0456509038295,37.3111137997944],[127.0327961010677,37.308607704478206],[127.0293254994982,37.2988687001571],[127.0354780991295,37.2852483008863],[127.0435326982928,37.2848267999347],[127.0491240999154,37.274095699350994],[127.0585892971107,37.2782050978373],[127.0625300001053,37.27489439926],[127.0610855038074,37.2783537983812],[127.08009800400691,37.286782898266395],[127.0831865019569,37.2938484972343],[127.1014359010526,37.2922467996809],[127.1021225012597,37.2955994980579],[127.1073918969804,37.2921954996218],[127.10426789926619,37.2851391009715],[127.1017882012972,37.287924400011704],[127.1078729987018,37.2696194997311],[127.104485199083,37.2577231997211],[127.11254190033739,37.2651018994402],[127.1093333020514,37.2705838000823],[127.12200489911669,37.2730660983784],[127.12737809958,37.2682033993249],[127.1217654049953,37.2786375984382],[127.1222534015971,37.290432200816],[127.11598350287589,37.2924387002574],[127.1142924063538,37.3112017964541],[127.1162401044061,37.3169387907171],[127.1293693005581,37.3207396991916],[127.1283071085092,37.341332799648505],[127.1365029003134,37.3423168986644],[127.1363558025795,37.3639710957519],[127.13950200047009,37.3722061991482],[127.1453970998148,37.3736152993689],[127.143412202207,37.3812515959044],[127.1494043004131,37.3829842992379],[127.1413861055956,37.3908833013815],[127.1488655004721,37.4084179998153],[127.1456492011573,37.4121632986741],[127.14946489999029,37.4169610987308],[127.1432155034492,37.4160598015955],[127.1491695002364,37.4293699993149],[127.1473105020262,37.435636799878],[127.15317829818059,37.441106397360905],[127.1642182995902,37.43730819928739],[127.1717369009641,37.452474098239904],[127.1675976006826,37.4613805994163],[127.1532369026734,37.465759399588],[127.1513536004284,37.472029699901704],[127.1463053995177,37.4706151018551],[127.1430179001549,37.479537999928496],[127.1456196002967,37.4841584996089],[127.1599527002013,37.487706099775096],[127.15995790064119,37.5011357005953],[127.1469699012442,37.5079335992285],[127.1596831994954,37.5201346985783],[127.1510777040553,37.526560100746394],[127.1602526961374,37.529942098948396],[127.1604083002661,37.541362197560005],[127.14452970025171,37.541382200709],[127.14432120202339,37.5539967005464],[127.137762900142,37.5533104002549],[127.1325162026355,37.5586037997313],[127.1259342004785,37.5589419001534],[127.11916409474131,37.5473863077548],[127.1107829031225,37.5545735005676],[127.0958701049719,37.5573508014131],[127.0962059041593,37.5686982996006],[127.10491160243289,37.578555794560096],[127.1025826000407,37.5993583997218],[127.0847134021457,37.609098799640996],[127.0908166998369,37.6218342994027],[127.0820013018234,37.624284800308395],[127.0784612005297,37.631696799251],[127.0723393012306,37.6290938019483],[127.0753636998407,37.6387113980201],[127.067174003566,37.6442526010374],[127.065964004056,37.6486485990914],[127.0695769004431,37.6492013985386],[127.0626135018469,37.649996701007105],[127.0631099009473,37.6581698003879],[127.05713889981669,37.6549032006212],[127.0576036992776,37.6454196012161],[127.0623032991853,37.641444399914896],[127.0611560997287,37.6317035010488],[127.0681492964089,37.6293831986424],[127.0681940990503,37.616574200729104],[127.035052902164,37.6148795003983],[127.03133380028049,37.6413837000578],[127.02230710002421,37.6429515002687],[127.0142048001818,37.634568100876905],[127.012903997733,37.622129801946905],[127.0010894998975,37.6183559005355],[126.9994592995612,37.6119424010326],[127.0052638995314,37.60755849890781],[127.0056704989465,37.5981079003708],[126.9961809005812,37.599567400824895],[126.98665640104821,37.589019803623906],[126.96985740387889,37.5909129021537],[126.9611550002016,37.5840366026036],[126.95064500079489,37.5983475002636],[126.9412375022538,37.5989707013253],[126.9356104006192,37.621764399900705],[126.9207142019502,37.6301845973157],[126.9258818007111,37.6386001977644],[126.9151736007218,37.65169960026],[126.9106870010142,37.651411600793004],[126.9113775002861,37.6466522014308],[126.9174084000603,37.645976398998],[126.91140439942619,37.6342342015648],[126.9192716983476,37.628696599989595],[126.90885659998769,37.615258700514296],[126.9141916997239,37.6046033997383],[126.90958790002,37.6004977004905],[126.9073204992658,37.582680899498],[126.9176409999207,37.589680899140994],[126.9209796001241,37.598563399392205],[126.9266664991055,37.597384299215],[126.93507249973341,37.5792948998756],[126.9465547981529,37.5768424000374],[126.942681702026,37.5761560007238],[126.9465940001117,37.5735316983848],[126.944573598447,37.56597270087801],[126.9342167998005,37.5623975004128],[126.9215357002666,37.5647621001371],[126.9165067000829,37.5705525006808],[126.9158020001054,37.5593113006794],[126.9007722018202,37.5669698003706],[126.9004145001753,37.572305300392394],[126.9060417983634,37.548690199721406],[126.9037013034173,37.5429679034095],[126.89206660072611,37.543193200445295],[126.8746962053692,37.5549892091139],[126.86353990169661,37.5538060005424],[126.8595211022663,37.5673482968238],[126.84690290092891,37.5660389003785],[126.84036880069709,37.573299400513406],[126.8354547991363,37.5685908997445]]]}}]}