{"type":"FeatureCollection","features":[{"type":"Feature","properties":{"interval":15,"stationId":"1914727373","profile":"off-peak"},"geometry":{"type":"Polygon","coordinates":[[[127.1004385985684,37.3230038992298],[127.104103398527,37.3220084992859],[127.1058301989958,37.3059608015991],[127.11014040066891,37.307395999162395],[127.1138124024277,37.3144061025327],[127.1061006025116,37.3157908008827],[127.112774500289,37.3275183989645],[127.10625170070381,37.3289306003868],[127.1004385985684,37.3230038992298]]]}},{"type":"Feature","properties":{"interval":30,"stationId":"1914727373","profile":"off-peak"},"geometry":{"type":"Polygon","coordinates":[[[127.0888597995545,37.319892299809],[127.0973933982626,37.3144995009636],[127.0996510971448,37.2960780992884],[127.113791399815,37.294717399616204],[127.1202714994513,37.3037201990736],[127.1150716045393,37.3049940999869],[127.1162401044061,37.3169387907171],[127.1239144006995,37.3171615982809],[127.124212101792,37.3313548996912],[127.12025349989871,37.3321158005544],[127.1244121000802,37.3381330975509],[127.1175904005585,37.3403740021527],[127.1222830007587,37.350655699752195],[127.112668101106,37.3556005008426],[127.1177209004414,37.3716021993776],[127.1336747999474,37.395309198924],[127.12867280009631,37.402693902229004],[127.12378319939481,37.3913432004095],[127.1072301006427,37.379682003331105],[127.1049339989307,37.3655994997395],[127.0972003995372,37.36363240008],[127.10464219879461,37.3605171012166],[127.0981198968027,37.3498226048327],[127.0930122019104,37.3493268053285],[127.0987910975437,37.330102799208696],[127.09068110016659,37.3290471013447],[127.0888597995545,37.319892299809]]]}},{"type":"Feature","properties":{"interval":60,"stationId":"1914727373","profile":"off-peak"},"geometry":{"type":"Polygon","coordinates":[[[126.93297579888,37.5132577004333],[126.94099199991429,37.5074317993518],[126.9481783000537,37.5129607988792],[126.9566939993833,37.5105083987996],[126.9608870977135,37.5037302014009],[126.9654996989454,37.5059787972501],[126.9741447991302,37.4984324993603],[126.9833250990838,37.5010876989601],[126.98693500017521,37.4978086996554],[126.9825358019738,37.502137498749306],[126.9927239990231,37.5021853987011],[126.9972030001611,37.493692101159496],[126.9672190012855,37.4880243001094],[126.9692657997024,37.4813376994857],[126.9752885996478,37.481144300146795],[126.9718679992942,37.4757969004664],[126.9775490997572,37.472571799548696],[126.99004799775891,37.482060999793],[126.9881932994549,37.4787320006759],[127.00114159862079,37.4747064996941],[127.0052309002785,37.4799160995335],[127.01792209914261,37.476366698634],[127.0243270978874,37.4642220001165],[127.0303690978278,37.464127699178],[127.02849309915631,37.4580872004407],[127.046766099131,37.4577625998488],[127.0460271971276,37.4503479027913],[127.0377966050376,37.449345103404],[127.0433234949404,37.4508386944969],[127.04457879368509,37.4402141051215],[127.0407989974649,37.4382830070526],[127.04725259771779,37.4322285973755],[127.0699220000119,37.4341684996747],[127.0723027017981,37.442386196871205],[127.0666571054002,37.4464463004604],[127.0704039004104,37.4560517994085],[127.0556312039646,37.4624398001842],[127.05449180304029,37.471134297829806],[127.06111580005509,37.480680296418704],[127.07018909660309,37.4825540952299],[127.1103149993346,37.4735224987596],[127.1126924974182,37.4694142022745],[127.1072741985743,37.4622139975809],[127.1194199939955,37.4589331016612],[127.1167570002008,37.4293677028343],[127.1088658975864,37.422512405047705],[127.1051538012985,37.426943900616195],[127.11053269911149,37.4069922001871],[127.1037247998645,37.405589902712],[127.10179530244221,37.415980697512296],[127.09298320042511,37.4097229024379],[127.0993454989031,37.407684899032],[127.10032819901011,37.397639500960096],[127.0903041994589,37.402410701836594],[127.0920665961845,37.3941537991541],[127.0811002006095,37.3875563005381],[127.0841110949564,37.3752918024858],[127.07711279843879,37.3664776057886],[127.0806275937345,37.3601099043888],[127.0774314951184,37.354707505824805],[127.0692229026844,37.361257701234706],[127.0671896979691,37.358610102527],[127.07743149436641,37.354707499462506],[127.07953089625539,37.344740103176605],[127.06959260069219,37.342065900956904],[127.07317919629389,37.333978904460295],[127.063643899567,37.330841901839904],[127.051961298787,37.3126294064511],[127.0471669035814,37.31672180235871],[127.0381715984947,37.3087563060774],[127.0338638028025,37.3130859017478],[127.0269707993801,37.2935837010507],[127.0351923993326,37.2786928000745],[127.0422872993579,37.278355798814],[127.0446437997691,37.2725615995216],[127.0606515990151,37.2727746978981],[127.0663760001978,37.275490999709206],[127.0610855045019,37.2783537993331],[127.07060169942599,37.2786635001445],[127.084607899497,37.2884366966126],[127.0958508959766,37.2888284953231],[127.0936790981484,37.2825811015705],[127.0871550992815,37.2741649005289],[127.07176390086059,37.274586800780504],[127.06346339983351,37.269835000422404],[127.0607831982424,37.262618701380795],[127.05652660249899,37.263324900674604],[127.0587972989368,37.250119500980496],[127.05082420161419,37.263314100897105],[127.0384358000455,37.2655585003878],[127.03620700066901,37.272762700476804],[127.0222972004197,37.2702461008602],[127.0180221002603,37.275201200012695],[126.9942372001851,37.2713579001677],[127.0012585993273,37.2650892002233],[126.99911659915519,37.260132401574005],[127.010183698982,37.256089000002106],[127.0192764993621,37.2587245988026],[127.036003997844,37.2389696996441],[127.0519141993555,37.2391732990424],[127.049437599106,37.2343084011851],[127.0604486984801,37.232341499993396],[127.06528180058099,37.2400965975487],[127.07067409918871,37.2375512992968],[127.0706911991873,37.2417910983142],[127.0759423979101,37.2381275993264],[127.0726017006374,37.237596200373396],[127.0819900987716,37.2375333988526],[127.0913994018017,37.2527146977818],[127.1022225000321,37.2446030997431],[127.1155378983221,37.2495375988687],[127.11624710319249,37.266337292408004],[127.12107880146961,37.2684533914277],[127.13339259259449,37.2640027992467],[127.1349986967946,37.2542927022332],[127.1568619941759,37.2541210010058],[127.16100089707001,37.248306899487304],[127.1574440006269,37.243551104243096],[127.163437399344,37.2427621993478],[127.1677532959214,37.232013206304096],[127.16726730102701,37.236830998408806],[127.1755842962411,37.232337100466104],[127.1792134011786,37.2370567965844],[127.1891872985767,37.2360768987095],[127.1772318011316,37.241448200463104],[127.1686887082635,37.25228250261],[127.165020702966,37.2777739977029],[127.14914370251509,37.283490700739804],[127.1500129008054,37.2880997997697],[127.13888160165861,37.2852642033564],[127.13243590228531,37.3038340962509],[127.1426617969252,37.3028269978901],[127.1341941037172,37.3154118004518],[127.1417403988243,37.317623897249],[127.13868240615439,37.328212797083005],[127.150826699667,37.3306939990688],[127.1412165044094,37.3348953983224],[127.1468816987442,37.3371648960529],[127.14183060236411,37.3363757045358],[127.1423083050893,37.349967397397194],[127.13441090513851,37.3517681032073],[127.1524194016391,37.373605494272894],[127.1550674046307,37.3873799974702],[127.1413861055956,37.3908833013815],[127.1496505030108,37.403501497245095],[127.1563259990027,37.404425799337],[127.1541906043256,37.429200694018405],[127.1695339008267,37.4366592984419],[127.1732075041714,37.4439955976511],[127.1694334016796,37.445750698981996],[127.17436700057681,37.450188999753905],[127.168680700575,37.4631073007736],[127.15591030275681,37.4653474035249],[127.1543594007821,37.4717913002871],[127.1419391005134,37.4783720002662],[127.1359462031795,37.4885741967417],[127.1564018007141,37.4956688992121],[127.14309960055999,37.497446600547505],[127.13388980254521,37.510733299018796],[127.14122589831959,37.5182951981621],[127.1344675022403,37.5215920010755],[127.1390808004672,37.5311322004136],[127.13056259989321,37.5292064008106],[127.13376439935601,37.5233593001687],[127.12576749997669,37.5207028001714],[127.1182488990811,37.5089232998402],[127.113381001152,37.5134067994467],[127.11706679966261,37.5152396986148],[127.1158634008192,37.522655100143204],[127.1101322998979,37.5195487004097],[127.10148440093221,37.5224038008973],[127.0939322000508,37.5129911010902],[127.0849549009058,37.5183538984195],[127.0805857989416,37.5142295021496],[127.0718884011582,37.51456490315],[127.0717714012752,37.518199499515404],[127.06678499993309,37.5155227004351],[127.0553438007658,37.5238346002962],[127.0423478006669,37.522778600948705],[127.0425218002981,37.529179299935],[127.020321908255,37.5376219039081],[127.0239135003177,37.549502999297005],[127.00713620050911,37.563493000274704],[127.00098840004459,37.561143800367404],[127.00321269942111,37.554972898918905],[127.01222009990099,37.5496919996782],[127.0119897997909,37.5389160992954],[127.0201214942982,37.537420798766],[127.0213773997346,37.5263299011532],[126.9944938004852,37.5105510015141],[126.9903664000701,37.5032182030007],[126.97673620004251,37.5042057017695],[126.9525474005853,37.5147772998817],[126.93297579888,37.5132577004333]]]}}]}