{"type":"FeatureCollection","features":[{"type":"Feature","properties":{"interval":15,"stationId":"1915043090","profile":"off-peak"},"geometry":{"type":"Polygon","coordinates":[[[127.1111034992092,37.3761851007584],[127.1260642997047,37.3781837988011],[127.1283513988015,37.3852366995522],[127.1349178006508,37.3834856989395],[127.1282745039824,37.3882299979086],[127.135286800542,37.390040597569396],[127.13570610179539,37.4010904984761],[127.1287691021488,37.4049229004114],[127.1351013003683,37.4117916994309],[127.12891760171489,37.4200685998333],[127.1208955993878,37.4132767009286],[127.1283273993504,37.4055263993694],[127.1207723002493,37.39986910042779],[127.1213263983822,37.3888430013329],[127.1145358002583,37.3880718006505],[127.11644199972591,37.381866800246094],[127.1111034992092,37.3761851007584]]]}},{"type":"Feature","properties":{"interval":30,"stationId":"1915043090","profile":"off-peak"},"geometry":{"type":"Polygon","coordinates":[[[127.0925676987209,37.484953102062995],[127.10567370009589,37.4795444996165],[127.1077086006096,37.4886707975346],[127.1090855992326,37.485917400287995],[127.113597998349,37.4910371987613],[127.1196383991474,37.4771017006675],[127.1168602996593,37.4661116020432],[127.127031498002,37.4635682000864],[127.1156713010236,37.4286740035297],[127.11457519594211,37.415281501203],[127.1171726003181,37.418015496608106],[127.1193261984183,37.4118205011059],[127.1077167000136,37.399834501839294],[127.1063706961338,37.3834351015265],[127.1001711997026,37.3820026014738],[127.1047964985438,37.3772776015526],[127.1049339989307,37.3655994997395],[127.0950301987026,37.363796701797405],[127.10464219879461,37.3605171012166],[127.0981198968027,37.3498226048327],[127.1040746974578,37.3450417996719],[127.099327998439,37.3370541006391],[127.1094819995041,37.3283354004999],[127.10011709888991,37.3216752005585],[127.1101605992655,37.30892090034369],[127.11046660234099,37.3166219995189],[127.10443090103949,37.3187400994174],[127.1065272006274,37.325317999371904],[127.11124869883831,37.3209165000005],[127.1108835004443,37.32929170034],[127.1171784005,37.336920999405194],[127.11516970122369,37.3479641994658],[127.1199596003914,37.3517388993523],[127.112668101106,37.3556005008426],[127.11847250006,37.3681009989429],[127.1442605995086,37.3741445995565],[127.143412202207,37.3812515959044],[127.1491609002,37.3836085996372],[127.1413861055956,37.3908833013815],[127.14624910019941,37.3948056991846],[127.1431233061848,37.3991954044722],[127.147018900003,37.414986698526],[127.1381632023943,37.4250912998737],[127.14870960022711,37.4292575993051],[127.15317830285329,37.4411063984313],[127.1645383003521,37.4390680990466],[127.1686819007406,37.4510499992312],[127.16559150051161,37.458145799413195],[127.14492029976469,37.459909901406],[127.1418242002799,37.466706799912195],[127.1408337996527,37.4634552008555],[127.12493020018549,37.4701223004118],[127.1342485002663,37.480969698883804],[127.1144235008237,37.5010746992053],[127.108549300776,37.501078901113004],[127.1133927981339,37.492846801575304],[127.11031780106211,37.4901127008647],[127.09796780128151,37.4924892009964],[127.0925676987209,37.484953102062995]]]}},{"type":"Feature","properties":{"interval":60,"stationId":"1915043090","profile":"off-peak"},"geometry":{"type":"Polygon","coordinates":[[[126.94733879935849,37.4818820007934],[126.9734923989904,37.4709115002039],[126.9924097986437,37.4796569966876],[126.99976239768219,37.474400599268606],[127.0218219960959,37.4730109980981],[127.0208606992867,37.460482899800205],[127.0366480926803,37.4515086006099],[127.03542989749549,37.4411110038096],[127.0449703978874,37.429604098281],[127.0660149005543,37.4347978984222],[127.0728058984057,37.4269733991232],[127.0723027017981,37.442386196871205],[127.0666571054002,37.4464463004604],[127.0751493997535,37.4595884995093],[127.0640789021742,37.461644903397],[127.06162410364,37.4689519961506],[127.077111598348,37.4750565942953],[127.0874826987002,37.4704252991839],[127.09507029827401,37.456566203353596],[127.1083079980818,37.4523752983926],[127.1073327988114,37.4486580997547],[127.1179704905194,37.4517759956982],[127.1167570002008,37.4293677028343],[127.1064523004712,37.4275601020656],[127.103297400502,37.4333909998574],[127.0907282984464,37.4296846013551],[127.0920509977121,37.4037010005463],[127.0845694986074,37.392091201424705],[127.0732703004781,37.388086000897005],[127.0811001947199,37.3875562959951],[127.0826835931365,37.3822556012958],[127.077751098069,37.3794631040883],[127.0806275937345,37.3601099043888],[127.0774314951184,37.354707505824805],[127.0713954011545,37.3583340021983],[127.07743149436641,37.354707499462506],[127.07953089625539,37.344740103176605],[127.0721684981163,37.3398797031431],[127.0733951977917,37.330958300281296],[127.06508139897839,37.3266179997534],[127.06697119937469,37.322051103302904],[127.0611669027037,37.325245801021595],[127.05645879792161,37.3190933009075],[127.0658958974944,37.2973407992284],[127.0607735026168,37.2942423023269],[127.0516021038659,37.3047404031079],[127.0541355000491,37.311536198742],[127.04771700176241,37.3074055023592],[127.0456509038295,37.3111137997944],[127.0327961010677,37.308607704478206],[127.0296553997312,37.2920701007223],[127.0381135995775,37.2828364996951],[127.0435326982928,37.2848267999347],[127.0479478992804,37.2736137000852],[127.0585892971107,37.2782050978373],[127.0625300001053,37.27489439926],[127.0643058001368,37.2817024996671],[127.07020249989449,37.2809436984899],[127.0884844978046,37.295253496692304],[127.0958508959766,37.2888284953231],[127.0926404986775,37.2810997010806],[127.098235495826,37.2781174987494],[127.09802830000639,37.270157600865694],[127.09184330060039,37.2718320010935],[127.09465629861809,37.2573397025967],[127.0896682008161,37.2545880008579],[127.0892818010105,37.270872697973196],[127.0804724002009,37.2757580002959],[127.0592979987743,37.2611426013378],[127.0546753995598,37.247591802436105],[127.04969060174041,37.2481431011358],[127.0515688013366,37.2565747993059],[127.031622201864,37.2679469000286],[127.03478609870011,37.269018098957396],[127.0255916998465,37.2670946011258],[127.0173310007261,37.2730384011425],[127.008210699794,37.2700284003569],[127.00975599936899,37.2604339005057],[127.0222891991821,37.2603698997091],[127.0369421980774,37.2421794995834],[127.0617919991002,37.234363398945],[127.0706911991873,37.2417910983142],[127.0759423979101,37.2381275993264],[127.0928386012327,37.2543874986381],[127.1026199988697,37.2472670998253],[127.1088762009303,37.2486755983054],[127.1156505999858,37.2554801979484],[127.1128793020185,37.2645420963466],[127.12107880146961,37.2684533914277],[127.1302682956693,37.266616597277896],[127.13500789678541,37.2575399989859],[127.1511220973416,37.2618106966793],[127.1511095983369,37.2569959007633],[127.16499709844969,37.2526564993291],[127.1676857060299,37.2619445987382],[127.16082040589211,37.2704071955065],[127.161845301229,37.2763385009285],[127.1534325009839,37.278460700128996],[127.15062190008281,37.2862145000044],[127.13888160165861,37.2852642033564],[127.1277880000405,37.2979816002837],[127.1248892023371,37.3050064991255],[127.12854379936171,37.3054757988488],[127.1206462039677,37.307655907786604],[127.11939440521951,37.317975997466505],[127.1270111979535,37.3163855991889],[127.1378556015147,37.327949893358],[127.1419668999569,37.351550798403096],[127.13441090513851,37.3517681032073],[127.136013403536,37.3571789977964],[127.14353969903371,37.354444298507396],[127.15755730024259,37.3595298997377],[127.1657430988764,37.370681596826195],[127.1619885040898,37.379727800172496],[127.1725003992485,37.3905280915504],[127.1695469066239,37.4007160003151],[127.1652751030419,37.4006814023991],[127.17068349993319,37.410806092390004],[127.1672657054131,37.4124646046234],[127.1692963033825,37.421712195375804],[127.17968759859339,37.4278416987293],[127.1903310034295,37.4433021952109],[127.17811310281411,37.474783402166],[127.1620242975424,37.4711008099394],[127.1525704011777,37.477134604286],[127.1495365017413,37.483066698738604],[127.158936699127,37.484756699345695],[127.1611296006496,37.498174901436],[127.1469699012442,37.5079335992285],[127.1596831994954,37.5201346985783],[127.1510777040553,37.526560100746394],[127.1602526961374,37.529942098948396],[127.15649760031589,37.549149597875],[127.16683849928219,37.5480022001533],[127.1845527995265,37.5592986987509],[127.1497605016788,37.5632577018159],[127.1489863003175,37.558843603535905],[127.1448429037372,37.5619093021659],[127.1399924016646,37.5560290052629],[127.1314801006672,37.5634192009921],[127.11916409474131,37.5473863077548],[127.1107829031225,37.5545735005676],[127.0973988011866,37.5535221019064],[127.0956142004335,37.559587900554],[127.08872740043739,37.560957400121],[127.09054660062489,37.5828760004488],[127.0846651001188,37.5810482009599],[127.083723699536,37.5693978010116],[127.07285059921199,37.5600953021058],[127.06912130054221,37.5654225999078],[127.0602793999445,37.564491701187094],[127.04294040016451,37.5719786006293],[127.047429800212,37.5853573003238],[127.0299768003518,37.5745539001696],[127.0222075000699,37.5773255005411],[127.0199385998541,37.5746600003104],[127.02622559895,37.5718881001618],[127.02342040090781,37.5704641000101],[126.9896023005498,37.5675945004436],[126.9888723999456,37.5646415002805],[127.00058540094071,37.566867699385504],[127.00712229925391,37.5531353005064],[127.0142907994363,37.5509700997606],[127.0112415003116,37.5416006010175],[127.0201214942982,37.537420798766],[127.0228182996094,37.52828030095],[127.0124065003083,37.5278878034352],[127.0102327995609,37.5184777020705],[126.98253579971649,37.5021375021887],[126.9721374023538,37.5056941999739],[126.97057699923681,37.5023683000031],[126.9800486984619,37.5007714993622],[126.982639398341,37.493766899967795],[126.9708995003833,37.4871444010089],[126.9636376002872,37.4884994009492],[126.96681199533151,37.4828641998867],[126.94733879935849,37.4818820007934]]]}}]}