{"type":"FeatureCollection","features":[{"type":"Feature","properties":{"interval":15,"stationId":"1994678935","profile":"off-peak"},"geometry":{"type":"Polygon","coordinates":[[[126.80562929957841,37.5669984005539],[126.8087381994373,37.5588763999044],[126.8318111007424,37.563837498631095],[126.83671989876241,37.5587992007272],[126.8516994000741,37.562890198373495],[126.85225740068469,37.5676376999496],[126.8367680983007,37.5758116021767],[126.8302648991172,37.5717741013174],[126.8142540013458,37.5734354008348],[126.80562929957841,37.5669984005539]]]}},{"type":"Feature","properties":{"interval":30,"stationId":"1994678935","profile":"off-peak"},"geometry":{"type":"Polygon","coordinates":[[[126.785795698977,37.5760156988383],[126.7971767982476,37.569763798622596],[126.7993937003088,37.5758302957253],[126.8043332988424,37.5680287006308],[126.7984198005241,37.563155202025094],[126.81098919567499,37.5510347031301],[126.8299682994632,37.552029998826605],[126.8383855997021,37.539068298895394],[126.8442477004609,37.5398373996461],[126.8394476006812,37.544409800519894],[126.8469266002028,37.5530199996365],[126.8551507996525,37.5521389990192],[126.8639778996871,37.5436202000036],[126.8828206998631,37.5412516979193],[126.88235560161,37.547817699061405],[126.87000090101739,37.5526204008826],[126.8595211088125,37.567348303588],[126.8348612077972,37.5787932067942],[126.8144506027807,37.583393799390905],[126.80594260166889,37.5801608016884],[126.8005346018689,37.5843522991148],[126.8029622005043,37.5866985996964],[126.7887793993929,37.579745603523506],[126.7874786006937,37.5828608004083],[126.78661289800979,37.5787482034993],[126.79695499925799,37.5843018977194],[126.79891689954789,37.577712100643],[126.785795698977,37.5760156988383]]]}},{"type":"Feature","properties":{"interval":60,"stationId":"1994678935","profile":"off-peak"},"geometry":{"type":"Polygon","coordinates":[[[126.6075114983257,37.644002400525295],[126.6118626974644,37.6362896981581],[126.6172621989769,37.6420128979106],[126.63512989791859,37.6369414986114],[126.63987589771561,37.631104800342605],[126.6560012976609,37.6380008955091],[126.65951299830671,37.6313490007321],[126.6616683002499,37.6382526975041],[126.66925479831221,37.6327662005885],[126.6847377001344,37.6376492987411],[126.6827770991258,37.6316163019933],[126.6918722982066,37.6269439959299],[126.69082879842931,37.618977401510996],[126.7119308965036,37.617341698923894],[126.7088765973581,37.607501202401004],[126.71418009902209,37.5983053993913],[126.72410639910099,37.593416400608504],[126.7385245990777,37.5948565977358],[126.7360440985714,37.5889783009726],[126.7192362012451,37.5842080034672],[126.7194680984853,37.578059005195],[126.70186220090619,37.5694785036656],[126.71094149894131,37.559500803077505],[126.7184489963151,37.55948379664],[126.719106095658,37.5545550015688],[126.7080775015294,37.5473967026617],[126.71145919815709,37.543752102179],[126.70318219818711,37.5287743022064],[126.7068914980045,37.5225351009314],[126.69350369892,37.506647799819206],[126.7025571913346,37.498671001093804],[126.7143292974283,37.4999549977775],[126.7165329979226,37.4934796995173],[126.6985702015674,37.4743376011212],[126.69957499943139,37.4674545994808],[126.70294609920681,37.467903099561],[126.7001993990234,37.4610850004251],[126.6748505000012,37.4597272013006],[126.6790827986316,37.4550188000314],[126.69774380032659,37.4551267991297],[126.6992864995669,37.4470786010886],[126.705066699632,37.4481967995643],[126.70567630088439,37.457383998922595],[126.7153668007085,37.462732699045894],[126.7123176049602,37.4699876008263],[126.7196117017151,37.4806764961976],[126.7260383005403,37.4805189992749],[126.7264310003007,37.4842800965278],[126.7448403978709,37.481684298074796],[126.7449437012146,37.4896429006999],[126.7529140986787,37.479911101086905],[126.7549390986215,37.4830488976895],[126.7624944972913,37.475740200880395],[126.7793121006265,37.475916896602705],[126.7877358967311,37.4693590994359],[126.7858348955625,37.4508168034105],[126.77609540055,37.4443699005501],[126.77488089792669,37.4374199001006],[126.7768467990478,37.4314144008244],[126.7910954994581,37.4301303986514],[126.80670170232,37.4481161976513],[126.80364820190229,37.447346601694406],[126.8042301045711,37.4604435980174],[126.808946300877,37.475968299809196],[126.8332433993655,37.488281896268],[126.8383041987282,37.4845251992174],[126.8333789016454,37.4826398013344],[126.85209969972,37.4723081982736],[126.8593698003909,37.477533197420705],[126.8662109996538,37.4707412000243],[126.8750424000481,37.4779008985603],[126.8844807976551,37.47384679905149],[126.8833902019,37.4806065976128],[126.890291499933,37.4788868991426],[126.8983069996693,37.4835639986426],[126.9164855994422,37.475631399454095],[126.922967697886,37.480083198233906],[126.9315651951812,37.4643686004752],[126.9484157000089,37.4665939992132],[126.94294900012599,37.4745177996305],[126.9513558996192,37.4777402991826],[126.9520139986767,37.4743691008977],[126.9806033997507,37.4710080979516],[126.9884666994664,37.4660825001595],[126.9886868988555,37.459392799438305],[126.9935691990338,37.4636874969525],[126.9893190017345,37.478610997733604],[127.0011617990126,37.4759358996163],[127.0050829004204,37.4814844991526],[127.01591939840411,37.479183397269],[127.0271905001229,37.4837784995985],[127.0371570996297,37.47919979945291],[127.0539681998358,37.486738298351],[127.0595107982236,37.483551896376504],[127.06924110057,37.4885518996346],[127.0638852011942,37.4971457003334],[127.0590204007946,37.4937797012232],[127.05767269965109,37.5047934986536],[127.0643096988791,37.5043159003526],[127.07042389955299,37.5106251994643],[127.07928899985241,37.505133099660505],[127.0851701999447,37.5089982988363],[127.0789091010002,37.518031399928496],[127.0718884011582,37.51456490315],[127.0544617004367,37.5226140010995],[127.0457882004888,37.5215672003228],[127.0428565055,37.531398004729105],[127.0323283015713,37.5296788007589],[127.0172795005342,37.5390734007608],[127.02062209969979,37.542003195618705],[127.0176618008774,37.5446678003865],[127.0302524995802,37.555937198423905],[127.0419446967194,37.5512665988129],[127.0404669992796,37.5417369002345],[127.06125449963031,37.541505899262894],[127.0436902011573,37.5619005007238],[127.0461082016467,37.568003399637405],[127.0351887007929,37.5721761002718],[127.0483831999289,37.5825022992017],[127.0226744003162,37.5810703003766],[127.0214723010173,37.5965634997007],[127.01486950079601,37.5983745005911],[127.0113239997849,37.5928932012769],[127.0014114007699,37.594029000240596],[126.99237580022131,37.5826589007411],[126.9707470003963,37.584380200263595],[126.9645834996401,37.577333402361],[126.9545960034138,37.5808823992109],[126.9485447007917,37.5946773994378],[126.9392513016591,37.5964834009501],[126.9446837032188,37.6235714985866],[126.9315247017373,37.630559700523],[126.9196669010272,37.654980601084],[126.9075273008483,37.6532374017694],[126.8937638000985,37.6598217013155],[126.886083801686,37.654164402469696],[126.8850556997039,37.6511697002318],[126.8984545990749,37.6460053996043],[126.9078776992423,37.6480748983453],[126.91066669660869,37.6408808024068],[126.90743889976851,37.6336248070641],[126.918051297166,37.6324799983879],[126.9071370016358,37.624834904116305],[126.9014158975142,37.5982735012405],[126.8959227030074,37.595952703561295],[126.8844878052185,37.6003738010931],[126.8785353018823,37.6211631987784],[126.86963949994501,37.615409903519605],[126.86612310346139,37.6152553036742],[126.86705480252971,37.6202956986338],[126.8611851019662,37.6189102999798],[126.8622934961774,37.6128716037522],[126.8541389007569,37.6238642993528],[126.8408677008903,37.6281357000549],[126.8390421008962,37.6435921000531],[126.84211570053009,37.647869196026804],[126.8522079007507,37.6480493990069],[126.8458898046778,37.6582751997724],[126.8500450005226,37.6607621972854],[126.830195600203,37.6570340004397],[126.8343006988879,37.6468074010523],[126.82107410000971,37.640357800915595],[126.8166443990573,37.6276010028938],[126.8090906001519,37.6314806001006],[126.81287210011611,37.635557098587],[126.8065922017172,37.636974199664195],[126.8065792981154,37.631793101223906],[126.8017703027897,37.6384579996376],[126.811335100043,37.6430094994774],[126.7997058030074,37.650324400642106],[126.80589530056281,37.6645865979333],[126.791314299878,37.667222401491],[126.7897816006995,37.67661550125],[126.7795311995161,37.6757943015291],[126.7776474002634,37.6697654012665],[126.78664159857749,37.666522299495696],[126.7869012993105,37.6577681995027],[126.77603480260541,37.658725803021],[126.773845800529,37.6651874001292],[126.76782250004969,37.6657868001265],[126.7650442000958,37.6755133001359],[126.7557894003249,37.6726445006089],[126.75619449881701,37.668858100513],[126.7674109994467,37.665924199643],[126.76821609993391,37.6512464003797],[126.779007597275,37.6425680972671],[126.7805624980969,37.6356842003832],[126.78602379881609,37.6372661960781],[126.7921215004658,37.6288170969859],[126.8036184976571,37.6272504983884],[126.80289999899139,37.6160783008145],[126.814087898747,37.6039130017326],[126.80643669987411,37.5968366011531],[126.7672508066662,37.6189987126851],[126.745057399763,37.6187912039185],[126.7435194021068,37.6271621992548],[126.74313889840221,37.6236750024702],[126.73458530363041,37.6259087997377],[126.7317838004739,37.635786200243096],[126.7317492001275,37.6301051031947],[126.7259583045587,37.6341441002325],[126.7307601997568,37.636361598015],[126.71452960354101,37.635259601096095],[126.720837997543,37.6383739979847],[126.71939970612729,37.6421421133599],[126.70384710258601,37.6447135020935],[126.70035300111901,37.6544835003984],[126.6928974009721,37.6541408007416],[126.6747056082085,37.665990112339905],[126.6656457003135,37.653405102229904],[126.6541480009441,37.6537091005738],[126.6549380975665,37.6432285031606],[126.6256710007161,37.654014700759],[126.6189412000782,37.6462617007442],[126.6122065010521,37.649027400916005],[126.6075114983257,37.644002400525295]]]}}]}