{"type":"FeatureCollection","features":[{"type":"Feature","properties":{"interval":15,"stationId":"1994677371","profile":"off-peak"},"geometry":{"type":"Polygon","coordinates":[[[126.79658169934801,37.561461700198905],[126.8128665003008,37.5554125996296],[126.8152090011199,37.560931098157596],[126.8299351999593,37.5595024998164],[126.81844840138329,37.5623944003864],[126.8193294004174,37.5701427001818],[126.81099299990869,37.574186601049796],[126.79658169934801,37.561461700198905]]]}},{"type":"Feature","properties":{"interval":30,"stationId":"1994677371","profile":"off-peak"},"geometry":{"type":"Polygon","coordinates":[[[126.783310497312,37.5782325035588],[126.7881687991392,37.567997099130096],[126.7936973967905,37.5670303993443],[126.7993937003088,37.5758302957253],[126.8043332988424,37.5680287006308],[126.7984198005241,37.563155202025094],[126.8139417975667,37.5471032001008],[126.8274317997253,37.547831898046695],[126.8291053999544,37.5396871002325],[126.85271439793439,37.5187565999934],[126.8676185995804,37.524442798143504],[126.877111099615,37.521867799850604],[126.87621540020831,37.5276276009132],[126.8563484005049,37.5280559010158],[126.84884680030531,37.5373868004268],[126.8476726997328,37.5552512993383],[126.8647064005301,37.5557531985952],[126.8439458033927,37.5751408066471],[126.82314200079671,37.574437502696405],[126.8144506027807,37.583393799390905],[126.8054913027804,37.584214702656794],[126.80452030039909,37.590103197786],[126.7898682003568,37.5864119010623],[126.7887793993929,37.579745603523506],[126.78454190103949,37.584805800297296],[126.783310497312,37.5782325035588]]]}},{"type":"Feature","properties":{"interval":60,"stationId":"1994677371","profile":"off-peak"},"geometry":{"type":"Polygon","coordinates":[[[126.60232088939689,37.5583256055639],[126.6059607933615,37.5476175902007],[126.6118327965863,37.544304800885],[126.61755549993849,37.547704796583],[126.61816299933099,37.540975903311896],[126.6502296992595,37.5527595994036],[126.6601949996853,37.535620799560796],[126.66755309979291,37.5398696963548],[126.66958719819469,37.5362149000156],[126.6567108001634,37.525927001571404],[126.66255649765189,37.5229412997071],[126.6573416000026,37.5180937003812],[126.66185469961701,37.5179467983322],[126.661525896957,37.500459999828095],[126.6696225983266,37.494698598891],[126.6644266017969,37.4899530020057],[126.6769256976876,37.481677999042404],[126.67576049893009,37.4701899001951],[126.66801959989819,37.465260400837195],[126.685485398941,37.4646922991865],[126.69807039862411,37.4542564994815],[126.6985771987413,37.4321346006898],[126.7062110001196,37.4539552991469],[126.71686410036189,37.4625355984424],[126.71497340125171,37.4675843996951],[126.7222139017861,37.476955699142195],[126.7196117017151,37.4806764961976],[126.733251201073,37.4845864988864],[126.7448403978709,37.481684298074796],[126.7457251989417,37.4772336996276],[126.7785005954918,37.4717542971964],[126.78418719878691,37.463971200734505],[126.7804161987659,37.4509789024338],[126.7680768973872,37.4433312037836],[126.7723789985314,37.4408856989183],[126.7711047006744,37.4289669029002],[126.79293769994139,37.4241640992816],[126.8075289996362,37.4351862995185],[126.8090217017854,37.445767498314304],[126.8128104997614,37.446178897713],[126.8129266001111,37.451895895276394],[126.8065729061458,37.453327201905694],[126.80880120391751,37.4584609967719],[126.8147050980136,37.457205898027],[126.8148920013295,37.4713671994345],[126.822669098958,37.471275697901],[126.8305117007993,37.4849576949153],[126.85154629943169,37.467875399829495],[126.86448309968,37.4717940992014],[126.8677081995269,37.4667678995185],[126.9001661998457,37.4840831998144],[126.9157524989848,37.476475099828505],[126.922967697886,37.480083198233906],[126.9332422993663,37.4690242004934],[126.93865299938881,37.4752880996794],[126.9511186998564,37.4777814991414],[126.9664533994074,37.4727540990632],[126.9694161002475,37.474065999447],[126.9646552007721,37.4787401007891],[126.969642799995,37.4830651990407],[126.97949189859919,37.4812572000337],[126.9743302997022,37.4748719997269],[126.984025999246,37.4735500984622],[126.9852818004558,37.4847596983954],[126.9997650999415,37.4816884988563],[126.99277820114611,37.4966125989503],[127.004841299983,37.4971153994858],[127.0167446000592,37.4815422996385],[127.0211713011877,37.4863367003634],[127.0158361015024,37.490663900293704],[127.02045540041391,37.4957433001372],[127.0135770005603,37.4995783993761],[127.02847920064431,37.4944510984897],[127.035961300578,37.5049958987399],[127.04885559838219,37.5026937983016],[127.0519369999022,37.5036639992158],[127.04777569949,37.5109644984939],[127.0633322989438,37.508311299657],[127.0658366998248,37.5142013988584],[127.0578129001608,37.518956100058496],[127.0465375997546,37.513674700699504],[127.0398200998233,37.518629200467],[127.0357665997581,37.5101076003967],[127.033040400217,37.5167012000684],[127.0251125006239,37.5143138001814],[127.01870190052139,37.5200558001317],[126.98225230228459,37.5043262024756],[126.9621734067801,37.5108909062009],[126.9560014012205,37.5190756025993],[126.9514884017787,37.5152049001753],[126.9439275094567,37.520071704963506],[126.9579426978494,37.5318428947132],[126.9583776990341,37.5228597993584],[126.9735225992778,37.5175908996705],[126.9809857007706,37.523220400183696],[126.97707610144491,37.5312093003956],[126.9852200004632,37.5323165999563],[126.9729330012391,37.539570898540504],[126.9738175002496,37.5457287994564],[126.9838665997215,37.5481778990354],[126.9816216007838,37.5542403993638],[127.0000554998906,37.5600338994427],[127.00524779866721,37.554563800755794],[127.00126989794279,37.5406533013777],[126.9836724993927,37.5434699010061],[126.98683649963249,37.5348408007076],[126.99705589930231,37.5276681995635],[127.0056423998714,37.5332869989319],[127.0036485022772,37.544275599426996],[127.0193531995068,37.5602331989068],[127.0284921994542,37.5619607992367],[127.027313000638,37.5576926004735],[127.0389676999121,37.5567416000422],[127.0410256998456,37.5618149994569],[127.0304633002686,37.5694604001163],[127.0244387007453,37.568262600668895],[127.02080030051401,37.5746816994156],[127.0048228001363,37.5757093002602],[127.0026141004862,37.5850546008784],[127.00022330008551,37.5759757002552],[126.9938401004853,37.572091700561],[126.9917365002631,37.5787692000915],[126.9737780010132,37.5797637007037],[126.9671639994446,37.5737675005232],[126.9578079002303,37.576343700090305],[126.9596116992028,37.573024100302696],[126.9541960006937,37.568867501510205],[126.9303314007661,37.5791056999222],[126.92445720128471,37.5908838996222],[126.9384606987241,37.596144298404695],[126.94126340172309,37.6106956993696],[126.9353337007908,37.6172728006569],[126.94023420131131,37.6225703961278],[126.9228127006832,37.627012500057],[126.9253433017593,37.6397887996702],[126.91324500079361,37.6529462998212],[126.9149082957584,37.6391517017291],[126.91140439942619,37.6342342015648],[126.9192716983476,37.628696599989595],[126.91017289964101,37.6219491997603],[126.9079434002949,37.6092366010156],[126.9017051034411,37.6059713011812],[126.8998854960372,37.593601702351],[126.8934395014202,37.5891805021057],[126.88867270132211,37.596080299817594],[126.8786611000841,37.5988580007525],[126.8819628013185,37.6044708980107],[126.878074101216,37.6188542992832],[126.86612310346139,37.6152553036742],[126.8607743020957,37.6215755016551],[126.8622934961774,37.6128716037522],[126.8486847010613,37.632298698232496],[126.8443336001,37.6272952034382],[126.8383783033406,37.631684400854596],[126.84211570053009,37.647869196026804],[126.8544300000837,37.6479499997097],[126.8491910054277,37.649307905266696],[126.8458898046778,37.6582751997724],[126.8500450005226,37.6607621972854],[126.8335325005431,37.6597144008082],[126.82888909952649,37.6425186022158],[126.81421600315541,37.6408767020067],[126.81287230194029,37.6491003985789],[126.820226202207,37.6509883985319],[126.8128603016657,37.6552184023109],[126.8160879006212,37.6673074999299],[126.80317190046189,37.6810071005728],[126.7854117032043,37.6870628000812],[126.7683437003657,37.6996939995853],[126.7544735003013,37.6901921014156],[126.75241889916849,37.6836957012432],[126.7389751002505,37.6798913012675],[126.7415500993028,37.671045699597],[126.76558229671771,37.657212898694596],[126.7637437998652,37.6467008000801],[126.768925698345,37.6493076000255],[126.7750804972546,37.644803197024196],[126.77690179820651,37.63405359945],[126.7864253981564,37.6302281989397],[126.7785912045639,37.6124295134087],[126.7528113079211,37.6234502976531],[126.7528602985623,37.6193053011901],[126.745057399763,37.6187912039185],[126.74312410169631,37.6226603000494],[126.7486654992301,37.6246742976839],[126.73458530363041,37.6259087997377],[126.7317838004739,37.635786200243096],[126.7104103006216,37.641336901388996],[126.7005682010017,37.653074201761],[126.6712390116751,37.6693208090092],[126.6747055968349,37.6659901021498],[126.66752510089721,37.6646991013733],[126.66414779996039,37.658048300866895],[126.6469386993042,37.6520876016082],[126.62477650062459,37.6574283001024],[126.6154108009845,37.648432900677],[126.62272259787831,37.6360482003508],[126.64199069546619,37.6278563983413],[126.6502816997549,37.632271294133],[126.6590025988466,37.629314798322106],[126.6616683002499,37.6382526975041],[126.66925479831221,37.6327662005885],[126.6748838001356,37.6362482991955],[126.68416069855341,37.6255460990807],[126.68692389954789,37.627636099317996],[126.68956819714009,37.6183732968059],[126.7018491963317,37.6167726967756],[126.7081615981419,37.6009236007445],[126.7217156968849,37.5920376993084],[126.7194680964586,37.5780590029024],[126.7127986026407,37.5779765029222],[126.6967310004918,37.5645394062125],[126.6899443072785,37.5660625046894],[126.6982869006938,37.5956552005212],[126.6911552018123,37.595310503756096],[126.6864987016261,37.588339606392495],[126.6658365048674,37.6021164019243],[126.6735859000622,37.610631998961004],[126.6419059015568,37.6130753048479],[126.6346568006587,37.6063973021234],[126.62376230126219,37.6070955993582],[126.62541199727299,37.6003737029382],[126.6194997006074,37.596543002036796],[126.6139390030613,37.601492600652],[126.6117020982124,37.5917590007433],[126.6234301949156,37.5840576984762],[126.6386789943236,37.585459795275],[126.64080990131039,37.589385298634],[126.65536419796999,37.584887696858004],[126.658436194898,37.5829323988133],[126.6555248978093,37.5795232022225],[126.6584362003054,37.582932396039496],[126.6628596987343,37.5789201994299],[126.663982599179,37.5685656002312],[126.6696335985972,37.568390900900795],[126.6609443022643,37.5675524999602],[126.6536711998783,37.5517522033265],[126.641967108565,37.5603639987715],[126.6410465004387,37.5700978014736],[126.6342796985997,37.568680703073],[126.6269349005154,37.5551878040433],[126.61334310079519,37.5476997025986],[126.613102200468,37.5527858990689],[126.60811990000991,37.546798605675],[126.60232090362419,37.558325593629206],[126.6097137004247,37.5558361986135],[126.60232088939689,37.5583256055639]]]}}]}