{"type":"FeatureCollection","features":[{"type":"Feature","properties":{"interval":15,"stationId":"2111825348","profile":"off-peak"},"geometry":{"type":"Polygon","coordinates":[[[127.0518665976667,37.6461100008386],[127.0606054993602,37.6369208013793],[127.0645999993048,37.6380499985569],[127.06347939919951,37.634582400183],[127.0718800000806,37.6351399994033],[127.0742319018135,37.6475553000145],[127.05909050032639,37.6594896003202],[127.0634371000975,37.664797299446896],[127.0583367003253,37.6684075002162],[127.0534043998264,37.666048000999304],[127.0605897990438,37.657195699179205],[127.0518665976667,37.6461100008386]]]}},{"type":"Feature","properties":{"interval":30,"stationId":"2111825348","profile":"off-peak"},"geometry":{"type":"Polygon","coordinates":[[[127.0167837991785,37.6394440001529],[127.0219672993082,37.6317637995979],[127.0199026990759,37.6239502994694],[127.0287630000304,37.6202567991197],[127.0352778003908,37.640547498980595],[127.05007109800209,37.6364378990367],[127.0533632009694,37.6258304013438],[127.0630368988851,37.6180420003133],[127.0563199997736,37.6115100015897],[127.0522040000112,37.6160086007163],[127.0357677003007,37.6029198007252],[127.0420621994088,37.5977919996143],[127.0451288002525,37.6037574990546],[127.07007569987731,37.6107174992184],[127.07021229969449,37.603485000584],[127.0625338995236,37.6008582008389],[127.0790236996445,37.590074699675704],[127.08360699948621,37.5686621008106],[127.0800832993453,37.5646399993719],[127.087611700106,37.563588899452796],[127.0895185001842,37.5730139990253],[127.09694489904639,37.5791456976608],[127.09781430048659,37.5904455995987],[127.0861633017412,37.613372898701805],[127.0920650003067,37.616540799504605],[127.09138870098029,37.6245295001955],[127.0805779026134,37.636308600319296],[127.0858784010633,37.649287201633406],[127.0847979028018,37.6663362984823],[127.0899685044806,37.674304299402806],[127.060911301019,37.683874504467504],[127.0557130014036,37.6924441994726],[127.05107670150639,37.6907559014303],[127.0465739005504,37.700654199344],[127.03509829823321,37.6878873039803],[127.04193049922381,37.674337700973005],[127.0366557995807,37.6661103003955],[127.0420238992653,37.6616028996933],[127.0337463998267,37.6527504009261],[127.02699650095799,37.6539637013866],[127.0267628990452,37.6451406004255],[127.0167837991785,37.6394440001529]]]}},{"type":"Feature","properties":{"interval":60,"stationId":"2111825348","profile":"off-peak"},"geometry":{"type":"Polygon","coordinates":[[[126.9194056993187,37.5483760000391],[126.94149369981379,37.5442216995753],[126.9638567991416,37.5300031000582],[126.96168779954131,37.5236862995853],[126.97388769987741,37.5183371997408],[126.9781305013138,37.5236320003786],[126.97503810128211,37.520940301083996],[126.9679798012762,37.5271948998531],[126.97891520048731,37.5340094989128],[126.9835427998685,37.531094499463],[126.9729330012391,37.539570898540504],[126.9738175002496,37.5457287994564],[126.98364150001781,37.545854499729096],[126.9857409004824,37.5557382976704],[126.994440096611,37.5534777976223],[126.9996731970121,37.544271800134],[126.984485100455,37.544973400552806],[126.9845803993013,37.5412556006958],[127.0070242985012,37.514827700733996],[126.9983758988648,37.510921501240105],[126.9944972993097,37.5018472009928],[126.9721374023538,37.5056941999739],[126.974747999254,37.5010476997293],[126.9894819998987,37.5019140999115],[126.9956704993571,37.4968056993017],[126.9645176991199,37.4859579025415],[126.9647680989421,37.4803466002969],[126.9739760997986,37.4806059992215],[126.9802961990556,37.4735610996745],[126.98750660015911,37.480827599801096],[126.99881700008041,37.479693598652396],[126.9991458004136,37.4942431995349],[127.0057891989645,37.4946255986536],[127.0021845001656,37.4901915012729],[127.0123120994898,37.488770999363],[127.0166674996996,37.4818033999985],[127.0211713002859,37.4863366994321],[127.0153564004559,37.488588800137705],[127.0226801991287,37.4945998993841],[127.03043809878079,37.4898085001559],[127.027190499491,37.483778501286096],[127.0399055000542,37.4792228994592],[127.0411246003987,37.4853273997653],[127.0327552004249,37.4915205991134],[127.0413417990531,37.500882199700996],[127.0458130996448,37.4939171007331],[127.0525544993914,37.4949863979395],[127.0496566996879,37.4888950002234],[127.0595107982236,37.483551896376504],[127.0693312999098,37.4889707995811],[127.0627589012972,37.488145802338295],[127.0634383010268,37.496170199809605],[127.0611699992704,37.4936481005143],[127.0551888002389,37.501210100079504],[127.0758717003119,37.5081891989463],[127.0871962998676,37.502485499247896],[127.0957561990503,37.5055491001495],[127.1031032988999,37.4980520995501],[127.1117658992135,37.4998320997856],[127.1052480001258,37.494468500455504],[127.1115266990278,37.4944220982382],[127.1102710005689,37.4901115019685],[127.1135979991515,37.4910371975037],[127.1228673999007,37.4764226999373],[127.12922589998229,37.4756391995881],[127.1300324003418,37.486836599747996],[127.1242647011247,37.4904115000151],[127.1302980000724,37.499652498380904],[127.1378784999044,37.4962643985083],[127.13139820111101,37.509737199171695],[127.1378990998231,37.5152791991897],[127.1367078024508,37.5226674983386],[127.1554267987963,37.5358872965367],[127.1577932990202,37.549483897540696],[127.1819540999103,37.556731098869],[127.1814260019855,37.560068901528396],[127.1759873999801,37.5576256038407],[127.1706446001028,37.5624187009548],[127.1569409000245,37.5632284012538],[127.1497605016788,37.5632577018159],[127.1489863003175,37.558843603535905],[127.1448429037372,37.5619093021659],[127.1399924016646,37.5560290052629],[127.104644203975,37.559917499959596],[127.107344502876,37.5731158933993],[127.12137179962991,37.5737517980108],[127.11614420378399,37.597599297860796],[127.12178230212221,37.6008481976732],[127.115589402709,37.603859200737205],[127.1107777016569,37.6212420988695],[127.1273918948693,37.628195896636804],[127.1281422009154,37.641817900401996],[127.148137396814,37.6410202994505],[127.15350880081739,37.6503521989038],[127.146604704685,37.6589211988384],[127.1382461017081,37.6574295022319],[127.13323480055179,37.6737013008584],[127.1318525000976,37.6701001009142],[127.1197746101308,37.6750586023064],[127.0999610032562,37.6923615035062],[127.0884702032489,37.6901774079611],[127.0808035015599,37.705861997699],[127.0751763019248,37.704829706548],[127.0719509051502,37.7126684987092],[127.0814762944954,37.7247166913977],[127.0990628995805,37.7286320997792],[127.1004853010557,37.7437174994591],[127.0914971050062,37.7516730990861],[127.0911427007007,37.7635209948225],[127.0657624020683,37.763921006376904],[127.05911950429059,37.7711093991283],[127.0637316020119,37.7825196960191],[127.04866100222219,37.7898509991799],[127.0377331992106,37.7798303039056],[127.02854829963469,37.784676101096196],[127.02741429682061,37.774223202198],[127.0210340004269,37.772431501290406],[127.0348895947937,37.764213499165095],[127.0195014987617,37.754983301709096],[127.02276380170301,37.757200497869604],[127.0269477993315,37.7522137012446],[127.0285469993984,37.7555992996995],[127.0320664992316,37.7491532004811],[127.0111653987445,37.7370168053813],[127.0184370984134,37.7331739999587],[127.0272228949323,37.703765600946596],[127.01617630095029,37.7038772007555],[127.0179578974335,37.6961153025008],[127.0090319990869,37.6867203035934],[127.0210846915334,37.6860467971105],[127.02192239069569,37.676616906540396],[127.0005826942498,37.671500002636],[126.9973685951271,37.654227302643804],[127.0043586925182,37.649998500180004],[127.00048019364729,37.6336273071627],[126.9948156973299,37.6298506023167],[127.00048019580329,37.6336272955741],[127.00356379271969,37.6292151999862],[127.00163429336611,37.622182504386004],[126.99489300010741,37.620419406149104],[126.99963219940899,37.6111483999932],[126.9943825003056,37.6110095001388],[126.996357200833,37.601465600681195],[126.9836760989288,37.595846800535696],[126.986656398752,37.589019803133205],[126.9832197997707,37.583957500727195],[126.9786036998336,37.5800827004706],[126.9706038998853,37.5825474002784],[126.9655085993284,37.575066200312904],[126.9534063006995,37.5784534004266],[126.9483270003454,37.5852307009583],[126.960199100273,37.5654258004947],[126.9493240009438,37.560182100697496],[126.937154400654,37.5609473997482],[126.9308602001885,37.5581255006268],[126.9313809993646,37.5500290000313],[126.9194056993187,37.5483760000391]]]}}]}