{"type":"FeatureCollection","features":[{"type":"Feature","properties":{"interval":15,"stationId":"2346858819","profile":"off-peak"},"geometry":{"type":"Polygon","coordinates":[[[126.9436066990838,37.539930200627204],[126.9482809000217,37.5383365996965],[126.9715472002056,37.5623729998643],[126.9776459001925,37.560835999512605],[126.995524100184,37.5714459998115],[126.9793240002856,37.580141500380606],[126.9707214003056,37.5797379001775],[126.96616529993901,37.5715679008417],[126.9601451995452,37.570934100810206],[126.9517488994466,37.554652299988604],[126.9528285996537,37.5481724008234],[126.9436066990838,37.539930200627204]]]}},{"type":"Feature","properties":{"interval":30,"stationId":"2346858819","profile":"off-peak"},"geometry":{"type":"Polygon","coordinates":[[[126.8821041980264,37.5249139022389],[126.894342798954,37.5160417007987],[126.8969383012795,37.519834198976696],[126.9096770998805,37.512078099307196],[126.9244468988422,37.5104018002886],[126.9356553992896,37.520304898990396],[126.943927499269,37.520071697728206],[126.9448079039357,37.5337597983793],[126.9640429989554,37.5313218987394],[126.96104199924231,37.52527710011319],[126.9769512999105,37.5203245998034],[126.9679798012762,37.5271948998531],[126.9818925994374,37.5322782986074],[126.9742997002009,37.536743901048595],[126.9738175002496,37.5457287994564],[126.9838665997215,37.5481778990354],[126.9834860021405,37.5535499001556],[126.99084819865371,37.5589723995783],[127.0046509991474,37.5520757009143],[127.0007383979646,37.5392827008718],[126.9940794998428,37.5369486013503],[126.9864138005114,37.5412955005043],[126.990873199433,37.530215299382604],[126.9968878988444,37.530242100029206],[127.0113864991532,37.549067899017494],[127.0186300994163,37.5405689996049],[127.01710510086009,37.547302098564],[127.0417379991448,37.5563748987607],[127.0448134987819,37.5451161005629],[127.0491170992462,37.545492498535005],[127.0445687006084,37.5499330992297],[127.04864220052501,37.5541888996395],[127.046919599953,37.5515630005442],[127.0417755001413,37.561556499876005],[127.054868700726,37.563154499450405],[127.05683980011831,37.5678835998822],[127.0262456002672,37.569456500724904],[127.0483831999289,37.5825022992017],[127.0234689000686,37.580554200997604],[127.0237614007436,37.5865984000996],[127.0172852006883,37.5883793011561],[127.0190999002923,37.5943412997768],[127.0133889995145,37.592012500232904],[127.0170563992134,37.5873364006466],[127.0127241992646,37.578443501471],[127.0059026004282,37.5789570008259],[127.0038031995578,37.587892598874504],[127.0097253000423,37.5873875998247],[127.0060082003146,37.5908868003455],[126.99314430131659,37.5809264007947],[126.98245150179599,37.589779300055994],[126.9795457996229,37.583859599859196],[126.9732932003652,37.5836735001154],[126.9692462006112,37.590419500493404],[126.9595816003259,37.5803758015988],[126.943361400497,37.5933615012355],[126.9291695004564,37.61414890067871],[126.9256212993918,37.6097124999765],[126.931066999793,37.6061802999497],[126.9300775992197,37.6004246000294],[126.9407293984081,37.5944922005736],[126.9359776001926,37.5876224004012],[126.94940889839249,37.5820240984203],[126.95066529692009,37.574100299169295],[126.945541800094,37.5646241004003],[126.92198329981389,37.5652843003538],[126.90539659957051,37.5495793000651],[126.9098912985618,37.544698700491395],[126.9330553990526,37.5417456999053],[126.9300999020081,37.5312557103953],[126.91464500047209,37.5330769006807],[126.91107730006391,37.5259397002293],[126.9030677998412,37.5386311036075],[126.9048235992562,37.5358988000377],[126.89255509896529,37.5406137009904],[126.88943640022579,37.540126901106696],[126.8965082001229,37.5302348019623],[126.8821041980264,37.5249139022389]]]}},{"type":"Feature","properties":{"interval":60,"stationId":"2346858819","profile":"off-peak"},"geometry":{"type":"Polygon","coordinates":[[[126.7848366984738,37.5782737999587],[126.79695499925799,37.5843018977194],[126.79891689954789,37.577712100643],[126.7835185001106,37.5734904020715],[126.795424398273,37.568386398644],[126.7993937003088,37.5758302957253],[126.8043332988424,37.5680287006308],[126.7984198005241,37.563155202025094],[126.8194892999046,37.544674201058406],[126.8164034982437,37.538838601788896],[126.83444609685199,37.516908199731205],[126.8311568002669,37.5145678008507],[126.8464994001852,37.51041969738],[126.8538750998858,37.503108200156596],[126.8438866998953,37.4997333008542],[126.8367275998983,37.4891673011941],[126.8258476991946,37.4994489025777],[126.8229236983616,37.493087802261996],[126.81822029976,37.4958269009127],[126.8160390995111,37.4898486011187],[126.810314699873,37.4916109010331],[126.80106580052761,37.4831517010406],[126.79077740045149,37.4866072005437],[126.78878709949669,37.4839236006968],[126.7955265992445,37.4774256999958],[126.798090901131,37.4833645987594],[126.81777959805639,37.4818025978945],[126.8204615996041,37.490930898221805],[126.8266996991551,37.4889409995139],[126.8302749994326,37.4935727993086],[126.83637590065649,37.4819054018372],[126.8444975000931,37.482902597589806],[126.84891349978689,37.4738771995322],[126.8593112990624,37.4729788989578],[126.8648084994574,37.4673745003657],[126.8739390993933,37.4692955995829],[126.88300939959731,37.4487150999476],[126.8986383983611,37.444671898738],[126.8964246015898,37.4486501994998],[126.907481700323,37.452649299825296],[126.903358500635,37.4738990995128],[126.9121303998044,37.4792756978929],[126.9110960999161,37.4722506015418],[126.9209890996179,37.4714266992081],[126.9301047978622,37.4607651003421],[126.9371027987902,37.4596015985936],[126.9447615992987,37.4662461974612],[126.95187459993,37.462222499012604],[126.9537161999259,37.4703373968341],[126.9583427997889,37.464635300080495],[126.9600976006984,37.4682039985829],[126.95371620421301,37.4703374008129],[126.9562774016518,37.4741764969738],[126.96207339824869,37.472514798523996],[126.96243729863271,37.464879800927996],[126.9743625967139,37.4622457998686],[126.9806033997507,37.4710080979516],[126.9884666994664,37.4660825001595],[126.9922611956211,37.4535594021874],[126.98900209888019,37.449022406724396],[126.99453269653729,37.4435197992051],[126.98466099862,37.4311341040466],[126.9831299994093,37.4233687003356],[126.987953899511,37.4177867997791],[127.0008698996473,37.4263129987175],[127.0159962995922,37.428798199564405],[127.0097647019445,37.4316980986914],[127.0189157998695,37.4359385988454],[127.012154403076,37.444976502589704],[127.017558900859,37.4585517006833],[127.01297720116659,37.4573801018297],[127.001013502186,37.467223100042],[127.00637860262,37.4759685972568],[127.0172239994496,37.471869297766],[127.0271905001229,37.4837784995985],[127.03132019904889,37.462620201507505],[127.04628319970041,37.4610070986162],[127.051319400943,37.4776993991047],[127.0654296999013,37.4777348980513],[127.07018909660309,37.4825540952299],[127.0676148991773,37.4775614002226],[127.07594540018009,37.483102999128],[127.0856558006175,37.4800323989964],[127.0847140004861,37.487245000206],[127.07873240194951,37.4876836996854],[127.0858099999536,37.4935548990543],[127.0791189010719,37.4947655009348],[127.0754001019361,37.503515997085096],[127.1018607986736,37.4976207000179],[127.11048769968,37.501301998553004],[127.1119742997853,37.495733501202],[127.0978321001357,37.4917441007451],[127.0945979982709,37.4843824010212],[127.1056648989086,37.482456397730196],[127.1119469979607,37.489798498638],[127.1229200987668,37.474958199433104],[127.1312763002004,37.4751991976597],[127.1308559001472,37.4955822989955],[127.1425036985739,37.4904201018045],[127.1487183010422,37.4924814990373],[127.13368730053881,37.502883699826995],[127.1409963018761,37.5244418977987],[127.1490630014515,37.5299999968614],[127.1512818992326,37.5274297994316],[127.1490630029455,37.5299999985393],[127.1573578999363,37.5365472991448],[127.1545571036485,37.5388451007769],[127.1596282003693,37.5485264977207],[127.1766260004932,37.5520395997469],[127.1746262021243,37.5551108993809],[127.1804419000055,37.5531423999283],[127.1845527995265,37.5592986987509],[127.1801966011809,37.5629312996285],[127.1759873999801,37.5576256038407],[127.1722083005929,37.5635027000105],[127.1485801006775,37.5640752011092],[127.1399924016646,37.5560290052629],[127.1396582019988,37.562111899179996],[127.1287981003126,37.5579725024143],[127.0969278049465,37.5635443999243],[127.1020837052608,37.5772690958468],[127.1077941995503,37.576745296370596],[127.1052806029577,37.593775299355094],[127.11558940239391,37.603859198586804],[127.0959453009103,37.6156769008515],[127.09625960225699,37.6278538993038],[127.0738423008944,37.6318591023439],[127.07536370082549,37.6387113981273],[127.0695769007081,37.649201399821905],[127.0874264012184,37.668831398521405],[127.0851637002592,37.675473401032],[127.07892770337949,37.677384299249],[127.0729704009175,37.6748094027065],[127.0714572974438,37.6679067048642],[127.0554283006322,37.6680800000533],[127.05817650029441,37.6576097991773],[127.05192400118369,37.654113901676],[127.0458806010762,37.6569754014901],[127.04826540018091,37.6678768000258],[127.0439589000791,37.6730344004574],[127.03760649958599,37.6619084003041],[127.0258716999504,37.6581377004056],[127.00752180662981,37.6704251044102],[127.0025713962918,37.6587418069018],[127.00793319207929,37.654995298365606],[127.00290149397539,37.645694504484],[127.00299369328981,37.6252988039026],[126.98835739825749,37.618432300505106],[126.9928362959096,37.610337799567006],[126.98588440024851,37.5980129079119],[126.9693408011692,37.6028564018569],[126.9560852002035,37.6137451999768],[126.9480518052125,37.6101291032515],[126.95109170054661,37.625033598951504],[126.9391626051874,37.6346298002825],[126.93980640086039,37.643081799939594],[126.93163390373759,37.6442854023956],[126.936629501098,37.6508602999278],[126.9321247005234,37.6552359000797],[126.9225070049674,37.6545623003652],[126.92217480347729,37.6641961994417],[126.91795559855859,37.6638442016715],[126.91886879639989,37.659590703142506],[126.888318600936,37.6686606011748],[126.88602069931831,37.6630752020812],[126.8713067982117,37.6600319029685],[126.85304000157869,37.647980006594594],[126.84776940684931,37.6534912010834],[126.84804170150039,37.6671172010368],[126.8392322001244,37.661035401261806],[126.830404400546,37.662478699821904],[126.826419900627,37.6595014000643],[126.82888909952649,37.6425186022158],[126.8182825018591,37.6370570015418],[126.821867996848,37.6361950987199],[126.81947959966689,37.6299326005396],[126.8274238992685,37.6244327999046],[126.8418093995414,37.629614599321194],[126.8383783019644,37.6316843990057],[126.84661510139239,37.6462640984126],[126.8650758949582,37.6452960997764],[126.8631065969275,37.6413991036734],[126.8691763989729,37.6360064999044],[126.8969218979976,37.6429396969011],[126.9087727917583,37.6289511973169],[126.9071369933941,37.6248349014332],[126.8983958021353,37.624057202210906],[126.8998854960372,37.593601702351],[126.8934395014202,37.5891805021057],[126.8933120010892,37.595920999936],[126.8785350002102,37.5990812005293],[126.8819628013185,37.6044708980107],[126.8757052011211,37.6089058000954],[126.8774525007817,37.613676299844805],[126.85360450301461,37.6145250021534],[126.8556104001381,37.6200366995509],[126.8501556026704,37.6247682006614],[126.8305521994557,37.616431200685504],[126.8245904012673,37.620156099617105],[126.81427630311221,37.6175529037],[126.8164913008972,37.621982599270304],[126.809383698802,37.6180799009369],[126.8192629998515,37.5989041995322],[126.83906559968119,37.6048205993203],[126.8460094971434,37.6019221004047],[126.8496385007403,37.608364995786],[126.8589414977086,37.6049388984213],[126.85713199761199,37.5968674025478],[126.8694707984654,37.5877063996978],[126.8711046979396,37.5785368969762],[126.880905299516,37.5798834999472],[126.88325999624001,37.5740700001561],[126.8724422029097,37.5571563082727],[126.8595211088125,37.567348303588],[126.8668534014802,37.5727194982168],[126.8611423010146,37.5771011001271],[126.8641757976413,37.5739832002595],[126.8558023060148,37.567675706567],[126.8348612077972,37.5787932067942],[126.80053460273591,37.5843523001154],[126.8019699008579,37.5893229011527],[126.7898682003568,37.5864119010623],[126.7848366984738,37.5782737999587]]]}}]}