{"type":"FeatureCollection","features":[{"type":"Feature","properties":{"interval":15,"stationId":"2385324651","profile":"off-peak"},"geometry":{"type":"Polygon","coordinates":[[[126.9381716994484,37.5478245997744],[126.9624803000701,37.5339793996835],[126.9655207990361,37.5246066990246],[126.9818925994374,37.5322782986074],[126.9729330012391,37.539570898540504],[126.9738175002496,37.5457287994564],[126.9804300003766,37.5462699979821],[126.98050709934219,37.5553806996594],[126.9984713995776,37.5620936995298],[126.97153300048309,37.5597645010318],[126.97187749915621,37.550370101001704],[126.9584731996592,37.542869100480495],[126.9536897005861,37.5474256001099],[126.9474921999657,37.545382500395604],[126.94415380204039,37.5507694993238],[126.9381716994484,37.5478245997744]]]}},{"type":"Feature","properties":{"interval":30,"stationId":"2385324651","profile":"off-peak"},"geometry":{"type":"Polygon","coordinates":[[[126.8911453991201,37.5759521005699],[126.90031449898339,37.5723820997697],[126.8944756994578,37.5618632003893],[126.9001996001596,37.5599208989686],[126.8998195988856,37.5536963996985],[126.9075008992766,37.5468732000047],[126.90483569807331,37.5378461043925],[126.8966128000277,37.5371335004735],[126.89287459922299,37.514707700941],[126.8992167997884,37.516850498680796],[126.8958547014147,37.5218510993113],[126.9077214004709,37.520763799715496],[126.8989558006077,37.5293784997045],[126.9056110999916,37.531203599029695],[126.9105571008771,37.5439333912341],[126.9256506931666,37.538223296385596],[126.9293404972626,37.5315863010908],[126.910752400478,37.520635900807605],[126.90403769924811,37.509690900299205],[126.9185453997542,37.5123196986502],[126.92431639933109,37.505570799937004],[126.92950990032129,37.5140636987685],[126.946199499925,37.5056843003717],[126.9571203013825,37.5132001991741],[126.9625855993945,37.5057945981353],[126.97087809843089,37.516393191213005],[126.9756016988895,37.505883099784995],[126.97261969903529,37.502610399855904],[126.9823615974622,37.5000263985115],[126.9663991997967,37.487337601158295],[126.97733599894039,37.4705417999552],[126.9848792982386,37.4695703001073],[126.99063509941291,37.4848644971965],[126.9937160986937,37.4797750998819],[127.0014982008648,37.4801569986762],[126.99671860203189,37.4904262002755],[126.9875733002401,37.4944377008897],[127.0056978997936,37.5008091991976],[127.0132476017775,37.5130343983728],[127.02194339930709,37.509576099381796],[127.0194306999116,37.5031830004346],[127.0151832999946,37.504521700426295],[127.017890999756,37.5025783995398],[127.0263113997085,37.5004029988645],[127.03043960000379,37.5060424990744],[127.024183300749,37.5085919000786],[127.02622740025599,37.5187048993789],[127.01976980075361,37.5206913001267],[126.9903664000701,37.5032182030007],[126.98788800258839,37.5155028929266],[127.01118530033219,37.530612299357],[127.00617260086,37.5423250992107],[127.0201214942982,37.537420798766],[127.0275535999597,37.5229861994007],[127.0341148002252,37.5290532987648],[127.0203219066938,37.5376218963993],[127.0260955003416,37.5494510989583],[127.03760080047331,37.5533603985237],[127.0252691005946,37.5495835008346],[127.0270278997858,37.5552536993684],[127.0378498979892,37.556545199777005],[127.0491170992462,37.545492498535005],[127.0450624010634,37.5501901995694],[127.0494123997548,37.5549099989184],[127.0472639996155,37.5525392013735],[127.0408013010469,37.558517999690096],[127.04529050046429,37.5676755000377],[127.0248251004342,37.5704878005389],[127.02258190063361,37.573052699810596],[127.0276235004234,37.5766484997582],[127.0177635003609,37.5770207005041],[127.02138490136281,37.595725999847396],[127.01486950079601,37.5983745005911],[126.99955560042909,37.594455200279896],[126.9942293992939,37.5830154006539],[126.9736293000291,37.5836126001763],[126.9627247005912,37.5770263016741],[126.95618659985199,37.5771379014127],[126.9420956005553,37.5900965000437],[126.9577190976173,37.5686237997405],[126.9507395001543,37.5602816006321],[126.93376670062351,37.560164800222005],[126.9232606997326,37.5652891001762],[126.9128071007369,37.5612773002295],[126.90616840037539,37.5668489010003],[126.9063673007505,37.5788979994987],[126.8950603009739,37.5818715999641],[126.8911453991201,37.5759521005699]]]}},{"type":"Feature","properties":{"interval":60,"stationId":"2385324651","profile":"off-peak"},"geometry":{"type":"Polygon","coordinates":[[[126.6964934986909,37.4759010000795],[126.6968798987711,37.466045099705404],[126.7105660000323,37.4642612995953],[126.7083706019679,37.4730082994343],[126.7144685976243,37.4755412975179],[126.7164262017184,37.4844915974454],[126.7335256999357,37.4864071992148],[126.7415643990449,37.4817653979176],[126.7478633001463,37.484600098806204],[126.74410420205409,37.4907021996406],[126.7753789985168,37.473160799282105],[126.7793121006265,37.475916896602705],[126.7841688993208,37.4706835973194],[126.7892321002155,37.4769135962659],[126.79874359933089,37.465549598368305],[126.8006548004768,37.4745389988462],[126.8232460001619,37.476445799029],[126.8332433993655,37.488281896268],[126.8488412995253,37.4729787001766],[126.86717609946159,37.469630799532496],[126.8693512992164,37.465404699728204],[126.8754965999406,37.470589599306194],[126.8743160999666,37.4614827006334],[126.8813310997424,37.4595561985596],[126.88309779950521,37.4481215000014],[126.89256279916819,37.449122797604495],[126.8986383983611,37.444671898738],[126.89758500122811,37.426666301638704],[126.901586998477,37.4267252988328],[126.8967347030686,37.418915404620606],[126.8975550022483,37.4230387004973],[126.8920254011499,37.4175909007283],[126.8966586005825,37.431377999733606],[126.8829580005724,37.437536000773],[126.8753396989993,37.4326570007915],[126.8776219967159,37.4237912054205],[126.8711562004764,37.424773302328],[126.86694699926059,37.4157593071759],[126.8982479999675,37.4016807987987],[126.9045803021081,37.4110478970037],[126.9143630002301,37.4134375997328],[126.90298139987681,37.4232893003929],[126.909635902557,37.431275494592],[126.9077651003321,37.440819799885],[126.9016846000263,37.4401309013019],[126.8966760018333,37.4458453001401],[126.9085683001726,37.4529583996163],[126.9042456019488,37.471717400897305],[126.9200187983486,37.469910999259106],[126.93167779628921,37.4633338977733],[126.9333380989607,37.457287700579705],[126.9437677004334,37.463486697646694],[126.95165469976861,37.4569269000103],[126.9647492995295,37.4579549946298],[126.9702725963907,37.4536241958752],[126.9806033997507,37.4710080979516],[126.9884666994664,37.4660825001595],[126.9922611956211,37.4535594021874],[126.981562200902,37.4492647057559],[126.9802270961708,37.4350276021915],[126.9766589997389,37.433895903323204],[126.97408039832011,37.4236057012122],[126.9845770975479,37.4229187973119],[126.983052999072,37.4173489028818],[126.9792831985929,37.4110874024645],[126.9680170990609,37.410575101178004],[126.954562200631,37.3990753027036],[126.9431699010951,37.396456301712796],[126.9371935996878,37.3822735007292],[126.9307259997084,37.3865554003533],[126.9373723993673,37.380042199521895],[126.94238899743081,37.383942098635096],[126.9549339997991,37.3814154992072],[126.9880469004952,37.392155599728305],[126.9878437012354,37.3970108992347],[126.9809268028508,37.3991004012141],[126.990944400458,37.418754499137],[126.9960808986362,37.420816698560905],[126.993136400287,37.4148483024272],[127.01956159877311,37.4237539988475],[127.02598570464421,37.4380427996014],[127.02058260230369,37.435722501836096],[127.0121255031049,37.449066798499395],[127.0234697998766,37.44589739911],[127.0253716000045,37.4641126980867],[127.0284078995502,37.4654485996584],[127.02992429953241,37.459079599238],[127.046766099131,37.4577625998488],[127.0476219982542,37.4354305014269],[127.0620130977162,37.4343131953693],[127.0660149005543,37.4347978984222],[127.0633288021466,37.4427550944741],[127.0673938009706,37.453968497872005],[127.0556312039646,37.4624398001842],[127.0568442995301,37.4767872994496],[127.07018909660309,37.4825540952299],[127.0676148991773,37.4775614002226],[127.07018910077379,37.4825540973749],[127.086762399748,37.4759891998851],[127.08527640185619,37.4834877970525],[127.09019460199531,37.4855064958298],[127.105769600071,37.4791609997162],[127.1077086006096,37.4886707975346],[127.1148657987914,37.4865059995945],[127.1216868995258,37.4743913022124],[127.1319144995622,37.475110097748804],[127.1288600005213,37.4928319987864],[127.1487183010422,37.4924814990373],[127.134775200421,37.5023492006967],[127.15117050008281,37.5154457999375],[127.1483104025154,37.521349898849394],[127.15662199976809,37.5311155977749],[127.15261820116511,37.538000499243005],[127.1463036008491,37.5383870002847],[127.14835780058979,37.5478160990381],[127.144346802396,37.5532011007782],[127.135133200506,37.5462601000229],[127.13184970022661,37.554754899615396],[127.1253157007133,37.5548712003145],[127.1191641034235,37.5473863052194],[127.1111680027374,37.5510545040866],[127.1128006011048,37.5580703970707],[127.0958701049719,37.5573508014131],[127.0962059041593,37.5686982996006],[127.1038248010868,37.578736799819005],[127.0980281017461,37.5864171991951],[127.1075785006598,37.5971895959408],[127.1106024996064,37.5945008994335],[127.11558940239391,37.603859198586804],[127.10262590039021,37.6162173995912],[127.0966122002434,37.615299201229206],[127.0943282021374,37.6242320978957],[127.10001320058761,37.6265455993283],[127.0738423008944,37.6318591023439],[127.0766815996691,37.6358674997522],[127.07152470294069,37.6458017984851],[127.0870302988082,37.6545637969501],[127.08383430342111,37.6554906004047],[127.089680900643,37.6618730960119],[127.0897579015879,37.6780634002788],[127.0783332042364,37.681581804288996],[127.06451829869211,37.670607502580104],[127.05817910122211,37.673674999497806],[127.06071300267821,37.6789550967491],[127.0455470020429,37.6976782010665],[127.05262050024851,37.7042613996671],[127.0488542016162,37.720156099170595],[127.05512729978709,37.726571799317604],[127.0450652012612,37.7329888999579],[127.0537926992419,37.7374314992251],[127.04509590032251,37.7502328002475],[127.0398618003458,37.7467854012481],[127.0455349996768,37.743672399743],[127.0382825000999,37.7374497004557],[127.0377343997158,37.729084200307305],[127.04532489929319,37.715477500805],[127.0421988006009,37.7165653001561],[127.0375065974187,37.707227002066105],[127.0428503993735,37.709166698730094],[127.0449307994004,37.6997659010934],[127.036436294647,37.6925146008278],[127.0362548944997,37.6796971039704],[127.0327438980107,37.678818904848605],[127.0427387984155,37.676375698935004],[127.0290525999977,37.6700808035092],[127.0259069990707,37.661245301436594],[127.01319650479621,37.663031003056396],[127.00752180662981,37.6704251044102],[127.0059872002264,37.6654058054866],[127.00487780133581,37.6709331999592],[127.0025713962918,37.6587418069018],[127.00793319207929,37.654995298365606],[127.00110819576871,37.6426454075331],[127.0052995953808,37.6374406026207],[127.0004802002002,37.633627306434],[127.00299369328981,37.6252988039026],[126.9950004012831,37.6265685026329],[126.98835739825749,37.618432300505106],[126.98874589721319,37.609904802403804],[126.9928362958695,37.6103377980029],[126.9901644998622,37.6006095031465],[126.95198520173379,37.5993556015784],[126.94773620271289,37.6101892071471],[126.9496179983373,37.6076441022373],[126.9430022005684,37.604849903652195],[126.9479025021502,37.6221580984519],[126.9375318065229,37.628642801004],[126.94147420258051,37.632233497413296],[126.9375232018367,37.6286755039432],[126.9373055004037,37.640605800450004],[126.9288645023172,37.6510002002945],[126.9014926006012,37.6546837034948],[126.8939200022077,37.661252000278196],[126.88438759990319,37.6511691009622],[126.91066669654069,37.640880799808095],[126.9017383992852,37.6121057008061],[126.8974778025058,37.6114787023023],[126.90121089663289,37.611796496682395],[126.9014158975142,37.5982735012405],[126.8824100028979,37.596138501230605],[126.8774525007817,37.613676299844805],[126.85360450301461,37.6145250021534],[126.8556104001381,37.6200366995509],[126.8501556026704,37.6247682006614],[126.8332107004504,37.622227300492796],[126.8291899005292,37.6171964006306],[126.81738850136391,37.621252899759604],[126.809383698802,37.6180799009369],[126.8128402963916,37.6178759976419],[126.8162396955448,37.5998567002125],[126.8270303994083,37.5961135000017],[126.8343905000644,37.604211797195],[126.8427022990495,37.5999594981906],[126.8481512020243,37.6067744965375],[126.8589414977086,37.6049388984213],[126.8599854956063,37.5920125018416],[126.8694707984654,37.5877063996978],[126.8674893970116,37.578377200435895],[126.880905299516,37.5798834999472],[126.88325999624001,37.5740700001561],[126.8786251992033,37.5696338020748],[126.86510920575451,37.562336207196],[126.8595211088125,37.567348303588],[126.8668534014802,37.5727194982168],[126.8640796000786,37.5746997005026],[126.8558023060148,37.567675706567],[126.8348612077972,37.5787932067942],[126.80053460273591,37.5843523001154],[126.8028278012103,37.590475599698195],[126.7898682003568,37.5864119010623],[126.7848366984738,37.5782737999587],[126.79695499925799,37.5843018977194],[126.79891689954789,37.577712100643],[126.7835185001106,37.5734904020715],[126.795424398273,37.568386398644],[126.7993937003088,37.5758302957253],[126.8043332988424,37.5680287006308],[126.7984198005241,37.563155202025094],[126.8139417975667,37.5471032001008],[126.815482000446,37.549886799277104],[126.8274755985343,37.5445907005683],[126.8201864006886,37.5388994018322],[126.8341986995507,37.5229614001545],[126.83444609891839,37.5169082029415],[126.8428910994772,37.5114360992623],[126.8413534969005,37.5037522033298],[126.8296670023198,37.5021342003559],[126.82978900037021,37.5064166000128],[126.8212983029093,37.5072747009248],[126.8143472017466,37.518272999089504],[126.8174842019419,37.5251856984708],[126.8063522022269,37.533930400552805],[126.7951968004875,37.528827200972],[126.7979377982714,37.5255966999051],[126.7917751003797,37.5234029003577],[126.798575696726,37.514298503301504],[126.7903804999785,37.509662004502],[126.7839205000081,37.5126371010196],[126.7783831004847,37.5073013005333],[126.7475042006671,37.5072052005149],[126.753248099585,37.500895999929696],[126.7740544986803,37.5005831973279],[126.7780921996024,37.4955859989019],[126.7781463008001,37.4993087996422],[126.7931488993903,37.4971401992536],[126.792654900074,37.4940924007619],[126.7733180999245,37.4915267004865],[126.756592101034,37.499177699739],[126.73501660058099,37.4902989007311],[126.7206162001142,37.5023482009103],[126.709155298769,37.4791749012119],[126.6964934986909,37.4759010000795]]]}}]}