{"type":"FeatureCollection","features":[{"type":"Feature","properties":{"interval":15,"stationId":"3153793711","profile":"off-peak"},"geometry":{"type":"Polygon","coordinates":[[[126.89349947901493,37.4564004830546],[126.8937481997697,37.455950399984],[126.8935548001168,37.4565180000326],[126.89349947901493,37.4564004830546]]]}},{"type":"Feature","properties":{"interval":30,"stationId":"3153793711","profile":"off-peak"},"geometry":{"type":"Polygon","coordinates":[[[126.89349947901493,37.4564004830546],[126.8937481997697,37.455950399984],[126.8935548001168,37.4565180000326],[126.89349947901493,37.4564004830546]]]}},{"type":"Feature","properties":{"interval":60,"stationId":"3153793711","profile":"off-peak"},"geometry":{"type":"Polygon","coordinates":[[[126.89349947901493,37.4564004830546],[126.8937481997697,37.455950399984],[126.8935548001168,37.4565180000326],[126.89349947901493,37.4564004830546]]]}}]}