{"type":"FeatureCollection","features":[{"type":"Feature","properties":{"interval":15,"stationId":"3279010922","profile":"off-peak"},"geometry":{"type":"Polygon","coordinates":[[[126.98763789926069,37.570287999883696],[127.0123422995482,37.564910599160996],[127.0159994000785,37.5583508994275],[127.0299768000179,37.5745538997298],[127.0390261005301,37.5775776996464],[127.0347756005871,37.5816018002766],[127.0414287993953,37.5896328994293],[127.0373173027361,37.5944905004193],[127.0235744004784,37.5893074001152],[127.015793600422,37.5977076997074],[127.0046343994553,37.574624800807506],[126.98763789926069,37.570287999883696]]]}},{"type":"Feature","properties":{"interval":30,"stationId":"3279010922","profile":"off-peak"},"geometry":{"type":"Polygon","coordinates":[[[126.942187799521,37.5567064003975],[126.9557713992391,37.5518277999482],[126.9596650998037,37.556520099467804],[126.9718487994333,37.5542833000529],[126.96490349979011,37.5413982010702],[126.9587644006542,37.5414709001574],[126.9599578996722,37.535985999603405],[126.9697383992108,37.5385304987724],[126.9709725991995,37.5349190004337],[126.963614699942,37.5272467011616],[126.9804692001878,37.5343417996871],[126.9729330012391,37.539570898540504],[126.9738175002496,37.5457287994564],[126.9804300003766,37.5462699979821],[126.983927301164,37.555538399848004],[126.9917134968075,37.5560080959839],[127.0018499952113,37.5480673000837],[126.9864825996928,37.539199999988],[126.99705589930231,37.5276681995635],[127.00878689984201,37.531806199272395],[127.00617260086,37.5423250992107],[127.0228724984799,37.533976696129095],[127.0203219066938,37.5376218963993],[127.0269814001915,37.5493547987379],[127.03760080047331,37.5533603985237],[127.0419446967194,37.5512665988129],[127.038160300612,37.5459018014363],[127.0428564992157,37.5313979997789],[127.0350623992776,37.5272410005771],[127.0460562995538,37.5248621990619],[127.0418251026428,37.537772599716995],[127.0493092014286,37.5417603993611],[127.0722841018844,37.5391300994957],[127.0694089002312,37.5444900005019],[127.0634898001718,37.5426122002575],[127.0600947009297,37.5481388004579],[127.0528650002634,37.5487695002078],[127.0452067010736,37.5621330997513],[127.05296840010959,37.561541499620695],[127.0563748008723,37.5666014000859],[127.0522502008142,37.5731039991933],[127.0714809003306,37.592605798738305],[127.0690393993865,37.597613797994995],[127.0742409000254,37.6022491993415],[127.07056390015299,37.6109157983867],[127.0792678996644,37.599424899539706],[127.08154450204421,37.6134971995116],[127.09451969960381,37.6159443997313],[127.0936478009768,37.6239016985152],[127.0712392999787,37.6293490021006],[127.0670129998702,37.6205746002369],[127.0589181003061,37.625914500719404],[127.0567630000392,37.6195074014581],[127.0350644021525,37.615322799955],[127.0274810023747,37.630435702861],[127.0302838005996,37.6421324000663],[127.0177208010042,37.6464848998886],[127.0112845003058,37.6586070007368],[127.01224299850959,37.630173900341106],[126.9955435996997,37.619934800238404],[127.0017067992808,37.5966272011444],[126.9938865006452,37.5949606010812],[126.989232898572,37.582921502656596],[126.96822679975429,37.580330200190296],[126.9688597995774,37.5690427008509],[126.9630415002874,37.567884401325195],[126.9614249990899,37.5615805003812],[126.942187799521,37.5567064003975]]]}},{"type":"Feature","properties":{"interval":60,"stationId":"3279010922","profile":"off-peak"},"geometry":{"type":"Polygon","coordinates":[[[126.8127610993828,37.5674594002872],[126.8263887998218,37.5570564990563],[126.8376165998262,37.563453498693605],[126.8364942990785,37.5558490013183],[126.84429729934979,37.565528998899595],[126.8503924998414,37.554655800293396],[126.86020089954839,37.5546612000469],[126.8659652984965,37.5393284003673],[126.8875967987053,37.535907299104096],[126.8707010999107,37.5305139010673],[126.86276419995,37.5355611006241],[126.8556629999387,37.5285897003235],[126.8450290008832,37.538687500239405],[126.84522000046779,37.544854400361],[126.83869350011321,37.5456029006923],[126.8396280017737,37.5515438982845],[126.83170249893061,37.5493473006244],[126.8415286993192,37.5358023999319],[126.83918179914731,37.5296593003853],[126.8451108996845,37.528479899002804],[126.8432661996385,37.5191163008895],[126.859722799813,37.504657099867806],[126.8417267999319,37.497403300433],[126.85593559964529,37.482827200103905],[126.8506748997333,37.4794542000754],[126.85278439926421,37.4768566997765],[126.8637927003036,37.488852797036294],[126.8744709974129,37.482480700009006],[126.86238900001999,37.478204100172796],[126.86954579995779,37.4720237997506],[126.872621598798,37.477687498743904],[126.8844807976551,37.47384679905149],[126.8854678013754,37.4812134973912],[126.890697000066,37.479179599154705],[126.9021241997911,37.485389299485504],[126.9227500981036,37.4802987980183],[126.9315651951812,37.4643686004752],[126.9482827981887,37.4657950004637],[126.9432154012776,37.474421398863996],[126.9513558996192,37.4777402991826],[126.95092269994551,37.468208601734894],[126.9578834957586,37.4685551986163],[126.9583427997889,37.464635300080495],[126.9600976006984,37.4682039985829],[126.95371620421301,37.4703374008129],[126.9562774016518,37.4741764969738],[126.96207339824869,37.472514798523996],[126.96243729863271,37.464879800927996],[126.9716618988846,37.463633599447704],[126.9806033997507,37.4710080979516],[126.9884666994664,37.4660825001595],[126.9903535957674,37.4442588005434],[126.99453269627769,37.443519800074796],[126.98466100074491,37.4311341025752],[126.9831299994093,37.4233687003356],[126.9884509999463,37.4190771991361],[127.0152881987494,37.4292533986993],[127.01043600127319,37.4342396961498],[127.0169883995233,37.432817701097804],[127.01782110278211,37.441856196458],[127.0121255031049,37.449066798499395],[127.0175589012526,37.4585516970411],[127.01297720116659,37.4573801018297],[127.001013502186,37.467223100042],[127.0089985987954,37.473225397817494],[127.0212210986114,37.4693816991922],[127.0179179041973,37.471109100270496],[127.02500479882251,37.4744296987761],[127.0296416994457,37.4597986000219],[127.0399256977817,37.457150296662704],[127.0393775008116,37.4633291997054],[127.0450296990715,37.4594362000559],[127.0493805951982,37.440232799981295],[127.045416799162,37.4390298011843],[127.05123609638589,37.4391122963182],[127.051278996343,37.4349671004634],[127.0512361036048,37.4391122944768],[127.0660149005543,37.4347978984222],[127.0633288021466,37.4427550944741],[127.0673937994682,37.453968498057904],[127.0556312039646,37.4624398001842],[127.054491801694,37.4711342972981],[127.06963869923929,37.475017699179304],[127.0711937995016,37.4720511000996],[127.0758150994805,37.4808980967673],[127.08063599748439,37.477255997612495],[127.0866501004825,37.4836873968529],[127.1041634976164,37.4754686999569],[127.1112522999984,37.479687297656405],[127.1097692016812,37.483148998978194],[127.1166719980354,37.483360899221],[127.1216868995258,37.4743913022124],[127.1198228003084,37.4767992999287],[127.1168602996593,37.4661116020432],[127.1237902006719,37.466737797576194],[127.1255826992516,37.4600807012745],[127.1355557996636,37.4654095992804],[127.1257756003489,37.4743382989176],[127.1319144995622,37.475110097748804],[127.132369599561,37.490975799067],[127.1362372994934,37.4958691982091],[127.1425036997234,37.4904201014277],[127.14816690081061,37.4938429994479],[127.1375995010048,37.4983622984473],[127.1378990998231,37.5152791991897],[127.14148489815119,37.511331500050794],[127.1499389009996,37.5173665000178],[127.1577932996438,37.5494838972441],[127.16683849928219,37.5480022001533],[127.1845527995265,37.5592986987509],[127.1796164003416,37.5627716001573],[127.1759873999801,37.5576256038407],[127.1707474014026,37.563373500223996],[127.1567723022262,37.56539380099],[127.1399924016646,37.5560290052629],[127.13058170043459,37.5609883011656],[127.1111489998144,37.5591852017169],[127.0969278049465,37.5635443999243],[127.1020837052608,37.5772690958468],[127.1144081001722,37.5789841971999],[127.1121703999376,37.5764899042209],[127.10933870276929,37.5811040996067],[127.11302069917491,37.587296797635595],[127.109095302721,37.591899199040704],[127.11558940239391,37.603859198586804],[127.1107777016569,37.6212420988695],[127.1273919017736,37.6281958947095],[127.1330650001542,37.644343898070204],[127.138866897988,37.6382756033321],[127.1432454991006,37.643651697737],[127.148137396814,37.6410202994505],[127.15350880081739,37.6503521989038],[127.14379480127829,37.6600159006423],[127.1359272008492,37.6515002042944],[127.1260547002826,37.6553228005942],[127.1228902006909,37.6481563007755],[127.1134765997831,37.650470301029905],[127.11113079963509,37.644006600454496],[127.1048877004565,37.6439784007402],[127.0972866019932,37.6334250072858],[127.0882022043309,37.6499737990495],[127.0973243004276,37.6633103994091],[127.09600960324231,37.679204399914305],[127.09245490184671,37.6843478009669],[127.07402930181111,37.685366205208496],[127.05710160653159,37.6946662002253],[127.0590118035171,37.7065208971531],[127.0511147063345,37.71075060018],[127.06076469978699,37.7262317989548],[127.05653070027769,37.732304900249005],[127.05818240042001,37.7464586986641],[127.04512310032119,37.7493769001994],[127.02959600032929,37.7403653009936],[127.04221529823239,37.710451300808906],[127.03566030133901,37.7159961003241],[127.0319069986585,37.7075394011499],[127.03856329086581,37.6955708029778],[127.0284359987902,37.687863300893696],[127.0290525986712,37.6700808028115],[127.01415160762231,37.6748353015294],[127.0118290007891,37.6826324005249],[127.0025081046893,37.6787118061092],[127.0005826942498,37.671500002636],[126.99369190114061,37.6740818000542],[126.99950249460251,37.658026303748706],[126.9901669039381,37.6594522023228],[126.9915090980519,37.6433396005038],[126.97654109996101,37.6269528011216],[126.97126129968369,37.6078146015752],[126.9761394955151,37.6058810001966],[126.9767603985623,37.5976038020407],[126.9712928007825,37.594600502023496],[126.9638430005659,37.601312200234304],[126.95377409994491,37.5969814039526],[126.94773620271289,37.6101892071471],[126.9496179983373,37.6076441022373],[126.9430022005684,37.604849903652195],[126.9479025021502,37.6221580984519],[126.9375318065229,37.628642801004],[126.93781290090439,37.6375223980541],[126.9287261001823,37.6508207000448],[126.9196669010272,37.654980601084],[126.9075273008483,37.6532374017694],[126.89386230005769,37.6611372001148],[126.8850556997039,37.6511697002318],[126.8984545990749,37.6460053996043],[126.90398479851801,37.6488587990449],[126.91066669654069,37.640880799808095],[126.9022237987998,37.6140860988257],[126.905352097384,37.608127303285],[126.9012210975491,37.586897800947],[126.8902377002207,37.582181201699804],[126.88380720190831,37.587245200879195],[126.8826043993655,37.5834155008817],[126.8908786974366,37.569251799445105],[126.883853899773,37.5532880087933],[126.86455550068099,37.5533546009938],[126.86312820083441,37.5629677991775],[126.853086100315,37.5684017004311],[126.8481067000728,37.564798100214496],[126.8452120017902,37.573387899150504],[126.8127610993828,37.5674594002872]]]}}]}