{"type":"FeatureCollection","features":[{"type":"Feature","properties":{"interval":15,"stationId":"3439039804","profile":"off-peak"},"geometry":{"type":"Polygon","coordinates":[[[126.861331599593,37.5525451001061],[126.8723964998984,37.542738199839],[126.8896041010399,37.5381745979811],[126.8934481998506,37.5307245996012],[126.9033778989397,37.5331829991458],[126.8980703031367,37.5448618054275],[126.8879540000262,37.544904800439],[126.8887421992074,37.5380024018862],[126.87813750125359,37.550043801039195],[126.861331599593,37.5525451001061]]]}},{"type":"Feature","properties":{"interval":30,"stationId":"3439039804","profile":"off-peak"},"geometry":{"type":"Polygon","coordinates":[[[126.79658169934801,37.561461700198905],[126.8048194998443,37.5580437997915],[126.8218722994268,37.5684969986526],[126.8270374984298,37.560882199465404],[126.8449876988372,37.561943199853005],[126.8477636996847,37.5515078000705],[126.86776649915271,37.5313611001653],[126.8875159990109,37.5279038998006],[126.8811019982697,37.5229887990676],[126.8873583990037,37.5219673996127],[126.8935551999293,37.512425099505],[126.89900520048961,37.515531298683996],[126.8975108013076,37.521018299392004],[126.9104137989611,37.522634299592],[126.9146210013095,37.527577299368794],[126.9188634978643,37.5189980016372],[126.924297897605,37.5180072990924],[126.9243601990584,37.512192300241104],[126.9325441987189,37.517945597055],[126.9400547988096,37.5074971006689],[126.9481783000537,37.5129607988792],[126.9359292994227,37.513223000737604],[126.9338652010312,37.5167859990115],[126.9378949992844,37.517653098252296],[126.9325516011356,37.5231460988475],[126.9383537004198,37.5256632991819],[126.9350130072186,37.5286435067469],[126.90633240354799,37.53662949795039],[126.9037013068558,37.5429679009655],[126.9078378005818,37.5458363993771],[126.92519620000951,37.5477128982538],[126.9180582007603,37.5485463005706],[126.91033380023781,37.5571535000499],[126.9037013034173,37.5429679034095],[126.8930232062977,37.5451386064786],[126.883853906023,37.5532880054524],[126.8870128018739,37.559434099442996],[126.8785532998584,37.5528588007853],[126.8401461982725,37.5753630021345],[126.8212485001034,37.569052901581905],[126.8154825000425,37.5717941007007],[126.8059574005233,37.560189701362404],[126.8040410015744,37.565736798948606],[126.79658169934801,37.561461700198905]]]}},{"type":"Feature","properties":{"interval":60,"stationId":"3439039804","profile":"off-peak"},"geometry":{"type":"Polygon","coordinates":[[[126.6940660973066,37.631067103097706],[126.7083350988119,37.622791900387305],[126.715076396521,37.6091163983145],[126.7321526983418,37.5985883989275],[126.7374454047259,37.604485696709695],[126.7539903991651,37.6048962967338],[126.758667596026,37.6006928997588],[126.75770579937189,37.592003700043],[126.7632200985256,37.5886451990552],[126.7651357000271,37.5921290986904],[126.78589819775131,37.591138798843204],[126.7887793993929,37.579745603523506],[126.78454190103949,37.584805800297296],[126.7771773988476,37.577653800115],[126.7904878988427,37.566374692500794],[126.7993937003088,37.5758302957253],[126.8043332988424,37.5680287006308],[126.7984198005241,37.563155202025094],[126.8139417975667,37.5471032001008],[126.80718159838241,37.538683202811605],[126.7991161984364,37.5375927030439],[126.7994939974746,37.532399502766694],[126.794963602005,37.5361854989807],[126.7924971000356,37.5294755028578],[126.7876692999334,37.5305440003242],[126.7835008998348,37.5251902010709],[126.7899923971386,37.5143791993118],[126.7827634983235,37.5079280005355],[126.761410400181,37.5063845021347],[126.7618696995997,37.499414399817596],[126.7689844986806,37.5027593993857],[126.77710329962679,37.4967716999361],[126.78288309849651,37.5002775982725],[126.7859071992998,37.4950570000975],[126.7819198000614,37.490298000231505],[126.7718701002382,37.4892953004559],[126.76740250048441,37.4952156998454],[126.7520427997118,37.4968311004882],[126.73514760081521,37.4878214013647],[126.7212391998636,37.5004567009927],[126.7164977990421,37.487618101456796],[126.7101178996999,37.4840217011554],[126.7140025979394,37.4825274018963],[126.705848099619,37.474551601185595],[126.698570200022,37.4743376016641],[126.7005209989492,37.466901299677104],[126.7101699999783,37.466772599285996],[126.70747789961901,37.4762029979655],[126.7132241982258,37.476005097592804],[126.7164262017184,37.4844915974454],[126.7321093994824,37.4871023994411],[126.7378917990259,37.482196700234105],[126.74481540015299,37.484549299349496],[126.7449437012146,37.4896429006999],[126.7581237986173,37.4887552983582],[126.7601886995206,37.4807682991027],[126.7699786986626,37.4812754989413],[126.77745759844551,37.4738230013587],[126.78923209890381,37.4769135961806],[126.7884837959832,37.466589302205705],[126.7967263987688,37.4682696947606],[126.8012774989966,37.4607740968622],[126.8065809988149,37.4774634986183],[126.81941169919911,37.4753185002114],[126.83430079830809,37.4878391967107],[126.837049399983,37.4819125018301],[126.8333789016454,37.4826398013344],[126.8453449972111,37.4778115997538],[126.85198319887941,37.4685169996918],[126.8546888007923,37.4718234988676],[126.8703936998319,37.4644037988686],[126.8785425999894,37.4682924989338],[126.8763917998179,37.4624145007213],[126.8845471992238,37.4579893008766],[126.88392779792669,37.451676802042904],[126.8986383983611,37.444671898738],[126.8966561006637,37.4530147979356],[126.9015560998798,37.4496855992507],[126.9069231999826,37.4533402997939],[126.904256301396,37.470866800686906],[126.9083210981858,37.472677598796],[126.93347799882079,37.4603340975333],[126.94600539996661,37.468423198438096],[126.9493070996972,37.4617322990198],[126.9522620013801,37.4680286991428],[126.9578834957586,37.4685551986163],[126.95371620421301,37.4703374008129],[126.9562774016518,37.4741764969738],[126.96207339824869,37.472514798523996],[126.96423119820611,37.4659469989328],[126.9728054003035,37.468936297225206],[126.9772968992246,37.465246799371805],[126.9806033997507,37.4710080979516],[126.99570889725949,37.4546053986619],[126.9947413998989,37.4482213001882],[127.0010559993088,37.4478218983941],[127.0078338997901,37.4397463995739],[127.00277339778029,37.433889700025304],[127.0074135985038,37.4326409976106],[127.012509902983,37.4436008963774],[127.0036067002151,37.449896600536],[127.0054505985067,37.4549567978828],[126.9885779016484,37.457269300819],[126.99337640061471,37.4722495989852],[127.0167722975655,37.4738980990882],[127.0271905001229,37.4837784995985],[127.033924197396,37.4626314999887],[127.0483620989911,37.4621339986416],[127.0476424007432,37.476572199276],[127.0521150013507,37.484389900514294],[127.0595107982236,37.483551896376504],[127.0763097998002,37.4920836993109],[127.0818427988391,37.4887305986385],[127.0855439000929,37.4941036998113],[127.0745987006097,37.4977076010834],[127.0745258004104,37.5032230969929],[127.0909985010972,37.5029626993161],[127.0895819007057,37.5142771001681],[127.0717713999191,37.5181995014222],[127.07193359975689,37.527671591950096],[127.0759749987316,37.5292401990346],[127.07199680158439,37.5351243010424],[127.0774763005039,37.544990398879904],[127.0752624010172,37.5510716984155],[127.0658395999083,37.543980100208096],[127.0534019002193,37.5452991010885],[127.0494258002598,37.550057500038804],[127.0526567001474,37.555991497391396],[127.0437831006743,37.5592363000255],[127.0700199994719,37.559779999213106],[127.05826650028351,37.562980600620804],[127.0538813007884,37.5712803995502],[127.0413548013582,37.5716155002449],[127.043269999404,37.57835999854041],[127.04523189993431,37.5759629999118],[127.0499096995834,37.5834429987728],[127.0482089995968,37.579268500719195],[127.0512951998514,37.5796995998246],[127.0510649004515,37.5851524992952],[127.02554660135979,37.5867638011253],[127.0196600005942,37.5894200003058],[127.0213849006043,37.5957259987787],[127.0151625006311,37.5977665999411],[126.98923290108351,37.582921503989],[126.98190440054711,37.5888412009381],[126.9749579990518,37.5830084008759],[126.96935049952751,37.5878905018643],[126.9595816003259,37.5803758015988],[126.9468523006884,37.5948010001501],[126.9392513016591,37.5964834009501],[126.94126340172309,37.6106956993696],[126.9353337007908,37.6172728006569],[126.94023420131131,37.6225703961278],[126.9296522014239,37.6278934007918],[126.9233749001678,37.6259553007889],[126.9207142019502,37.6301845973157],[126.9258818007111,37.6386001977644],[126.9131685000765,37.6529271000192],[126.9149082957584,37.6391517017291],[126.91140439942619,37.6342342015648],[126.9192716983476,37.628696599989595],[126.9123273009592,37.624352502563],[126.896412700233,37.5895893018735],[126.88093670204421,37.592647899577905],[126.8819628013185,37.6044708980107],[126.8754479996257,37.603208700761606],[126.87204270064849,37.6087919001358],[126.8749360009927,37.616022899319496],[126.86612310346139,37.6152553036742],[126.8667837971086,37.6094020047937],[126.86350260038981,37.6097613044344],[126.84650170176471,37.6244126013571],[126.8312068006557,37.6197932004675],[126.8089268032514,37.6246963014534],[126.8058254987935,37.6138758004962],[126.81512999787209,37.6138473967391],[126.8155655994856,37.6037022003199],[126.82971879943119,37.600903099971596],[126.8323980006028,37.6125104995173],[126.8459911994004,37.611004001264504],[126.83676289948049,37.6048100001679],[126.8416654983796,37.6032815003583],[126.8550060998502,37.6112226981243],[126.86039319959231,37.5925650994474],[126.87905469938819,37.5943661967271],[126.8802263979634,37.5868733012638],[126.8564870035001,37.585090801551004],[126.8470022003363,37.572538409249496],[126.8218896997441,37.583948800437504],[126.8243651991955,37.5820150005486],[126.8168942009732,37.580768501483796],[126.8144506027807,37.583393799390905],[126.81806789916341,37.584668898115794],[126.7974345021687,37.5973542993358],[126.7960958996152,37.59108529962241],[126.79929029956699,37.5917814991217],[126.7936859992516,37.5876394013729],[126.7798890021249,37.5992873991718],[126.77769180013,37.592642603121796],[126.7690536010583,37.595149299474706],[126.7869881008384,37.6035563988074],[126.7848593997181,37.609299300898805],[126.7708486995936,37.6147200012951],[126.765887398632,37.6087440035864],[126.75833450127901,37.6112171017567],[126.7467470006414,37.6071389019446],[126.741627903339,37.617541799926094],[126.713507605978,37.6324782025736],[126.7116147015835,37.6385495998618],[126.7058526993032,37.6349812027875],[126.7025045016763,37.6410110003307],[126.6940660973066,37.631067103097706]]]}}]}