{"type":"FeatureCollection","features":[{"type":"Feature","properties":{"interval":15,"stationId":"3454026413","profile":"off-peak"},"geometry":{"type":"Polygon","coordinates":[[[127.0209018985288,37.5035692996137],[127.0272274992645,37.495969500304604],[127.03664489965949,37.4979004996008],[127.0442799015413,37.509270299780994],[127.0566418008406,37.512916999461],[127.02958420096151,37.516839900657104],[127.0209018985288,37.5035692996137]]]}},{"type":"Feature","properties":{"interval":30,"stationId":"3454026413","profile":"off-peak"},"geometry":{"type":"Polygon","coordinates":[[[126.9855940966582,37.5047643995618],[126.9991457980572,37.4942431994489],[126.9898861996698,37.4891229011343],[126.9881932994549,37.4787320006759],[126.995468798221,37.4793514973263],[126.99976239768219,37.474400599268606],[127.0065862007525,37.4816932996533],[127.0270330991953,37.4834739996097],[127.0288143990059,37.47677139952879],[127.0355201994053,37.473951299861604],[127.03400839849701,37.4655859997727],[127.04509469891251,37.4635679991531],[127.0439013011097,37.4803771991756],[127.0527931006726,37.486320298583905],[127.0564782985467,37.485019200772],[127.0523550998713,37.480258401304894],[127.0611157971012,37.4806802989007],[127.08176009833599,37.4928988988474],[127.0690369002581,37.4984711005658],[127.0717563004636,37.505398995189196],[127.0973634975215,37.4969399977402],[127.112251399203,37.4992980996537],[127.1116085006424,37.5055708000869],[127.1168835002432,37.5090427993831],[127.11245859976479,37.5137686005112],[127.1055971002807,37.5125144004103],[127.10148440093221,37.5224038008973],[127.10373899937771,37.5159417008506],[127.0929209010113,37.511815001176096],[127.0847627001922,37.518332700021205],[127.0733038983866,37.5189285006932],[127.0693563006485,37.536650199818496],[127.0751089999879,37.5386850998533],[127.0726399004654,37.5443507005211],[127.0627031996982,37.534020400697],[127.0695862984232,37.5281631002693],[127.0679003001092,37.519166609265795],[127.0499148002628,37.5253410007332],[127.04472850362801,37.529582606544494],[127.0493092014286,37.5417603993611],[127.0445686995622,37.5499331010792],[127.0375393992133,37.542778999751505],[127.0428564992157,37.5313979997789],[127.0257920001759,37.5313031005078],[127.0147363006204,37.5208543012506],[127.01702159938591,37.5179060996569],[127.00250850013491,37.5109819013717],[127.0030453998479,37.5141233995964],[126.987980300565,37.5024320029736],[126.9855940966582,37.5047643995618]]]}},{"type":"Feature","properties":{"interval":60,"stationId":"3454026413","profile":"off-peak"},"geometry":{"type":"Polygon","coordinates":[[[126.79658169934801,37.561461700198905],[126.8048853001534,37.557865299446505],[126.8207902994932,37.568707398185204],[126.8270374984298,37.560882199465404],[126.84650019958569,37.5612312000644],[126.8481488996003,37.5529849995394],[126.8578553994314,37.554098496940405],[126.8643657993621,37.5383983995889],[126.890837498739,37.5323865992233],[126.88411020050279,37.5265218005405],[126.8775485002408,37.532968900092],[126.85017860015641,37.5269281010136],[126.84899299968389,37.5201737005263],[126.8551531998613,37.516417099129896],[126.8676185995804,37.524442798143504],[126.8794135982975,37.5140855016115],[126.8774153981365,37.5099030026502],[126.8613364013747,37.5169718005197],[126.85842529949859,37.510260300857],[126.87080109889389,37.5128785006824],[126.8731830982138,37.5064493003023],[126.8710508008877,37.500590502382],[126.86405360070401,37.5025791999002],[126.8665730982661,37.4931793015772],[126.8596138009151,37.4930528011124],[126.8557268006756,37.5005656004431],[126.8524449991811,37.4952793009815],[126.8460146990323,37.4951476005156],[126.85639309925031,37.4876262994195],[126.8802106974785,37.491113899411104],[126.8738909983663,37.4792622022961],[126.8540112007601,37.4837383005588],[126.8489743998475,37.481715201277694],[126.8512341996502,37.4752518997914],[126.8613837997503,37.4774224974255],[126.8676197996698,37.4696656997425],[126.8739681007856,37.4763731988726],[126.8824229987021,37.4722606996475],[126.8930667994097,37.4787594994588],[126.9024324981484,37.4724314997477],[126.9200187983486,37.469910999259106],[126.9239645962558,37.463238702078996],[126.93167779628921,37.4633338977733],[126.9333380989607,37.457287700579705],[126.94410190109251,37.4609779966138],[126.9702725963907,37.4536241958752],[126.9806033997507,37.4710080979516],[126.9884666994664,37.4660825001595],[126.9922611956211,37.4535594021874],[126.9814583987687,37.4286541063735],[126.9861415988222,37.416932700028994],[127.0008698996473,37.4263129987175],[127.0164350005693,37.42852769796129],[127.0203435002391,37.4359149998075],[127.012154403076,37.444976502589704],[127.01440980115319,37.4513853966309],[127.03701379591159,37.450556294364304],[127.03260519802471,37.4357200019242],[127.04285779749519,37.427885095779494],[127.0660149005543,37.4347978984222],[127.0709975986133,37.429791600886205],[127.0681134014975,37.427481803196],[127.06672070289021,37.432978797699],[127.0667227969891,37.4269859008566],[127.0752233981361,37.4244846943103],[127.07197930296779,37.4249974004287],[127.0807237973805,37.4311709885492],[127.0719894029564,37.435428102570604],[127.0674286024856,37.4511892984112],[127.0735510983713,37.4495310983807],[127.0754488009816,37.4578265987655],[127.08152129856751,37.4588035001169],[127.0802615004216,37.462667600875406],[127.0751493994079,37.4595885030554],[127.0706757012502,37.4635264000485],[127.06854149771159,37.4591990058429],[127.06162410364,37.4689519961506],[127.077111598348,37.4750565942953],[127.0906961983725,37.4744877979345],[127.090420796136,37.4670207992167],[127.0949426009166,37.4713084972103],[127.10686849898,37.4598948999],[127.11579469763069,37.462988797790196],[127.1194199939955,37.4589331016612],[127.1167570002008,37.4293677028343],[127.11898649902781,37.4262661986467],[127.1241473992545,37.4313582991433],[127.1250384984761,37.4241083012683],[127.1211371015229,37.4165021031149],[127.117813401807,37.4184714006823],[127.1193261984183,37.4118205011059],[127.1098027002913,37.4143893009131],[127.1139486979035,37.4094372003687],[127.1049349986543,37.40539540290651],[127.0994178025707,37.411137400586504],[127.0936509002261,37.4082496006059],[127.10032819901011,37.397639500960096],[127.0903041994589,37.402410701836594],[127.09285999932371,37.3909040013623],[127.08954919773389,37.387733600786895],[127.0964493992781,37.386976495251005],[127.1012383973152,37.378782300198296],[127.1009033990296,37.3714825032154],[127.09327519932319,37.3709129010861],[127.0891116018607,37.364455804338505],[127.097092495353,37.3618020952956],[127.0979067945387,37.355956301141404],[127.0930121977114,37.3493268029417],[127.0859710040196,37.3521936001918],[127.088088699593,37.3301316027348],[127.0814457008673,37.3308118005948],[127.0838941965154,37.3254699006849],[127.06631820013409,37.3195837005802],[127.0701380974662,37.310610402752005],[127.0634400004772,37.3041080070212],[127.0633462001127,37.2909853002176],[127.0694280998858,37.2896394995361],[127.08219510094311,37.295630498369604],[127.08062310038859,37.3024197986048],[127.09708690060049,37.3141082985589],[127.1048693984818,37.312809299119195],[127.100664700908,37.2943814011792],[127.110196298866,37.2934534993315],[127.1112305001015,37.3027404997215],[127.105855501042,37.304596700070995],[127.11413040094119,37.3110619939321],[127.1103071024968,37.315838799709],[127.12341429885879,37.3380978975965],[127.11948790366239,37.344705599838],[127.1249393997643,37.3443711998592],[127.1288478002704,37.3730433002543],[127.1420608012227,37.3832124984227],[127.1373504016384,37.3859811988518],[127.14655200068,37.38777309913419],[127.1413861055956,37.3908833013815],[127.14624910019941,37.3948056991846],[127.1431233061848,37.3991954044722],[127.1367145006202,37.3964503022606],[127.13570610179539,37.4010904984761],[127.1450495005997,37.412794599368695],[127.1388471016383,37.4174596004924],[127.13816320234899,37.4250912936042],[127.1458986987958,37.426871399144005],[127.15603159674451,37.439537696796705],[127.15882089841979,37.434335698526496],[127.1648543005022,37.4359100992332],[127.1729898997111,37.452404398309596],[127.168680700575,37.4631073007736],[127.15591030275681,37.4653474035249],[127.14782290066279,37.4781371993998],[127.1507867004911,37.4842556975496],[127.1633716999642,37.487268298766494],[127.1612591010632,37.5048339987649],[127.1540951007837,37.5031769033468],[127.15263490224389,37.5072312992924],[127.161199099485,37.513820000098804],[127.16094320152341,37.525992699212004],[127.1559899004002,37.525174503716],[127.1555939007962,37.5300975987929],[127.1602526961374,37.529942098948396],[127.1628879013925,37.5427229985941],[127.15327160349,37.5402638058156],[127.1559794007822,37.5462171998622],[127.1529074996224,37.5402850062943],[127.1448386039462,37.5569084994651],[127.1323601014561,37.562574900426604],[127.12390139518689,37.556838308906705],[127.1108693002797,37.558368800816396],[127.1089020994998,37.5543793033887],[127.10191370120539,37.561322000195595],[127.0958701049719,37.5573508014131],[127.0962059041593,37.5686982996006],[127.10933870276929,37.5811040996067],[127.1052806029577,37.593775299355094],[127.11707889959179,37.600784399394904],[127.10262590039021,37.6162173995912],[127.0879851016441,37.6093444020037],[127.0861633017412,37.613372898701805],[127.0923716995721,37.616045398133195],[127.0943282002964,37.6242320981848],[127.07796730060569,37.6340048003958],[127.0738423008944,37.6318591023439],[127.0770522998453,37.635731899447606],[127.0707400007847,37.6452900005118],[127.0722966002866,37.651032298211696],[127.066623301256,37.6526372001471],[127.0604745009301,37.6679626000975],[127.0486065010388,37.664207001577395],[127.0494879013235,37.6774735990462],[127.0580930003282,37.6749475997564],[127.05648710173679,37.681708200349604],[127.0472694002032,37.683098400539],[127.0490190020255,37.6894037999635],[127.0422147999539,37.6909260034476],[127.0427494987865,37.6729176006342],[127.0357892995114,37.6668948996549],[127.0426341987409,37.6591827002785],[127.02783719916589,37.647935500440106],[127.0302075996056,37.643757800036305],[127.0450291984052,37.6452357013158],[127.03910920015849,37.642776000782],[127.0512871968327,37.63409880116269],[127.04537269776701,37.609630100715094],[127.035468600785,37.6105919000545],[127.03621040083141,37.6174692004934],[127.0299296000916,37.620648400572],[127.0274810023747,37.630435702861],[127.0303645002116,37.639387099857004],[127.02197429992789,37.6413594006558],[127.0214072998509,37.629870200272],[126.9994592995612,37.6119424010326],[127.00623939855589,37.606107300359],[127.0065626994337,37.5964715018723],[126.9944613997483,37.597300700447],[126.9893304995195,37.588648802239504],[126.98193630034311,37.5912798021521],[126.97827950069559,37.583410000396704],[126.96985740470639,37.5909128994247],[126.9595816003259,37.5803758015988],[126.9567812022768,37.5875377986597],[126.9495428020279,37.5889020006692],[126.9482248002968,37.5967334998983],[126.93874200216841,37.5989808984526],[126.9399219000194,37.6107076994841],[126.9347618008717,37.6125894004143],[126.9346881998837,37.619426299812304],[126.93122749919081,37.616588200461],[126.9209466001699,37.6246654002437],[126.9152293994897,37.621658500498],[126.9143783994693,37.6074611000203],[126.92567149947821,37.605142000005],[126.93618909963851,37.5818251999118],[126.9428480006177,37.5818296980631],[126.9454843984354,37.573597600244696],[126.9506652977141,37.5741002966087],[126.9531328970453,37.5684282998649],[126.947745101497,37.5622374026705],[126.93240590010531,37.561506900494194],[126.919449800417,37.5665032000093],[126.9147767997378,37.5619682003003],[126.9058241004349,37.5708765999397],[126.90496920092,37.5795847006156],[126.8935754011471,37.5805055006007],[126.9012655985342,37.5716972995701],[126.8939335001288,37.5622525005723],[126.90280369876551,37.551467698997],[126.8992705019365,37.544340105949196],[126.8872783006537,37.5467203004895],[126.88385390225241,37.5532879963278],[126.8724422053008,37.5571563074243],[126.86585390098321,37.5551636011293],[126.8595211088125,37.567348303588],[126.8401461982725,37.5753630021345],[126.8134105008729,37.5709314006563],[126.807191699289,37.5611885003636],[126.8040410015744,37.565736798948606],[126.79658169934801,37.561461700198905]]]}}]}