{"type":"FeatureCollection","features":[{"type":"Feature","properties":{"interval":15,"stationId":"355173443","profile":"off-peak"},"geometry":{"type":"Polygon","coordinates":[[[126.9436066990838,37.539930200627204],[126.95370749933629,37.5322540001056],[126.96417129987171,37.5317000996218],[126.9643601997044,37.525596699697005],[126.9818925994374,37.5322782986074],[126.9742997002009,37.536743901048595],[126.9738175002496,37.5457287994564],[126.96510360035961,37.5483652000022],[126.94657570088219,37.545949199828904],[126.9436066990838,37.539930200627204]]]}},{"type":"Feature","properties":{"interval":30,"stationId":"355173443","profile":"off-peak"},"geometry":{"type":"Polygon","coordinates":[[[126.8821041980264,37.5249139022389],[126.894342798954,37.5160417007987],[126.9047012006591,37.517985199419996],[126.9089528991428,37.509029999627],[126.92188539969739,37.513490599002],[126.92214659969581,37.5069641998932],[126.92950990032129,37.5140636987685],[126.9399015993702,37.5068656991402],[126.9507595996833,37.5092322988723],[126.9597124022141,37.5210462989592],[126.96703909548499,37.5199909997329],[126.97311039619859,37.5155713920348],[126.973688398449,37.5029933027009],[126.9825145996086,37.496545400756204],[126.9672976996467,37.483098700222996],[126.9734409002121,37.482779999510996],[126.9718680000459,37.4757969010499],[126.9848792982386,37.4695703001073],[126.99063509941291,37.4848644971965],[126.99881700008041,37.479693598652396],[126.99688740027321,37.4915268011505],[126.98517790068169,37.4951822001193],[127.0133163990074,37.5080108986104],[127.01070419994191,37.5146254009882],[127.0105993976222,37.5103619995566],[127.0025085022385,37.5109819011351],[126.9903664000701,37.5032182030007],[126.9867339021812,37.5153967925558],[127.0102324981882,37.5291404999509],[127.0129598002333,37.5352051991374],[127.0201215007675,37.537420792302896],[127.0228724984799,37.533976696129095],[127.0203219066938,37.5376218963993],[127.0269814001915,37.5493547987379],[127.0329161007134,37.548561897362404],[127.0424518003362,37.5623606995935],[127.0563748008723,37.5666014000859],[127.0291373004786,37.569776100818],[127.0312914000308,37.5755434996047],[127.0373864999871,37.5747589998011],[127.0483831999289,37.5825022992017],[127.0331271001632,37.581495900873],[127.0416952995538,37.5912896989082],[127.036281300162,37.5947094006267],[127.0259987995792,37.589308000693904],[127.01437560012869,37.592933900323],[127.0112496995133,37.5803627007622],[127.001508799846,37.5720422013989],[126.98503630069581,37.580067100201],[126.9814762993778,37.576059900910494],[126.9747464001215,37.5778512005406],[126.9613100005096,37.572250000301395],[126.9507395001543,37.5602816006321],[126.9357264998146,37.5642100008088],[126.92336100087,37.5755593007322],[126.9147260998557,37.5724192021442],[126.90740840321749,37.5756043999828],[126.909671900502,37.5863656999446],[126.8906543001765,37.5843495005956],[126.88917449919019,37.575474300525805],[126.89951949977839,37.5725312996205],[126.9004643998384,37.5550803001102],[126.9098912985618,37.544698700491395],[126.90201280046979,37.5366305998509],[126.8909789002733,37.5408999003565],[126.9001699995256,37.53465459854441],[126.8991901992272,37.5310860018689],[126.8821041980264,37.5249139022389]]]}},{"type":"Feature","properties":{"interval":60,"stationId":"355173443","profile":"off-peak"},"geometry":{"type":"Polygon","coordinates":[[[126.69637469907461,37.473240399956204],[126.6983029985953,37.4666007000214],[126.708043099374,37.4642695990935],[126.7164262017184,37.4844915974454],[126.7320564999176,37.486511699206204],[126.7378917990259,37.482196700234105],[126.7449683999844,37.4838987987798],[126.7449437012146,37.4896429006999],[126.7581237986173,37.4887552983582],[126.7638338986606,37.4785667971734],[126.78284549709309,37.474154998364604],[126.78923209890381,37.4769135961806],[126.7978205976746,37.4676485953817],[126.80325540032099,37.477244299230705],[126.81941169859951,37.4753184992625],[126.83430079830809,37.4878391967107],[126.837049399983,37.4819125018301],[126.8333789016454,37.4826398013344],[126.85209969972,37.4723081982736],[126.8593698003909,37.477533197420705],[126.8654584996021,37.4685516997814],[126.8784654982954,37.4689965007327],[126.8763917989364,37.462414500243604],[126.8824304999028,37.459397699406],[126.8820931997613,37.4519545017652],[126.8986383983611,37.444671898738],[126.8964246015898,37.4486501994998],[126.9071788002897,37.452667399831306],[126.90822560070039,37.466737698764],[126.9042456014067,37.4717173998363],[126.91162440031039,37.4772264999421],[126.9301047978622,37.4607651003421],[126.9416955990816,37.4604852991676],[126.94600539996661,37.468423198438096],[126.9463680976922,37.462461001246396],[126.95581559957749,37.4558047989097],[126.9610431037062,37.4627564951985],[126.968676296073,37.462033995921004],[126.9660403987089,37.4565765013785],[126.9702725963907,37.4536241958752],[126.9806033997507,37.4710080979516],[126.9884666994664,37.4660825001595],[126.9922611956211,37.4535594021874],[126.981562200902,37.4492647057559],[126.98549339595789,37.440431300105],[126.9766589997389,37.433895903323204],[126.97408039832011,37.4236057012122],[126.9845770975479,37.4229187973119],[126.9829581996086,37.4122927021804],[126.9680171006263,37.410575101244206],[126.9421847005443,37.3935533027407],[126.9424352982926,37.3846985997134],[126.9549339990752,37.3814154993832],[126.9588856003765,37.3866048986189],[126.9680249997126,37.3849787993241],[126.9874067003268,37.3933123990151],[126.9878437012354,37.3970108992347],[126.9809268028508,37.3991004012141],[126.98423649999539,37.4152978965845],[126.9876929973965,37.4130337985723],[126.9960808986362,37.420816698560905],[126.993136400287,37.4148483024272],[127.0122910042737,37.4249157983232],[127.01956159877311,37.4237539988475],[127.0183982003931,37.4276449011346],[127.02635220001231,37.4345000998563],[127.0121255031049,37.449066798499395],[127.02138839417461,37.4488495991667],[127.0194626048914,37.454383996984696],[127.0243818999721,37.4562322951364],[127.025528599843,37.4649230991896],[127.0340083990076,37.4580471993357],[127.0450296990715,37.4594362000559],[127.0476219982542,37.4354305014269],[127.0512361036048,37.4391122944768],[127.0620130928278,37.4343131992759],[127.0660149005543,37.4347978984222],[127.0633288021466,37.4427550944741],[127.0673937994682,37.453968498057904],[127.0556312039646,37.4624398001842],[127.05714659990909,37.4769412991598],[127.07018909660309,37.4825540952299],[127.0676148991773,37.4775614002226],[127.0701890984539,37.4825540950361],[127.08063599748439,37.477255997612495],[127.09019460199531,37.4855064958298],[127.1030282985175,37.4815640994922],[127.1119469979607,37.489798498638],[127.12857299899811,37.4752508996116],[127.1322162002474,37.480077299573],[127.12641590057589,37.4960804997827],[127.1303703991323,37.4980333986829],[127.1425036985739,37.4904201018045],[127.1487183010422,37.4924814990373],[127.1330126006747,37.5032780996056],[127.13942639990451,37.507302298725996],[127.1378990998231,37.5152791991897],[127.14148489815119,37.511331500050794],[127.1499389009996,37.5173665000178],[127.14999380083201,37.523648296550995],[127.15220609978,37.5215872992997],[127.1577932996438,37.5494838972441],[127.16683849928219,37.5480022001533],[127.1752707013553,37.553718598321005],[127.1732511021145,37.556199399994],[127.1845527995265,37.5592986987509],[127.1799580002386,37.562928900002404],[127.1759873999801,37.5576256038407],[127.1707474014026,37.563373500223996],[127.1567723022262,37.56539380099],[127.1399924016646,37.5560290052629],[127.1396582019988,37.562111899179996],[127.1349593001924,37.55681510152],[127.13058170043459,37.5609883011656],[127.1111489998144,37.5591852017169],[127.0969278049465,37.5635443999243],[127.1020837052608,37.5772690958468],[127.1079770998171,37.576919299826],[127.1023869018739,37.586588898233],[127.1052806029577,37.593775299355094],[127.11558940239391,37.603859198586804],[127.11100060092059,37.6122102999877],[127.10851960039159,37.609575302162405],[127.0972866061777,37.6334250004084],[127.0901133009782,37.629182212028105],[127.0787162042031,37.6375140031719],[127.07420949996789,37.6507199988707],[127.0870178014082,37.6723019990252],[127.07892770337949,37.677384299249],[127.06512460055801,37.6665592999215],[127.05775780095401,37.672925099352604],[127.0582239006337,37.6820577979247],[127.0438623006768,37.6829786003983],[127.0436084991303,37.6765190998566],[127.04909189972099,37.6772939987447],[127.052169299547,37.6692738000364],[127.0462220018498,37.666048501806],[127.04789540018591,37.669196799417904],[127.0409549000053,37.670556600678395],[127.04110969979331,37.6627107993786],[127.0263642999683,37.6580050001605],[127.0191030031731,37.6579028017232],[127.0217849004912,37.6605488990771],[127.00752180662981,37.6704251044102],[127.0039546986167,37.6588433998984],[127.0079331941797,37.654995303012306],[127.0024867986214,37.6424918001536],[127.00604769717489,37.638034703971],[127.0018392988411,37.6366769033844],[127.00163429336611,37.622182504386004],[126.99489300010741,37.620419406149104],[126.99101949733789,37.6124990059333],[126.99367579704361,37.603237500748],[126.97662100013939,37.5960010016028],[126.9759347978015,37.5919704010962],[126.96985740387889,37.5909129021537],[126.9633708002148,37.597641100308095],[126.9580486011903,37.5916169011457],[126.9412485023221,37.609126699375395],[126.9479025021502,37.6221580984519],[126.9349501999759,37.6301744010217],[126.92932210219129,37.636930700088904],[126.9332087989557,37.6395332980065],[126.9253433030767,37.6397888012776],[126.9292330993854,37.6424602991352],[126.9217221024274,37.648386600087505],[126.9216708008362,37.6540142005481],[126.9014926006012,37.6546837034948],[126.8939200022077,37.661252000278196],[126.8937868989961,37.6570683012933],[126.886083801686,37.654164402469696],[126.8847596000589,37.651401500287],[126.8975294987503,37.6456097002073],[126.90088300161979,37.6500220978816],[126.9078776992423,37.6480748983453],[126.91066669660869,37.6408808024068],[126.90743889976851,37.6336248070641],[126.9126076989714,37.628436301460795],[126.8939997999844,37.6013351015531],[126.88749540310171,37.6061081008477],[126.8830993002211,37.6249821014018],[126.865056601565,37.6239386022957],[126.8580466027924,37.6315472007382],[126.8561111999217,37.621730800404904],[126.8469884027576,37.629713700817504],[126.842531403084,37.640664499796],[126.8491910011532,37.64930789590429],[126.85453289991709,37.647528998973996],[126.8491910054277,37.649307905266696],[126.8458898046778,37.6582751997724],[126.8500450005226,37.6607621972854],[126.8327895003127,37.6601740002845],[126.828708999289,37.654616302463104],[126.8321022991776,37.6479956005423],[126.8263104987538,37.6411353023284],[126.813543000673,37.63775060312609],[126.81156270324989,37.6466787010006],[126.8170053978072,37.6506404970388],[126.8051752026655,37.6563185014428],[126.8064581040353,37.6625198984936],[126.81127039922299,37.6628611981523],[126.8002439013069,37.670606299984605],[126.8010850008073,37.6769426999129],[126.79095150104881,37.683462999357204],[126.7837161009495,37.6821900015757],[126.7681506011091,37.7001459997474],[126.7573641997316,37.692931300953596],[126.7614073974774,37.6910933989565],[126.758256699243,37.6852514003114],[126.76257849983931,37.6776104005553],[126.7507689008185,37.6836987012402],[126.7392256006189,37.6811588005896],[126.7406819989318,37.6707099004309],[126.7622422980318,37.6610524992199],[126.7648543993167,37.6481950004301],[126.7703950988631,37.6495902986463],[126.77690489738231,37.6320779001368],[126.78814889999539,37.6333609973025],[126.8012067991781,37.626726799714],[126.8045402983018,37.6233570003812],[126.7980656999758,37.6203370027064],[126.804198697551,37.6198503008074],[126.8115995946542,37.6002448977958],[126.8274720948983,37.593520291500404],[126.8310088003069,37.594307797744],[126.82833480179109,37.600493699527],[126.83906559968119,37.6048205993203],[126.835974299918,37.5990962003379],[126.8485646001214,37.5959339946225],[126.8545207993379,37.5822504010978],[126.8660831981593,37.5862132974733],[126.8661963988456,37.5763957997291],[126.8780285003091,37.5812588988901],[126.88325999624001,37.5740700001561],[126.86510920575451,37.562336207196],[126.8595211088125,37.567348303588],[126.8668534014802,37.5727194982168],[126.8612815998607,37.5759023011988],[126.8641757976413,37.5739832002595],[126.8558023060148,37.567675706567],[126.8348612077972,37.5787932067942],[126.8029916005786,37.5834384003305],[126.80149010133769,37.590113200362396],[126.80105319927989,37.5865685025961],[126.7898682003568,37.5864119010623],[126.78661289800979,37.5787482034993],[126.79695499925799,37.5843018977194],[126.79891689954789,37.577712100643],[126.7868125023315,37.5761432007323],[126.7896202938385,37.5695170037733],[126.795424398273,37.568386398644],[126.7993937003088,37.5758302957253],[126.8035801992859,37.5713500991522],[126.7984198005241,37.563155202025094],[126.8178335997527,37.547374299671],[126.81640349964661,37.538838601779496],[126.83444609685199,37.516908199731205],[126.8311568002669,37.5145678008507],[126.8447192994541,37.507011200323],[126.8364370973726,37.498840003825],[126.8265863013289,37.5027837019797],[126.8125946017526,37.5196277986452],[126.8150997004855,37.5260068006746],[126.80290320034631,37.5323133002715],[126.79484370012,37.5232735003296],[126.801862599279,37.5164313002178],[126.7990359995397,37.511100603197896],[126.78391220000421,37.5115800005396],[126.7793750001475,37.506288701071796],[126.7670401024491,37.5078039996706],[126.7592229998115,37.503252800001896],[126.7618696995997,37.499414399817596],[126.7673044003607,37.5036188985262],[126.7756063971284,37.497538400372704],[126.7948875992778,37.4981019992071],[126.7956068995896,37.4947239003833],[126.78306330010929,37.4891104004698],[126.751754601429,37.4973193015098],[126.737873100401,37.4884632015455],[126.7236400011031,37.5010512999308],[126.7073043994721,37.4769527014221],[126.69637469907461,37.473240399956204]]]}}]}