{"type":"FeatureCollection","features":[{"type":"Feature","properties":{"interval":15,"stationId":"355173312","profile":"off-peak"},"geometry":{"type":"Polygon","coordinates":[[[127.1280410988043,37.537088599293895],[127.13882219947531,37.5336061990424],[127.15565479761679,37.5462579940058],[127.146522301483,37.5547198000832],[127.137762900142,37.5533104002549],[127.1313531997815,37.5465938003307],[127.1350589990396,37.5368082006933],[127.1280410988043,37.537088599293895]]]}},{"type":"Feature","properties":{"interval":30,"stationId":"355173312","profile":"off-peak"},"geometry":{"type":"Polygon","coordinates":[[[127.0391886997222,37.5658331000334],[127.0495168979634,37.5658457992487],[127.0621579993361,37.5560544992139],[127.0681107005597,37.5601841980323],[127.0736552993616,37.5509506998731],[127.068638099458,37.538787800210905],[127.0812208996804,37.552640799641],[127.09238379997929,37.5390967006989],[127.0997897995228,37.5382063992747],[127.0994498011574,37.541960596821006],[127.1115261994896,37.536292098816496],[127.11576939926411,37.5245317987781],[127.1044380999787,37.514610900193304],[127.11310570100251,37.508877999066506],[127.1206821002276,37.5158972985753],[127.11921869969281,37.5271754977491],[127.1253816998779,37.5250297977857],[127.1229267993705,37.514821600252],[127.12609639908639,37.514128299771905],[127.1206992002204,37.510820701370996],[127.1253349991328,37.4987802006481],[127.1319656006235,37.5022559998916],[127.1310849014243,37.5091861997227],[127.1379811015644,37.5168691995881],[127.13472870200229,37.5208872983939],[127.1512818992326,37.5274297994316],[127.1505923013517,37.5328259972106],[127.1571240997806,37.5345103981233],[127.1604083002661,37.541362197560005],[127.15744890385581,37.5459042969648],[127.1819270004564,37.5586377983109],[127.1569409000245,37.5632284012538],[127.1497605016788,37.5632577018159],[127.1489863003175,37.558843603535905],[127.14201350364141,37.5648100017856],[127.1248236011106,37.5571078018341],[127.11916409474131,37.5473863077548],[127.1108252999576,37.5541401004334],[127.0973988011866,37.5535221019064],[127.0951945001245,37.5585714005947],[127.0856013005256,37.561011400373395],[127.0869981009993,37.5678176997668],[127.07285059921199,37.5600953021058],[127.0687691003522,37.5648920005306],[127.058550000151,37.563601400162305],[127.05223430012289,37.570239900115595],[127.0495168985339,37.565845801245096],[127.0391886997222,37.5658331000334]]]}},{"type":"Feature","properties":{"interval":60,"stationId":"355173312","profile":"off-peak"},"geometry":{"type":"Polygon","coordinates":[[[126.9064868989969,37.55521009979039],[126.9114619991674,37.5456893998712],[126.9274375995936,37.553034499074805],[126.9313072997177,37.5474803001355],[126.94032029950199,37.5459702997921],[126.9319007061079,37.5303241101152],[126.92809339850969,37.5315049011722],[126.9291580986055,37.5264307990599],[126.9203350000403,37.5237771017897],[126.9197345988763,37.5198491006534],[126.92754699874381,37.5183603989135],[126.9245693997393,37.513637100748],[126.9279656997226,37.5139788994511],[126.9288612007917,37.5239739991935],[126.93726669884829,37.5228706998463],[126.9433087014992,37.534791498968296],[126.9549468996056,37.5393389992632],[126.9629983994952,37.5300612996775],[126.9570789995008,37.5253309004336],[126.95913249937209,37.5182206000366],[126.9689243000292,37.5191301979616],[126.9651209038826,37.5094379076345],[126.9525474005853,37.5147772998817],[126.9348802004718,37.5131473008133],[126.9388643995526,37.5081660008725],[126.9341153987816,37.504312201755],[126.9480174990789,37.4990935999957],[126.9487488982206,37.4922283000993],[126.9542395994299,37.490373699614196],[126.96119470110739,37.4952502984432],[126.95668409979801,37.4954100003643],[126.9522467010686,37.5057331009498],[126.942187200478,37.5095114990541],[126.9544215002009,37.510760098371996],[126.9608870977135,37.5037302014009],[126.9654996989454,37.5059787972501],[126.9715641989455,37.4996405004852],[126.9842282989433,37.499204199538],[126.980980398308,37.4937347007526],[126.9645988010963,37.4894043002317],[126.9632644021956,37.4924411008152],[126.96681199533151,37.4828641998867],[126.96141539940531,37.4760679002232],[126.9684493008164,37.479959597581804],[126.98141939918399,37.4714076996004],[126.9924097986437,37.4796569966876],[127.00114159862079,37.4747064996941],[127.0063910997626,37.485554598973],[127.0187456992195,37.480707298923],[127.02533339849599,37.4905602979405],[127.03042479879021,37.4779275005598],[127.0396333993382,37.475598199391904],[127.0365577991591,37.4658639995053],[127.0434919005153,37.4650151977059],[127.0413948006105,37.4793881996571],[127.0548087990867,37.481847998312396],[127.0758150951478,37.480898099030895],[127.0728639980989,37.478698001231],[127.08454369452289,37.4727825945993],[127.0921277006373,37.4773468984669],[127.1108424992682,37.4732164984722],[127.1126924974182,37.4694142022745],[127.1076458995407,37.465232803302804],[127.1173853960301,37.462511298083],[127.11793829528621,37.4561134033359],[127.1241496977556,37.4591378962324],[127.1182706986871,37.4305248016772],[127.1225781008238,37.4317993987022],[127.1289507991358,37.423944298796904],[127.1193261984183,37.4118205011059],[127.1284373991017,37.402740000118705],[127.11914349936701,37.3961840010996],[127.1237831988257,37.3913431997885],[127.1103360990834,37.3774552010261],[127.1125513998569,37.375343199897706],[127.13397110074699,37.392453599669906],[127.1343474008918,37.4002350993685],[127.1287691022936,37.404922898617905],[127.136764499393,37.40964749935],[127.1296268012493,37.421337899400896],[127.1335021007965,37.4274906979578],[127.1437780997352,37.429902098976896],[127.1531782991043,37.441106396822704],[127.15882089841979,37.434335698526496],[127.1654116999844,37.4365425993345],[127.1729898997111,37.452404398309596],[127.16740659997211,37.46313700028],[127.15591030275681,37.4653474035249],[127.1509069007067,37.4748614002034],[127.1495365017413,37.483066698738604],[127.1689517906149,37.4807958002444],[127.1705782053779,37.4897826953433],[127.1753152006409,37.4894638956621],[127.16111810464399,37.4964304988573],[127.1705216013715,37.5061615985048],[127.1636836014143,37.509315600225],[127.1593668017382,37.5328886983121],[127.1681627988804,37.534064398869496],[127.1643864990763,37.5288162013329],[127.1678863983577,37.5230964993043],[127.1769394982814,37.528401496508],[127.1740009022822,37.533502998692],[127.1881200985447,37.5350926003049],[127.1930549989084,37.5285826009952],[127.19020180139509,37.5272458015078],[127.2008111003542,37.5223369985271],[127.1990057043944,37.5253809994945],[127.2118209966394,37.5261193967542],[127.2162344000214,37.5329634985082],[127.23073049904501,37.5249161972012],[127.2427561021663,37.5325420979543],[127.24434690213239,37.5401341992985],[127.2387903020553,37.5468574987986],[127.2298172066172,37.5465848059837],[127.2183981121464,37.5584451063037],[127.2126752000032,37.5574047012995],[127.20786860634949,37.573429005407796],[127.1964176021183,37.5820975086174],[127.169516004583,37.5782132993424],[127.171555999828,37.564815500179805],[127.1610240013075,37.5711337967362],[127.1549973979668,37.568858899638805],[127.1547888989848,37.5627120023426],[127.1430426026123,37.5628965036991],[127.12658279984,37.5817561008967],[127.11668730088509,37.5691131032461],[127.1075785026304,37.5971895967448],[127.1106024996064,37.5945008994335],[127.11707889959179,37.600784399394904],[127.1139402008782,37.607053300666195],[127.10166250043271,37.612991201133006],[127.10262590039021,37.6162173995912],[127.0966122002434,37.615299201229206],[127.0996603009405,37.6264082994656],[127.08665860344351,37.6269147021095],[127.0771401057792,37.6381066025793],[127.07389380151449,37.6534368001143],[127.0843910993304,37.6699246985281],[127.0799764018636,37.6745612995435],[127.0757940014702,37.672894201435],[127.0757040981644,37.6657673026991],[127.0605738013863,37.6705939017607],[127.0639297010231,37.679741998593094],[127.0554024025305,37.6852822004291],[127.05006670048,37.6826694005884],[127.0450945007481,37.6945804998379],[127.0410190984681,37.6898058999071],[127.0495366994193,37.6839297989678],[127.0455429000125,37.680615600078305],[127.0517650994065,37.6718036998959],[127.0521541985931,37.662824401433596],[127.04880750151999,37.6624803017278],[127.05817650029441,37.6576097991773],[127.04306610051141,37.6530651011208],[127.0496645998687,37.6519257950228],[127.0537341999533,37.6405323999701],[127.0574995988511,37.6422597985449],[127.0546747005345,37.6307292009597],[127.0648199977987,37.6230522993123],[127.0628405997781,37.6206745016901],[127.0610959006198,37.6236978007233],[127.0592608995628,37.6178385004622],[127.03745329960479,37.6062442008736],[127.0247156004001,37.6320039001083],[127.0005008989584,37.6112853006571],[127.00574259905271,37.6072815991847],[127.0065626994337,37.5964715018723],[126.9973200011393,37.5983399999732],[126.9903163986222,37.5869105006943],[126.9791419000659,37.582646800643],[126.9702059003462,37.5850350000238],[126.9645834996401,37.577333402361],[126.9416284001648,37.59303710020129],[126.9403845995358,37.586907500456306],[126.9571904976992,37.5699478004299],[126.947745101497,37.5622374026705],[126.9246965999551,37.5630716008094],[126.9141944999232,37.5535621002478],[126.9102156005361,37.5576864003686],[126.9064868989969,37.55521009979039]]]}}]}