{"type":"FeatureCollection","features":[{"type":"Feature","properties":{"interval":15,"stationId":"355173399","profile":"off-peak"},"geometry":{"type":"Polygon","coordinates":[[[126.84976669929111,37.5238104998591],[126.864622698794,37.5175641995829],[126.9099424003619,37.5214697995608],[126.905788200741,37.5271295001084],[126.8995637999205,37.523663902266],[126.89529140121681,37.5286929015419],[126.87697920147889,37.5275077010613],[126.877524600876,37.5320259995337],[126.8707010999107,37.5305139010673],[126.8635596000434,37.5356022012858],[126.84976669929111,37.5238104998591]]]}},{"type":"Feature","properties":{"interval":30,"stationId":"355173399","profile":"off-peak"},"geometry":{"type":"Polygon","coordinates":[[[126.8059573994516,37.5601897002117],[126.82631089840919,37.555036799507],[126.82843399904161,37.544527900062796],[126.8241466998524,37.5392725010983],[126.8396265994002,37.5186837998746],[126.8678662994316,37.5065082998771],[126.8870789998661,37.5124122991215],[126.891995999379,37.508904799941305],[126.8869950993951,37.5039557009446],[126.8874970997835,37.494890200282],[126.8952542992907,37.4918754001344],[126.8989888004781,37.501298699408096],[126.8923499004624,37.502712800385],[126.8940447020121,37.5075357986134],[126.89714879872639,37.505981301141404],[126.89792400192721,37.5120165997715],[126.9040490996058,37.5146342991726],[126.907684699415,37.5087584983505],[126.9220005994795,37.5044434997321],[126.9325441987189,37.517945597055],[126.9388643987106,37.508165999984],[126.9566939993833,37.5105083987996],[126.9549574016126,37.5144215031672],[126.9348802004718,37.5131473008133],[126.9338652010312,37.5167859990115],[126.9408573992163,37.5194792983639],[126.9448079039357,37.5337597983793],[126.95130129936659,37.5328402999804],[126.9526547998669,37.5399069994083],[126.9667575001836,37.5378957992193],[126.9568702008135,37.543661900127695],[126.96988680108599,37.5673793991869],[126.9641000999272,37.5693116002987],[126.9524839990562,37.551731499925104],[126.9402779998944,37.5487418004968],[126.9319007011547,37.5303241114216],[126.9174680002977,37.5309132006112],[126.8952211005583,37.5410136995974],[126.88847130021841,37.540095100066104],[126.8881884024556,37.5345784015773],[126.8846896011349,37.5413415981172],[126.8803099003289,37.5391466007891],[126.8620457003178,37.5467906010183],[126.8509079003332,37.54094710086979],[126.8501003016675,37.5504743006494],[126.8442193014166,37.5531075013805],[126.8471912003198,37.5618201000933],[126.8383276011028,37.567018601233094],[126.8278985000143,37.5681498000691],[126.819841398607,37.5604431019513],[126.8084212000218,37.5653351001465],[126.8059573994516,37.5601897002117]]]}},{"type":"Feature","properties":{"interval":60,"stationId":"355173399","profile":"off-peak"},"geometry":{"type":"Polygon","coordinates":[[[126.6932950959656,37.630342502633795],[126.6960336992972,37.6241691002565],[126.704272400715,37.6245911986058],[126.7124421959923,37.6167503995152],[126.715076396521,37.6091163983145],[126.7281284981415,37.6044402976195],[126.73002789989509,37.5979424012012],[126.7462653006222,37.605548497882594],[126.7524869973463,37.6013690994954],[126.7562321984614,37.6039739964777],[126.7586555976759,37.5960744011146],[126.7552989010326,37.5962415009475],[126.7632200985256,37.5886451990552],[126.7651357000271,37.5921290986904],[126.78686339611251,37.5902688977439],[126.7887793993929,37.579745603523506],[126.78454190103949,37.584805800297296],[126.776220197906,37.5758302010253],[126.7904878988427,37.566374692500794],[126.7993937003088,37.5758302957253],[126.8043332988424,37.5680287006308],[126.7984198005241,37.563155202025094],[126.8139417975667,37.5471032001008],[126.80718159838241,37.538683202811605],[126.80312890001551,37.5376786020303],[126.80024320125689,37.5436315996429],[126.7994939974746,37.532399502766694],[126.794963602005,37.5361854989807],[126.7924971000356,37.5294755028578],[126.785124399833,37.5287613001404],[126.7871309997589,37.5136910014535],[126.7783831004847,37.5073013005333],[126.7532603010657,37.510082000012495],[126.747891599971,37.5066079006142],[126.75225569821201,37.5015975993011],[126.7668214008437,37.5024612996838],[126.7856787987081,37.4940188007121],[126.77422290019639,37.4910973008902],[126.75710080013701,37.494448400972104],[126.75629380096619,37.498058300255494],[126.73501660058099,37.4902989007311],[126.7226165011231,37.501570600395404],[126.7084894985279,37.4777719011244],[126.6965368994211,37.4737797002278],[126.7009538999481,37.466052399294306],[126.71037480014989,37.4652247995539],[126.7087190006664,37.4722325985949],[126.7144685976243,37.4755412975179],[126.7164262017184,37.4844915974454],[126.7331287997533,37.4873692990859],[126.7415643990449,37.4817653979176],[126.7449437012146,37.4896429006999],[126.7841688993208,37.4706835973194],[126.78923209890381,37.4769135961806],[126.7877358983507,37.4693591019632],[126.7916005990509,37.4627577001424],[126.7967263987688,37.4682696947606],[126.8002740994435,37.457636299691195],[126.80821870032109,37.475740199017594],[126.823245999113,37.476445799444804],[126.8305117007993,37.4849576949153],[126.8472866985705,37.4663423993413],[126.8705347965238,37.4619579974243],[126.8712944000405,37.455585998839496],[126.8736577017278,37.4584879945884],[126.88143559536441,37.4537959986657],[126.875297001503,37.4483414041203],[126.88005629815041,37.4439405024095],[126.89477169783561,37.4424996990805],[126.8966341003654,37.4458347975751],[126.9010244986776,37.4369544988837],[126.8982035993814,37.4267009999653],[126.9043433997885,37.4250803995309],[126.90983800136259,37.4357997989777],[126.9044177015405,37.4417914000313],[126.9152366000002,37.4502241993861],[126.9122903006658,37.4601809999387],[126.9173792009724,37.4673849980388],[126.9371027987902,37.4596015985936],[126.9447615992987,37.4662461974612],[126.9490608996808,37.460608399544995],[126.97291890144369,37.4628248994209],[126.9806033997507,37.4710080979516],[126.9884666994664,37.4660825001595],[126.9922611956211,37.4535594021874],[126.99570889725949,37.4546053986619],[126.9961793990894,37.445750399063805],[127.0003647993577,37.4462159984636],[127.00228639863,37.435085400618796],[126.99190279972761,37.431299500757405],[126.99774700009651,37.429501699351505],[127.01043600127319,37.4342396961498],[127.012509902983,37.4436008963774],[127.0082606009928,37.4499855010898],[127.01046259974889,37.4563812981503],[126.9885779016484,37.457269300819],[126.9970105011338,37.471482498918704],[127.0052131992478,37.4696947995817],[127.00637860262,37.4759685972568],[127.0139371983477,37.476250196845704],[127.0172239994496,37.471869297766],[127.0271905001229,37.4837784995985],[127.03132019904889,37.462620201507505],[127.04628319970041,37.4610070986162],[127.052355099889,37.480258399300794],[127.0739125001491,37.4913724993261],[127.0840256996942,37.4900814987973],[127.0754001019361,37.503515997085096],[127.1097625997086,37.501025198873904],[127.11910769977091,37.4917753995604],[127.1096935009718,37.5136522999838],[127.11704280051269,37.5193188988399],[127.1103604997718,37.5167280028207],[127.0959047083552,37.5334047932379],[127.10931310109899,37.5483632995471],[127.09592410134131,37.5481995020752],[127.0967811003279,37.554444099977495],[127.08673540033179,37.5604065000362],[127.0862303002408,37.5671006991744],[127.07432399848881,37.561428402092794],[127.07029140066601,37.5697926010264],[127.0519024009584,37.5762219999382],[127.0678880998748,37.591841599549205],[127.0680746010721,37.604836899223805],[127.0632217992888,37.6033465005934],[127.06486629959831,37.5972304000069],[127.0588461000701,37.59709380010511],[127.0510388991096,37.588484700079505],[127.04448380083049,37.588052800599996],[127.042089702064,37.5970842994499],[127.0615232006567,37.6119997999434],[127.0534921002889,37.6148551999712],[127.03762249986289,37.6054355006727],[127.0300357002227,37.6196259003437],[127.01581060193219,37.6074471010305],[127.0090458013855,37.6185652995719],[127.0295614001423,37.623467399556304],[127.0261465002066,37.6306688000588],[127.01807890085361,37.627952900503495],[127.0219506997184,37.623208800140404],[127.0103780994049,37.6211585017456],[127.00871199905261,37.6140185013879],[127.00231119922479,37.6146984000652],[127.0061328988666,37.5954246019752],[126.9971589009418,37.5973947004406],[126.9893304995195,37.588648802239504],[126.9667379998243,37.5925653005405],[126.9647932979204,37.5838181015647],[126.9579265019656,37.5844816004213],[126.94590090040539,37.5964266004565],[126.9392513016591,37.5964834009501],[126.94126340172309,37.6106956993696],[126.9353337007908,37.6172728006569],[126.94154549869761,37.6186981979757],[126.94023420242891,37.6225703959291],[126.92607720170949,37.631487199511305],[126.9271026008353,37.6394590005331],[126.9129789011819,37.653454500319604],[126.90893850096491,37.647879003175206],[126.914216998228,37.643251900889005],[126.91135409686899,37.6341704997805],[126.918051297166,37.6324799983879],[126.9159887972977,37.624592402323096],[126.91003689724229,37.6225357993818],[126.896412700233,37.5895893018735],[126.8834346004361,37.5901883012885],[126.88176880128181,37.56506920262591],[126.8786627997658,37.5664492004582],[126.8724422029097,37.5571563082727],[126.8595211088125,37.567348303588],[126.8668534014802,37.5727194982168],[126.8611423010146,37.5771011001271],[126.8641757976413,37.5739832002595],[126.8558023060148,37.567675706567],[126.8218896997441,37.583948800437504],[126.8243651991955,37.5820150005486],[126.8168942009732,37.580768501483796],[126.81256160858979,37.5897968060066],[126.7974345021687,37.5973542993358],[126.7956042986509,37.5886382003528],[126.7868634010938,37.5902689012509],[126.7820233029972,37.600331999348604],[126.7863600986158,37.6036795978221],[126.7845775031717,37.6101980993491],[126.77907449898909,37.6085263025475],[126.7708486995936,37.6147200012951],[126.765887398632,37.6087440035864],[126.7593514996605,37.61346610175],[126.7467470006414,37.6071389019446],[126.73946720049791,37.6202750996244],[126.713507605978,37.6324782025736],[126.7116147015835,37.6385495998618],[126.7058526993032,37.6349812027875],[126.7025045014249,37.6410110011304],[126.6925590997857,37.6365737001623],[126.6932950959656,37.630342502633795]]]}}]}