{"type":"FeatureCollection","features":[{"type":"Feature","properties":{"interval":15,"stationId":"355173590","profile":"off-peak"},"geometry":{"type":"Polygon","coordinates":[[[127.12143759844629,37.435457200548],[127.12867129991109,37.425731399982695],[127.1452221998596,37.4290741993102],[127.1523677002116,37.4420700997088],[127.1343119005806,37.4461058001786],[127.12143759844629,37.435457200548]]]}},{"type":"Feature","properties":{"interval":30,"stationId":"355173590","profile":"off-peak"},"geometry":{"type":"Polygon","coordinates":[[[127.1110337958897,37.4281862014395],[127.1203516992548,37.4235258982187],[127.1231842979528,37.4173842991178],[127.1189055994765,37.4085072000936],[127.1247162985707,37.4081048993717],[127.1262354988558,37.402877899451],[127.1213366998444,37.3992103005262],[127.1209581987504,37.388575701600196],[127.1108021002709,37.3795226009561],[127.109592598514,37.3751822012375],[127.1162256996797,37.3740799991807],[127.1231466000713,37.3841166984571],[127.135286800542,37.390040597569396],[127.1353486003575,37.4004766006139],[127.1310627012037,37.4035408000124],[127.1393985009083,37.4107190995],[127.13816320234899,37.4250912936042],[127.1526599995288,37.429144895353595],[127.15338879880001,37.423419901078596],[127.1541906043256,37.429200694018405],[127.16535649998251,37.435143299019],[127.1729227982797,37.4473401976693],[127.16844520002009,37.461326399699495],[127.14827150073911,37.4612367031268],[127.1458463004446,37.4693922996494],[127.12493020018549,37.4701223004118],[127.1312763002004,37.4751991976597],[127.1309512004885,37.4810777998712],[127.11739350125971,37.4953608004765],[127.11497340081729,37.4915885019787],[127.12035899965939,37.489929599701604],[127.1227121968779,37.471150800097696],[127.1182500999424,37.4667884004856],[127.13668799870851,37.4650029991558],[127.137649397995,37.4556114004046],[127.1259490007307,37.4593177000373],[127.1182706986871,37.4305248016772],[127.1110337958897,37.4281862014395]]]}},{"type":"Feature","properties":{"interval":60,"stationId":"355173590","profile":"off-peak"},"geometry":{"type":"Polygon","coordinates":[[[126.9705516994394,37.477027599224996],[126.9734923989904,37.4709115002039],[126.9801630001066,37.471875499833004],[126.985754299748,37.4759528979106],[126.9827663013335,37.4839262987586],[126.9885969982016,37.4861539973969],[126.9873981992887,37.477644200222],[127.01641189792589,37.4751301978561],[127.0271905001229,37.4837784995985],[127.0277797989721,37.468779700541496],[127.0329860985645,37.4600894000738],[127.0450296990715,37.4594362000559],[127.04457879368509,37.4402141051215],[127.0548408938395,37.4335890969566],[127.0690338994925,37.4352209996961],[127.0633288021466,37.4427550944741],[127.0673938009706,37.453968497872005],[127.0608600022537,37.4610821989453],[127.0505938011873,37.460988699248205],[127.04891270252651,37.4659634980575],[127.0568640006681,37.4735769953871],[127.060049398262,37.4690968997581],[127.077111598348,37.4750565942953],[127.08454369452289,37.4727825945993],[127.1083079980818,37.4523752983926],[127.1111382020863,37.460540098909206],[127.11579469763069,37.462988797790196],[127.1194199939955,37.4589331016612],[127.1167570002008,37.4293677028343],[127.1064523004712,37.4275601020656],[127.0958123014923,37.4370522024338],[127.09393329944861,37.4302943056466],[127.0891747042072,37.4310397049012],[127.10032819901011,37.397639500960096],[127.09342360023639,37.4033797013049],[127.0981237987981,37.395817298883195],[127.0955010996638,37.3871400016749],[127.09317830226901,37.3939649995883],[127.0911857993012,37.3836270033398],[127.08509480104779,37.3827582031548],[127.0844663016763,37.3869161989968],[127.0826835997853,37.3822556051905],[127.089362094749,37.3827694925223],[127.0925983915127,37.3719990032928],[127.0859709982461,37.3521936035811],[127.0814194027977,37.353325502449195],[127.0828877013294,37.356433199341495],[127.08115609627541,37.3531789015286],[127.0857066993872,37.3467087011157],[127.0813550010316,37.3391671008932],[127.0865846986912,37.3330848004598],[127.0814457008673,37.3308118005948],[127.0838941965154,37.3254699006849],[127.0647093008946,37.319661901164],[127.0673533965638,37.3106375004917],[127.0633461992075,37.2909852999271],[127.06839909965669,37.2874298992052],[127.0831382000483,37.2940000998484],[127.07988420126469,37.2996827996491],[127.0913361004185,37.3073719977332],[127.0932796000942,37.2897072004284],[127.1042813981258,37.277204999964106],[127.10363409867199,37.2553426007413],[127.11624709865069,37.266337294551406],[127.1141711020301,37.2702895004638],[127.12594759744991,37.2701592973315],[127.13655129829999,37.2637079986528],[127.1402805018035,37.2666313978106],[127.1384190010962,37.2717993990076],[127.1500064999132,37.2768248989916],[127.1431915997095,37.2795000009914],[127.1352858006738,37.2709487001759],[127.1281165013642,37.2766511001587],[127.1228675038932,37.2738112032646],[127.1212846066311,37.2874297913477],[127.1259738019419,37.288874489903],[127.1188120019204,37.2903440011701],[127.1217838013042,37.296410600007704],[127.1150716045393,37.3049940999869],[127.1162401044061,37.3169387907171],[127.1239144006995,37.3171615982809],[127.1265480020266,37.329171797694194],[127.12965029913819,37.3285220982065],[127.1300644010728,37.3317969996078],[127.1242182009258,37.3317762014887],[127.1330070012014,37.3495705979215],[127.12718220742379,37.358809798518806],[127.13481899978699,37.3580987992298],[127.131095504844,37.363875294873296],[127.1438685013094,37.365020198304094],[127.1556377975946,37.3797327949923],[127.1550674046307,37.3873799974702],[127.1413861055956,37.3908833013815],[127.1496505030108,37.403501497245095],[127.1613331965972,37.396510496785496],[127.1663832007039,37.410823694205],[127.18249370031499,37.423845097009],[127.1807331028877,37.4277978990586],[127.187132600821,37.4291773933074],[127.1842897062565,37.4364983962778],[127.1903310034295,37.4433021952109],[127.1948093990531,37.441730996958896],[127.19086090442191,37.4439392023746],[127.19254280895599,37.4553986007761],[127.1818523032689,37.46840960282],[127.18412820128431,37.4761289984797],[127.17569140107001,37.4777449019059],[127.1760758936517,37.4735489052097],[127.1620242975424,37.4711008099394],[127.1495365017413,37.483066698738604],[127.1620043011507,37.4850075003759],[127.1660842002186,37.4901546986288],[127.16111810464399,37.4964304988573],[127.1633919008619,37.50351040019461],[127.1472342012979,37.5049671019876],[127.146749202067,37.5110168988216],[127.1546334000124,37.514969899813494],[127.1536101015229,37.5301216971848],[127.1602526961374,37.529942098948396],[127.1544373026868,37.5323049022055],[127.1491999033624,37.5501896991077],[127.16072969955951,37.5558938978473],[127.1650883990951,37.5535861011404],[127.1661632018975,37.5598682984883],[127.1465223022667,37.5547198015747],[127.1341229004633,37.5635960998439],[127.1276781013695,37.5615666003212],[127.11916409474131,37.5473863077548],[127.1108252999576,37.5541401004334],[127.0973988011866,37.5535221019064],[127.0951945001245,37.5585714005947],[127.0856184010006,37.560505900578505],[127.08705260038941,37.5774345005449],[127.07285059921199,37.5600953021058],[127.0494557004192,37.5712452009225],[126.9890236005886,37.567963900361406],[126.99159070017551,37.563644499761104],[127.00037410002611,37.5653877995933],[127.0188599990924,37.5591400003728],[127.01947869935809,37.5502726002283],[127.0302524995802,37.555937198423905],[127.0419446967194,37.5512665988129],[127.033932499697,37.5452391006852],[127.0335122989885,37.534467506073696],[127.0272438999547,37.5328727001346],[127.0248571996359,37.5229271009123],[127.0065420005116,37.517249101493704],[126.9903664000701,37.5032182030007],[126.9855765000211,37.5048197001583],[126.98636959814,37.5009675999192],[126.99573959879959,37.4997476017288],[126.9987504992445,37.4907017015443],[126.98600170060391,37.4858222007314],[126.9800453001412,37.4881801004314],[126.9705516994394,37.477027599224996]]]}}]}