{"type":"FeatureCollection","features":[{"type":"Feature","properties":{"interval":15,"stationId":"355173398","profile":"off-peak"},"geometry":{"type":"Polygon","coordinates":[[[126.8389723988699,37.5317749000043],[126.8521665002401,37.5193972996932],[126.8725154002087,37.516498899537304],[126.8985253006603,37.5241697995633],[126.8757800005486,37.5341404005006],[126.8707011004514,37.5305139006244],[126.8622813999486,37.5344130006703],[126.8546456009561,37.5280810008322],[126.8505656001671,37.535865900259296],[126.8389723988699,37.5317749000043]]]}},{"type":"Feature","properties":{"interval":30,"stationId":"355173398","profile":"off-peak"},"geometry":{"type":"Polygon","coordinates":[[[126.79658169934801,37.561461700198905],[126.8228206987983,37.5520596990711],[126.8266406988708,37.5422140011312],[126.8201864006886,37.5388994018322],[126.84005549984961,37.514991099197005],[126.87104219899311,37.5068274980991],[126.8869451003935,37.511533799104804],[126.8903504996911,37.5035920998375],[126.8958485000267,37.5076559994667],[126.89199600033251,37.5089048007679],[126.9040490996058,37.5146342991726],[126.9089528991428,37.509029999627],[126.9200884998329,37.5089702990711],[126.93547390015931,37.5169832986604],[126.94184849991221,37.5222263986458],[126.9383537064542,37.5256633080965],[126.9433087014992,37.534791498968296],[126.9560730001341,37.5416866984364],[126.95961230021341,37.555978900098],[126.96885130015269,37.5638564992418],[126.96502360075459,37.5674786006542],[126.9516489999905,37.550034100151095],[126.9396389001204,37.543946500173995],[126.9319007061079,37.5303241101152],[126.91464500047209,37.5330769006807],[126.9133163001313,37.530053801102795],[126.903158799909,37.5383907002404],[126.9045928994869,37.5356436002929],[126.8878854000642,37.5377432021454],[126.88240930155631,37.5454213014578],[126.8771285003742,37.5402515007498],[126.86458090052571,37.545610700565696],[126.8600219994263,37.5414601018525],[126.85051210059271,37.5622762999542],[126.84047250005311,37.571235700182605],[126.8363934998678,37.5653220029952],[126.8266180008521,37.569479801386],[126.81121330014561,37.5677931006308],[126.81818919987431,37.5760388972989],[126.8141115014902,37.5810707010191],[126.8006262998373,37.572519202663806],[126.8069061994177,37.562100700014604],[126.8040410015744,37.565736798948606],[126.79658169934801,37.561461700198905]]]}},{"type":"Feature","properties":{"interval":60,"stationId":"355173398","profile":"off-peak"},"geometry":{"type":"Polygon","coordinates":[[[126.6887259992626,37.633324000566404],[126.6975427992487,37.6213447991369],[126.7049873971837,37.6231969999351],[126.7119308965036,37.617341698923894],[126.7128087996616,37.6062307002426],[126.72884209943349,37.6009981990954],[126.7268050997951,37.5976642001262],[126.7514308984024,37.6036595972049],[126.75505619828189,37.5915192026432],[126.7661997955459,37.5870850006154],[126.78589819775131,37.591138798843204],[126.7887793993929,37.579745603523506],[126.78454190103949,37.584805800297296],[126.7782326991647,37.5764518005388],[126.78730799317759,37.5671271998009],[126.7936973998185,37.5670303991262],[126.7993937003088,37.5758302957253],[126.8035801992859,37.5713500991522],[126.7984198005241,37.563155202025094],[126.8139417975667,37.5471032001008],[126.80312890001551,37.5376786020303],[126.7994732003299,37.546560800415904],[126.7963089998498,37.5413401017933],[126.7994939974746,37.532399502766694],[126.794963602005,37.5361854989807],[126.7924971000356,37.5294755028578],[126.787489799309,37.5300047002844],[126.7979377982714,37.5255966999051],[126.7856851011921,37.5266134003145],[126.7894501989095,37.5161187005581],[126.7802799000028,37.505826801526304],[126.7749037007,37.5089052999918],[126.7692203000503,37.5039618007308],[126.76010839998229,37.504312400310404],[126.7764724996471,37.4976825999413],[126.78288309849651,37.5002775982725],[126.78862409929721,37.492303200776504],[126.7717335003748,37.4895765001747],[126.75638550062769,37.4973650000302],[126.7459201001857,37.4916374001036],[126.7581237986173,37.4887552983582],[126.7628025996588,37.4800226993896],[126.7699786986626,37.4812754989413],[126.78284549709309,37.474154998364604],[126.78923209890381,37.4769135961806],[126.7884837959832,37.466589302205705],[126.796726396362,37.4682696974847],[126.8022357991672,37.4594034993198],[126.8044621000483,37.478184899617005],[126.8182888999652,37.476394299104],[126.81777960231439,37.481802598182],[126.8224785991869,37.478938499002396],[126.8332433993655,37.488281896268],[126.84728669714829,37.4663424012257],[126.8705347965238,37.4619579974243],[126.87054609905209,37.4579525010326],[126.88143559536441,37.4537959986657],[126.88077609743061,37.4461941001559],[126.89477169783561,37.4424996990805],[126.912445200376,37.4499672992435],[126.9114831018673,37.4672566001827],[126.91732810005111,37.4697345976504],[126.9313230987817,37.4602119005532],[126.94600539996661,37.468423198438096],[126.9493070996972,37.4617322990198],[126.9536421000087,37.4671714989575],[126.9571948975081,37.4622927021689],[126.9779474007846,37.4649176953678],[126.9806033997507,37.4710080979516],[126.9884666994664,37.4660825001595],[126.99016859954041,37.4565612994207],[126.9970105011338,37.471482498918704],[127.00482309933099,37.4714052981162],[127.00637860262,37.4759685972568],[127.0167722975655,37.4738980990882],[127.0271905001229,37.4837784995985],[127.0343918997345,37.462510700049805],[127.04509469891251,37.4635679991531],[127.052212701253,37.4856815992226],[127.06027250017699,37.482949398282],[127.0593027014351,37.4862989991856],[127.0709143993953,37.4922458978413],[127.0832759999221,37.491695199181706],[127.0846607003866,37.4949375992205],[127.07062540164189,37.4989341013938],[127.0717563004636,37.505398995189196],[127.0903918998516,37.502734799665],[127.0843438002366,37.5174953001568],[127.06729280106241,37.5157587015265],[127.0735812014516,37.536166697892206],[127.0942459998913,37.5330554993212],[127.1070949987828,37.5130103999143],[127.1145167992872,37.5161568988505],[127.10148440093221,37.5224038008973],[127.0945700013232,37.5403899999374],[127.0782555001445,37.538836000217806],[127.0738255006921,37.5439795000926],[127.0812208996804,37.552640799641],[127.08803619948891,37.546616399533995],[127.0950758984682,37.547991598776605],[127.0947324004873,37.5545835998538],[127.0881628006296,37.556283201049006],[127.0837190002017,37.564612399402904],[127.0710442001666,37.5607266001113],[127.0715786000832,37.5664559000389],[127.0494006005909,37.5751215010987],[127.0517336001006,37.585676799873305],[127.063220600194,37.5879078998044],[127.06740980066479,37.604403700433195],[127.0612687000078,37.5909186007512],[127.0556033002902,37.593101300326204],[127.0502133003733,37.586095300203695],[127.04363080041921,37.5880060000199],[127.0414349011625,37.595757699937],[127.0456628997184,37.6038131989989],[127.06085690008571,37.6117317000332],[127.0371434996718,37.6050421011185],[127.03754569987929,37.597990099889195],[127.03053630002289,37.5912010026141],[127.0225788002823,37.5985833993966],[127.0314494003032,37.6020527994825],[127.03443490016059,37.6154618002544],[127.0258589000866,37.6163216006504],[127.0285011984191,37.6105370995152],[127.0194607998597,37.6060384025099],[127.0059077018569,37.6152935001129],[127.00804529808761,37.5937792016454],[126.999588100567,37.596454799791495],[126.990952300244,37.5875129008268],[126.981164401115,37.5927351006968],[126.9795457996229,37.583859599859196],[126.9732932003652,37.5836735001154],[126.9755423994377,37.5896346967167],[126.96985740472779,37.5909128995959],[126.9595816003259,37.5803758015988],[126.9388540001492,37.5964856004067],[126.94126340172309,37.6106956993696],[126.9353337007908,37.6172728006569],[126.94023420131131,37.6225703961278],[126.9296522014239,37.6278934007918],[126.92398060052439,37.625433100335904],[126.9207142019502,37.6301845973157],[126.9258818007111,37.6386001977644],[126.9165098005193,37.64338040077],[126.9120500999793,37.6356010005624],[126.9218531984292,37.6272775010376],[126.9129370003495,37.6238580030575],[126.9094850997252,37.608566601316404],[126.90190969979541,37.603698302272996],[126.8951574990855,37.5857495006783],[126.8834346004361,37.5901883012885],[126.87767239985939,37.5863030006752],[126.8894642984547,37.56647919995191],[126.8875792987489,37.5628849028145],[126.8808038000369,37.5660411002084],[126.8746962030468,37.554989209591405],[126.86510920750251,37.5623362053583],[126.8683336019383,37.5709362990624],[126.86497440134089,37.575738699736505],[126.8611423010146,37.5771011001271],[126.8641757976413,37.5739832002595],[126.8558023060148,37.567675706567],[126.8218896997441,37.583948800437504],[126.8243651991955,37.5820150005486],[126.8168942009732,37.580768501483796],[126.81256160858979,37.5897968060066],[126.8073883995498,37.587257003130404],[126.7974345021687,37.5973542993358],[126.79020080012299,37.5880433010252],[126.7846020041661,37.596110797788995],[126.7877400000865,37.6034104989533],[126.7845775031717,37.6101980993491],[126.77031050375459,37.6178859990016],[126.765887398632,37.6087440035864],[126.7590120017877,37.615216101441],[126.7327409042299,37.6206222023691],[126.7325673020231,37.633328400143704],[126.723673201507,37.6292866036887],[126.71452960354101,37.635259601096095],[126.7136863036286,37.6414867007335],[126.700563001152,37.643479499592196],[126.7005795969008,37.6383580023551],[126.6941988016618,37.6379541013728],[126.6959019989189,37.6347090016073],[126.69013700010109,37.6381623013439],[126.6887259992626,37.633324000566404]]]}}]}