{"type":"FeatureCollection","features":[{"type":"Feature","properties":{"interval":15,"stationId":"355172924","profile":"off-peak"},"geometry":{"type":"Polygon","coordinates":[[[127.02098239975449,37.5752053997159],[127.0359279994511,37.563066700138],[127.0405147996072,37.5684443978331],[127.0466212989417,37.5667232000455],[127.0435825003934,37.5608942002657],[127.0526566985309,37.555991499990895],[127.0561802001024,37.5655247994748],[127.0450004006433,37.571794499421806],[127.0468898000815,37.5811393000564],[127.03793620045981,37.5847959003566],[127.02098239975449,37.5752053997159]]]}},{"type":"Feature","properties":{"interval":30,"stationId":"355172924","profile":"off-peak"},"geometry":{"type":"Polygon","coordinates":[[[126.96920539991001,37.555360500064296],[126.9953135999356,37.556671899812095],[127.0009374996161,37.560724799214505],[127.0044301983769,37.5486669009589],[127.0007383979646,37.5392827008718],[126.9910700999329,37.5349068003124],[126.99369499972751,37.5324699998432],[127.0032815006317,37.5375506975737],[127.00251230032741,37.5444013999606],[127.0158957003495,37.5545282986676],[127.0224487000397,37.5510033996662],[127.0310048988278,37.5555123988487],[127.0317914987041,37.5480931979426],[127.0419446967194,37.5512665988129],[127.0370819993794,37.5442826007037],[127.0452591992087,37.536984500505106],[127.0695862984232,37.5281631002693],[127.09190819914511,37.5309909991002],[127.0963764946768,37.521841708249504],[127.0929209010113,37.511815001176096],[127.0995321983911,37.508306499580904],[127.1124258999133,37.5176825992422],[127.1089912020645,37.524748899996],[127.1028939015547,37.5253121001058],[127.09930270137549,37.542284800618496],[127.0759580016464,37.547580100755],[127.0779714003304,37.5527042990755],[127.0885213994441,37.5479660996729],[127.09400960082951,37.5514270996352],[127.0854016010107,37.560124299950296],[127.0926925000113,37.5794230998068],[127.0890869010563,37.590478399664605],[127.0839411997124,37.587550099936],[127.0876430982317,37.5856506001315],[127.0780738001816,37.5629058007842],[127.07285059921199,37.5600953021058],[127.05902260095141,37.573907700361],[127.0579550002394,37.5801389999394],[127.0714809003306,37.592605798738305],[127.0690393993865,37.597613797994995],[127.0742409000254,37.6022491993415],[127.0671414000466,37.6103043001578],[127.0590923004217,37.6060144002288],[127.0609339980661,37.6000070019579],[127.0497761990043,37.5947740008471],[127.0221762020661,37.5908644002522],[127.0277727005242,37.604920799710804],[127.0193266011611,37.602753301383004],[127.00959610128379,37.6166604997841],[127.0052100016787,37.6161445000949],[127.0025805995526,37.6105457002161],[127.0102748986558,37.591933600769494],[127.00102199972211,37.5899204005315],[126.9977698994413,37.581899700472],[127.0019837986859,37.5817548992183],[126.99462319999691,37.5720246000271],[126.98517220055989,37.579063301204805],[126.9784970011333,37.573626500296804],[126.9739238007513,37.5782689995846],[126.9711441000353,37.5759428007183],[126.9773408000021,37.5750636993562],[126.97503659956949,37.564571800513505],[126.97253460127361,37.5666240002089],[126.9788173992615,37.5591625012397],[126.96920539991001,37.555360500064296]]]}},{"type":"Feature","properties":{"interval":60,"stationId":"355172924","profile":"off-peak"},"geometry":{"type":"Polygon","coordinates":[[[126.8506779997136,37.520915299965296],[126.8676185995804,37.524442798143504],[126.8824579994864,37.5182210995563],[126.8731805997617,37.500183801970906],[126.8666171009065,37.5004380009125],[126.87084029937759,37.495037501207506],[126.86512279971639,37.4928343019222],[126.85652250095569,37.4972942004351],[126.8534907001672,37.4942530021426],[126.8578405996442,37.4900896985854],[126.8747006000813,37.4912087978412],[126.8776318998037,37.4989471970376],[126.8905340997937,37.491772899613004],[126.8833963994624,37.4860632003116],[126.888722700328,37.4831325993924],[126.89268969993711,37.4890196993774],[126.9020285996528,37.490033099645395],[126.9026704002847,37.496544699034104],[126.9201754999971,37.4931704989025],[126.9237577997346,37.4811326999383],[126.9352708999009,37.469180899566595],[126.93872589992709,37.4759546993334],[126.9513558996192,37.4777402991826],[126.96677059746061,37.4680881978588],[126.9789128990182,37.4669156991565],[126.9806033997507,37.4710080979516],[126.99570889725949,37.4546053986619],[126.9961793990894,37.445750399063805],[127.00258999777479,37.445920000296],[127.00816499945901,37.438201001119296],[127.0002642011395,37.438722799954704],[127.0074135985038,37.4326409976106],[127.012509902983,37.4436008963774],[127.0036067002151,37.449896600536],[127.0054505985067,37.4549567978828],[126.9885779016484,37.457269300819],[126.9944067019124,37.468929797818],[127.0052131988968,37.4696947988275],[127.00637860262,37.4759685972568],[127.0143377979471,37.4729863001096],[127.02350519848011,37.4761747969628],[127.0296416994457,37.4597986000219],[127.0399256977817,37.457150296662704],[127.0393775008116,37.4633291997054],[127.0469078998096,37.4567538000083],[127.0493805951982,37.440232799981295],[127.045416799162,37.4390298011843],[127.0620130928278,37.4343131992759],[127.0660149005543,37.4347978984222],[127.0633288021466,37.4427550944741],[127.0673937994682,37.453968498057904],[127.0556312039646,37.4624398001842],[127.0568640006681,37.4735769953871],[127.0711937995016,37.4720511000996],[127.0725028023107,37.4783282977552],[127.1123437986143,37.4758893978202],[127.11130179877871,37.4649553016436],[127.1077340999118,37.4651602000726],[127.1241496972828,37.4591379002519],[127.1208687005638,37.4588187005711],[127.1241496977556,37.4591378962324],[127.1210428994371,37.451835200522],[127.1244797962852,37.4468378975581],[127.1239716967933,37.441797402598596],[127.11981930094571,37.442326102069906],[127.1191672006784,37.4307880012873],[127.128949599137,37.4222150005262],[127.1312850023645,37.4273366979009],[127.1444874983183,37.4307555989895],[127.1502148005646,37.4399671981384],[127.1642182995902,37.43730819928739],[127.1694334009836,37.4457506973444],[127.1680885003567,37.461623999702404],[127.1579854022972,37.4627600029397],[127.1443393000487,37.4766119007781],[127.1489987001253,37.4839328997261],[127.1610607998538,37.488303599116],[127.1631456026165,37.4996265956612],[127.14546820084979,37.5036663000072],[127.1577932996438,37.5494838972441],[127.16683849928219,37.5480022001533],[127.1845527995265,37.5592986987509],[127.1796164003416,37.5627716001573],[127.1759873999801,37.5576256038407],[127.1707474014026,37.563373500223996],[127.1567723022262,37.56539380099],[127.1399924016646,37.5560290052629],[127.1396582019988,37.562111899179996],[127.133748700433,37.5647580003227],[127.1259341948053,37.5589419073938],[127.1190883016512,37.5657450005907],[127.10520480353479,37.561066599831996],[127.1043380058825,37.5696255968896],[127.1172505998954,37.5751505977571],[127.1108507029626,37.5951664981541],[127.11558940239391,37.603859198586804],[127.10590480032981,37.6144949004661],[127.1082920006968,37.625703599801],[127.1040589042909,37.633687194413],[127.1127793002036,37.6343153986346],[127.11144090142281,37.6407660992359],[127.1193392970437,37.6422381988234],[127.11099999991191,37.6265420011909],[127.11326129730311,37.62357139880881],[127.1273919017736,37.6281958947095],[127.1330650001542,37.644343898070204],[127.138866897988,37.6382756033321],[127.1432454991006,37.643651697737],[127.148137396814,37.6410202994505],[127.15350880081739,37.6503521989038],[127.14379480127829,37.6600159006423],[127.1359272008492,37.6515002042944],[127.1260547002826,37.6553228005942],[127.1228902006909,37.6481563007755],[127.1134765997831,37.650470301029905],[127.11113079963509,37.644006600454496],[127.1048877004565,37.6439784007402],[127.103911795368,37.63769080302],[127.0901133009782,37.629182212028105],[127.0831913053723,37.6366279043234],[127.0849363006157,37.6406428001521],[127.07645000561959,37.6444480010963],[127.0941919016595,37.6602283992304],[127.0884260069425,37.6713271979216],[127.0925915018576,37.6772542964528],[127.08505870459861,37.6827929009903],[127.0754268003532,37.6828439022621],[127.0738879008056,37.677515905591406],[127.05710160653159,37.6946662002253],[127.0590118035171,37.7065208971531],[127.0511147063345,37.71075060018],[127.06076469978699,37.7262317989548],[127.05653070027769,37.732304900249005],[127.05818240042001,37.7464586986641],[127.04512310032119,37.7493769001994],[127.02959600032929,37.7403653009936],[127.04221529823239,37.710451300808906],[127.03566030133901,37.7159961003241],[127.0319069986585,37.7075394011499],[127.03856329086581,37.6955708029778],[127.0284359987902,37.687863300893696],[127.0327438975101,37.6788189037358],[127.0280212963402,37.676585698889795],[127.0290525986712,37.6700808028115],[127.02152320209501,37.6626843054386],[127.0141516061514,37.6748352964362],[127.0033368000183,37.6770386007166],[126.99687689352011,37.650178505107],[127.0011081922179,37.6426454058667],[126.9941274991986,37.6407900077221],[127.0004801916654,37.63362729854],[126.9842425052335,37.6267150064065],[126.9858843955151,37.5980129037517],[126.97662100013939,37.5960010016028],[126.9759347978015,37.5919704010962],[126.96985740387889,37.5909129021537],[126.9633708002148,37.597641100308095],[126.9580486011903,37.5916169011457],[126.950302401134,37.6032416997302],[126.9430022005684,37.604849903652195],[126.94343190243609,37.6150200956001],[126.9369057992187,37.6155550023747],[126.9372496071646,37.6263437989731],[126.9313856017041,37.628822600248796],[126.9332087989557,37.6395332980065],[126.9253433030767,37.6397888012776],[126.9196669010272,37.654980601084],[126.9075273008483,37.6532374017694],[126.89386230005769,37.6611372001148],[126.886083801686,37.654164402469696],[126.8876109993003,37.6494651996191],[126.8984545990749,37.6460053996043],[126.9078776992423,37.6480748983453],[126.91066669660869,37.6408808024068],[126.90743889976851,37.6336248070641],[126.918051297166,37.6324799983879],[126.9072791977872,37.621917599069604],[126.9062154997596,37.6156795000998],[126.9131854996888,37.6050896994124],[126.90729289895211,37.5904818000896],[126.9007313995927,37.5825221002938],[126.8878745990058,37.5798243006005],[126.89768729967,37.5726855995097],[126.8913945993129,37.5626081005123],[126.9044051966379,37.5484115957478],[126.90352539751771,37.5430219011375],[126.8947534009197,37.541688300526296],[126.8888925996612,37.527298201118],[126.8827901003325,37.524809201225],[126.8734848004407,37.529748501163894],[126.8683934996802,37.5262388001204],[126.86404140044341,37.5310100006012],[126.8528224001545,37.5273915001853],[126.8506779997136,37.520915299965296]]]}}]}