{"type":"FeatureCollection","features":[{"type":"Feature","properties":{"interval":15,"stationId":"355173195","profile":"off-peak"},"geometry":{"type":"Polygon","coordinates":[[[126.96920539991001,37.555360500064296],[126.97187749915621,37.550370101001704],[127.00021180012921,37.5569872984765],[127.01185100041529,37.5516390991581],[127.0198631000965,37.573347999816804],[127.0061706996532,37.5763430004888],[127.0011563998948,37.5683888012248],[126.9897183000253,37.5748565002914],[126.96920539991001,37.555360500064296]]]}},{"type":"Feature","properties":{"interval":30,"stationId":"355173195","profile":"off-peak"},"geometry":{"type":"Polygon","coordinates":[[[126.9098766993145,37.548335199478196],[126.9447395994452,37.541997799787396],[126.9435556988994,37.538219701157196],[126.95794269755051,37.5318428998138],[126.958377699585,37.5228598005157],[126.97087809424279,37.516393193044706],[126.98401119944779,37.5201710993855],[126.98419780022681,37.5238290991313],[126.97302450124519,37.5216151004475],[126.9679798012762,37.5271948998531],[126.97891520048731,37.5340094989128],[126.9811078994373,37.530884700002105],[126.9729330012391,37.539570898540504],[126.9738175002496,37.5457287994564],[126.9869864993195,37.5410889999692],[126.9934863988306,37.5280898998628],[127.0131553005851,37.5387840994523],[127.0201214942982,37.537420798766],[127.0213773997346,37.5263299011532],[127.0065420005116,37.517249101493704],[126.9977623995938,37.504793300737305],[127.0066532986493,37.499768698883095],[127.0101801001623,37.5076836000854],[127.0166164001243,37.5089808995466],[127.0291234991704,37.4929407996852],[127.027403500979,37.5078457003174],[127.034530800066,37.5129829994014],[127.0311356006408,37.519159700203005],[127.04451000012921,37.5246803992487],[127.0443400018481,37.5284498001554],[127.020321908255,37.5376219039081],[127.0240940044829,37.5434421980878],[127.03760080047331,37.5533603985237],[127.0419446967194,37.5512665988129],[127.03881579872359,37.5422809004981],[127.0444665000014,37.5377957996938],[127.05363319877819,37.5420704982226],[127.0722840995335,37.5391300996752],[127.05831310203901,37.548802500056],[127.0517231011419,37.547984800784704],[127.0483934003712,37.5570447002163],[127.07173319925529,37.5604109997708],[127.050027000527,37.576220199049004],[127.05529930047871,37.579660099750996],[127.05417820045649,37.5856315996308],[127.062529900271,37.5894863997061],[127.03819270160609,37.5887688000211],[127.0407512998987,37.5905920994836],[127.0361065003556,37.594661599991504],[127.023802400227,37.589569401015105],[127.0237584022115,37.5979121988004],[127.0375264002476,37.6038674993112],[127.03758670028,37.612537899736],[127.0274810023747,37.630435702861],[127.0302838005996,37.6421324000663],[127.0232567001203,37.642544800890704],[127.0171359999892,37.6216049008396],[127.01017350020459,37.619849101309406],[127.0229127004296,37.6188559994534],[127.0227598992621,37.6124078998585],[127.015810600598,37.6074471017737],[127.0095961013606,37.6166604995152],[127.0052100016787,37.6161445000949],[127.0061328988666,37.5954246019752],[126.9974344006356,37.5989820002502],[126.9893304995195,37.588648802239504],[126.9595816003259,37.5803758015988],[126.9401932006432,37.5951349996232],[126.9369691002891,37.589922801228],[126.9443099991557,37.581359198533605],[126.94940889839249,37.5820240984203],[126.9506130985091,37.574189500396805],[126.9585064997772,37.567114599909395],[126.9493240009438,37.560182100697496],[126.9212400005131,37.5600724003027],[126.9219784998441,37.5539899993191],[126.93146369980839,37.553866399840494],[126.92734229987221,37.5477189013522],[126.9235455003386,37.5522019003657],[126.9098766993145,37.548335199478196]]]}},{"type":"Feature","properties":{"interval":60,"stationId":"355173195","profile":"off-peak"},"geometry":{"type":"Polygon","coordinates":[[[126.7958203993537,37.577875000399295],[126.8042669989087,37.5688747997847],[126.7970553001239,37.562509900990804],[126.8120899988992,37.5520232990114],[126.8148082006381,37.5575823993126],[126.8283275988871,37.551571499298],[126.83340609955411,37.5297334006815],[126.8612468984759,37.5047570999],[126.8415653995766,37.4958490005532],[126.8527704994128,37.4842094009723],[126.8461751011315,37.482543000815596],[126.8512329995729,37.4726065993993],[126.8593698003909,37.477533197420705],[126.8654584996021,37.4685516997814],[126.8787935985221,37.4708551003701],[126.87865379986029,37.4607369001645],[126.8845471992238,37.4579893008766],[126.8860095998863,37.449331799886906],[126.8986383983611,37.444671898738],[126.8966561006637,37.4530147979356],[126.9015560998798,37.4496855992507],[126.9069231999826,37.4533402997939],[126.9071575012992,37.4684194003036],[126.8962712015963,37.4771085999077],[126.8974911004852,37.4837400984665],[126.9147329994304,37.4758522999323],[126.9227500981036,37.4802987980183],[126.92064809959679,37.473738800508],[126.9315651951812,37.4643686004752],[126.95143859917971,37.46593449980681],[126.9537161999259,37.4703373968341],[126.9578834957586,37.4685551986163],[126.9554267987655,37.461425902131204],[126.97480109595709,37.4587189957643],[126.9806033997507,37.4710080979516],[126.9884666994664,37.4660825001595],[126.9922611956211,37.4535594021874],[126.981562200902,37.4492647057559],[126.98549339595789,37.440431300105],[126.9766589997389,37.433895903323204],[126.97408039832011,37.4236057012122],[126.9845770975479,37.4229187973119],[126.9829581996086,37.4122927021804],[126.971408200464,37.4115490011068],[126.9404059001389,37.3900086017346],[126.9424352982926,37.3846985997134],[126.9552316991722,37.3825367001452],[126.9623806997933,37.388659398954104],[126.968590999434,37.385211499767294],[126.9845545997496,37.392120297161604],[126.987843699563,37.397010896301495],[126.9809268028508,37.3991004012141],[126.98423649999539,37.4152978965845],[126.9876929973965,37.4130337985723],[126.9960808986362,37.420816698560905],[126.993136400287,37.4148483024272],[127.0031705013169,37.4216594970288],[127.0126726001301,37.4216143997037],[127.0122910042737,37.4249157983232],[127.01956159877311,37.4237539988475],[127.0248279014996,37.4362627985253],[127.02058260230369,37.435722501836096],[127.0121255031049,37.449066798499395],[127.02138839417461,37.4488495991667],[127.0194626048914,37.454383996984696],[127.0428341941796,37.4527490978072],[127.03779659921719,37.4493451012112],[127.0433234949404,37.4508386944969],[127.04457879368509,37.4402141051215],[127.0407989974649,37.4382830070526],[127.0472525979354,37.4322286017697],[127.0699220000119,37.4341684996747],[127.0723027017981,37.442386196871205],[127.0666571054002,37.4464463004604],[127.070586899817,37.456766699285104],[127.0608600031131,37.4610822006421],[127.05963290131889,37.4722053999498],[127.06394429700751,37.475339196816],[127.1041634976164,37.4754686999569],[127.1127210987293,37.484146897980295],[127.1220065988182,37.480559699504404],[127.1168602996593,37.4661116020432],[127.1237902006719,37.466737797576194],[127.1255826992516,37.4600807012745],[127.1355557996636,37.4654095992804],[127.1257756003489,37.4743382989176],[127.1319144995622,37.475110097748804],[127.1316211994568,37.4871883989224],[127.141921499671,37.4823063997043],[127.1610607998538,37.488303599116],[127.1630248001577,37.4935467988096],[127.1598296010813,37.5035228994978],[127.1484228988779,37.5019430020488],[127.14420730204981,37.5077522000977],[127.15601220042541,37.5320171992403],[127.15649760031589,37.549149597875],[127.16683849928219,37.5480022001533],[127.1845527995265,37.5592986987509],[127.1497605016788,37.5632577018159],[127.1399924016646,37.5560290052629],[127.13645070032929,37.5637372999069],[127.1259341948053,37.5589419073938],[127.11510870397959,37.5613228044222],[127.1155311035572,37.5647197010253],[127.10520480353479,37.561066599831996],[127.1020837052608,37.5772690958468],[127.1144081001722,37.5789841971999],[127.1121703999376,37.5764899042209],[127.10790920199659,37.5846502006163],[127.107578503024,37.5971895973113],[127.1155894000972,37.6038591978507],[127.10590480032981,37.6144949004661],[127.1082920006968,37.625703599801],[127.1040589042909,37.633687194413],[127.1127793002036,37.6343153986346],[127.11144090142281,37.6407660992359],[127.1193392970437,37.6422381988234],[127.11099999991191,37.6265420011909],[127.11326129730311,37.62357139880881],[127.1273919017736,37.6281958947095],[127.1298745018498,37.6402889966335],[127.1350083996185,37.6445320981916],[127.138866897988,37.6382756033321],[127.1432454991006,37.643651697737],[127.148137396814,37.6410202994505],[127.15350880081739,37.6503521989038],[127.146604704685,37.6589211988384],[127.1382461017081,37.6574295022319],[127.1359272008492,37.6515002042944],[127.1299468017877,37.6560328993889],[127.1228902006909,37.6481563007755],[127.1134766002653,37.6504703003528],[127.0939789971125,37.6296194115909],[127.0787162042031,37.6375140031719],[127.0764500064693,37.64444799623789],[127.0958514002108,37.6594587969246],[127.09600960324231,37.679204399914305],[127.0905210036691,37.680848501031505],[127.09245490173521,37.6843477975322],[127.07833480328799,37.6867117012902],[127.0688702024786,37.6811704048554],[127.05710160653159,37.6946662002253],[127.0590118035171,37.7065208971531],[127.0511147063345,37.71075060018],[127.06076469978699,37.7262317989548],[127.0565215000092,37.7316497006552],[127.05818240042001,37.7464586986641],[127.0460578000427,37.7478660002453],[127.0337023996122,37.7456644005464],[127.02959600032929,37.7403653009936],[127.04221529823239,37.710451300808906],[127.0336393969261,37.708826699862605],[127.03856329086581,37.6955708029778],[127.0284359987902,37.687863300893696],[127.030867298183,37.670749802840206],[127.0179927023103,37.6660874051841],[127.0141516061514,37.6748352964362],[127.0033368000183,37.6770386007166],[126.99687689352011,37.650178505107],[127.00048019364729,37.6336273071627],[126.9842425052335,37.6267150064065],[126.98531469543751,37.607143704706104],[126.9813383997176,37.601807900167394],[126.9632248001961,37.601902701472994],[126.9577693010824,37.6116467008261],[126.9430022005684,37.604849903652195],[126.9437588066903,37.618373298963],[126.9500527003964,37.6206099967263],[126.949208701883,37.6275272975063],[126.9516968993948,37.6253319997016],[126.9391626051874,37.6346298002825],[126.93980640086039,37.643081799939594],[126.93163390373759,37.6442854023956],[126.9322307002175,37.6534099005335],[126.9225070049674,37.6545623003652],[126.92461030163089,37.660635997974],[126.9209182008169,37.6640498000719],[126.914837397372,37.6543257057942],[126.9083756015555,37.655006803855905],[126.9115134004551,37.6620517997168],[126.88831860205461,37.668660600276205],[126.88629259943241,37.6621318007933],[126.8713067982117,37.6600319029685],[126.85304000157869,37.647980006594594],[126.84776940684931,37.6534912010834],[126.8479880014269,37.6658444990281],[126.84390549954881,37.6635409001344],[126.8491082986356,37.661673802150304],[126.8458897980611,37.6582752048288],[126.8421622012921,37.6635316001437],[126.8274106996362,37.6581649014008],[126.8332629989161,37.6445565008551],[126.82649929954219,37.6370531033155],[126.82364580239569,37.6397804005882],[126.8214743996449,37.6297601009273],[126.82978949989361,37.625206699758],[126.838992699471,37.6279159995063],[126.8419109006205,37.6434145972499],[126.85642570054111,37.6480633969503],[126.87181169905439,37.636791699519506],[126.8753756000849,37.641546897875],[126.8969218979976,37.6429396969011],[126.9087727917583,37.6289511973169],[126.9071369933941,37.6248349014332],[126.8983958021353,37.624057202210906],[126.8998854960372,37.593601702351],[126.8934395014202,37.5891805021057],[126.88325020161231,37.5922122005146],[126.8785350002102,37.5990812005293],[126.8819628013185,37.6044708980107],[126.8728707014675,37.6058365000015],[126.8749360009927,37.616022899319496],[126.86612310346139,37.6152553036742],[126.8667837971086,37.6094020047937],[126.86350260038981,37.6097613044344],[126.84650170176471,37.6244126013571],[126.8300231999847,37.616096301020406],[126.81427630311221,37.6175529037],[126.814087898747,37.6039130017326],[126.8241836968391,37.5979889005804],[126.83016239907731,37.599270397085],[126.83429389854591,37.607078297625996],[126.8416654983796,37.6032815003583],[126.8550060998502,37.6112226981243],[126.85713199761199,37.5968674025478],[126.8802263979634,37.5868733012638],[126.8763201011259,37.5870181012581],[126.876822299132,37.5804730014687],[126.8887713988275,37.5646674014382],[126.8797639010768,37.5662167000328],[126.8746962030468,37.554989209591405],[126.8595211022663,37.5673482968238],[126.8475587002731,37.5650897013277],[126.8452120017902,37.573387899150504],[126.82938210085061,37.573091501902795],[126.8113827003173,37.5800615015685],[126.8029426997452,37.575092101050096],[126.80001780209031,37.58135420101],[126.7958203993537,37.577875000399295]]]}}]}