{"type":"FeatureCollection","features":[{"type":"Feature","properties":{"interval":15,"stationId":"355173148","profile":"off-peak"},"geometry":{"type":"Polygon","coordinates":[[[127.0188531995872,37.6387526998374],[127.0219368994501,37.633669999459705],[127.02863120122451,37.633994099302605],[127.0441452998914,37.6434165995537],[127.0490790999231,37.6517560953611],[127.0458806024981,37.6569753992447],[127.0343293003676,37.6575151006101],[127.0243092997533,37.6514061007199],[127.0266247988635,37.6445887005827],[127.0188531995872,37.6387526998374]]]}},{"type":"Feature","properties":{"interval":30,"stationId":"355173148","profile":"off-peak"},"geometry":{"type":"Polygon","coordinates":[[[126.9948792995816,37.5806688010523],[127.0055176003063,37.5774380993937],[127.0135039004635,37.5846934980358],[127.0197547994542,37.577356700307206],[127.01262490013221,37.5725136008365],[127.0051754994589,37.57448480014],[127.0052877997532,37.5624967992809],[127.0183519000865,37.573643899181],[127.0277178996793,37.573364999504705],[127.0237584022115,37.5979121988004],[127.03506029981419,37.5980686995402],[127.03900900040679,37.6028398995791],[127.0447058999938,37.6135944997311],[127.0384890003189,37.616351704062104],[127.0361822015832,37.6246618976147],[127.0481199024141,37.635261497052795],[127.0537418984296,37.6332795008066],[127.0511689991423,37.6264981007447],[127.0578475980636,37.6226805020111],[127.0560879991612,37.6170547999997],[127.0614772001913,37.6197193986359],[127.06092860024219,37.6138435015098],[127.0738719995065,37.6140814996259],[127.07839029964599,37.6064305997086],[127.0816325002612,37.6195077992188],[127.080002400074,37.6273871996248],[127.0738941002274,37.6293755001794],[127.0753636998407,37.6387113980201],[127.0707400007847,37.6452900005118],[127.08804029921511,37.6582378976574],[127.0847979028018,37.6663362984823],[127.08855629904339,37.666168598649996],[127.0899685044806,37.674304299402806],[127.0783209995469,37.6785368029308],[127.05645080046459,37.668204001602604],[127.06071299853731,37.678955096606906],[127.05841630044131,37.6769191030634],[127.0461389022936,37.693173101694605],[127.04797790045461,37.696242998624705],[127.0454720021179,37.6988974998472],[127.0388368006098,37.6898258042375],[127.0364363030103,37.6925146015487],[127.0409601988707,37.671235000544705],[127.0191030000451,37.657902803012405],[127.01318900070099,37.658667200678295],[127.00683739898679,37.6388185027758],[127.0103966997768,37.6194664003827],[127.0171705982323,37.618569798592304],[127.0203304994051,37.612849700579595],[127.013512501492,37.6074731005065],[127.01199770099359,37.6136011996693],[127.0030744998672,37.613652200709595],[127.0094501980698,37.596481502318504],[126.9992771991188,37.5933238009327],[126.9948792995816,37.5806688010523]]]}},{"type":"Feature","properties":{"interval":60,"stationId":"355173148","profile":"off-peak"},"geometry":{"type":"Polygon","coordinates":[[[126.883310899911,37.5260622999826],[126.90933459937709,37.5171762990781],[126.9028632997971,37.5093870004296],[126.9084948995657,37.507254299814],[126.91720719976699,37.5119119986568],[126.9247991994743,37.5050309993273],[126.9306174002143,37.5131784981899],[126.9392156991129,37.504401099577805],[126.9561909010835,37.512640898697],[126.94298340021311,37.516735901064],[126.9376676000766,37.5130788002582],[126.93531300067859,37.5213123993503],[126.9537267991807,37.5293128998239],[126.9625855993945,37.5057945981353],[126.97087809843089,37.516393191213005],[126.9756016988895,37.505883099784995],[126.9716549993038,37.5024663000339],[127.0005890999507,37.495929899368],[127.00592599932,37.482552000620196],[127.0126437975954,37.4788500993117],[127.0260998995833,37.4853560986339],[127.0383490991734,37.4783277997288],[127.042100000272,37.483739999411696],[127.0487205997305,37.4823768998321],[127.0468179008611,37.487075799674],[127.05664559882419,37.4870533990693],[127.0561464988232,37.483458900315604],[127.0659767987089,37.4890795978183],[127.067489099403,37.4861023997879],[127.05527530053581,37.5020014994144],[127.0569962006765,37.5053888994046],[127.0777452997725,37.5114371990075],[127.0853986998449,37.5063862996609],[127.0923544999293,37.511878699617],[127.1054426003154,37.5069930996853],[127.10926120038961,37.515876899069],[127.11563869923191,37.5157573988251],[127.1118420015962,37.522995600129605],[127.1028939015547,37.5253121001058],[127.1022414033739,37.5355960968785],[127.1123994013646,37.545001394850594],[127.1105040001334,37.549661098394004],[127.09504510104719,37.5555421010952],[127.0962059041593,37.5686982996006],[127.10933870276929,37.5811040996067],[127.1075785026304,37.5971895967448],[127.1141072999332,37.6011227999241],[127.11367260114581,37.608510599208905],[127.106995201916,37.6129748987628],[127.1099983002222,37.6178963995602],[127.1044011010148,37.6148672008973],[127.1053885060976,37.6348586951016],[127.0972866066252,37.6334250042658],[127.0940393052405,37.6427760979347],[127.1005711025588,37.6477408948109],[127.1108232992576,37.6463872002342],[127.1111222000588,37.6499281989816],[127.11998489896841,37.6460869993963],[127.13025239952411,37.6486019986693],[127.1367763991508,37.6557945957056],[127.1339071038697,37.6578000987594],[127.1376646019274,37.6659181970077],[127.13323480055179,37.6737013008584],[127.1281564031563,37.6706925030688],[127.1197746101308,37.6750586023064],[127.0999610032562,37.6923615035062],[127.0884702032489,37.6901774079611],[127.08074840059051,37.6984590996454],[127.0808035015599,37.705861997699],[127.0751763019248,37.704829706548],[127.0719509051502,37.7126684987092],[127.0814762944954,37.7247166913977],[127.0990628995805,37.7286320997792],[127.1004853010557,37.7437174994591],[127.0911427007007,37.7635209948225],[127.0733654055068,37.7679469016326],[127.0772640959119,37.763973203839704],[127.0657624020683,37.763921006376904],[127.05911950429059,37.7711093991283],[127.0637316020119,37.7825196960191],[127.04866100222219,37.7898509991799],[127.0377331992106,37.7798303039056],[127.0281830006627,37.7857723006845],[127.02741429682061,37.774223202198],[127.0210340004269,37.772431501290406],[127.0348895947937,37.764213499165095],[127.0195014987617,37.754983301709096],[127.02276380170301,37.757200497869604],[127.0269477993315,37.7522137012446],[127.0285469993984,37.7555992996995],[127.0320664992316,37.7491532004811],[127.0111653987445,37.7370168053813],[127.0184370984134,37.7331739999587],[127.0216860934667,37.7241106957542],[127.0170103981424,37.715357104507795],[127.0273482948069,37.7074293972828],[127.0272228949323,37.703765600946596],[127.0159112999531,37.7012158004139],[127.02192239069569,37.676616906540396],[127.0118290007891,37.6826324005249],[127.0025081048458,37.6787118045267],[127.0005826942498,37.671500002636],[126.9940147008178,37.670908603227396],[126.99950249460251,37.658026303748706],[126.9901669039381,37.6594522023228],[126.99687689352011,37.650178505107],[126.9873351022259,37.6417648020786],[127.0004801916654,37.63362729854],[126.9842425052335,37.6267150064065],[126.9858843955151,37.5980129037517],[126.9767604032402,37.597603803682304],[126.9809666955141,37.595478900007805],[126.9764653997063,37.5912439005457],[126.95787200118599,37.5848118013857],[126.9491947002045,37.5991437005705],[126.9412375022538,37.5989707013253],[126.9356104006192,37.621764399900705],[126.9233749001678,37.6259553007889],[126.9207142019502,37.6301845973157],[126.9258818007111,37.6386001977644],[126.9165098005193,37.64338040077],[126.9120500999793,37.6356010005624],[126.9193908998808,37.6287006999959],[126.90885659998769,37.615258700514296],[126.914191699681,37.6046033999755],[126.9090706999454,37.5975391003872],[126.912478599259,37.587162999878],[126.9070011998673,37.5813987005423],[126.91285810074639,37.583469199447904],[126.91838840037809,37.5963467991663],[126.92642450024199,37.598320199064105],[126.93518829988419,37.5794060998888],[126.9465547981529,37.5768424000374],[126.942681702026,37.5761560007238],[126.9461282002656,37.5700180007085],[126.94250510079931,37.5637610010069],[126.9342167998005,37.5623975004128],[126.9212428002929,37.564261300500796],[126.9165067000829,37.5705525006808],[126.9158020001054,37.5593113006794],[126.9007722018202,37.5669698003706],[126.9004145001753,37.572305300392394],[126.9048716996602,37.550344800114296],[126.9095846988684,37.5456904994996],[126.9321079936749,37.5416509965246],[126.92934049644239,37.531586306589304],[126.9136870000992,37.5307860001282],[126.91637639936731,37.5204161007014],[126.905788200741,37.5271295001084],[126.8995637999205,37.523663902266],[126.8963478005193,37.5283494006794],[126.883310899911,37.5260622999826]]]}}]}