{"type":"FeatureCollection","features":[{"type":"Feature","properties":{"interval":15,"stationId":"355173377","profile":"off-peak"},"geometry":{"type":"Polygon","coordinates":[[[127.072875699839,37.5590066999439],[127.0753788996206,37.553440900139],[127.0842660986466,37.552397799302604],[127.0864586993765,37.546140699482905],[127.0969670987721,37.5470849985233],[127.09310299964869,37.539649400377705],[127.09980609842799,37.538264600239096],[127.0994498011574,37.541960596821006],[127.1123994013646,37.545001394850594],[127.1091007011613,37.5460656002431],[127.1112615026439,37.553053302087804],[127.0973988011866,37.5535221019064],[127.0802968007257,37.5614397012952],[127.072875699839,37.5590066999439]]]}},{"type":"Feature","properties":{"interval":30,"stationId":"355173377","profile":"off-peak"},"geometry":{"type":"Polygon","coordinates":[[[126.9896636993947,37.566760900432],[127.0108137999202,37.552695899061],[127.0168765993686,37.5533133998825],[127.0185386994265,37.5467894990766],[127.0419446967194,37.5512665988129],[127.038160300612,37.5459018014363],[127.0428564992157,37.5313979997789],[127.0343399997748,37.5278181012352],[127.0389346995977,37.5229357991957],[127.0359191995338,37.5171995006289],[127.0289695994037,37.516656700412696],[127.0293426997568,37.511265799738],[127.03840099982679,37.5141306990292],[127.0427522995475,37.50907029989],[127.0467807005402,37.516888698179],[127.05279749791829,37.513917399186994],[127.0601600003884,37.5209119992244],[127.0504103003762,37.524512500932],[127.0426092000668,37.5192996003032],[127.0404834003752,37.521845299620004],[127.0460562995538,37.5248621990619],[127.0418251026428,37.537772599716995],[127.0493092014286,37.5417603993611],[127.0604634995854,37.5400366993009],[127.05901999897681,37.5339047005497],[127.06653509924959,37.5287176006412],[127.07325300022339,37.527701099641604],[127.07862929973321,37.5347442996383],[127.09318180095549,37.5324630999136],[127.10174349961049,37.521240899842105],[127.0922049000922,37.512221600402995],[127.0974782997402,37.5088510998255],[127.0949107993111,37.5060783009474],[127.0879350016403,37.5081630000545],[127.0912239999024,37.513277199215494],[127.08441400144669,37.5164780002954],[127.0789861996799,37.5118324005369],[127.0849735992385,37.501189800217496],[127.0975435996008,37.497593099875104],[127.1097625997086,37.501025198873904],[127.1119742997853,37.495733501202],[127.1088367002727,37.4959071001966],[127.1195236993549,37.4916595996762],[127.1240646993665,37.4822206992203],[127.1241169002833,37.4949690987203],[127.1181073003393,37.4976177001626],[127.11388090113,37.5093663987106],[127.1196837002814,37.5112266994758],[127.1260134990046,37.5001080000469],[127.1301956001024,37.500973598678904],[127.1299069007508,37.5114168990435],[127.1367198997416,37.5139217980948],[127.1335493031817,37.5201137991674],[127.1540434998493,37.536404599348195],[127.1577932990202,37.549483897540696],[127.18168709992041,37.558607699069],[127.1642948000129,37.5625516001246],[127.16122539888961,37.558067202539405],[127.1557194000137,37.5613502008709],[127.12322780067359,37.5543190025193],[127.1142171096843,37.5592044976338],[127.1150274040609,37.5628167029283],[127.1086192001204,37.5598771010215],[127.0936708002301,37.5648385019592],[127.09104430378629,37.5738054985094],[127.097433003962,37.5789490972558],[127.0948084014786,37.5911963997972],[127.08971960097169,37.5995594000162],[127.0831142006186,37.5985866010941],[127.0814424003212,37.6104714993275],[127.0759965999152,37.612963700837504],[127.07469950000379,37.6014555009822],[127.080013799537,37.5977763998929],[127.0808289997255,37.5892069011563],[127.0763519000119,37.569032301287],[127.0719812000399,37.573244100547896],[127.0632726999863,37.5697419004903],[127.0567393001639,37.577016300111595],[127.0234808008184,37.5685997004772],[127.0116512000176,37.5680001009881],[127.00796049993309,37.572452300292404],[127.0061365994984,37.566955401311],[126.99776360015,37.5713474003171],[126.9896636993947,37.566760900432]]]}},{"type":"Feature","properties":{"interval":60,"stationId":"355173377","profile":"off-peak"},"geometry":{"type":"Polygon","coordinates":[[[126.8509299995367,37.5240525999036],[126.88697579977381,37.5193580990713],[126.8941218994336,37.5111507993186],[126.8888446991494,37.5049111005692],[126.89979600005519,37.5127873990007],[126.9082149991724,37.506586399628105],[126.9026948992542,37.4981740004214],[126.892749401049,37.5005539998052],[126.8901781993513,37.4897518004718],[126.88356950000579,37.4883771005591],[126.8861564989655,37.4825096997356],[126.89268969993711,37.4890196993774],[126.9020285996528,37.490033099645395],[126.9045230998485,37.495583698531995],[126.9147269988215,37.4947360991009],[126.9087811989189,37.4855564992894],[126.9147416997849,37.4837790987108],[126.9215741994088,37.490690898665996],[126.92122959936161,37.482685300936],[126.9324479989307,37.4762868996441],[126.9345069994706,37.4685302000744],[126.9383986002544,37.4759798993082],[126.9511186998564,37.4777814991414],[126.9622883995201,37.468731499695494],[126.9779310993658,37.4660721991746],[126.9806033997507,37.4710080979516],[126.9884666994664,37.4660825001595],[126.99016859954041,37.4565612994207],[126.99570889725949,37.4546053986619],[126.994640298814,37.448409499118796],[127.00218269753981,37.4411265035531],[127.00228639863,37.435085400618796],[126.9927916992101,37.430865400380604],[127.01043600127319,37.4342396961498],[127.012509902983,37.4436008963774],[127.0036067002151,37.449896600536],[127.0043290034947,37.4585220985696],[126.9957088994094,37.454605403112495],[126.9885779016484,37.457269300819],[126.9944067019124,37.468929797818],[127.0052131988968,37.4696947988275],[127.0089985987954,37.473225397817494],[127.0063786029428,37.4759685982264],[127.0143377979471,37.4729863001096],[127.02350519848011,37.4761747969628],[127.0247369982073,37.46546680171],[127.0312931988197,37.4625977989195],[127.0317250984021,37.457492599566805],[127.0450296990715,37.4594362000559],[127.04457879368509,37.4402141051215],[127.05127899753779,37.434967098665105],[127.0512361036048,37.4391122944768],[127.0660149005543,37.4347978984222],[127.0633288021466,37.4427550944741],[127.0673937994682,37.453968498057904],[127.0556312039646,37.4624398001842],[127.0568640006681,37.4735769953871],[127.0865052017244,37.475355996908796],[127.1009793990829,37.470323499212796],[127.1065933992106,37.4587360994698],[127.11579469763069,37.462988797790196],[127.1194199939955,37.4589331016612],[127.1167570002008,37.4293677028343],[127.1189864978825,37.4262662013103],[127.1241473992545,37.4313582991433],[127.1250384984761,37.4241083012683],[127.1188429995169,37.406371600506],[127.1032568004409,37.3998490010718],[127.10402169971981,37.393039700662705],[127.1086226981551,37.392589401085296],[127.1060425006743,37.3871798036703],[127.1136797990124,37.3821199008487],[127.1040592976975,37.372108099555795],[127.1078843992176,37.3600845999593],[127.1227170001895,37.3797034990339],[127.12576199900019,37.3784499991485],[127.1237782998056,37.3845687996213],[127.1319859991385,37.3827040999717],[127.1282745039824,37.3882299979086],[127.1378656997514,37.3917356995348],[127.1322664026935,37.403553200121095],[127.140614500307,37.4093522986973],[127.13816320234899,37.4250912936042],[127.1675699985845,37.432219998921504],[127.1787373990404,37.452205798216404],[127.1733926025742,37.4645855989365],[127.1589492030751,37.4689371021637],[127.1495365017413,37.483066698738604],[127.17015439879741,37.4825208982749],[127.16835660759949,37.4860355990904],[127.1737121016031,37.4906016988622],[127.16111810464399,37.4964304988573],[127.1652032008433,37.503649096503],[127.16949729814691,37.502791297060895],[127.1580534023237,37.5143512997021],[127.162758301434,37.525084898535304],[127.1605774020413,37.5357329964104],[127.16555289800999,37.5367605982574],[127.1662914985989,37.5312993009113],[127.18748410063601,37.541018994073596],[127.1977576961403,37.5224308001694],[127.2118209966394,37.5261193967542],[127.2162344000214,37.5329634985082],[127.2274334994688,37.5247816989541],[127.2427561021663,37.5325420979543],[127.23993800410689,37.5358014966965],[127.244346899698,37.540134192363794],[127.2298172066172,37.5465848059837],[127.2183981121464,37.5584451063037],[127.2108015018769,37.5584606002436],[127.20786860634949,37.573429005407796],[127.1998334058397,37.581132104849395],[127.169516004583,37.5782132993424],[127.171555999828,37.564815500179805],[127.1610240013075,37.5711337967362],[127.1511847002546,37.5621201029535],[127.1430426026123,37.5628965036991],[127.1370146001907,37.577087100011],[127.11713360466871,37.5806620026489],[127.1191898000588,37.6001965992251],[127.1055367005541,37.6180442993101],[127.1273919017736,37.6281958947095],[127.1330650001542,37.644343898070204],[127.138866897988,37.6382756033321],[127.1432454991006,37.643651697737],[127.148137396814,37.6410202994505],[127.1526772006831,37.6541561980596],[127.14379480127829,37.6600159006423],[127.1359272008492,37.6515002042944],[127.1268021999997,37.656755300587],[127.121397300769,37.647526201637405],[127.1134765997831,37.650470301029905],[127.1086916013444,37.642577601537205],[127.1031299004089,37.6425518040921],[127.103911795368,37.63769080302],[127.0901133009782,37.629182212028105],[127.0885636025279,37.640951300259],[127.08388870001801,37.6440368003419],[127.0899685044806,37.674304299402806],[127.07931000230741,37.6798793006889],[127.07388790398001,37.6775159039517],[127.06534480458241,37.6877606989231],[127.05533670063559,37.6895650004921],[127.0590118035171,37.7065208971531],[127.05132999945889,37.6968512007291],[127.0454720021179,37.6988974998472],[127.0520271005069,37.7072047992357],[127.0474613003444,37.7191580996661],[127.0532979985052,37.7219310002873],[127.05406430016109,37.7280989997393],[127.0459794004526,37.731395300579706],[127.0511451000399,37.736756899193004],[127.0489230007051,37.7413073000235],[127.0400725996887,37.7381685000649],[127.038028299798,37.729471100739296],[127.0450298992836,37.719535799736406],[127.03993840045409,37.7103508008922],[127.0452576989776,37.7030619000703],[127.0325231985601,37.68810770523471],[127.0410492978682,37.6774045005516],[127.0425205984265,37.6712859005376],[127.03704089957739,37.667737700381906],[127.04001909950709,37.662228200010205],[127.0205809000263,37.647034500550795],[127.0151518002821,37.650840899771],[127.0168725004786,37.6567362001324],[127.0112845003058,37.6586070007368],[127.01224299850959,37.630173900341106],[126.9955435996997,37.619934800238404],[127.0036126971662,37.600301803883696],[126.99119040248539,37.6015249017126],[126.9834042988751,37.5903590030729],[126.9667379998243,37.5925653005405],[126.9590580005043,37.5861974999329],[126.9493992010652,37.599714200579704],[126.9412374999656,37.5989707025209],[126.9367586034845,37.620131896542],[126.92302220071471,37.6273855007203],[126.9277507005615,37.6383674991903],[126.92320800054401,37.6380456029648],[126.9184441998457,37.6513614009122],[126.9106870010142,37.651411600793004],[126.9149082957584,37.6391517017291],[126.91135409686899,37.6341704997805],[126.9192716983476,37.628696599989595],[126.9077700001542,37.6161200002552],[126.9128742992402,37.6045020999442],[126.9081788996229,37.5999522003645],[126.9105328992953,37.589520799534],[126.9064057990232,37.5817715001154],[126.89365909946069,37.5771003005027],[126.9012655985342,37.5716972995701],[126.8968393002373,37.5616809008452],[126.9029242001482,37.5596731993263],[126.901936199633,37.5504201000446],[126.9075008992766,37.5468732000047],[126.9006024999036,37.5405379019997],[126.8947534009197,37.541688300526296],[126.8934667989106,37.5327458005633],[126.8827901003325,37.524809201225],[126.8734848004407,37.529748501163894],[126.8680737003523,37.5263592006838],[126.86458050063341,37.5307306004063],[126.8509299995367,37.5240525999036]]]}}]}