{"type":"FeatureCollection","features":[{"type":"Feature","properties":{"interval":15,"stationId":"355172742","profile":"off-peak"},"geometry":{"type":"Polygon","coordinates":[[[127.00114379968649,37.5709075003712],[127.00114869996071,37.5708727000012],[127.00117762465838,37.57090884302994],[127.00114379968649,37.5709075003712]]]}},{"type":"Feature","properties":{"interval":30,"stationId":"355172742","profile":"off-peak"},"geometry":{"type":"Polygon","coordinates":[[[127.00114379968649,37.5709075003712],[127.00114869996071,37.5708727000012],[127.00117762465838,37.57090884302994],[127.00114379968649,37.5709075003712]]]}},{"type":"Feature","properties":{"interval":60,"stationId":"355172742","profile":"off-peak"},"geometry":{"type":"Polygon","coordinates":[[[127.00114379968649,37.5709075003712],[127.00114869996071,37.5708727000012],[127.00117762465838,37.57090884302994],[127.00114379968649,37.5709075003712]]]}}]}