{"type":"FeatureCollection","features":[{"type":"Feature","properties":{"interval":15,"stationId":"355173436","profile":"off-peak"},"geometry":{"type":"Polygon","coordinates":[[[126.9068770995047,37.5552665002729],[126.91300989993091,37.5442963999337],[126.94617509856451,37.5435380984597],[126.94436639948391,37.5387150003748],[126.9662760999862,37.537754599632],[126.9540935006388,37.547715700492596],[126.9481055015694,37.5466787010906],[126.9453201016245,37.5522548002402],[126.9256407997986,37.558784800626896],[126.9153940996534,37.552230100602905],[126.91354800025161,37.556706499688595],[126.9068770995047,37.5552665002729]]]}},{"type":"Feature","properties":{"interval":30,"stationId":"355173436","profile":"off-peak"},"geometry":{"type":"Polygon","coordinates":[[[126.8821041980264,37.5249139022389],[126.88976799838031,37.513090300053605],[126.8869950993951,37.5039557009446],[126.8917448981892,37.4948471995172],[126.89819060036871,37.500324399880895],[126.8923499005204,37.5027128001137],[126.8958485000267,37.5076559994667],[126.8929588009633,37.50994509998851],[126.90398070016961,37.517707098948804],[126.91005539978,37.511467799188296],[126.9243601990584,37.512192300241104],[126.9579426978494,37.5318428947132],[126.958377699585,37.5228598005157],[126.97496549998439,37.5163262993726],[126.98401119944779,37.5201710993855],[126.9800573998889,37.526215599117],[126.984687300751,37.534782899423305],[126.9971652994206,37.5259661995023],[127.00888309938861,37.533143699524594],[127.0044534001864,37.5408233988492],[127.0097837002293,37.5492603987857],[127.0179864005523,37.5477078990816],[127.013455800835,37.551673399296696],[127.0203688003016,37.5682471000467],[127.0156588999307,37.5753859006382],[127.0118904992193,37.564071600233895],[127.0032201997047,37.5652941004955],[127.0050389985137,37.5543736005696],[127.0002803967809,37.5445045036465],[126.985914300174,37.545745500533805],[126.9828500002886,37.5448300003088],[126.986751799381,37.5361177009611],[126.9750456002223,37.537161400656004],[126.9738175002496,37.5457287994564],[126.9804300003766,37.5462699979821],[126.9788677004932,37.5537877995542],[126.998411099899,37.5610518995676],[127.0002389008123,37.5691440004696],[126.99237530040321,37.5685536997505],[126.992596901234,37.573771099806805],[126.9867547000121,37.575556000397896],[126.9856810991017,37.5707475002442],[126.99444349916381,37.5660829999892],[126.9840880006023,37.565985999845005],[126.9838610991902,37.5625879001744],[126.9794213010594,37.5769978000334],[126.9740970999263,37.577007800496],[126.96805000003201,37.570084701225],[126.9589709003112,37.570237300309905],[126.9552773997189,37.5588994020653],[126.9301516993247,37.5685051004462],[126.914433799782,37.5668729010065],[126.90740840321749,37.5756043999828],[126.91700899862559,37.5790364994955],[126.92012530036,37.600695798984795],[126.9260079995762,37.6027963000258],[126.92644760013431,37.608663299817],[126.9321724007002,37.6113225993175],[126.9292031003659,37.6124674009818],[126.9110883996302,37.600679200519004],[126.9002247000994,37.582334100481795],[126.88915820130019,37.582672201208794],[126.88943279810799,37.5770611009506],[126.8973679997295,37.5720315995485],[126.8908787007912,37.5692518013563],[126.88978060092569,37.5629696011782],[126.9015176991965,37.5524730999016],[126.90352539751771,37.5430219011375],[126.8922670997995,37.5425755006177],[126.88835779965949,37.5275779007796],[126.8821041980264,37.5249139022389]]]}},{"type":"Feature","properties":{"interval":60,"stationId":"355173436","profile":"off-peak"},"geometry":{"type":"Polygon","coordinates":[[[126.69726379901171,37.4716301001974],[126.7073195989044,37.464804499783696],[126.70747789961901,37.4762029979655],[126.7132241982258,37.476005097592804],[126.7164262017184,37.4844915974454],[126.7321093994824,37.4871023994411],[126.7378917990259,37.482196700234105],[126.74481540015299,37.484549299349496],[126.7449437012146,37.4896429006999],[126.7581237986173,37.4887552983582],[126.7638338986606,37.4785667971734],[126.7699786986626,37.4812754989413],[126.77745759844551,37.4738230013587],[126.78923209890381,37.4769135961806],[126.7884837959832,37.466589302205705],[126.7967263987688,37.4682696947606],[126.8012774989966,37.4607740968622],[126.8065809988149,37.4774634986183],[126.81941169919911,37.4753185002114],[126.8332433993655,37.488281896268],[126.8398614985115,37.473665199191],[126.8449051970217,37.474417798859996],[126.8466426996726,37.4645249009218],[126.8705347965238,37.4619579974243],[126.87054609905209,37.4579525010326],[126.88143559536441,37.4537959986657],[126.88077609743061,37.4461941001559],[126.89477169783561,37.4424996990805],[126.8966341003654,37.4458347975751],[126.9010072989706,37.4370443003986],[126.8982269995473,37.4315326010193],[126.9023251994823,37.4263040990569],[126.90662469889699,37.427814898521405],[126.904579700422,37.4253036009966],[126.90983800136259,37.4357997989777],[126.89933570106,37.442336499914006],[126.91411219996121,37.4519393989249],[126.9107413011596,37.4605726995176],[126.9179821003853,37.4703283988417],[126.9301047978622,37.4607651003421],[126.93792589917689,37.4606623989392],[126.94600539996661,37.468423198438096],[126.9463680976922,37.462461001246396],[126.954779800228,37.4659277997224],[126.9554267987655,37.461425902131204],[126.97480109595709,37.4587189957643],[126.9806033997507,37.4710080979516],[126.9884666994664,37.4660825001595],[126.9922611956211,37.4535594021874],[126.981562200902,37.4492647057559],[126.98549339595789,37.440431300105],[126.9766589997389,37.433895903323204],[126.97408039832011,37.4236057012122],[126.9845770975479,37.4229187973119],[126.9829581996086,37.4122927021804],[126.971408200464,37.4115490011068],[126.958510099924,37.399502002717895],[126.9421847005443,37.3935533027407],[126.9424352982926,37.3846985997134],[126.9552316991722,37.3825367001452],[126.9623806997933,37.388659398954104],[126.968590999434,37.385211499767294],[126.9845545997496,37.392120297161604],[126.987843699563,37.397010896301495],[126.9809268028508,37.3991004012141],[126.98423649999539,37.4152978965845],[126.9876929973965,37.4130337985723],[126.9960808986362,37.420816698560905],[126.993136400287,37.4148483024272],[127.0031705013169,37.4216594970288],[127.0126726001301,37.4216143997037],[127.0122910042737,37.4249157983232],[127.01956159877311,37.4237539988475],[127.0248279014996,37.4362627985253],[127.02058260230369,37.435722501836096],[127.0121255031049,37.449066798499395],[127.02138839417461,37.4488495991667],[127.02379660157949,37.4621519000475],[127.0122974061615,37.4621316025218],[127.01045950621409,37.469771899863396],[127.0245870022462,37.482275498514],[127.0271905001229,37.4837784995985],[127.033924197396,37.4626314999887],[127.0483620989911,37.4621339986416],[127.0476424007432,37.476572199276],[127.0521150013507,37.484389900514294],[127.0595107982236,37.483551896376504],[127.0763097998002,37.4920836993109],[127.0818427988391,37.4887305986385],[127.0855439000929,37.4941036998113],[127.0745987006097,37.4977076010834],[127.0745258004104,37.5032230969929],[127.088376599848,37.5013729996434],[127.0966639993544,37.5087046981315],[127.097353499414,37.500345399252],[127.11048769968,37.501301998553004],[127.1148019997745,37.496595199416305],[127.11310570077521,37.5088780004884],[127.1074646007682,37.510846300545296],[127.1167033003395,37.518690500628395],[127.1028939015547,37.5253121001058],[127.1040691015462,37.5406262918483],[127.1123994013646,37.545001394850594],[127.1186883990127,37.5276328004342],[127.1272651996331,37.5319222995628],[127.13364179935411,37.5268379001581],[127.1460208004506,37.5374457990709],[127.14318420005459,37.5424808994737],[127.1465420995533,37.550199399342894],[127.1408066004596,37.5516812007295],[127.1393221002512,37.542080800686904],[127.1307107002741,37.5387786005625],[127.1252094005188,37.543670900142104],[127.1337232001039,37.547959899506004],[127.1307124003602,37.553757499902304],[127.1155311007613,37.542114600975594],[127.1091007011613,37.5460656002431],[127.1112615026439,37.553053302087804],[127.0973988011866,37.5535221019064],[127.0960477047943,37.560141898622],[127.09040590037169,37.561415700405],[127.09104430378629,37.5738054985094],[127.097433003962,37.5789490972558],[127.09133420027801,37.5931962000602],[127.0984329000553,37.5992769994857],[127.0857427012446,37.6038274007126],[127.083264401449,37.6098458992529],[127.09912280029991,37.614321498703],[127.0969165001907,37.6251872973374],[127.0843974057159,37.6291195000627],[127.0841264995826,37.6247054024083],[127.0735699019026,37.6310421003801],[127.07568770145241,37.6390792990273],[127.0666345033855,37.6454372023028],[127.0695769004431,37.6492013985386],[127.0634388031845,37.654073198564],[127.07689979884121,37.658346898722996],[127.0767089009285,37.6645096012636],[127.06031230023001,37.6604570002662],[127.0522750009169,37.6531890010111],[127.0362450000679,37.6571833001507],[127.0246609991716,37.6479050012654],[127.019302601855,37.6507502012609],[127.0175699015782,37.6614723994428],[127.0080348979523,37.6645939008119],[127.0081908972402,37.6272587001143],[126.99489300010741,37.620419406149104],[126.99963219940899,37.6111483999932],[126.9943825003056,37.6110095001388],[126.9963571973186,37.6014656017719],[126.9761717004989,37.59178960221],[126.9619227013562,37.5963396010328],[126.9578310003115,37.5914372009884],[126.94773620271289,37.6101892071471],[126.9496179983373,37.6076441022373],[126.9430022005684,37.604849903652195],[126.9412485023221,37.609126699375395],[126.9437588066903,37.618373298963],[126.9500527003964,37.6206099967263],[126.949208701883,37.6275272975063],[126.9516968993948,37.6253319997016],[126.9272555009932,37.6501430005823],[126.9075273008483,37.6532374017694],[126.9087727917583,37.6289511973169],[126.9071369933941,37.6248349014332],[126.8983958021353,37.624057202210906],[126.8999835948517,37.6137810015191],[126.8956392995192,37.61284110096],[126.90121089663289,37.611796496682395],[126.9008392970045,37.6059978024811],[126.8939997999844,37.6013351015531],[126.88749540310171,37.6061081008477],[126.8815116018088,37.62742329896059],[126.8752022995548,37.622974800539204],[126.8616278990149,37.6237324011395],[126.8580466027924,37.6315472007382],[126.8561111999217,37.621730800404904],[126.8469884027576,37.629713700817504],[126.8478576016089,37.6353756968353],[126.8469883986806,37.6297137037417],[126.8424448032242,37.632192401263],[126.84211570053009,37.647869196026804],[126.8544300000837,37.6479499997097],[126.8491910054277,37.649307905266696],[126.8458898046778,37.6582751997724],[126.8500450005226,37.6607621972854],[126.8335325005431,37.6597144008082],[126.82888909952649,37.6425186022158],[126.813543000673,37.63775060312609],[126.81374490106771,37.649356998322304],[126.8051752027326,37.6563184987309],[126.8064581040353,37.6625198984936],[126.81127039922299,37.6628611981523],[126.7976235004893,37.672235900258094],[126.7995908014942,37.6776555992871],[126.7820084007596,37.6814707013603],[126.7767759001654,37.691734199894796],[126.7652388999459,37.6992854005996],[126.7573641997316,37.692931300953596],[126.7614073974774,37.6910933989565],[126.758256699243,37.6852514003114],[126.7677014993688,37.679665199892],[126.7569457003847,37.677550500966504],[126.7456652994632,37.682581701222404],[126.7389751002505,37.6798913012675],[126.7415500993028,37.671045699597],[126.7622422980318,37.6610524992199],[126.7791599988024,37.631956898689296],[126.8036184976571,37.6272504983884],[126.7990479992341,37.621136902095806],[126.804198697551,37.6198503008074],[126.8115995946542,37.6002448977958],[126.8274720948983,37.593520291500404],[126.8310088003069,37.594307797744],[126.82833480179109,37.600493699527],[126.83906559968119,37.6048205993203],[126.835974299918,37.5990962003379],[126.8485489000157,37.597385698548294],[126.8567950998443,37.5786619025709],[126.8641757976413,37.5739832002595],[126.8558023060148,37.567675706567],[126.8348612077972,37.5787932067942],[126.8168942009732,37.580768501483796],[126.8117658018776,37.5868703997591],[126.7898682003568,37.5864119010623],[126.78661289800979,37.5787482034993],[126.79347060266211,37.583896698085496],[126.7984296986404,37.581064900109304],[126.79891689954789,37.577712100643],[126.7868125023315,37.5761432007323],[126.7936973959229,37.5670304024866],[126.7993937003088,37.5758302957253],[126.8043332988424,37.5680287006308],[126.7984198005241,37.563155202025094],[126.8165001998018,37.5452370967969],[126.82314319883001,37.5455919996813],[126.8157820006215,37.5378082010304],[126.7991161984364,37.5375927030439],[126.7994939974746,37.532399502766694],[126.794963602005,37.5361854989807],[126.7924971000356,37.5294755028578],[126.7876692999334,37.5305440003242],[126.7835008998348,37.5251902010709],[126.7899923971386,37.5143791993118],[126.7827634983235,37.5079280005355],[126.761410400181,37.5063845021347],[126.7618696995997,37.499414399817596],[126.7689844986806,37.5027593993857],[126.77710329962679,37.4967716999361],[126.78288309849651,37.5002775982725],[126.78454580029761,37.4921850013316],[126.7718701002382,37.4892953004559],[126.76740250048441,37.4952156998454],[126.7520427997118,37.4968311004882],[126.73514760081521,37.4878214013647],[126.7212391998636,37.5004567009927],[126.7164977990421,37.487618101456796],[126.7101178996999,37.4840217011554],[126.7140025979394,37.4825274018963],[126.69726379901171,37.4716301001974]]]}}]}