{"type":"FeatureCollection","features":[{"type":"Feature","properties":{"interval":15,"stationId":"355173569","profile":"off-peak"},"geometry":{"type":"Polygon","coordinates":[[[127.13413919968251,37.4663666998872],[127.14496069615029,37.4502193012055],[127.1620976999452,37.4500816985734],[127.15902720269659,37.4623815969697],[127.13413919968251,37.4663666998872]]]}},{"type":"Feature","properties":{"interval":30,"stationId":"355173569","profile":"off-peak"},"geometry":{"type":"Polygon","coordinates":[[[127.08444529878349,37.5053706998061],[127.0961560985276,37.4993030994778],[127.1117658992135,37.4998320997856],[127.10377049852539,37.4916755005197],[127.0976044013035,37.4937701002345],[127.0945979982709,37.4843824010212],[127.1053019981368,37.4796786002256],[127.1077086006096,37.4886707975346],[127.11765059838021,37.4776243974717],[127.1139059998694,37.4741049002914],[127.118371697427,37.4722583999558],[127.11651959842641,37.4681547997581],[127.1112996989296,37.4643837001056],[127.1260508984112,37.4657021986118],[127.1210428994371,37.451835200522],[127.1239716967933,37.441797402598596],[127.11981930094571,37.442326102069906],[127.1229968001545,37.4295440999469],[127.12821399742,37.4257381996226],[127.1452221998596,37.4290741993102],[127.15603159674451,37.439537696796705],[127.15882089841979,37.434335698526496],[127.1675687016304,37.438927998229],[127.1729898997111,37.452404398309596],[127.1719746006314,37.4645875990729],[127.1620243040358,37.471100798951205],[127.15591030275681,37.4653474035249],[127.14782290066279,37.4781371993998],[127.1477331989181,37.4748543000434],[127.1387797003253,37.477230900618004],[127.1418021001194,37.4825210997853],[127.13273360025599,37.4912895003561],[127.13235000072291,37.5066900002219],[127.1261661006974,37.505515101033296],[127.1288458999704,37.5074056996952],[127.123931099828,37.5094773007015],[127.1236592993533,37.50346850032],[127.11720000096669,37.5021182016559],[127.11715990063081,37.52125920008],[127.0979189004019,37.5163844003733],[127.1014386987343,37.5077438008531],[127.08444529878349,37.5053706998061]]]}},{"type":"Feature","properties":{"interval":60,"stationId":"355173569","profile":"off-peak"},"geometry":{"type":"Polygon","coordinates":[[[126.8903982991217,37.5249174001826],[126.9217397984992,37.5158245995583],[126.9259406985062,37.510908799493],[126.92263350034091,37.50905500089419],[126.92936019772121,37.513179498801],[126.93024750014749,37.507806000421105],[126.94815709957031,37.501212299487],[126.9533970988721,37.4930215011858],[126.9588007000361,37.4945208996021],[126.95092470031071,37.5009708996261],[126.95729609740309,37.503370697794495],[126.95929409875339,37.4979698995589],[126.9627554997337,37.5014298975209],[126.9679070991249,37.496711298855004],[126.98051249877591,37.4971903972969],[126.96042700045399,37.4797075005265],[126.9493445994448,37.4829248002971],[126.96325819987,37.473297699095504],[126.9772821000539,37.4707570997847],[126.9924097986437,37.4796569966876],[126.99976239768219,37.474400599268606],[127.0139371983477,37.476250196845704],[127.0172239994496,37.471869297766],[127.0271905001229,37.4837784995985],[127.0266104987753,37.473247200269],[127.037715999865,37.462484099692695],[127.0452111995783,37.4620976001239],[127.047455701457,37.4687608972026],[127.05449179897239,37.471134296922],[127.06474900063921,37.4693382960324],[127.077111598348,37.4750565942953],[127.0874826987002,37.4704252991839],[127.0854170988005,37.4617762011394],[127.0933442981235,37.4599197993856],[127.0928760010505,37.4542988015361],[127.1038920982426,37.449500998001895],[127.1179704905194,37.4517759956982],[127.1167570002008,37.4293677028343],[127.09716609931989,37.4260933011291],[127.1083571956754,37.417741898402504],[127.1096365990438,37.409146999448694],[127.1064626984723,37.403966901428504],[127.10031470112,37.4077244011513],[127.0957274973861,37.3822275040559],[127.0892435012435,37.3843844025824],[127.0925983915127,37.3719990032928],[127.0859709982461,37.3521936035811],[127.08855129759661,37.3504814998575],[127.0859710040196,37.3521936001918],[127.0943203981251,37.3630062940914],[127.0979067945387,37.355956301141404],[127.088276499868,37.3453938009301],[127.09047729875161,37.3379430021478],[127.0869910997129,37.3374064008674],[127.0923732971672,37.332895800618005],[127.0828587016189,37.3283288014491],[127.0832285989241,37.3213045016597],[127.0706596000156,37.3161633011709],[127.074001298135,37.303035103793505],[127.0635571047296,37.3040198003441],[127.0624442991894,37.2988016000563],[127.0689727992642,37.2964396994916],[127.06482709980611,37.2915702004603],[127.0779277003196,37.295370799082804],[127.0768979003149,37.3061019984289],[127.0864113995333,37.3053365996455],[127.09461590066489,37.315364599552005],[127.1045642978797,37.3092271999028],[127.0966834993921,37.3006000002785],[127.09837429970871,37.292713499353795],[127.1021225012597,37.2955994980579],[127.1073918969804,37.2921954996218],[127.10426789926619,37.2851391009715],[127.1017882012972,37.287924400011704],[127.10974829816571,37.2670470010547],[127.10493149879261,37.260817899368696],[127.108868398465,37.261788496951205],[127.1101984011863,37.2717519989141],[127.12200489911669,37.2730660983784],[127.12737809958,37.2682033993249],[127.1217654049953,37.2786375984382],[127.1222534015971,37.290432200816],[127.11598350287589,37.2924387002574],[127.1142924063538,37.3112017964541],[127.12426760099319,37.3297025989421],[127.1211275011456,37.338162397532],[127.1273969008515,37.339013399525996],[127.12718220742379,37.358809798518806],[127.133727802628,37.3680033959677],[127.1476865001115,37.3728328992899],[127.1434122040818,37.381251596923796],[127.15217130041141,37.3843751990409],[127.1413861055956,37.3908833013815],[127.1496505030108,37.403501497245095],[127.1592189002308,37.4045102992373],[127.15752240201451,37.4194621983186],[127.1722662004126,37.4227468987637],[127.1711997025294,37.4304408932925],[127.1841354994853,37.4279217989347],[127.1842897062565,37.4364983962778],[127.1903310034295,37.4433021952109],[127.1948093990531,37.441730996958896],[127.19086090442191,37.4439392023746],[127.1937825067574,37.468254691827305],[127.182399503013,37.4747691998395],[127.1852607004935,37.4812241014457],[127.1701544058017,37.482520902605096],[127.170957102755,37.4931658974358],[127.170578198796,37.4897827029745],[127.16111810464399,37.4964304988573],[127.1684700020516,37.5063640997975],[127.1598728024389,37.510260000461805],[127.1553404012737,37.517341100346904],[127.1596831994954,37.5201346985783],[127.1510777040553,37.526560100746394],[127.1602526961374,37.529942098948396],[127.1599821995932,37.5412543984112],[127.15327160349,37.5402638058156],[127.1577932990202,37.549483897540696],[127.1683046999508,37.549658099556304],[127.1814260019855,37.560068901528396],[127.1497605016788,37.5632577018159],[127.1489863003175,37.558843603535905],[127.1448429037372,37.5619093021659],[127.1399924016646,37.5560290052629],[127.1353438011298,37.566412399974496],[127.1259341948053,37.5589419073938],[127.0969278049465,37.5635443999243],[127.0959913025321,37.5768064956804],[127.1003506010444,37.579637296567604],[127.0971313003802,37.600374699727304],[127.0825291005825,37.6066263015112],[127.08358870059571,37.613008799667206],[127.0712392999787,37.6293490021006],[127.0723885998917,37.5987199000333],[127.07944529902541,37.579428099984604],[127.0766069001114,37.5737578008123],[127.0454834015267,37.5780398009847],[127.0469984004314,37.5853546000027],[127.0429499987639,37.5787699996269],[127.0321105995855,37.5749714001699],[127.0231593004562,37.5778697007917],[127.0006713998778,37.5716935006375],[126.9901160002305,37.5762871008882],[126.98761779929309,37.569164600404804],[126.9812060008093,37.5701312999455],[126.97359610085769,37.5636176004478],[127.0022373993384,37.5598713995655],[127.0068888993068,37.5558056008591],[127.0023911994588,37.5471279009394],[127.014463399471,37.5505045001209],[127.0112415003116,37.5416006010175],[127.0242701989571,37.5312611997403],[127.0124065003083,37.5278878034352],[127.0102327995609,37.5184777020705],[127.0030453953418,37.5141234067652],[126.99453820115579,37.518484901197596],[126.9948010975796,37.5123900047936],[126.98225230228459,37.5043262024756],[126.9693090038014,37.507606207965196],[126.9713472017632,37.5161886993827],[126.9830335979017,37.5198066995862],[126.9679798012762,37.5271948998531],[126.9769050991805,37.5332696996319],[126.9720385004143,37.5482073000074],[126.9702782998938,37.533519701833],[126.9624803002026,37.533979400086],[126.96330879953459,37.5242332997879],[126.96980719919631,37.5168811001913],[126.9651209038826,37.5094379076345],[126.9560014012205,37.5190756025993],[126.95360099966611,37.5150279003523],[126.931855801672,37.5136910012018],[126.92913060213249,37.516966198034396],[126.93547390015931,37.5169832986604],[126.93340930160369,37.5289511996923],[126.9136870000992,37.5307860001282],[126.9181190988665,37.5208549999458],[126.91075240079951,37.5206359003404],[126.90593030189409,37.5239717004066],[126.9030677998412,37.5386311036075],[126.9048235992562,37.5358988000377],[126.8976836999559,37.5370871009976],[126.89743749907069,37.5297741004607],[126.8903982991217,37.5249174001826]]]}}]}