{"type":"FeatureCollection","features":[{"type":"Feature","properties":{"interval":15,"stationId":"3642451903","profile":"off-peak"},"geometry":{"type":"Polygon","coordinates":[[[127.040317196505,37.295940299452795],[127.0495783993999,37.2969634997718],[127.0420612976692,37.2884029010349],[127.0510365974979,37.2828202005563],[127.0614992019784,37.2854302987323],[127.06077860005371,37.2924812997435],[127.0542524027085,37.292212900658804],[127.05707630012921,37.2935945995945],[127.0458905008026,37.3001061997505],[127.04167080178391,37.3009520014698],[127.040317196505,37.295940299452795]]]}},{"type":"Feature","properties":{"interval":30,"stationId":"3642451903","profile":"off-peak"},"geometry":{"type":"Polygon","coordinates":[[[127.02772399858321,37.2924111996552],[127.03249929945049,37.2811155998836],[127.0452257986957,37.2716506985469],[127.06275069912489,37.2723011979636],[127.0727065033929,37.2884134968337],[127.0831864970741,37.2938485002142],[127.0822998008152,37.3032227996844],[127.0887919995961,37.3055297994782],[127.0936532996549,37.3174083986755],[127.1022192996586,37.3195191997479],[127.1030035006309,37.325929199310195],[127.0932771007175,37.3294848006917],[127.0683234002142,37.3182061003104],[127.0714013971962,37.30736190148539],[127.0635571050405,37.3040198048275],[127.0658958974944,37.2973407992284],[127.0607735026168,37.2942423023269],[127.0480070001391,37.300464001419996],[127.0541355000491,37.311536198742],[127.0471669035814,37.31672180235871],[127.0420672985304,37.3098439994593],[127.0327961010677,37.308607704478206],[127.02772399858321,37.2924111996552]]]}},{"type":"Feature","properties":{"interval":60,"stationId":"3642451903","profile":"off-peak"},"geometry":{"type":"Polygon","coordinates":[[[127.001970899223,37.2961174000941],[127.0139427983237,37.2755072999419],[127.0134076988114,37.2675991020451],[127.0344171983944,37.251254700748696],[127.0455141015624,37.2554558959134],[127.053041999732,37.253142898846],[127.0570969023349,37.2579991984601],[127.05927729997161,37.252006100574306],[127.0694303003388,37.255800798066204],[127.0713522989895,37.2495267001894],[127.0741512001826,37.251023799890795],[127.07172420160981,37.2574406987723],[127.079284798753,37.257072999578895],[127.08468840078801,37.2690496000114],[127.0933988008373,37.2729183980338],[127.0835757039834,37.2804384005734],[127.08799839495501,37.2769298995172],[127.0794418010006,37.2779826001914],[127.0804320036729,37.2880553969939],[127.08986160169651,37.2951195963461],[127.1073918969804,37.2921954996218],[127.10426789926619,37.2851391009715],[127.1017882012972,37.287924400011704],[127.10974829816571,37.2670470010547],[127.10493149879261,37.260817899368696],[127.108868398465,37.261788496951205],[127.1101984011863,37.2717519989141],[127.12200489911669,37.2730660983784],[127.12737809958,37.2682033993249],[127.1217654049953,37.2786375984382],[127.1222534015971,37.290432200816],[127.11598350287589,37.2924387002574],[127.1142924063538,37.3112017964541],[127.1162401044061,37.3169387907171],[127.1239144006995,37.3171615982809],[127.1265480020266,37.329171797694194],[127.12965029913819,37.3285220982065],[127.12824840186471,37.3385393973651],[127.1344108997895,37.3517680967572],[127.1276647069413,37.3532833040453],[127.12718220742379,37.358809798518806],[127.13475440075811,37.3753044990154],[127.1418889998955,37.3802123976374],[127.143120003409,37.395179998087],[127.13570610179539,37.4010904984761],[127.1443320990856,37.4075638996688],[127.1431714006165,37.41499679983],[127.1373578029402,37.4178439006343],[127.13816320234899,37.4250912936042],[127.1502147995374,37.4399671977967],[127.1623835004484,37.4418315996335],[127.1620540004708,37.4564417005485],[127.14538520039801,37.4434373003534],[127.1244673996823,37.4555636035743],[127.1182706986871,37.4305248016772],[127.1253111994581,37.421661600139004],[127.12113709871299,37.416502102627206],[127.11832720072519,37.4217278999718],[127.1193261984183,37.4118205011059],[127.1135518022694,37.4138081005383],[127.11053269911149,37.4069922001871],[127.1037247998645,37.405589902712],[127.0994178025707,37.411137400586504],[127.0936509002261,37.4082496006059],[127.10032819901011,37.397639500960096],[127.0903041994589,37.402410701836594],[127.0925983969973,37.3719990107432],[127.0774314951184,37.354707505824805],[127.07953089625539,37.344740103176605],[127.06959260069219,37.342065900956904],[127.07317919629389,37.333978904460295],[127.0569869001405,37.336991700371],[127.05672439750269,37.329395202867],[127.0490554019446,37.3238993028548],[127.04410200185859,37.3313830003486],[127.03689640123291,37.3297858022727],[127.0352787950745,37.3171447012075],[127.03090999944331,37.3131864051658],[127.02452460158811,37.3204699009481],[127.0173812025032,37.3192984024273],[127.001970899223,37.2961174000941]]]}}]}