{"type":"FeatureCollection","features":[{"type":"Feature","properties":{"interval":15,"stationId":"3823777524","profile":"off-peak"},"geometry":{"type":"Polygon","coordinates":[[[127.0690837997189,37.5481404000289],[127.075155599362,37.545008099064],[127.0927948011061,37.5692627975349],[127.0957611011114,37.5797042995934],[127.0880254000907,37.5975498999954],[127.0824838995768,37.5948592005274],[127.085758398991,37.584886299576404],[127.077119800328,37.5727755020859],[127.0788301992436,37.5629096999961],[127.07359940068311,37.5598711005815],[127.0766913994176,37.5519610001582],[127.0690837997189,37.5481404000289]]]}},{"type":"Feature","properties":{"interval":30,"stationId":"3823777524","profile":"off-peak"},"geometry":{"type":"Polygon","coordinates":[[[126.9945099990617,37.5665217998259],[127.0089201993474,37.5599020993598],[127.00953919988311,37.5532078008073],[127.01592389997181,37.555340799187505],[127.0207920994646,37.5477024000811],[127.0282658996663,37.5528503991144],[127.0329161007134,37.548561897362404],[127.03760079928081,37.553360398932405],[127.0419446967194,37.5512665988129],[127.0386614998271,37.5453580002277],[127.0444665000014,37.5377957996938],[127.0493092014286,37.5417603993611],[127.0571964948105,37.530229498530694],[127.06331740055231,37.5304904995096],[127.0630166008814,37.522088607897],[127.0475014004825,37.525779100794004],[127.0428565055,37.531398004729105],[127.03594130006131,37.530341800526],[127.03384650025319,37.520022400711206],[127.02108710047351,37.5199544002363],[127.01477660024851,37.5091799022273],[127.011199602048,37.5122950007394],[127.00335999966,37.505575800071504],[127.0065710988833,37.5019369990829],[127.0166164001243,37.5089808995466],[127.02965889946461,37.4931652997755],[127.0296182005775,37.5051496996823],[127.0403713997323,37.5077097992343],[127.05056949885619,37.5012307988309],[127.05235570058251,37.506889000600104],[127.0456553007786,37.5078893001131],[127.0588151986187,37.517121698634796],[127.0618239003821,37.514535199247696],[127.0591598028011,37.5231685984635],[127.06268649927439,37.521906099726],[127.0665351014744,37.5287175997148],[127.08016090072529,37.5267911996867],[127.079866300784,37.5323304999816],[127.09318179872639,37.5324630985279],[127.0994498011574,37.541960596821006],[127.1123994013646,37.545001394850594],[127.1169667991896,37.5269193003527],[127.1284432992324,37.5297857994336],[127.1335332983614,37.5180693002214],[127.12755510040529,37.5183743014287],[127.1293919984399,37.5138878993929],[127.1234189993229,37.507156499993],[127.1300784996598,37.506800299709205],[127.1429189002486,37.5339782995857],[127.1408755005729,37.5396490998611],[127.1298806005327,37.5435601000765],[127.1356392000831,37.546282999730906],[127.1301796010015,37.557359900077],[127.11718760051009,37.5436095013927],[127.10931310132429,37.5483632996918],[127.1108252999576,37.5541401004334],[127.09504510104719,37.5555421010952],[127.0962059041593,37.5686982996006],[127.10274989761531,37.5717620965368],[127.1062470008317,37.5820507003202],[127.1021798999449,37.5986023994339],[127.0847134021457,37.609098799640996],[127.0917691028555,37.6226165998003],[127.0742465998749,37.629456400098505],[127.0753636998407,37.6387113980201],[127.0626135018469,37.649996701007105],[127.0631099009473,37.6581698003879],[127.05713889981669,37.6549032006212],[127.0576036992776,37.6454196012161],[127.0640022988345,37.6414858002658],[127.0625985997568,37.632434100009796],[127.0681492964089,37.6293831986424],[127.0656764980414,37.6239226011459],[127.0697045985376,37.619782999862196],[127.0657485993826,37.614481000525195],[127.0726800977492,37.6112863999981],[127.067857501294,37.6028046008327],[127.0725977995201,37.5876333003849],[127.0632726999863,37.5697419004903],[127.0549108004908,37.5762309003733],[127.0452318994446,37.5759630007218],[127.02438079996111,37.5676269002162],[127.0190040998998,37.570903900268796],[127.0141042998711,37.565849800689],[126.9993690005003,37.5695620002192],[126.9945099990617,37.5665217998259]]]}},{"type":"Feature","properties":{"interval":60,"stationId":"3823777524","profile":"off-peak"},"geometry":{"type":"Polygon","coordinates":[[[126.852306599261,37.5248007001997],[126.8752414991644,37.520185399375904],[126.8805540988176,37.5238077982486],[126.8907711994777,37.519673599193],[126.8928653995264,37.5122255991543],[126.9052213990374,37.5153044995726],[126.9028633001065,37.509387000515396],[126.9059009996181,37.5092424992908],[126.8989591989628,37.501264899952005],[126.8923499005204,37.5027128001137],[126.8821015997697,37.4905834008224],[126.87573899879119,37.478133900600106],[126.88030399853629,37.4757019997683],[126.8833902011324,37.4806065974098],[126.90400129931591,37.486142299171895],[126.9227500981036,37.4802987980183],[126.93323579937281,37.4701169994006],[126.9511186998564,37.4777814991414],[126.9578834957586,37.4685551986163],[126.95371620421301,37.4703374008129],[126.9562774016518,37.4741764969738],[126.96207339824869,37.472514798523996],[126.96423119820611,37.4659469989328],[126.9760630982995,37.4642565979892],[126.9806033997507,37.4710080979516],[126.9884666994664,37.4660825001595],[126.9914109989426,37.4451236991351],[126.99936479980829,37.4383811017412],[126.98466100074491,37.4311341025752],[126.9831299994093,37.4233687003356],[126.9886674969443,37.4196604007127],[127.0174707000495,37.436040499771096],[127.01782110278211,37.441856196458],[127.012154403076,37.444976502589704],[127.0150043993806,37.4574452986298],[127.0058475064104,37.4623663998264],[127.0096195008647,37.4733925990042],[127.01983249782731,37.4685739001605],[127.0202568989355,37.4610996016204],[127.0288213955605,37.4534607027716],[127.0428341941796,37.4527490978072],[127.04457879368509,37.4402141051215],[127.0407989974649,37.4382830070526],[127.0472525979354,37.4322286017697],[127.0699220000119,37.4341684996747],[127.0723027017981,37.442386196871205],[127.0608600031131,37.4610822006421],[127.0609518018377,37.472155197038504],[127.06604179870719,37.473207796130495],[127.0653840994555,37.4694233999278],[127.0945594983742,37.477512398464405],[127.0982653995656,37.4733188999429],[127.1108424992682,37.4732164984722],[127.11130179877871,37.4649553016436],[127.1173853960301,37.462511298083],[127.1260508984112,37.4657021986118],[127.1210428994371,37.451835200522],[127.1239716967933,37.441797402598596],[127.11981930094571,37.442326102069906],[127.1195983983402,37.438045499474],[127.12821399742,37.4257381996226],[127.1444874983183,37.4307555989895],[127.15317829818059,37.441106397360905],[127.16125269992821,37.4371431996135],[127.17037260093349,37.4555443978843],[127.1442182009459,37.4745298989033],[127.15275249996131,37.4846083974538],[127.17015439879741,37.4825208982749],[127.170957102755,37.4931658974358],[127.170578198796,37.4897827029745],[127.16111810464399,37.4964304988573],[127.1684700020516,37.5063640997975],[127.1598728014242,37.510260002656004],[127.1569168020502,37.5214497973074],[127.1596831994954,37.5201346985783],[127.1510777040553,37.526560100746394],[127.1602526961374,37.529942098948396],[127.1627273003172,37.5414331980076],[127.15744890385581,37.5459042969648],[127.1692154957678,37.540961900394],[127.1771230002129,37.549978599596],[127.18598990048329,37.5483085997493],[127.1878442995474,37.5542157991999],[127.1962521973284,37.5485269004469],[127.19330060028,37.5471197018541],[127.197002898798,37.537033799727006],[127.2026738995295,37.5323628989178],[127.23245059989571,37.5380668985121],[127.2265295007102,37.5411901007079],[127.2272965002105,37.5454776999205],[127.2153518009951,37.5467255993977],[127.20160760107821,37.5717745014901],[127.1947893014999,37.5749436990885],[127.1854988998904,37.575273700417796],[127.1694480010275,37.563786201366206],[127.15686890069681,37.569307700501206],[127.1511847002546,37.5621201029535],[127.13305430176389,37.5679201058674],[127.1311507018877,37.578296797513794],[127.12476510258121,37.5840486012297],[127.1264226015808,37.5911057972227],[127.13791929916769,37.5845895984614],[127.1538598982948,37.589617899730904],[127.15447519843639,37.5853980008638],[127.1672458004441,37.5937641996926],[127.1598548046429,37.600891498984204],[127.1614158030819,37.604426495449204],[127.1695172981561,37.6047618972049],[127.1737920994385,37.6000635003444],[127.1809769983556,37.608356896892694],[127.1873389981929,37.604642998598806],[127.1875587989152,37.5947972000153],[127.19453969970671,37.5955806983508],[127.2142180936505,37.5788367945922],[127.2205959000081,37.5797398996565],[127.21597630161139,37.5838472975323],[127.2225687996145,37.5875002995728],[127.21444200472291,37.5959262984974],[127.21234200012421,37.5902173016348],[127.2026828026743,37.592714102738704],[127.2059552015217,37.6018918948707],[127.2108536982243,37.6027612949614],[127.2036928068771,37.607021500771204],[127.2036920068779,37.6125200952726],[127.1961316014954,37.6156155013094],[127.2000287943463,37.6112894021017],[127.1959621984129,37.607100106291],[127.1905159038592,37.6123739010172],[127.1846087007828,37.6085392008545],[127.18163990091459,37.617669898914805],[127.1752404012402,37.6176107020535],[127.1757152011006,37.613290201203604],[127.16877940047681,37.616411499647995],[127.166872303376,37.6264512010009],[127.1328776013098,37.620484004495395],[127.1317722974239,37.6119615039591],[127.1139338010733,37.6201565019461],[127.118348697496,37.6128005998467],[127.1150028009004,37.610456000702],[127.1189472958711,37.6091920985274],[127.1139402008782,37.607053300666195],[127.1132613003149,37.6235713985442],[127.1273918948693,37.628195896636804],[127.1271851010312,37.642649399900705],[127.1350083996185,37.6445320981916],[127.138866897988,37.6382756033321],[127.1432454991006,37.643651697737],[127.148137396814,37.6410202994505],[127.15350880081739,37.6503521989038],[127.146604704685,37.6589211988384],[127.1382461017081,37.6574295022319],[127.1359272008492,37.6515002042944],[127.1284483013307,37.654919801040805],[127.121397300769,37.647526201637405],[127.1133849998691,37.6494138007606],[127.1156358993016,37.6442873996447],[127.1057415995195,37.6436432003788],[127.0972866019932,37.6334250072858],[127.0920480040142,37.657501698881696],[127.0958514002108,37.6594587969246],[127.09600960324231,37.679204399914305],[127.0706118026707,37.6903870036989],[127.0677642010913,37.694651999396896],[127.0722017966537,37.701476892572],[127.0608438046462,37.7130400023432],[127.0518277037665,37.7145186006834],[127.06076469978699,37.7262317989548],[127.0551993002628,37.7286703003209],[127.05907240008881,37.7470196000534],[127.0432335002789,37.747863900424],[127.02959600032929,37.7403653009936],[127.0366428994219,37.733120900429306],[127.0338103985244,37.7276294999704],[127.0423697980779,37.7125062987539],[127.0336393969261,37.708826699862605],[127.0385632942592,37.695570807451396],[127.0294291033934,37.6985486044736],[127.0303199936146,37.6937451980611],[127.0235952003394,37.6885522032541],[127.0323290993066,37.671087302616705],[127.0188299005077,37.6511537028125],[127.0106851999207,37.6574976008355],[127.00873659855361,37.6238079003498],[126.9964492988119,37.6183019015663],[126.9999596983327,37.6060681986513],[127.0047952975977,37.6064662979415],[127.0036126987803,37.600301804105996],[126.99119040248539,37.6015249017126],[126.9854084002164,37.5921530021279],[126.95787200118599,37.5848118013857],[126.9491947002045,37.5991437005705],[126.9413837020202,37.598611300922805],[126.9356104006192,37.621764399900705],[126.9233749001678,37.6259553007889],[126.9207142019502,37.6301845973157],[126.9258818007111,37.6386001977644],[126.9165098005193,37.64338040077],[126.9120500999793,37.6356010005624],[126.9218531984292,37.6272775010376],[126.9129370003495,37.6238580030575],[126.9096091005172,37.6152878006672],[126.9146985996817,37.6042401999764],[126.9068432994694,37.5838344002089],[126.91285810074639,37.583469199447904],[126.9170852008643,37.594034399169],[126.9251725001761,37.5974832996995],[126.9352681999201,37.579343000063105],[126.9465547981529,37.5768424000374],[126.942681702026,37.5761560007238],[126.9461282002656,37.5700180007085],[126.93426549959979,37.5653402005018],[126.9165067000829,37.5705525006808],[126.9094120999922,37.560551600698794],[126.9007722018202,37.5669698003706],[126.9060417983634,37.548690199721406],[126.9018985998239,37.5393747027071],[126.8952210999389,37.5410137003468],[126.89002169853211,37.527905700510495],[126.8808288993017,37.5239219032309],[126.8764237013856,37.5285408002343],[126.8622092999434,37.528897700308605],[126.852306599261,37.5248007001997]]]}}]}