{"type":"FeatureCollection","features":[{"type":"Feature","properties":{"interval":15,"stationId":"3832931179","profile":"off-peak"},"geometry":{"type":"Polygon","coordinates":[[[126.9638774991209,37.5299852000761],[126.9677615987699,37.5269800985261],[126.9780344003805,37.5345574998398],[126.9729330012391,37.539570898540504],[126.9738175002496,37.5457287994564],[127.00126640010751,37.5629225995816],[126.992596901234,37.573771099806805],[126.98883309974059,37.570347600159295],[126.992152098929,37.5651153004256],[126.9809987004604,37.5703950011614],[126.9827225993276,37.567502000485696],[126.97704230037469,37.568405900443004],[126.9745261996571,37.5606771999765],[126.9683133999247,37.559880901686505],[126.97315879929249,37.5522607002546],[126.9649566001078,37.545468400168694],[126.9724616003723,37.537435702124],[126.9638774991209,37.5299852000761]]]}},{"type":"Feature","properties":{"interval":30,"stationId":"3832931179","profile":"off-peak"},"geometry":{"type":"Polygon","coordinates":[[[126.9099275995829,37.5488423003412],[126.9360692999244,37.5443697994165],[126.9459597005382,37.5345568996346],[126.9524036994199,37.5350131999867],[126.9573858986155,37.518534600541],[126.96703909548499,37.5199909997329],[126.97311039619859,37.5155713920348],[126.97574189973601,37.5027129994517],[126.9870423998926,37.4980223997863],[127.006094100477,37.5029415989954],[127.0078469998117,37.507114199565095],[127.0024831000254,37.5099327010492],[126.98731360123169,37.5023149030907],[126.9865956009233,37.5060699998525],[126.98225230228459,37.5043262024756],[126.9779930014068,37.5153373909128],[126.9830336004254,37.5198066997499],[126.98788799884589,37.5155028998939],[127.0084094999217,37.5300862994192],[127.0039565000996,37.5394627000166],[127.00759030033511,37.545187499629094],[127.0201214942982,37.537420798766],[127.0234068006872,37.5439053995368],[127.0198907003524,37.5452220999593],[127.0363779016962,37.551981499902595],[127.0299517002311,37.5504106008683],[127.0302524995802,37.555937198423905],[127.0419446967194,37.5512665988129],[127.03834659981369,37.545859900041904],[127.0444665000014,37.5377957996938],[127.05184319922269,37.5434901985469],[127.0573564994297,37.5409920980713],[127.060370301388,37.5464524995718],[127.0521000013499,37.5456917008533],[127.0526567001474,37.555991497391396],[127.04370100096939,37.5599719994149],[127.0462349005518,37.56559269886171],[127.0518928992221,37.561634500095394],[127.0558532004294,37.5652539997456],[127.041052301685,37.5691946011735],[127.0499096995834,37.5834429987728],[127.0345149008516,37.5854744004924],[127.0392168009396,37.5902855987531],[127.0369900002842,37.5931600012406],[127.0222249013227,37.5896861999825],[127.0249707020425,37.6000538985661],[127.03274260004281,37.602974499811104],[127.0347290006438,37.6138282999027],[127.0301910005108,37.618284100476195],[127.0252342000763,37.6150910002836],[127.0285766983436,37.609099300953],[127.0217923995011,37.6097484014365],[127.0193265997368,37.602753300041506],[127.01058930064511,37.6050788006515],[127.0133334982935,37.598677700487],[127.0086152979474,37.594597801873704],[126.999588100567,37.596454799791495],[126.9792078000166,37.5832898003896],[126.9728267005379,37.586115598412],[126.9595816017639,37.5803758017868],[126.9454324004311,37.592381700320196],[126.9384572006803,37.5928659021999],[126.95801499955391,37.563908000625396],[126.9338126999679,37.559025200271904],[126.9232519002712,37.5638655005506],[126.9207714997377,37.5492852006713],[126.9099275995829,37.5488423003412]]]}},{"type":"Feature","properties":{"interval":60,"stationId":"3832931179","profile":"off-peak"},"geometry":{"type":"Polygon","coordinates":[[[126.7073043994721,37.4769527014221],[126.7132241982258,37.476005097592804],[126.7137173022721,37.481871996651506],[126.7216221983999,37.48282959803],[126.72577720001729,37.4901048993554],[126.7418165998375,37.483254499226],[126.7449437012146,37.4896429006999],[126.7581237986173,37.4887552983582],[126.7601886995206,37.4807682991027],[126.7699786986626,37.4812754989413],[126.77745759844551,37.4738230013587],[126.78923209890381,37.4769135961806],[126.7975325000013,37.473356499154],[126.8020680003399,37.477730099423304],[126.8182888999652,37.476394299104],[126.81777960231439,37.481802598182],[126.8224785991869,37.478938499002396],[126.82699070118629,37.4887739981055],[126.8332433993655,37.488281896268],[126.8383041987282,37.4845251992174],[126.8333789016454,37.4826398013344],[126.8479355982859,37.4789607997755],[126.85123299928539,37.4726066002246],[126.8593698003909,37.477533197420705],[126.86860979932901,37.4674873003267],[126.8763777996996,37.472028699638],[126.8771129999805,37.463239200415096],[126.8854227988779,37.459442299777],[126.8820931997613,37.4519545017652],[126.8986383983611,37.444671898738],[126.8966561006637,37.4530147979356],[126.90420309984421,37.4512896995919],[126.9070793002255,37.465928899213004],[126.89869040149671,37.475197599869404],[126.9121303998044,37.4792756978929],[126.9126065994952,37.4731574991267],[126.9238420992998,37.4719257986858],[126.9313230987817,37.4602119005532],[126.94600539996661,37.468423198438096],[126.9463680976922,37.462461001246396],[126.9525923992795,37.4595961000388],[126.968676296073,37.462033995921004],[126.9660403987089,37.4565765013785],[126.9707581995144,37.4544832991409],[126.9806033997507,37.4710080979516],[126.9884666994664,37.4660825001595],[126.9922611956211,37.4535594021874],[126.981562200902,37.4492647057559],[126.98549339595789,37.440431300105],[126.9766589997389,37.433895903323204],[126.9740804015389,37.4236057025702],[126.9845770975479,37.4229187973119],[126.983052999072,37.4173489028818],[126.9899205000056,37.415162498608],[126.9940220000269,37.420503798616],[127.0006045964508,37.4177367943486],[127.021356100591,37.426395298585305],[127.0183982003931,37.4276449011346],[127.0248279006623,37.436262798620405],[127.02058260230369,37.435722501836096],[127.0121255031049,37.449066798499395],[127.02138839417461,37.4488495991667],[127.0201474005571,37.4602830997572],[127.0232517993445,37.460236199659],[127.0122974061615,37.4621316025218],[127.02500479882251,37.4744296987761],[127.0255285992084,37.4649231005437],[127.0469078998096,37.4567538000083],[127.0493805951982,37.440232799981295],[127.045416799162,37.4390298011843],[127.0620130928278,37.4343131992759],[127.0660149005543,37.4347978984222],[127.0633288021466,37.4427550944741],[127.0666571047806,37.4464462969966],[127.06261900197019,37.4490596009629],[127.06657650081729,37.4542935996749],[127.0613804018369,37.459063699559],[127.05561849999509,37.4553953022687],[127.05103800349781,37.4672066977513],[127.0568640006681,37.4735769953871],[127.06963869923929,37.475017699179304],[127.0758150994805,37.4808980967673],[127.0862732988695,37.4790287962641],[127.0866501004825,37.4836873968529],[127.1086133001279,37.476291598845805],[127.1064837004415,37.4792091996177],[127.1127210987293,37.484146897980295],[127.1220065988182,37.480559699504404],[127.11876029943221,37.4678867993872],[127.127031498002,37.4635682000864],[127.1255826992516,37.4600807012745],[127.1355557996636,37.4654095992804],[127.1257756003489,37.4743382989176],[127.1319144995622,37.475110097748804],[127.1282123017043,37.4895491997319],[127.1392781986018,37.4954127988472],[127.1378990998231,37.5152791991897],[127.14148489815119,37.511331500050794],[127.1489870002445,37.5159775994652],[127.1483176025082,37.5222838979154],[127.15601220042541,37.5320171992403],[127.15649760031589,37.549149597875],[127.16683849928219,37.5480022001533],[127.1845527995265,37.5592986987509],[127.1497605016788,37.5632577018159],[127.1489863003175,37.558843603535905],[127.1448429037372,37.5619093021659],[127.1399924016646,37.5560290052629],[127.1303948997011,37.560279400255496],[127.1084019002173,37.5577680021091],[127.0969278049465,37.5635443999243],[127.0962059041593,37.5686982996006],[127.10491160243289,37.578555794560096],[127.1052959005688,37.597776199158396],[127.1141072999332,37.6011227999241],[127.11367260114581,37.608510599208905],[127.1030161019914,37.6158086010858],[127.1010003045033,37.628273098971704],[127.0901133009782,37.629182212028105],[127.0764500064693,37.64444799623789],[127.0930275011644,37.6611040991243],[127.0884260069425,37.6713271979216],[127.0925915018576,37.6772542964528],[127.0783332042364,37.681581804288996],[127.0680656008046,37.676646404524],[127.0461389022936,37.693173101694605],[127.0454720021179,37.6988974998472],[127.04013480068271,37.6958835015759],[127.0417465977,37.6908346032287],[127.0364363030103,37.6925146015487],[127.034007499152,37.6774257008266],[127.04269089846339,37.6750263002844],[127.0305153980445,37.6653940026012],[127.01319650479621,37.663031003056396],[127.0039110013071,37.6714942025626],[127.0054225934406,37.6623568032868],[126.9995024993607,37.658026307617305],[127.00793319207929,37.654995298365606],[127.00110819576871,37.6426454075331],[127.00299369328981,37.6252988039026],[126.9950004012831,37.6265685026329],[126.9866148982834,37.6189374066207],[126.9897691963637,37.6039255019993],[126.98588440024851,37.5980129079119],[126.9591558990753,37.6034706014811],[126.95537629917379,37.610615002158404],[126.9430022005684,37.604849903652195],[126.949208701883,37.6275272975063],[126.9391626051874,37.6346298002825],[126.93980640086039,37.643081799939594],[126.93163390373759,37.6442854023956],[126.9322307002175,37.6534099005335],[126.9225070049674,37.6545623003652],[126.92461030163089,37.660635997974],[126.9209182008169,37.6640498000719],[126.914837397372,37.6543257057942],[126.9083756015555,37.655006803855905],[126.9096355002956,37.658771100091606],[126.9083756008808,37.6550068038689],[126.9050448042588,37.6643456985262],[126.8891453991732,37.6676925009681],[126.882633601476,37.6594220018209],[126.871772799534,37.6593820006499],[126.8587533987794,37.6482168010469],[126.8491910054277,37.649307905266696],[126.8500902003936,37.6639697001969],[126.8458897980611,37.6582752048288],[126.8410524999126,37.6629631001341],[126.8274106996362,37.6581649014008],[126.8337812992571,37.64428879973],[126.8207046980113,37.6344341004809],[126.82653429940031,37.6264410999391],[126.838835700157,37.628239899676096],[126.8419109006205,37.6434145972499],[126.85642570054111,37.6480633969503],[126.8650758949582,37.6452960997764],[126.8698052996962,37.6373098000563],[126.8753756000849,37.641546897875],[126.8969218979976,37.6429396969011],[126.9087727917583,37.6289511973169],[126.9071369933941,37.6248349014332],[126.8983958021353,37.624057202210906],[126.9014158975142,37.5982735012405],[126.8934395014202,37.5891805021057],[126.89204940039461,37.5953181004533],[126.8785350002102,37.5990812005293],[126.8802239003909,37.6051342994998],[126.8728707014675,37.6058365000015],[126.876471500981,37.6133532003231],[126.86612310346139,37.6152553036742],[126.8667837971086,37.6094020047937],[126.86350260038981,37.6097613044344],[126.84650170176471,37.6244126013571],[126.8300231999847,37.616096301020406],[126.81427630311221,37.6175529037],[126.8147053988556,37.6016130003947],[126.8218488988995,37.6031097973974],[126.82421689717219,37.5987042004586],[126.83016239907731,37.599270397085],[126.83429389854591,37.607078297625996],[126.8416654983796,37.6032815003583],[126.8551225998835,37.613303797918896],[126.85713199761199,37.5968674025478],[126.862835998069,37.5985664991073],[126.8650379989065,37.5952117998378],[126.8623293016152,37.5924548025948],[126.86040650341779,37.5958244994111],[126.8609438994493,37.59161510095],[126.87459679691301,37.592212399269],[126.8697324997665,37.5812357004475],[126.880905299516,37.5798834999472],[126.88325999624001,37.5740700001561],[126.8746962030468,37.554989209591405],[126.8595211088125,37.567348303588],[126.8642369026165,37.573749398970094],[126.8558023060148,37.567675706567],[126.8348612077972,37.5787932067942],[126.8032047000638,37.5817389005586],[126.8019699008579,37.5893229011527],[126.7887793993929,37.579745603523506],[126.7874786006937,37.5828608004083],[126.78661289800979,37.5787482034993],[126.79695499925799,37.5843018977194],[126.79891689954789,37.577712100643],[126.7868125023315,37.5761432007323],[126.7971767982476,37.569763798622596],[126.7993937003088,37.5758302957253],[126.8043332988424,37.5680287006308],[126.7984198005241,37.563155202025094],[126.81098919567499,37.5510347031301],[126.82969249847379,37.5477742987092],[126.8358792974852,37.5196270002227],[126.8422538992392,37.5126861994821],[126.8454061998046,37.5155441979366],[126.8466845981352,37.5077997007371],[126.8364370973726,37.498840003825],[126.8170635025909,37.5057288026912],[126.8155244030164,37.5137781992361],[126.80609940117519,37.514836299091996],[126.8142185999372,37.523171498945],[126.80622960003619,37.5332722001409],[126.79484370012,37.5232735003296],[126.80675119863919,37.5132438012863],[126.7902222001583,37.5056725039895],[126.7854982013749,37.5105324000029],[126.7802799000028,37.505826801526304],[126.7756037006218,37.508897099986],[126.76010839998229,37.504312400310404],[126.78464029957901,37.4974951005001],[126.8010280999888,37.498805699624896],[126.7995875003455,37.5039001999999],[126.8048475954383,37.5038932011377],[126.8031244980576,37.495582902352105],[126.7841963993583,37.487293900596995],[126.75638550062769,37.4973650000302],[126.736282500722,37.4885590011152],[126.7226741010118,37.501111800386695],[126.7073043994721,37.4769527014221]]]}}]}