{"type":"FeatureCollection","features":[{"type":"Feature","properties":{"interval":15,"stationId":"414683380","profile":"off-peak"},"geometry":{"type":"Polygon","coordinates":[[[126.894587899621,37.5768792000846],[126.90031449898339,37.5723820997697],[126.8975149015004,37.566813702964694],[126.9014312999451,37.5608386996056],[126.9072885003315,37.561618100009795],[126.90683320151659,37.575063198230104],[126.9188875985144,37.5784080990194],[126.9227699998839,37.5856699990905],[126.9212252999164,37.5973031993146],[126.9163188003893,37.6018309998251],[126.90730740049439,37.5999204003963],[126.9030984998596,37.5946464015572],[126.9044643994242,37.583799199571004],[126.894587899621,37.5768792000846]]]}},{"type":"Feature","properties":{"interval":30,"stationId":"414683380","profile":"off-peak"},"geometry":{"type":"Polygon","coordinates":[[[126.88337369753161,37.579869100014406],[126.8908786974366,37.569251799445105],[126.88817589883689,37.5597004997336],[126.9044051966379,37.5484115957478],[126.9002537003033,37.5431950005242],[126.9041697993499,37.5373940987754],[126.8954706004824,37.5382741006418],[126.89065089992759,37.5274396003822],[126.891715198974,37.5138223004841],[126.89783040009361,37.5134026986139],[126.9002438010891,37.5283786995874],[126.9068619995809,37.5300278984006],[126.9105571008771,37.5439333912341],[126.9256506931666,37.538223296385596],[126.9355809024277,37.5423235981157],[126.95363039978949,37.5387371991313],[126.9616077996358,37.533115699724206],[126.9693233004151,37.538860999669495],[126.9573354002306,37.5452037005232],[126.96056330057951,37.553736399832296],[126.95722720074991,37.5592541000672],[126.9514207997303,37.549260600195495],[126.9469815003294,37.550978301442896],[126.9500793009085,37.5569458996679],[126.9333487999538,37.5607004002362],[126.9261619002948,37.5713937002605],[126.9314634996673,37.577620099566],[126.9322772003993,37.5957221995052],[126.9384607006768,37.5961442989215],[126.9402834993356,37.5859360990549],[126.9537995003823,37.5807212000777],[126.9398629010265,37.5960779007222],[126.93752390268351,37.6018791999195],[126.94207590091061,37.611485898579396],[126.9353337007908,37.6172728006569],[126.94023420131131,37.6225703961278],[126.933973603276,37.6264878998559],[126.9129370003495,37.6238580030575],[126.9060631997383,37.6057645016186],[126.8986621991816,37.606388602090306],[126.8998854960372,37.593601702351],[126.886539203719,37.5891468026717],[126.88337369753161,37.579869100014406]]]}},{"type":"Feature","properties":{"interval":60,"stationId":"414683380","profile":"off-peak"},"geometry":{"type":"Polygon","coordinates":[[[126.6887259992626,37.633324000566404],[126.6975427992487,37.6213447991369],[126.7049873971837,37.6231969999351],[126.7119308965036,37.617341698923894],[126.713884798924,37.6059562002745],[126.72884209943349,37.6009981990954],[126.72703219977289,37.5975439001203],[126.7514308984024,37.6036595972049],[126.75505619828189,37.5915192026432],[126.7661997955459,37.5870850006154],[126.78589819775131,37.591138798843204],[126.7897442986361,37.5876971984558],[126.7887793993929,37.579745603523506],[126.78454190103949,37.584805800297296],[126.783310497312,37.5782325035588],[126.78730799317759,37.5671271998009],[126.7936973998185,37.5670303991262],[126.7993937003088,37.5758302957253],[126.8043332988424,37.5680287006308],[126.7984198005241,37.563155202025094],[126.8139417975667,37.5471032001008],[126.80718159838241,37.538683202811605],[126.79736170019089,37.5379965026401],[126.7994939974746,37.532399502766694],[126.7905810017418,37.5370751009098],[126.7845791997114,37.5321865001827],[126.7783986996398,37.5237936007404],[126.7835202992469,37.516842399292905],[126.7802888000001,37.511588101046996],[126.7670566014043,37.5078808010894],[126.75336460042669,37.5123752002821],[126.7459330992035,37.5080089013865],[126.7609900994938,37.4966083998186],[126.75910979973061,37.4935797013627],[126.7410706988259,37.494822200720705],[126.73398690061191,37.488265401763904],[126.7248367004358,37.501892500392394],[126.7352193998753,37.5062990994441],[126.74299569878819,37.5036126967874],[126.7432546010132,37.50948789962651],[126.7280206998721,37.509425301173096],[126.7301260012462,37.517294197173804],[126.72227870094841,37.5254578986792],[126.73181919957081,37.5263843995886],[126.7340214006289,37.5320498994068],[126.7458876999832,37.536995499603506],[126.7478755015519,37.5524108995492],[126.75819990100689,37.5614577000728],[126.7570505020933,37.5730827992245],[126.7533707002529,37.567738401363805],[126.74673870296239,37.5727140981436],[126.7496760017519,37.5787639963494],[126.736841901402,37.5840218006685],[126.7265262009761,37.5826658017624],[126.7285618963427,37.577788800779004],[126.7203728969074,37.5710666027768],[126.71168130387319,37.570594502885896],[126.7203728963492,37.5710665972704],[126.71791469880739,37.564980303356705],[126.7221135979125,37.55761100021],[126.7274668011629,37.5632993929371],[126.73337889525081,37.557331398905106],[126.72991209821701,37.550373903211394],[126.7170793999642,37.547035300763795],[126.71558169997,37.5350046007833],[126.7096937998997,37.530221300671904],[126.7190781996961,37.5226435010676],[126.7125550000973,37.518577701485704],[126.7212520997728,37.5146472010697],[126.7136510995994,37.5061200009346],[126.72096959916401,37.495445099037696],[126.71656969970189,37.4902550004103],[126.7272813993785,37.4902915984892],[126.7415643990449,37.4817653979176],[126.7478633001463,37.484600098806204],[126.74410420205409,37.4907021996406],[126.74793479859879,37.4897961003914],[126.7624944972913,37.475740200880395],[126.7716877993483,37.4793793991831],[126.7851695989813,37.4736923987183],[126.7907420975813,37.4644829998141],[126.7858163991414,37.4471454999235],[126.7760198994821,37.438415301501],[126.7883750981416,37.4301382996475],[126.8062124004893,37.4484373996788],[126.80273110281941,37.4496827993582],[126.808946300877,37.475968299809196],[126.8332433993655,37.488281896268],[126.8383041987282,37.4845251992174],[126.8333789016454,37.4826398013344],[126.8453449972111,37.4778115997538],[126.84840729821981,37.471574700638],[126.87436719901389,37.4659645994863],[126.87307339922249,37.4594079994944],[126.879045498775,37.4570230993645],[126.8825931999967,37.446725799519605],[126.8986383983611,37.444671898738],[126.8975849983899,37.426666301645],[126.90433209240261,37.4203745985408],[126.9023525996567,37.41084940026779],[126.9158809993316,37.4088328999116],[126.92706789883519,37.3951127993791],[126.9318185007002,37.4030675002739],[126.9155610005614,37.4092018002279],[126.9179475998385,37.4151197992084],[126.90298139987681,37.4232893003929],[126.9112006023442,37.434777499390904],[126.90355050061909,37.4464290001088],[126.9105100001353,37.4525009991256],[126.9074957019982,37.4649245992951],[126.9111436005064,37.469615698614696],[126.9276316971042,37.4707432997476],[126.9241025998721,37.4652891007628],[126.9313230987817,37.4602119005532],[126.94600539996661,37.468423198438096],[126.9491124996804,37.4627150996401],[126.9537161999259,37.4703373968341],[126.9578834957586,37.4685551986163],[126.95371620421301,37.4703374008129],[126.9562774016518,37.4741764969738],[126.96207339824869,37.472514798523996],[126.96423119820611,37.4659469989328],[126.9772968992246,37.465246799371805],[126.9806033997507,37.4710080979516],[126.9884666994664,37.4660825001595],[126.9913226001676,37.4467341023807],[127.00218269653341,37.441126500316905],[127.0003112006052,37.434642101062096],[126.9950140996322,37.437971100546896],[126.9850682997774,37.4260680001184],[126.9888288989591,37.4212571003195],[126.9867452024668,37.4264797989389],[126.9961642989816,37.423590299002],[127.0009738015757,37.433175597352],[127.0094270984561,37.4301873980126],[127.0144235986998,37.435739494299],[127.00957410596709,37.4389227993866],[127.012509902983,37.4436008963774],[127.01866870052031,37.4423884992846],[127.0126337031234,37.4445006002453],[127.0112094029344,37.4588851003247],[127.0005726042313,37.4616383018114],[126.9913562997318,37.4550593028586],[126.9885779016484,37.457269300819],[127.0001927004556,37.4687288983883],[126.9963191018252,37.4667478036534],[126.99976240260389,37.474400597343106],[127.0242354001889,37.483377099558595],[127.022066001234,37.491840299463],[127.0308425995955,37.4909981988103],[127.04212529931239,37.501895999791905],[127.04885559838219,37.5026937983016],[127.0468094999915,37.4942203013861],[127.05458149868849,37.493533899983],[127.0411479993288,37.4858545003672],[127.02878159982261,37.4873767006348],[127.0312137999244,37.4806417974741],[127.0476679998625,37.4832497998946],[127.0471271005519,37.488391398358395],[127.05664559882419,37.4870533990693],[127.0570420994929,37.4834926001981],[127.0659767987089,37.4890795978183],[127.05930270149851,37.486299001714],[127.0549810002708,37.503307799454305],[127.0662636002437,37.5061458995284],[127.06843980036389,37.5154392975389],[127.0404834003752,37.521845299620004],[127.0460562995538,37.5248621990619],[127.0452592030973,37.536984499142605],[127.0679851990828,37.5354235992742],[127.0746275005349,37.5410220998738],[127.0546818009088,37.5501840016522],[127.05060830349139,37.558607098586],[127.0649433988823,37.555406098657],[127.0709885005867,37.560181798165004],[127.07610899908481,37.5521191996642],[127.08547819810529,37.5517597983509],[127.088622199414,37.5471506994657],[127.09500440007149,37.5497196982719],[127.0831974005734,37.5618211003282],[127.07285059921199,37.5600953021058],[127.0699893999046,37.5658379003224],[127.0506040002042,37.5751031999404],[127.0675635002127,37.5934131987534],[127.06645850011759,37.605483800483604],[127.06151579957199,37.5938057001153],[127.04484710152529,37.593797101756806],[127.0431407007481,37.6004121994102],[127.0610742996565,37.6044055992497],[127.0656652006361,37.6120801993923],[127.07558519920681,37.6129149001443],[127.074520099905,37.609554600494704],[127.0801058002015,37.6086470991523],[127.0816325002612,37.6195077992188],[127.09135130059249,37.6164913976872],[127.0872226005055,37.6211972997997],[127.0750254004911,37.6221563000781],[127.06092860024219,37.6138435015098],[127.0512485003504,37.6168194003401],[127.0371758000413,37.6085031003401],[127.028141700011,37.617198600437504],[127.0285766983436,37.609099300953],[127.0218089999834,37.6083775013709],[127.0140141013583,37.6137728995168],[127.0221725986765,37.6156809990688],[127.02912450006309,37.625955999089605],[127.0152671001402,37.636157400354804],[127.012903997733,37.622129801946905],[127.0010894998975,37.6183559005355],[126.9994592995612,37.6119424010326],[127.0052638995314,37.60755849890781],[127.0036126987803,37.600301804105996],[127.00804529808761,37.5937792016454],[126.96985740387889,37.5909129021537],[126.9565577033606,37.596825001153604],[126.9626013993213,37.5977302986093],[126.9651970998263,37.6048252980819],[126.9615588021776,37.6158111969333],[126.9443500094388,37.634912296521506],[126.9440049028498,37.643539499206504],[126.93163390373759,37.6442854023956],[126.93110400426751,37.6481010985799],[126.9382001998857,37.647178599214996],[126.93671480114371,37.6554192997147],[126.922507004921,37.6545623006932],[126.92172150118951,37.6672478002436],[126.9117912018521,37.6626949036679],[126.9006123005917,37.6705046994919],[126.8945444013653,37.6674090020885],[126.8853480993471,37.671036400399295],[126.8841095955779,37.6612429042047],[126.8713067982117,37.6600319029685],[126.8623141981792,37.6530670085422],[126.84971920454859,37.656100800152394],[126.84804170150039,37.6671172010368],[126.83230800072529,37.6645846005012],[126.82496639952319,37.6618881012152],[126.8264541991433,37.647209199462],[126.8201415997583,37.6385988010645],[126.8191396002627,37.641565298669505],[126.813543000673,37.63775060312609],[126.81156270324989,37.6466787010006],[126.8202261995435,37.6509883991789],[126.807840704392,37.6577613008563],[126.8137895019256,37.6672909994114],[126.8051057013982,37.6719678010041],[126.7986693001315,37.6831314001934],[126.7845731008386,37.6840999029629],[126.7700525037423,37.7011534018986],[126.76311839972989,37.7011646006166],[126.7598287998697,37.7173402002755],[126.7534067001724,37.7097594010064],[126.7593939993753,37.7026012993324],[126.7530055010639,37.6947979995334],[126.7539133986914,37.6856042019166],[126.7361980000247,37.681091100371205],[126.74065329829631,37.676794398358595],[126.7369558997861,37.6718479009115],[126.7509094000713,37.6669238997991],[126.7515877991174,37.6609358992945],[126.7584590988826,37.6610932989689],[126.7636090005621,37.6467809018442],[126.7692581972922,37.648236594974094],[126.7704276981832,37.63899189995],[126.77419949693079,37.6408069979285],[126.765887398632,37.6087440035864],[126.7590120017877,37.615216101441],[126.7327409042299,37.6206222023691],[126.7325673020231,37.633328400143704],[126.723673201507,37.6292866036887],[126.7215731036071,37.633156499818796],[126.713507605978,37.6324782025736],[126.7136863037181,37.6414866983538],[126.700563001152,37.643479499592196],[126.7005795969008,37.6383580023551],[126.6887259992626,37.633324000566404]]]}}]}