{"type":"FeatureCollection","features":[{"type":"Feature","properties":{"interval":15,"stationId":"4246459937","profile":"off-peak"},"geometry":{"type":"Polygon","coordinates":[[[127.0669179999262,37.600773500036404],[127.0669760999063,37.6007532999338],[127.06699944658932,37.6009244830115],[127.0669179999262,37.600773500036404]]]}},{"type":"Feature","properties":{"interval":30,"stationId":"4246459937","profile":"off-peak"},"geometry":{"type":"Polygon","coordinates":[[[127.0669179999262,37.600773500036404],[127.0669760999063,37.6007532999338],[127.06699944658932,37.6009244830115],[127.0669179999262,37.600773500036404]]]}},{"type":"Feature","properties":{"interval":60,"stationId":"4246459937","profile":"off-peak"},"geometry":{"type":"Polygon","coordinates":[[[127.0669179999262,37.600773500036404],[127.0669760999063,37.6007532999338],[127.06699944658932,37.6009244830115],[127.0669179999262,37.600773500036404]]]}}]}