{"type":"FeatureCollection","features":[{"type":"Feature","properties":{"interval":15,"stationId":"436832405","profile":"off-peak"},"geometry":{"type":"Polygon","coordinates":[[[127.0068178991703,37.507313399745804],[127.0403713997323,37.5077097992343],[127.05056949885619,37.5012307988309],[127.05235570058251,37.506889000600104],[127.0456553007786,37.5078893001131],[127.06138460020729,37.5190012994114],[127.0428565055,37.531398004729105],[127.03594130006131,37.530341800526],[127.0344894004996,37.521788701073305],[127.02534850078281,37.5231829003768],[127.0164132993078,37.511453700231094],[127.0096393006158,37.5120376002953],[127.0068178991703,37.507313399745804]]]}},{"type":"Feature","properties":{"interval":30,"stationId":"436832405","profile":"off-peak"},"geometry":{"type":"Polygon","coordinates":[[[126.9607562996476,37.4774442001369],[126.9656194996087,37.4755541992812],[126.9665410988862,37.4819733975558],[126.97590699944111,37.4734876000571],[126.9834934005326,37.4738835996665],[126.986102300255,37.479018599511],[127.0011617990126,37.4759358996163],[127.0039027005032,37.484944200027],[127.0167446000592,37.4815422996385],[127.0230030002494,37.4893993989629],[127.02599839968481,37.483798100191905],[127.022739099976,37.482896800131],[127.0379270995933,37.4736410997386],[127.0331603997382,37.4692237000979],[127.0444668995403,37.4645554981656],[127.0436120005687,37.4819325991646],[127.0627051984657,37.4779543991446],[127.0751340008114,37.4848463982566],[127.0856558006175,37.4800323989964],[127.087950399705,37.4963795992879],[127.08415560090451,37.4952599021313],[127.08177480034891,37.5019157977015],[127.0962528986321,37.4973403973398],[127.1108073003117,37.5031458996478],[127.1132188013142,37.511932000921504],[127.1065518008603,37.5085892006781],[127.1134873000603,37.5219010997152],[127.1048733005338,37.5245438013122],[127.102143100187,37.5394043962779],[127.1123994013646,37.545001394850594],[127.0918509031682,37.5602811007782],[127.09104430378629,37.5738054985094],[127.097433003962,37.5789490972558],[127.097422900149,37.5905479999861],[127.08971960097169,37.5995594000162],[127.0836845000483,37.5986759010048],[127.07948930061221,37.6132019002658],[127.07472200014419,37.6121330005059],[127.0779884993473,37.6081685992654],[127.0745543996659,37.602955100430904],[127.080013799537,37.5977763998929],[127.07946579689799,37.5699867003326],[127.07432399848881,37.561428402092794],[127.0582570000095,37.5626344003462],[127.06263659952141,37.5566277994267],[127.068064297988,37.557962698775796],[127.0640684995035,37.5494080028768],[127.0528792008257,37.5506395004217],[127.05060830349139,37.558607098586],[127.0574070998781,37.565120799759406],[127.03833779997389,37.5742429006711],[127.012841800198,37.567951300659395],[127.007893600157,37.5727447000436],[127.0056349999461,37.568266400135],[126.9964069003168,37.5709824009761],[126.9914267994219,37.5662521005671],[126.99351029923899,37.563096099801406],[126.9834148998764,37.560689700145595],[127.000937499279,37.5607247995964],[127.0066469997426,37.5499627999443],[127.0126841994228,37.5486516004665],[127.0119897997909,37.5389160992954],[127.0201214942982,37.537420798766],[127.0208889932903,37.5297237061238],[126.9903664000701,37.5032182030007],[126.9758895002301,37.50402180023659],[126.9870423998926,37.4980223997863],[126.9710644005162,37.489747700345504],[126.9723480989347,37.486442501710805],[126.962938299512,37.4896515002795],[126.96681199533151,37.4828641998867],[126.9607562996476,37.4774442001369]]]}},{"type":"Feature","properties":{"interval":60,"stationId":"436832405","profile":"off-peak"},"geometry":{"type":"Polygon","coordinates":[[[126.8155112987623,37.4864482003094],[126.82338289872929,37.4841286998975],[126.8332433993655,37.488281896268],[126.84979799914741,37.4678950992384],[126.85548110037121,37.47069109951261],[126.8703936998319,37.4644037988686],[126.8825580989179,37.469276399493495],[126.89260130023989,37.4652363983104],[126.8975892009789,37.4746372993111],[126.9169034994663,37.4730132969926],[126.9301047978622,37.4607651003421],[126.9371027987902,37.4596015985936],[126.9447615992987,37.4662461974612],[126.95509510005809,37.4559695012785],[126.96421030053901,37.4636722942827],[126.968676296073,37.462033995921004],[126.9660403987089,37.4565765013785],[126.97480109595709,37.4587189957643],[126.9806033997507,37.4710080979516],[126.9884666994664,37.4660825001595],[126.9922611956211,37.4535594021874],[126.981562200902,37.4492647057559],[126.97408039832011,37.4236057012122],[126.9845770975479,37.4229187973119],[126.9829581996086,37.4122927021804],[126.9680171006263,37.410575101244206],[126.9398058001819,37.3916093019697],[126.9423889983389,37.3839421004699],[126.9556896997769,37.3813838993938],[126.9877334988459,37.3923274989931],[126.9878437012354,37.3970108992347],[126.9809268028508,37.3991004012141],[126.98423649999539,37.4152978965845],[126.9876929973965,37.4130337985723],[126.9960808986362,37.420816698560905],[126.993136400287,37.4148483024272],[127.0122910042737,37.4249157983232],[127.01956159877311,37.4237539988475],[127.0183982003931,37.4276449011346],[127.0263645005639,37.434356393716996],[127.0129600027971,37.4441875005584],[127.01440980115319,37.4513853966309],[127.0234697998766,37.44589739911],[127.0243540007236,37.4513686991396],[127.03701379591159,37.450556294364304],[127.03356739903779,37.4354101003099],[127.0428577910148,37.4278851068375],[127.0660149005543,37.4347978984222],[127.07197929936909,37.4249973934499],[127.0769935983612,37.4302479950842],[127.0674286024856,37.4511892984112],[127.07427459929819,37.4521665991863],[127.0812153001051,37.4605975988137],[127.0706757012502,37.4635264000485],[127.06854149771159,37.4591990058429],[127.06162410364,37.4689519961506],[127.077111598348,37.4750565942953],[127.0920017993911,37.464414199845],[127.0982229982273,37.466151399806],[127.1036705994768,37.4580554986934],[127.11579469763069,37.462988797790196],[127.11975629818231,37.4362048013147],[127.11232149925479,37.4276913020086],[127.1169598964789,37.423805098583905],[127.1128870986357,37.4062525011811],[127.0961400998925,37.4099245012568],[127.10032819901011,37.397639500960096],[127.09342360023639,37.4033797013049],[127.0899404001434,37.3899768003831],[127.1048664984794,37.3747625021248],[127.0891116018607,37.364455804338505],[127.097092495353,37.3618020952956],[127.0979067945387,37.355956301141404],[127.09120940059499,37.3467999009465],[127.0869694998616,37.3477948019748],[127.0895328992942,37.331260101276904],[127.082480599837,37.3292528016328],[127.082152701253,37.3229642005234],[127.0667854997928,37.317194100698],[127.0701380974662,37.310610402752005],[127.0634400004772,37.3041080070212],[127.0694280998858,37.2896394995361],[127.080932499835,37.295162599535196],[127.0794413001065,37.302672499894],[127.0913360987753,37.3073719981881],[127.09893240124609,37.316993697725096],[127.1048693984818,37.312809299119195],[127.1080849995698,37.3157525985387],[127.10700079965589,37.3082275009389],[127.1136910004394,37.3107134003486],[127.1061006025116,37.3157908008827],[127.1155508995321,37.3209105992001],[127.1123310004835,37.333479400445],[127.1201677999222,37.334784999755996],[127.11977240337791,37.3453854991581],[127.12766469812719,37.3532832949189],[127.1214777027201,37.3570933999023],[127.1292337003235,37.3636020997257],[127.12829169980431,37.3759676987399],[127.1373572000033,37.3788117991992],[127.1373504016384,37.3859811988518],[127.1436860989344,37.386190599788996],[127.1413861055956,37.3908833013815],[127.14624910019941,37.3948056991846],[127.1410388037842,37.405006099759504],[127.1469844002685,37.406657099280594],[127.1447912022269,37.4255324930609],[127.1675699985845,37.432219998921504],[127.1787373990404,37.452205798216404],[127.1733926025742,37.4645855989365],[127.1589492030751,37.4689371021637],[127.1490669022019,37.4787856015515],[127.1505047001637,37.4849768997396],[127.1630922012955,37.4914511985167],[127.1631456026165,37.4996265956612],[127.1485321016466,37.506954699219],[127.16167329948091,37.5203336985125],[127.1555939007962,37.5300975987929],[127.1602526961374,37.529942098948396],[127.1606744023701,37.5389222005186],[127.17446029971711,37.544143398753704],[127.1776498008601,37.5509236994889],[127.1860729000147,37.5469441993544],[127.1900110007745,37.551547298651],[127.19980479842799,37.5314838010369],[127.2061209007293,37.535767296202906],[127.2162344000214,37.5329634985082],[127.2167989017852,37.536774196575706],[127.227629299656,37.5337070990844],[127.2340243009976,37.539708899791904],[127.23055360001139,37.5377094012106],[127.2327326995765,37.542501198241496],[127.21727920051659,37.5477318003936],[127.2049793025952,37.5616262009406],[127.20268580191299,37.573264600324805],[127.199151899018,37.5691733011216],[127.1870612998889,37.57709710036],[127.17737370039491,37.5691115011065],[127.1713922003412,37.5702459013181],[127.1694480010275,37.563786201366206],[127.15686890069681,37.569307700501206],[127.1511847002546,37.5621201029535],[127.1384776001599,37.5666534003989],[127.12928049737499,37.5626744070862],[127.1175724020492,37.5723591994547],[127.1233681002737,37.576576899096196],[127.11713360466871,37.5806620026489],[127.1191898000588,37.6001965992251],[127.10486590200189,37.619561599717095],[127.1273919017736,37.6281958947095],[127.1330650001542,37.644343898070204],[127.138866897988,37.6382756033321],[127.1432454991006,37.643651697737],[127.148137396814,37.6410202994505],[127.15307059921261,37.645506998207004],[127.1526772006831,37.6541561980596],[127.14493630013679,37.6594524012058],[127.1359272008492,37.6515002042944],[127.1268019002535,37.657342300660204],[127.1256201991662,37.6492158004528],[127.1151768009821,37.652807800971495],[127.0972866019932,37.6334250072858],[127.0842874997394,37.6439016010468],[127.0897579015879,37.6780634002788],[127.07388790398001,37.6775159039517],[127.06534480458241,37.6877606989231],[127.05533670063559,37.6895650004921],[127.0590118035171,37.7065208971531],[127.05132999945889,37.6968512007291],[127.0454720021179,37.6988974998472],[127.0520271005069,37.7072047992357],[127.0481553006238,37.719527899317],[127.05406430016109,37.7280989997393],[127.0449772014024,37.7319200004384],[127.0523368005135,37.738205299656094],[127.04752070073971,37.742190100427905],[127.0392961999826,37.7367855003109],[127.0377343997158,37.729084200307305],[127.0460556989238,37.7168129002374],[127.03993840045409,37.7103508008922],[127.0452576989776,37.7030619000703],[127.0325231985601,37.68810770523471],[127.0425205984265,37.6712859005376],[127.03704089957739,37.667737700381906],[127.0391829000016,37.6618377001366],[127.0223365999076,37.6473259003115],[127.0165716998345,37.6489423008318],[127.0157720005743,37.6584647999052],[127.0098237000258,37.662286200378496],[127.01224299850959,37.630173900341106],[127.004511299539,37.6219697020371],[126.9952432996497,37.62017320024621],[126.99963219940899,37.6111483999932],[126.9970729996875,37.6063555000477],[127.0036126971662,37.600301803883696],[126.99119040248539,37.6015249017126],[126.9834042988751,37.5903590030729],[126.9667379998243,37.5925653005405],[126.9611550002016,37.5840366026036],[126.9493992010652,37.599714200579704],[126.9412374999656,37.5989707025209],[126.9367586034845,37.620131896542],[126.9218845018524,37.6309552971505],[126.928444999937,37.6333884999219],[126.9271026008353,37.6394590005331],[126.92320800054401,37.6380456029648],[126.9184441998457,37.6513614009122],[126.9106870010142,37.651411600793004],[126.9149082957584,37.6391517017291],[126.91135409686899,37.6341704997805],[126.9192716983476,37.628696599989595],[126.9070412999832,37.6154818004069],[126.9128742992402,37.6045020999442],[126.9081788996229,37.5999522003645],[126.9097691996117,37.5886659000434],[126.9053759000531,37.580806601080305],[126.8938522008703,37.5801576009486],[126.9012655985342,37.5716972995701],[126.8975149015004,37.566813702964694],[126.90030279885721,37.5638595002005],[126.8958318005175,37.562084200294],[126.9021358999247,37.560787499347704],[126.8992705019365,37.544340105949196],[126.8898162003704,37.5438811006097],[126.88225270113219,37.548936402048305],[126.883853900275,37.5532879981182],[126.8676559013536,37.553595499919],[126.8595211022663,37.5673482968238],[126.84630410101819,37.5664982021561],[126.8439458033927,37.5751408066471],[126.8345258999101,37.5708401006686],[126.8398555991052,37.5614771993017],[126.848408999041,37.5634893998846],[126.8500687990589,37.554367899340804],[126.859749300011,37.5547080994051],[126.8683954992866,37.537257299703],[126.8895527000514,37.5382791998954],[126.8908374974314,37.532386601541106],[126.8827901003325,37.524809201225],[126.86458050063341,37.5307306004063],[126.85188550021759,37.5265220009765],[126.853042299647,37.517992999341196],[126.8676185995804,37.524442798143504],[126.8716775994124,37.5191645997454],[126.8817089996464,37.5213465989328],[126.87267079872609,37.5050220017296],[126.8750763978659,37.5027500994046],[126.8647142998758,37.497699500082106],[126.86650369833549,37.4931213016352],[126.8596138009151,37.4930528011124],[126.8572045005831,37.4985158000562],[126.8507247995845,37.4954205007705],[126.8495016995332,37.486339201823306],[126.8480243001685,37.4956498989853],[126.83975410075139,37.4968785000228],[126.8155112987623,37.4864482003094]]]}}]}