{"type":"FeatureCollection","features":[{"type":"Feature","properties":{"interval":15,"stationId":"4718341773","profile":"off-peak"},"geometry":{"type":"Polygon","coordinates":[[[127.1489584990163,36.835085299094004],[127.14918917444099,36.833280511645775],[127.1491546996795,36.833178099988196],[127.1491891758339,36.833280510421474],[127.1489584990163,36.835085299094004]]]}},{"type":"Feature","properties":{"interval":30,"stationId":"4718341773","profile":"off-peak"},"geometry":{"type":"Polygon","coordinates":[[[127.1489584990163,36.835085299094004],[127.14918917444099,36.833280511645775],[127.1491546996795,36.833178099988196],[127.1491891758339,36.833280510421474],[127.1489584990163,36.835085299094004]]]}},{"type":"Feature","properties":{"interval":60,"stationId":"4718341773","profile":"off-peak"},"geometry":{"type":"Polygon","coordinates":[[[127.1489584990163,36.835085299094004],[127.14918917444099,36.833280511645775],[127.1491546996795,36.833178099988196],[127.1491891758339,36.833280510421474],[127.1489584990163,36.835085299094004]]]}}]}