{"type":"FeatureCollection","features":[{"type":"Feature","properties":{"interval":15,"stationId":"4733039958","profile":"off-peak"},"geometry":{"type":"Polygon","coordinates":[[[127.1168602982807,37.4661116009408],[127.1260508984112,37.4657021986118],[127.1260938989396,37.462042001612595],[127.1338216997207,37.466253899110896],[127.1493471976286,37.4540059971162],[127.1541581003969,37.4583681994564],[127.14830229979229,37.458371102601504],[127.1439642016116,37.4671040986087],[127.1355558000947,37.465409600625804],[127.1272182003307,37.471195200986294],[127.1257756003489,37.4743382989176],[127.1319144995622,37.475110097748804],[127.1270399004036,37.482092100416004],[127.1216868995258,37.4743913022124],[127.11946400013349,37.4765469001769],[127.1168602982807,37.4661116009408]]]}},{"type":"Feature","properties":{"interval":30,"stationId":"4733039958","profile":"off-peak"},"geometry":{"type":"Polygon","coordinates":[[[127.03718549928041,37.515149799790706],[127.04233069955049,37.503523900599],[127.04885559838219,37.5026937983016],[127.042821999278,37.4839705997694],[127.1103149993346,37.4735224987596],[127.1126924974182,37.4694142022745],[127.10712219987431,37.469231301398196],[127.1075870996172,37.459911100014196],[127.1102593010038,37.463746197438105],[127.1173853960301,37.462511298083],[127.11793829528621,37.4561134033359],[127.1241496977556,37.4591378962324],[127.11894679960321,37.4310271004675],[127.1192258014453,37.4340972002073],[127.12821399742,37.4257381996226],[127.1446292989868,37.427376899977],[127.15603159674451,37.439537696796705],[127.15882089841979,37.434335698526496],[127.16765389915871,37.4365412001316],[127.1729227982797,37.4473401976693],[127.1706532006669,37.4617115001108],[127.15591030275681,37.4653474035249],[127.1561728003327,37.472386899497295],[127.144522700119,37.4782843004199],[127.1334487000834,37.491642700279996],[127.1329018005564,37.505908400833604],[127.12833110040229,37.510225099938],[127.122841899714,37.5086786007666],[127.12270639999569,37.503377000274604],[127.1163478018189,37.503753000021106],[127.11994219822449,37.5051534986206],[127.1145330006414,37.5128534993424],[127.1177907021576,37.5213391988239],[127.1040640002683,37.521889200221295],[127.1013596997403,37.517387200585404],[127.1049344981822,37.5175050992872],[127.0947701998985,37.5119796004894],[127.0975175991464,37.5074158012889],[127.0844452995041,37.5053707004298],[127.1018607986736,37.4976207000179],[127.1124895996577,37.4990236994455],[127.0913217985423,37.487741402202595],[127.0879310011462,37.4976139021637],[127.06615940084241,37.5031438009071],[127.0582526003128,37.500916100102295],[127.0467751005186,37.5093198001212],[127.0494417004823,37.511924899553094],[127.04381020054859,37.5186921003125],[127.03718549928041,37.515149799790706]]]}},{"type":"Feature","properties":{"interval":60,"stationId":"4733039958","profile":"off-peak"},"geometry":{"type":"Polygon","coordinates":[[[126.883310899911,37.5260622999826],[126.9066567001682,37.5180424995011],[126.9099578988477,37.5156969004214],[126.9058494997673,37.511411099837694],[126.9152626996543,37.517784599086],[126.9154332991572,37.514411800575594],[126.9222957990859,37.5147349998933],[126.915617699853,37.501478501791695],[126.9061768001891,37.5002042007525],[126.91484849870001,37.4936636001734],[126.90463300038661,37.4904491004395],[126.905368198453,37.4833955010523],[126.9227500981036,37.4802987980183],[126.93424089986961,37.4697664994244],[126.9511186998564,37.4777814991414],[126.95092269994551,37.468208601734894],[126.9578834957586,37.4685551986163],[126.9583427997889,37.464635300080495],[126.9600976006984,37.4682039985829],[126.95371620421301,37.4703374008129],[126.9562774016518,37.4741764969738],[126.9716618988846,37.463633599447704],[126.9806033997507,37.4710080979516],[126.99570889725949,37.4546053986619],[126.9947413998989,37.4482213001882],[127.0010559993088,37.4478218983941],[127.0078338997901,37.4397463995739],[127.00277339778029,37.433889700025304],[127.010064499341,37.434249799472006],[127.0108987012268,37.4471937018731],[127.0036067002151,37.449896600536],[127.0054505985067,37.4549567978828],[127.00138750294151,37.456948101574],[126.9885779016484,37.457269300819],[126.9944067019124,37.468929797818],[127.0010134988916,37.4672230955147],[127.0096195008647,37.4733925990042],[127.0195549990152,37.4670791989835],[127.02579229894471,37.4682441972226],[127.0340083990076,37.4580471993357],[127.0425040993009,37.4615442997938],[127.0493805951982,37.440232799981295],[127.045416799162,37.4390298011843],[127.0620130928278,37.4343131992759],[127.0660149005543,37.4347978984222],[127.0633288021466,37.4427550944741],[127.0666571047806,37.4464462969966],[127.06261900197019,37.4490596009629],[127.0663218999333,37.4539269983758],[127.05103800349781,37.4672066977513],[127.077111598348,37.4750565942953],[127.0848838941827,37.4689623984195],[127.0769505981988,37.4589904005981],[127.0862079993568,37.4594948949666],[127.0928759961419,37.454298801021196],[127.0891969991962,37.4501990036035],[127.1034589990437,37.4429300981844],[127.1009325012022,37.4492257982771],[127.1179704905194,37.4517759956982],[127.1167570002008,37.4293677028343],[127.09803329845269,37.427286599935805],[127.1009591000333,37.420208299344],[127.10743149660111,37.418670997473406],[127.1096365990438,37.409146999448694],[127.1049349986543,37.40539540290651],[127.0994178025707,37.411137400586504],[127.10032819901011,37.397639500960096],[127.0936159008661,37.4017509004302],[127.09829529987141,37.3927188998373],[127.0955010996638,37.3871400016749],[127.09280700000119,37.3891996001987],[127.0957274973861,37.3822275040559],[127.09238280073079,37.3865597997236],[127.0859709982461,37.3521936035811],[127.0869910997129,37.3374064008674],[127.0923732971672,37.332895800618005],[127.0828586997395,37.328328800431],[127.082152701253,37.3229642005234],[127.0678679004196,37.3179615001287],[127.074001298135,37.303035103793505],[127.0635571047296,37.3040198003441],[127.0624442991894,37.2988016000563],[127.0689727992642,37.2964396994916],[127.06622559980279,37.2903873999211],[127.0730415995025,37.2924612985343],[127.0779277003196,37.295370799082804],[127.078757700219,37.305683199459295],[127.0873930000027,37.305336599685795],[127.09103169967901,37.3136813984562],[127.0970868972251,37.3141082985267],[127.1018088973581,37.3085518011185],[127.096075599469,37.3008785020058],[127.09737849944841,37.2893487999833],[127.1021225012597,37.2955994980579],[127.1073918969804,37.2921954996218],[127.10426789926619,37.2851391009715],[127.1017882012972,37.287924400011704],[127.107037499604,37.2777571001223],[127.104485199083,37.2577231997211],[127.11254190033739,37.2651018994402],[127.1093333020514,37.2705838000823],[127.12200489911669,37.2730660983784],[127.13680469922,37.266281399963994],[127.12428290296539,37.272834601492704],[127.1222534015971,37.290432200816],[127.11598350287589,37.2924387002574],[127.1142924063538,37.3112017964541],[127.1252161000171,37.327913798354],[127.12053550146081,37.335127899979106],[127.1273969008515,37.339013399525996],[127.1245162019365,37.345260900812],[127.12955720526179,37.363327794771],[127.1469343992817,37.3720392991956],[127.1434122040818,37.381251596923796],[127.1533177006592,37.3829708994586],[127.1413861055956,37.3908833013815],[127.1496505030108,37.403501497245095],[127.1596264009352,37.4034597995543],[127.15752240201451,37.4194621983186],[127.187132600821,37.4291773933074],[127.1842897062565,37.4364983962778],[127.1903310034295,37.4433021952109],[127.1948093990531,37.441730996958896],[127.19086090442191,37.4439392023746],[127.1894841042984,37.4679785002762],[127.1858372992839,37.4639011073285],[127.18214660210549,37.4791131011996],[127.17727930332259,37.4765857028406],[127.1701544058431,37.482520902147094],[127.170957102755,37.4931658974358],[127.170578198796,37.4897827029745],[127.16111810464399,37.4964304988573],[127.1684700020516,37.5063640997975],[127.1598728014242,37.510260002656004],[127.1554307032517,37.5196605988444],[127.1595396994273,37.520177698579495],[127.1510777040553,37.526560100746394],[127.1602526961374,37.529942098948396],[127.15649760031589,37.549149597875],[127.16683849928219,37.5480022001533],[127.1845527995265,37.5592986987509],[127.1448429036856,37.561909302258506],[127.1390681017225,37.5668924080462],[127.139658200496,37.5621119016952],[127.1365443010311,37.5606128027911],[127.1353438011298,37.566412399974496],[127.1259341948053,37.5589419073938],[127.11520660011199,37.564323299974596],[127.1111489998144,37.5591852017169],[127.0969278049465,37.5635443999243],[127.0988627002945,37.599867199670996],[127.0857427012446,37.6038274007126],[127.0777407001335,37.625836799661705],[127.0723393012306,37.6290938019483],[127.0672812004851,37.6232815007088],[127.07094089892189,37.623726298331505],[127.0689437002534,37.615897800682696],[127.0743021992928,37.6029384001092],[127.0659787004798,37.6053343001495],[127.0644658995911,37.5964673006387],[127.0369900002842,37.5931600012406],[127.035147999675,37.5866167004547],[127.0268399000665,37.5865338013553],[127.0151625006311,37.5977665999411],[127.01394259956199,37.5940586008867],[127.0000653994148,37.5918099007646],[126.99462319999691,37.5720246000271],[126.9895983028978,37.580791600028896],[126.9762911000053,37.5751930006033],[126.9716162000031,37.5778019003384],[126.9552773997189,37.5588994020653],[126.9345900001557,37.556968500346805],[126.9373091993486,37.5519646000187],[126.9509878002077,37.5566137980271],[126.9563485990876,37.5501284998045],[126.9661444995624,37.5567098991884],[126.99838299907721,37.5556381977174],[127.0002803967809,37.5445045036465],[126.9916012999217,37.538076700457],[126.9876302008547,37.5406526997422],[126.9846773003454,37.535010000487],[126.99729959975541,37.5288186997413],[127.0074760004233,37.5330076991119],[127.00617260086,37.5423250992107],[127.0103219979769,37.5368106028684],[127.0201214942982,37.537420798766],[127.0208889932903,37.5297237061238],[127.0093374006926,37.5297070999938],[127.0118891955261,37.522126905813],[127.0030453953418,37.5141234067652],[126.99453820115579,37.518484901197596],[126.9948010975796,37.5123900047936],[126.98225230228459,37.5043262024756],[126.9693090038014,37.507606207965196],[126.9713472017632,37.5161886993827],[126.9800943002044,37.520760698745896],[126.9936601991365,37.519634099173295],[126.978038300249,37.525162200127895],[126.97302450124519,37.5216151004475],[126.9679798012762,37.5271948998531],[126.9801473992551,37.533988698933605],[126.9729330012391,37.539570898540504],[126.97203850056539,37.5482073004506],[126.96767799982841,37.5402273001453],[126.97097259959439,37.5349190014392],[126.96678279993121,37.5295647003366],[126.96353720088301,37.5349692001998],[126.9614611997824,37.5325726002673],[126.96980719919631,37.5168811001913],[126.9651209038826,37.5094379076345],[126.9560014012205,37.5190756025993],[126.9353520013257,37.5139606002099],[126.9378949992844,37.517653098252296],[126.9304867004177,37.5302364000241],[126.929951799752,37.5269314017022],[126.9144600999744,37.5311328001345],[126.9165248998515,37.518391802024304],[126.910752400478,37.520635900807605],[126.9030677998412,37.5386311036075],[126.9048235992562,37.5358988000377],[126.8976396001441,37.5380847001662],[126.89438680010271,37.5275376007566],[126.883310899911,37.5260622999826]]]}}]}