{"type":"FeatureCollection","features":[{"type":"Feature","properties":{"interval":15,"stationId":"4820118359","profile":"off-peak"},"geometry":{"type":"Polygon","coordinates":[[[127.0927908976864,37.3408280971149],[127.0935809997016,37.3341014000027],[127.10151219956771,37.32775199999519],[127.1096453009186,37.3340052987013],[127.1077812014161,37.3460342986375],[127.11447420066891,37.3521858998729],[127.1059915006697,37.3533918005831],[127.0927908976864,37.3408280971149]]]}},{"type":"Feature","properties":{"interval":30,"stationId":"4820118359","profile":"off-peak"},"geometry":{"type":"Polygon","coordinates":[[[127.0634399968877,37.3041080069528],[127.0694280998858,37.2896394995361],[127.080932499835,37.295162599535196],[127.0778142013101,37.3033660002873],[127.0887919995961,37.3055297994782],[127.09893240124609,37.316993697725096],[127.1083264993283,37.3150300992612],[127.1101605992655,37.30892090034369],[127.11059980038411,37.3138417993996],[127.1024872015317,37.3179737007721],[127.1065272006274,37.325317999371904],[127.1112407988558,37.3212571000036],[127.1211923008583,37.330813999809195],[127.1239045007321,37.3834286998081],[127.1319859991385,37.3827040999717],[127.1282745039824,37.3882299979086],[127.134988800298,37.390717599323004],[127.1345743007743,37.4005321999444],[127.12867280009631,37.402693902229004],[127.1222304999034,37.3960215004262],[127.1174652004845,37.4038910000245],[127.10255159967299,37.4032423007524],[127.0994621998761,37.3974361011635],[127.105889999472,37.3948992997314],[127.1016387999274,37.3899905001821],[127.1110010970729,37.3812129020113],[127.1047964985438,37.3772776015526],[127.1049339989307,37.3655994997395],[127.0950301987026,37.363796701797405],[127.0979067945387,37.355956301141404],[127.08269580141679,37.351387701162096],[127.08389419679871,37.3254699019524],[127.0667854997928,37.317194100698],[127.0701380974662,37.310610402752005],[127.0634399968877,37.3041080069528]]]}},{"type":"Feature","properties":{"interval":60,"stationId":"4820118359","profile":"off-peak"},"geometry":{"type":"Polygon","coordinates":[[[126.8903982991217,37.5249174001826],[126.9217397984992,37.5158245995583],[126.9241325988418,37.5096621002871],[126.9174536986767,37.5015815015923],[126.908057800937,37.5001480024911],[126.9138711992597,37.500037299474606],[126.91484849870001,37.4936636001734],[126.9064557005284,37.490312500640805],[126.9065163988518,37.4834685999269],[126.9345892989043,37.4759926988262],[126.93323579937281,37.4701169994006],[126.9511186998564,37.4777814991414],[126.9578834957586,37.4685551986163],[126.95371620421301,37.4703374008129],[126.9562774016518,37.4741764969738],[126.96207339824869,37.472514798523996],[126.96423119820611,37.4659469989328],[126.9716618988846,37.463633599447704],[126.9806033997507,37.4710080979516],[126.9884666994664,37.4660825001595],[126.99016859954041,37.4565612994207],[126.9944067019124,37.468929797818],[127.0006482971825,37.4671172000117],[127.0122848981993,37.473095899300894],[127.01853319372469,37.4654796967131],[127.0141437981536,37.4592098029218],[127.0243818955105,37.456232299228006],[127.0243539955384,37.45136870409161],[127.01946260042979,37.4543840010763],[127.03292539513609,37.4449206039733],[127.02912089799939,37.4409487023603],[127.0354298952,37.4411109965332],[127.03260519802471,37.4357200019242],[127.0422931993333,37.4244861996027],[127.0548408979841,37.4335890925844],[127.0699338970519,37.4338431991758],[127.0667227969891,37.4269859008566],[127.0752233981361,37.4244846943103],[127.07197930296779,37.4249974004287],[127.0807237973805,37.4311709885492],[127.0719894029564,37.435428102570604],[127.0723027017981,37.442386196871205],[127.0666571054002,37.4464463004604],[127.0674286024856,37.4511892984112],[127.0735510983713,37.4495310983807],[127.0754488009816,37.4578265987655],[127.0848729005206,37.4616023998345],[127.0640789021742,37.461644903397],[127.06095180509,37.4721552010526],[127.06761490202379,37.4775613974563],[127.0945594983742,37.477512398464405],[127.1080953990912,37.4687016998339],[127.1036708010925,37.4650179031988],[127.1062161980836,37.4627374982277],[127.1173853960301,37.462511298083],[127.1167570002008,37.4293677028343],[127.1029299005294,37.427146501473],[127.09243269713231,37.416254005659205],[127.09292219997981,37.4087578999025],[127.08341229848051,37.4043182029912],[127.0820290992175,37.393680301477],[127.0759293002172,37.393190500878205],[127.0841110949564,37.3752918024858],[127.07711279843879,37.3664776057886],[127.0806275937345,37.3601099043888],[127.0692229026844,37.361257701234706],[127.0679763006994,37.3663683008184],[127.0634802992807,37.3635936022812],[127.0690159986445,37.3613777997311],[127.0671896979691,37.358610102527],[127.0594838009482,37.3603574008442],[127.06107569964391,37.3553354004968],[127.0774314956612,37.354707498068905],[127.07953089625539,37.344740103176605],[127.0702848031264,37.3430228045815],[127.05980460138741,37.3461646027647],[127.0584949026971,37.3508303980989],[127.0550575992588,37.3452416001096],[127.0593133997522,37.3406729991257],[127.0532132005875,37.333049100613394],[127.05672439750269,37.329395202867],[127.0396426028367,37.3221346026319],[127.0163720993869,37.2992527010924],[127.018896398582,37.2862411999141],[127.0273321998178,37.2746866996065],[127.0330475000783,37.2761901980422],[127.033981699017,37.269235701099504],[127.0218945010362,37.2669522008363],[127.01813230016491,37.2727059002397],[127.0070021000973,37.2673481003888],[127.0104516993043,37.2602246002093],[127.02018629955501,37.2615166990568],[127.0324783998344,37.2467741009713],[127.0466339999733,37.245190899695196],[127.047027698726,37.238429200457496],[127.0555250982121,37.2347872980823],[127.0706911991873,37.2417910983142],[127.0763777995646,37.238265499862095],[127.0928386012327,37.2543874986381],[127.1026199988697,37.2472670998253],[127.1088762009303,37.2486755983054],[127.1156505999858,37.2554801979484],[127.1128793020185,37.2645420963466],[127.12107880146961,37.2684533914277],[127.1302682956693,37.266616597277896],[127.13500789678541,37.2575399989859],[127.1511220973416,37.2618106966793],[127.1518886001556,37.256617300553],[127.1568619941759,37.2541210010058],[127.160614298582,37.257996295252504],[127.16499709844969,37.2526564993291],[127.1676857060299,37.2619445987382],[127.16082040589211,37.2704071955065],[127.16184530125119,37.2763384992256],[127.13888160165861,37.2852642033564],[127.1275766997423,37.297418300304294],[127.11939440521951,37.317975997466505],[127.12896419895159,37.313469696038],[127.1345716026923,37.3276738921183],[127.1443268000901,37.33075769935],[127.1412165044094,37.3348953983224],[127.1468816987442,37.3371648960529],[127.14183060236411,37.3363757045358],[127.1413446023378,37.3446032974104],[127.14568210098611,37.355949700116994],[127.142011903166,37.364866298458004],[127.1451909999869,37.3638786994456],[127.1539769020975,37.382429499882804],[127.1596980978816,37.384850198054004],[127.1496209005625,37.392236700458],[127.1465520010541,37.3877731038464],[127.1413861055956,37.3908833013815],[127.1496505030108,37.403501497245095],[127.15632599922671,37.404425798792495],[127.1583247996642,37.4135882962534],[127.1534516000975,37.4169920010405],[127.1579942007101,37.4212544001063],[127.1541906043256,37.429200694018405],[127.1711371004358,37.433530498044604],[127.1771281024106,37.449105401002],[127.1733926025742,37.4645855989365],[127.1571617987485,37.463724401623],[127.1504624000488,37.471877797875905],[127.1446016012215,37.471468601001604],[127.14518690057879,37.483314298822904],[127.13594620582121,37.488574198632904],[127.1365587004797,37.5019601989282],[127.1289271002541,37.511535700171706],[127.1340189002006,37.5169517997392],[127.12755510040529,37.5183743014287],[127.1242008998104,37.5122954010538],[127.11704280290549,37.519318900844205],[127.11921869969281,37.5271754977491],[127.125436099919,37.5254216998849],[127.1287937008981,37.5368441994422],[127.1314999995277,37.5350833996823],[127.1260922004308,37.5434799999054],[127.1197087005979,37.5422816005172],[127.1146122993288,37.5279503002282],[127.1081634995452,37.5257548020371],[127.10758990011969,37.5298544988088],[127.1042599027157,37.52664270430169],[127.1008131014702,37.542122298028104],[127.1077892014551,37.5473609998726],[127.0897861007561,37.5440094006349],[127.0959433006811,37.5508205994094],[127.0883618006766,37.5651462998501],[127.09694489904639,37.5791456976608],[127.0905222003847,37.5974627996871],[127.0804329997,37.595278500378896],[127.0826500997013,37.584390700335604],[127.07285059921199,37.5600953021058],[127.0690656007086,37.564774100403405],[127.0589162000178,37.5639235001613],[127.0538813007884,37.5712803995502],[127.0244607001525,37.569754100614],[127.02897330095,37.576315899182696],[127.0169531016814,37.5806949007512],[127.0322634994776,37.58476889937],[127.0289553001384,37.5890708005692],[127.0210810002569,37.5885461001063],[127.0206539002,37.5959988998382],[127.0026761002243,37.593540101334796],[126.99446089994751,37.5817211005357],[126.9706038998853,37.5825474002784],[126.9655085993284,37.575066200312904],[126.97096189942691,37.5710299001644],[126.96819190024529,37.5689453009483],[126.9483270003454,37.5852307009583],[126.9616996988553,37.5655213993049],[126.94307449942879,37.555154400066],[126.9520287991667,37.5561125985283],[126.95438319933669,37.550366100015296],[126.9650722984843,37.5566526000261],[126.97315879929249,37.5522607002546],[126.9649566001078,37.545468400168694],[126.9717244996067,37.5409645984519],[126.9702782998938,37.533519701833],[126.9624803002026,37.533979400086],[126.96330879953459,37.5242332997879],[126.96980719919631,37.5168811001913],[126.9651209038826,37.5094379076345],[126.9560014012205,37.5190756025993],[126.95360099966611,37.5150279003523],[126.931855801672,37.5136910012018],[126.92913060213249,37.516966198034396],[126.93547390015931,37.5169832986604],[126.93340930160369,37.5289511996923],[126.9136675000195,37.530184700601296],[126.9187316988843,37.5248498007663],[126.9151422009872,37.5196811006131],[126.905788200741,37.5271295001084],[126.8995637999205,37.523663902266],[126.90065009982999,37.5302716988032],[126.90775790035309,37.5303403990383],[126.9030677998412,37.5386311036075],[126.9048235992562,37.5358988000377],[126.8976836999559,37.5370871009976],[126.8988998985376,37.5304109993631],[126.8903982991217,37.5249174001826]]]}}]}