{"type":"FeatureCollection","features":[{"type":"Feature","properties":{"interval":15,"stationId":"4974511637","profile":"off-peak"},"geometry":{"type":"Polygon","coordinates":[[[126.9031867997555,37.3115787982827],[126.90325141471523,37.31165512692194],[126.9031867998605,37.3115788000754],[126.9031867997555,37.3115787982827]]]}},{"type":"Feature","properties":{"interval":30,"stationId":"4974511637","profile":"off-peak"},"geometry":{"type":"Polygon","coordinates":[[[126.9031867997555,37.3115787982827],[126.90325141471523,37.31165512692194],[126.9031867998605,37.3115788000754],[126.9031867997555,37.3115787982827]]]}},{"type":"Feature","properties":{"interval":60,"stationId":"4974511637","profile":"off-peak"},"geometry":{"type":"Polygon","coordinates":[[[126.9031867997555,37.3115787982827],[126.90325141471523,37.31165512692194],[126.9031867998605,37.3115788000754],[126.9031867997555,37.3115787982827]]]}}]}