{"type":"FeatureCollection","features":[{"type":"Feature","properties":{"interval":15,"stationId":"5050088102","profile":"off-peak"},"geometry":{"type":"Polygon","coordinates":[[[127.0303047995405,37.7612491999997],[127.0337118999436,37.7534178005291],[127.0423747992203,37.7517868004544],[127.0411312996617,37.7445375999902],[127.0495209000171,37.7446031996111],[127.0470960023235,37.762422202988304],[127.0399151001092,37.766787000307204],[127.0303047995405,37.7612491999997]]]}},{"type":"Feature","properties":{"interval":30,"stationId":"5050088102","profile":"off-peak"},"geometry":{"type":"Polygon","coordinates":[[[127.0180409987897,37.7551587000033],[127.0250531994136,37.756770098299995],[127.0328513996506,37.751555599799005],[127.0270895991508,37.7426473004153],[127.0418969981693,37.7183549011595],[127.04221529823239,37.710451300808906],[127.0375065974187,37.707227002066105],[127.0428503993735,37.709166698730094],[127.04601139991969,37.700157099473195],[127.05262050024851,37.7042613996671],[127.0522463033326,37.7175577976785],[127.0590381018325,37.7218459982722],[127.0628389036184,37.7427431985297],[127.0749307024215,37.7500489969376],[127.0852299985489,37.7492129998286],[127.0796852007706,37.7587428998025],[127.0636541005417,37.7519409031345],[127.05304690278909,37.752989301525304],[127.0495540027686,37.7654856960559],[127.056377704238,37.7690962994946],[127.0478313045663,37.768502402940804],[127.0511223982594,37.7729774991053],[127.0425888004666,37.7773174006209],[127.0298534986449,37.773458804625],[127.027706299944,37.7709873013483],[127.0348895947937,37.764213499165095],[127.0238411010122,37.7606171030261],[127.02263360221971,37.763744199899],[127.0180409987897,37.7551587000033]]]}},{"type":"Feature","properties":{"interval":60,"stationId":"5050088102","profile":"off-peak"},"geometry":{"type":"Polygon","coordinates":[[[126.9881759996657,37.5701748001218],[126.9989618996468,37.568876299470396],[127.00567319983891,37.5589047997261],[127.0147249003739,37.559599498493895],[127.0215513000514,37.5681103995463],[127.04856319961111,37.5714221995015],[127.0780057998634,37.5896909997686],[127.08389269936701,37.5703523000571],[127.0801445001703,37.5653286005469],[127.0846906000903,37.5626562996672],[127.0957611011114,37.5797042995934],[127.09605170079391,37.5988621995483],[127.0847134021457,37.609098799640996],[127.0923716995721,37.616045398133195],[127.0831316069817,37.6315143976678],[127.08409609909519,37.6404972961306],[127.07645000561959,37.6444480010963],[127.0818986003662,37.6509930991676],[127.0729704031758,37.6748093999007],[127.07542680205461,37.6828438990235],[127.0707867050537,37.6872543033204],[127.0751763024818,37.7048296966153],[127.0719509051502,37.7126684987092],[127.07538770077379,37.7166038963094],[127.0766013995601,37.7133805995327],[127.10342740048141,37.71815379889561],[127.1115677001158,37.728199999645],[127.106511300718,37.735715500911795],[127.10287010253451,37.7342573014644],[127.1110808999494,37.7551754997895],[127.1026660044304,37.7549678053768],[127.1040823029015,37.7694563013888],[127.0897405000979,37.767707911299],[127.07936440056591,37.7727162015372],[127.0733654039853,37.7679469061852],[127.07076230119449,37.785974501154705],[127.0567314015974,37.784627204758806],[127.04866100222219,37.7898509991799],[127.0472599011465,37.7969417001448],[127.0377331992106,37.7798303039056],[127.0336540017603,37.787078298746096],[127.0156485014799,37.788215101347404],[127.00852769983621,37.7821519001912],[127.0089636953104,37.7732058001815],[127.001715794732,37.7636101052418],[127.0053124945681,37.73633310694591],[127.0143793024712,37.7368932962394],[127.0201962920261,37.7292386987545],[127.0131302992228,37.7168779043373],[127.0190796988782,37.6965090996062],[127.01606299655461,37.6889215034018],[127.0210846915334,37.6860467971105],[127.02192239069569,37.676616906540396],[127.01688369631279,37.662264100766905],[127.01893839980049,37.6550976009801],[127.0118893987629,37.6515787006266],[127.005300498751,37.6361378992016],[127.00845629822271,37.617600000126906],[127.0164774981682,37.614455500799295],[127.0036276997332,37.612257901587206],[127.0147941993294,37.609371699783296],[127.00804529808761,37.5937792016454],[126.9966187996715,37.5939722004679],[126.9945329986113,37.5804279004985],[126.99988909956791,37.5732551012854],[126.9881759996657,37.5701748001218]]]}}]}