{"type":"FeatureCollection","features":[{"type":"Feature","properties":{"interval":15,"stationId":"5050088115","profile":"off-peak"},"geometry":{"type":"Polygon","coordinates":[[[127.0441053998411,37.7492890999645],[127.0442984998451,37.7488362999603],[127.044298500799,37.7488362996732],[127.0441053998411,37.7492890999645]]]}},{"type":"Feature","properties":{"interval":30,"stationId":"5050088115","profile":"off-peak"},"geometry":{"type":"Polygon","coordinates":[[[127.0441053998411,37.7492890999645],[127.0442984998451,37.7488362999603],[127.044298500799,37.7488362996732],[127.0441053998411,37.7492890999645]]]}},{"type":"Feature","properties":{"interval":60,"stationId":"5050088115","profile":"off-peak"},"geometry":{"type":"Polygon","coordinates":[[[127.0441053998411,37.7492890999645],[127.0442984998451,37.7488362999603],[127.044298500799,37.7488362996732],[127.0441053998411,37.7492890999645]]]}}]}