{"type":"FeatureCollection","features":[{"type":"Feature","properties":{"interval":15,"stationId":"5225259408","profile":"off-peak"},"geometry":{"type":"Polygon","coordinates":[[[127.0975728995717,37.3634422999803],[127.1042371989991,37.3637168980553],[127.1084356991341,37.3566126005209],[127.11468499972199,37.35994259931039],[127.1231466000713,37.3841166984571],[127.1325553992211,37.3922327990618],[127.1319671005821,37.3985505990346],[127.1255954004825,37.3992995006557],[127.1280470987834,37.3877704002667],[127.12255349998979,37.390437200615004],[127.1115243000939,37.3836426008135],[127.10654839990039,37.3765201007227],[127.10969989841179,37.3738925997071],[127.1040592976975,37.372108099555795],[127.1049339989307,37.3655994997395],[127.0975728995717,37.3634422999803]]]}},{"type":"Feature","properties":{"interval":30,"stationId":"5225259408","profile":"off-peak"},"geometry":{"type":"Polygon","coordinates":[[[127.0639660949558,37.3010769996986],[127.06813249910381,37.2923956010295],[127.0778119987165,37.295533899172604],[127.0767475009655,37.3068114000304],[127.0867050998122,37.3073202995284],[127.0862603012427,37.312413000193],[127.0924198005795,37.316637598962],[127.1014321003665,37.317923998639195],[127.10486939696109,37.3128093018495],[127.1080849995698,37.3157525985387],[127.10700079965589,37.3082275009389],[127.1136910004394,37.3107134003486],[127.1061006025116,37.3157908008827],[127.1160309012172,37.3250370988609],[127.1123310004835,37.333479400445],[127.1201677999222,37.334784999755996],[127.1180407001082,37.3432611992655],[127.132273199618,37.373476999242804],[127.1418889998955,37.3802123976374],[127.1383539013194,37.388850898854],[127.1419606001175,37.3885241992221],[127.143120003409,37.395179998087],[127.13570610179539,37.4010904984761],[127.1443320990856,37.4075638996688],[127.1431714006165,37.41499679983],[127.1373578029402,37.4178439006343],[127.13816320234899,37.4250912936042],[127.147949199606,37.4347163972483],[127.1450896005943,37.4398362985575],[127.1616214994513,37.4410838995082],[127.1623946004317,37.4558123997665],[127.145933700583,37.4426579004352],[127.13983999997751,37.4432699005122],[127.1379699000511,37.4508195992386],[127.12599990081749,37.4580030999597],[127.1210428994371,37.451835200522],[127.1239716967933,37.441797402598596],[127.11981930094571,37.442326102069906],[127.1182706986871,37.4305248016772],[127.1253111994581,37.421661600139004],[127.12113709871299,37.416502102627206],[127.117813401807,37.4184714006823],[127.1181298999541,37.408999201513694],[127.1003140997108,37.4051553012828],[127.0979974989244,37.39637169832881],[127.1042811988208,37.3957435000492],[127.0969449005881,37.382190204401496],[127.0996496979272,37.3768166003712],[127.0891115990044,37.3644558047489],[127.08905969516141,37.3587258983515],[127.0943203981251,37.3630062940914],[127.0979067945387,37.355956301141404],[127.0899611996486,37.3440588003475],[127.092790896438,37.3408280992627],[127.0869910997129,37.3374064008674],[127.0958804990434,37.3327639003028],[127.0855201004197,37.3272470024645],[127.0832086985942,37.3181569006901],[127.0711430001843,37.317116500592796],[127.074001298135,37.303035103793505],[127.0639660949558,37.3010769996986]]]}},{"type":"Feature","properties":{"interval":60,"stationId":"5225259408","profile":"off-peak"},"geometry":{"type":"Polygon","coordinates":[[[126.8821041980264,37.5249139022389],[126.8934233992458,37.519197498010996],[126.8938506993014,37.51283019978511],[126.9047012006591,37.517985199419996],[126.90769999874401,37.5152200003169],[126.9045365995677,37.5100697006393],[126.91829959900299,37.510969899634],[126.9127780011672,37.5021128025617],[126.9105227017901,37.5047270007545],[126.9042998994601,37.5002557002886],[126.9087225979774,37.4948408006292],[126.902476300844,37.4916920013114],[126.9015165999428,37.4827461000297],[126.9138056995419,37.478046999944794],[126.9227500981036,37.4802987980183],[126.9342071999436,37.4671464997399],[126.9499879003488,37.4770700983031],[126.95092269994551,37.468208601734894],[126.9578834957586,37.4685551986163],[126.9583427997889,37.464635300080495],[126.97436260043851,37.4622457964732],[126.9806033997507,37.4710080979516],[126.9884666994664,37.4660825001595],[126.99345429997659,37.4475283025436],[127.00218269653341,37.441126500316905],[127.0003112006052,37.434642101062096],[126.9905477992202,37.433911699984506],[126.98827389845209,37.4242120998876],[127.0009738015757,37.433175597352],[127.0094270964903,37.4301874000642],[127.0144235986998,37.435739494299],[127.00957410596709,37.4389227993866],[127.0156752998176,37.4418391981391],[127.0080005019848,37.4542602991232],[127.014384998912,37.4560750992266],[127.02138839417461,37.4488495991667],[127.0273870986161,37.4521082992146],[127.03292539513609,37.4449206039733],[127.02712030076441,37.4433090052994],[127.04035298950619,37.423664601294],[127.0548408979841,37.4335890925844],[127.0597292958178,37.429682497292],[127.06672069699121,37.4329787948637],[127.06310500010329,37.4222741002956],[127.0752233981361,37.4244846943103],[127.07676859870499,37.419993399145305],[127.07197930296779,37.4249974004287],[127.08459640316299,37.4335100987688],[127.0719894029564,37.435428102570604],[127.0754488009816,37.4578265987655],[127.08082299930119,37.455653598395195],[127.08810799874071,37.4627002970561],[127.0762917000974,37.4665142007781],[127.0751493994079,37.4595885030554],[127.0707625011634,37.463639199935706],[127.06854149771159,37.4591990058429],[127.06162410364,37.4689519961506],[127.077111598348,37.4750565942953],[127.0906961983725,37.4744877979345],[127.1060926002972,37.453842496925404],[127.11579469763069,37.462988797790196],[127.1194199939955,37.4589331016612],[127.1167570002008,37.4293677028343],[127.1064523004712,37.4275601020656],[127.103297400502,37.4333909998574],[127.09712139971751,37.430130503161294],[127.09292219997981,37.4087578999025],[127.0818927995673,37.4073094010199],[127.08542679712349,37.398620902169],[127.0693898004422,37.3886448002465],[127.07576189861841,37.3877281990208],[127.0777510968449,37.3794631011105],[127.0673061017811,37.3730482015045],[127.0667167983882,37.3618422993539],[127.07743149436641,37.354707499462506],[127.07953089625539,37.344740103176605],[127.06346810020129,37.3439829024763],[127.06360519761469,37.336773601808],[127.05784399991731,37.3324608010187],[127.0613884981111,37.3267133010277],[127.0547766009655,37.3233799002368],[127.0567244011331,37.3293951985432],[127.05107919797621,37.319862804036504],[127.0352788033001,37.3171447007607],[127.02643419766319,37.3005769038908],[127.01988010028049,37.3010385003536],[127.0225734993723,37.2866915997772],[127.0361230980157,37.274036700068606],[127.02475390091439,37.2696281011204],[127.01805710022529,37.274180901033],[126.9942372001851,37.2713579001677],[127.0012585993273,37.2650892002233],[126.99911659915519,37.260132401574005],[127.010183698982,37.256089000002106],[127.0192764993621,37.2587245988026],[127.036003997844,37.2389696996441],[127.0519141993555,37.2391732990424],[127.049437599106,37.2343084011851],[127.0535836979231,37.2325952985391],[127.0642208009105,37.2333232990739],[127.06528180058099,37.2400965975487],[127.07067409918871,37.2375512992968],[127.0706911991873,37.2417910983142],[127.0759423979101,37.2381275993264],[127.0726017006374,37.237596200373396],[127.0819900987716,37.2375333988526],[127.0913994018017,37.2527146977818],[127.1022225000321,37.2446030997431],[127.1155378983221,37.2495375988687],[127.11624710319249,37.266337292408004],[127.12107880146961,37.2684533914277],[127.13339259259449,37.2640027992467],[127.1349986967946,37.2542927022332],[127.1568619941759,37.2541210010058],[127.16100089707001,37.248306899487304],[127.1574440006269,37.243551104243096],[127.163437399344,37.2427621993478],[127.1677532959214,37.232013206304096],[127.16726730102701,37.236830998408806],[127.1755842962411,37.232337100466104],[127.1792134011786,37.2370567965844],[127.1891872985767,37.2360768987095],[127.1772318011316,37.241448200463104],[127.1686887082635,37.25228250261],[127.165020702966,37.2777739977029],[127.14914370251509,37.283490700739804],[127.1500129008054,37.2880997997697],[127.13888160165861,37.2852642033564],[127.12715660180761,37.3145728988968],[127.1345716026923,37.3276738921183],[127.1411965036403,37.3293755959202],[127.1423083050893,37.349967397397194],[127.152563502185,37.3596437987592],[127.1507758042553,37.3643769998915],[127.159619300516,37.368284999571],[127.1545986047052,37.3733846972331],[127.1606144986893,37.3727343978834],[127.1613634070868,37.3899022028747],[127.1675473009029,37.3934949992819],[127.1646193049276,37.3983613023547],[127.1696941007967,37.410787400033094],[127.15419060597101,37.4292006986526],[127.1711996937292,37.4304408964097],[127.17666679706231,37.4280289957044],[127.1750516986774,37.423568500164905],[127.18147450077899,37.431574399942605],[127.1798450026771,37.438895697187405],[127.1853893049417,37.446801396500796],[127.182385603103,37.4510280999043],[127.1858480996405,37.452133398799],[127.1781276035225,37.4720979974253],[127.1705683999348,37.464593805119705],[127.1673296030327,37.4725702971081],[127.1565713029954,37.4735745074657],[127.1495365017413,37.483066698738604],[127.16438770060351,37.4899678996573],[127.1612591010632,37.5048339987649],[127.1486431015356,37.5048030013707],[127.14408850064909,37.5116987992419],[127.1512533004851,37.5153832988736],[127.1510777046666,37.526560098562896],[127.1590544003124,37.533730699158],[127.1544373026868,37.5323049022055],[127.1526455005107,37.5388677011387],[127.1473146008128,37.5392052998381],[127.14480880002981,37.5566619002466],[127.1323601014561,37.562574900426604],[127.11916409474131,37.5473863077548],[127.09504510104719,37.5555421010952],[127.090777602765,37.5618207011546],[127.1003506010444,37.579637296567604],[127.0968999002364,37.5921600004584],[127.0810731005552,37.607421200066895],[127.076022800313,37.620758600654405],[127.07221269981389,37.6164495993266],[127.07967759782339,37.575133299851096],[127.0740951005906,37.5662463002006],[127.04025070034061,37.5758622999034],[127.05512690017241,37.5790899993834],[127.05414210055291,37.585054399696595],[127.062577300079,37.5883043997437],[127.0593349005332,37.5927643997764],[127.03797790002311,37.582061400405],[127.0416953002901,37.591289698984994],[127.0364433002598,37.5953361000484],[127.0251572005478,37.5907605001667],[127.01470310012071,37.5997167003149],[127.00734439878849,37.5932470021776],[126.9983959996493,37.5942565008264],[126.9935232995346,37.5836693003996],[126.9848619001984,37.5876290010866],[126.9595171004639,37.5785556010485],[126.9394249990322,37.5915252013407],[126.9488415982931,37.5762691006531],[126.9560665980698,37.5727686995145],[126.9574388994105,37.563997000091],[126.9313263003744,37.5576303005476],[126.93177159938061,37.554359300076],[126.95166359939941,37.552109299493196],[126.9417602995724,37.5382821004788],[126.9562070996104,37.5401230999651],[126.962493596565,37.5297388026586],[126.95876580108009,37.5219857006148],[126.9689243000292,37.5191301979616],[126.9651209038826,37.5094379076345],[126.9560014012205,37.5190756025993],[126.9397551997689,37.5157392002901],[126.93835370142389,37.525663298351795],[126.9319007090502,37.5303241059243],[126.9126050995737,37.5319285002258],[126.9101116010296,37.5268367993322],[126.9002438003587,37.540438900099],[126.8904964001948,37.5402313002934],[126.89413189933491,37.5319827007631],[126.8821041980264,37.5249139022389]]]}}]}