{"type":"FeatureCollection","features":[{"type":"Feature","properties":{"interval":15,"stationId":"5304357332","profile":"off-peak"},"geometry":{"type":"Polygon","coordinates":[[[127.06335507618604,37.16873055151884],[127.0634208001709,37.1684688974282],[127.0634208013952,37.1684689003826],[127.06335507618604,37.16873055151884]]]}},{"type":"Feature","properties":{"interval":30,"stationId":"5304357332","profile":"off-peak"},"geometry":{"type":"Polygon","coordinates":[[[127.06335507618604,37.16873055151884],[127.0634208001709,37.1684688974282],[127.0634208013952,37.1684689003826],[127.06335507618604,37.16873055151884]]]}},{"type":"Feature","properties":{"interval":60,"stationId":"5304357332","profile":"off-peak"},"geometry":{"type":"Polygon","coordinates":[[[127.06335507618604,37.16873055151884],[127.0634208001709,37.1684688974282],[127.0634208013952,37.1684689003826],[127.06335507618604,37.16873055151884]]]}}]}