{"type":"FeatureCollection","features":[{"type":"Feature","properties":{"interval":15,"stationId":"5325300810","profile":"off-peak"},"geometry":{"type":"Polygon","coordinates":[[[126.7868124979602,37.576143198710795],[126.7910774985428,37.5710426984743],[126.7940359031409,37.5741402956235],[126.7977391994376,37.5702048995589],[126.7993937003088,37.5758302957253],[126.8064892009375,37.572634399505695],[126.79857720175589,37.5876523015123],[126.7887793993929,37.579745603523506],[126.7963111998215,37.5843892975929],[126.7954923997577,37.575665202439204],[126.7868124979602,37.576143198710795]]]}},{"type":"Feature","properties":{"interval":30,"stationId":"5325300810","profile":"off-peak"},"geometry":{"type":"Polygon","coordinates":[[[126.776220197906,37.5758302010253],[126.7904878988427,37.566374692500794],[126.7993937003088,37.5758302957253],[126.8043332988424,37.5680287006308],[126.7984198005241,37.563155202025094],[126.8092432002735,37.5548605996136],[126.8198317000097,37.5627807976623],[126.8207902994932,37.568707398185204],[126.8260965993707,37.5596852006624],[126.8306849998313,37.5638606989642],[126.82867840281911,37.5706467997952],[126.82268210087169,37.5699866004121],[126.8094676005652,37.589399799957306],[126.7974345021687,37.5973542993358],[126.7926421002955,37.587334601677696],[126.7843172991453,37.591910302018405],[126.7887793993929,37.579745603523506],[126.78454190103949,37.584805800297296],[126.776220197906,37.5758302010253]]]}},{"type":"Feature","properties":{"interval":60,"stationId":"5325300810","profile":"off-peak"},"geometry":{"type":"Polygon","coordinates":[[[126.6893024986861,37.6347918990985],[126.6961500969453,37.6232154985192],[126.7049873971837,37.6231969999351],[126.7119308965036,37.617341698923894],[126.7171703985337,37.6035600010594],[126.7360204976295,37.5972822010568],[126.7357877054398,37.6017749970094],[126.7514308984024,37.6036595972049],[126.75505619828189,37.5915192026432],[126.7661997955459,37.5870850006154],[126.765227996084,37.5765266007714],[126.7533707002529,37.567738401363805],[126.74673870296239,37.5727140981436],[126.7474732003353,37.5791630990921],[126.73708220203041,37.5833946008828],[126.7288065016107,37.5816247019727],[126.72621889583401,37.5712875024011],[126.71168130387319,37.570594502885896],[126.7203728963492,37.5710665972704],[126.71791469880739,37.564980303356705],[126.7221135979125,37.55761100021],[126.7274668011629,37.5632993929371],[126.73337889525081,37.557331398905106],[126.72991209821701,37.550373903211394],[126.7170793999642,37.547035300763795],[126.7169150980229,37.5380827988147],[126.710459199715,37.530569900544805],[126.7221660988923,37.5241172993521],[126.712453000102,37.5170235015542],[126.7212520997728,37.5146472010697],[126.71405679959429,37.506444699675306],[126.7225706989235,37.4901747990548],[126.729474199339,37.4887654992486],[126.7255228998601,37.5046246996381],[126.74299569878819,37.5036126967874],[126.7432546010132,37.50948789962651],[126.72493150020709,37.5108605999897],[126.7301260012462,37.517294197173804],[126.7231710997344,37.518080500281606],[126.72227870094841,37.5254578986792],[126.72881030037071,37.5255098991175],[126.7319523018572,37.5320413998088],[126.7492050008484,37.5406753991758],[126.7456342014431,37.5427395010121],[126.7478755015519,37.5524108995492],[126.7575675001533,37.5593712990236],[126.7514772009024,37.566099599503104],[126.760922399187,37.5723925961111],[126.7686663985762,37.5643904986739],[126.7678550988829,37.556851500467],[126.7750051992266,37.556568998197406],[126.7834297999151,37.5592240981551],[126.7729596012362,37.5653213020109],[126.7738608004036,37.5741678989598],[126.7904878988427,37.566374692500794],[126.7993937003088,37.5758302957253],[126.8035801992859,37.5713500991522],[126.7984198005241,37.563155202025094],[126.8139417975667,37.5471032001008],[126.80718159838241,37.538683202811605],[126.79736170019089,37.5379965026401],[126.7994939974746,37.532399502766694],[126.7905810017418,37.5370751009098],[126.7832268998753,37.531399300306695],[126.7803053992167,37.5226563999998],[126.7855025991888,37.5151364999953],[126.7802886000002,37.510535101053],[126.7670566014043,37.5078808010894],[126.7551006005298,37.5121464999309],[126.7460860020853,37.5078064999136],[126.75046769939,37.5008987008944],[126.76774049801641,37.496827501078705],[126.7422603013424,37.494777799674104],[126.7331727995904,37.4848828007779],[126.7464565993305,37.4833339985772],[126.7449437012146,37.4896429006999],[126.75266929999559,37.4879746992508],[126.75529999826061,37.4811199996184],[126.7851695989813,37.4736923987183],[126.7907420975813,37.4644829998141],[126.7858163991414,37.4471454999235],[126.7766949994004,37.443180901189],[126.77601989995159,37.4384153016352],[126.7828426986042,37.4315886993352],[126.7888125995625,37.4302703998679],[126.7963641002859,37.4417755000232],[126.80426659887331,37.442702799601],[126.808946300877,37.475968299809196],[126.82985620018819,37.4895856983573],[126.8383041987282,37.4845251992174],[126.8385784987245,37.4796243996228],[126.8444975000931,37.482902597589806],[126.85355889994099,37.4737095997879],[126.8593698003909,37.477533197420705],[126.8674258990457,37.472791098851204],[126.8731628997644,37.4767685998161],[126.8572395031113,37.483398701255204],[126.84483370204539,37.4830446015725],[126.8437299003972,37.4909063001882],[126.8275065011241,37.497161100461696],[126.8095018008905,37.493189900651196],[126.81152120167211,37.5025506956935],[126.81531749787581,37.4984060998381],[126.8136453024361,37.5016975994256],[126.82256530019109,37.5060001994446],[126.81938680215251,37.517187896212405],[126.8294765006451,37.5257100987363],[126.8613827994427,37.5064347995586],[126.86974959990381,37.514058399770704],[126.8721983994909,37.5093543981962],[126.8743131001841,37.513928997988394],[126.8792434976033,37.5138901003506],[126.8758764007585,37.5128779012245],[126.8804056996497,37.5080271997548],[126.8901549996604,37.509571598867],[126.8877410998388,37.49540059992],[126.8933761988589,37.492512000111496],[126.8981113008355,37.499015999262795],[126.8927522010779,37.505795999162],[126.9056724001539,37.515753199537],[126.91005539978,37.511467799188296],[126.9203260996641,37.5123150990958],[126.9187042994588,37.498317200040105],[126.92936019772121,37.513179498801],[126.93024750014749,37.507806000421105],[126.9410543994961,37.501468799921795],[126.9430374005101,37.5077278990126],[126.9468623993371,37.505540100144195],[126.9571203001541,37.5132001981377],[126.9353793010327,37.5151852998834],[126.9448079039357,37.5337597983793],[126.9657358996874,37.5371454982646],[126.9645795010965,37.5429240996639],[126.95794250165591,37.5447267003442],[126.96051970050651,37.55000209957],[126.9691141994498,37.5481196993913],[126.9704072003382,37.56109759964539],[126.9789775000372,37.5627453989031],[126.9789049001756,37.565889899865404],[126.9701173002301,37.5622995011621],[126.9700253006669,37.5689607993805],[126.96402730017209,37.5696103001297],[126.9606800998749,37.5635132013131],[126.9507395001543,37.5602816006321],[126.9136731012165,37.5709686003713],[126.9136944998996,37.577101898178306],[126.9200922011325,37.5810051994356],[126.9187665004866,37.595513100336795],[126.9286864999457,37.603137499722806],[126.9325168005349,37.6146744998973],[126.926211400506,37.6148800998594],[126.9084192000021,37.600528700492596],[126.90107400010419,37.5857594009897],[126.88915820130019,37.582672201208794],[126.88380720190831,37.587245200879195],[126.8801823985343,37.581237900184],[126.8920335996363,37.5729936976144],[126.89094699923359,37.5646871016506],[126.90048449921511,37.5582418996418],[126.8992705019365,37.544340105949196],[126.8875372068166,37.5485215060093],[126.883853906023,37.5532880054524],[126.8870128018739,37.559434099442996],[126.8785532998584,37.5528588007853],[126.86734190801,37.5597705056585],[126.87218930054,37.572688798013004],[126.8596649003216,37.578759601428295],[126.8555688010706,37.5785607026721],[126.8642368975802,37.5737494004933],[126.859521102296,37.5673483068944],[126.8218896997441,37.583948800437504],[126.8243651991955,37.5820150005486],[126.8168942009732,37.580768501483796],[126.8144506027807,37.583393799390905],[126.82150680086359,37.595758689262],[126.83016239907731,37.599270397085],[126.83429389854591,37.607078297625996],[126.8416654983796,37.6032815003583],[126.8568945001005,37.6152746999067],[126.84650170176471,37.6244126013571],[126.8326212004076,37.6221379998737],[126.838992699471,37.6279159995063],[126.84089930066341,37.639205197976196],[126.8354940005911,37.6441184990665],[126.82631050257861,37.6411353013833],[126.82649929954219,37.6370531033155],[126.82364580239569,37.6397804005882],[126.8192652010165,37.6249191001794],[126.804504600292,37.6268358001022],[126.8017703027897,37.6384579996376],[126.808345199672,37.6434218988139],[126.80003330073079,37.6481399004916],[126.8022604009019,37.6653256015131],[126.79226590107871,37.6675162003527],[126.7868467998562,37.663721300683],[126.7901950997318,37.6557497001959],[126.7973306986978,37.653655900788195],[126.7920330996926,37.6501538002952],[126.78567029973571,37.6499138012033],[126.78629350035389,37.6550679997247],[126.77011490063019,37.6638361004896],[126.7669504991313,37.657615800730404],[126.7718080998131,37.6564868990302],[126.7692470998854,37.649405800183196],[126.7790281996346,37.646442899364],[126.7796966987264,37.637480801128795],[126.7934510982274,37.638805300378],[126.7921291981774,37.630905500279894],[126.80560259784271,37.624078900977004],[126.80199619899571,37.6180094013764],[126.8108894978684,37.6095863998414],[126.8009157051766,37.602192807881295],[126.77031050375459,37.6178859990016],[126.765887398632,37.6087440035864],[126.7590120017877,37.615216101441],[126.7327409042299,37.6206222023691],[126.73026710160961,37.6324969008029],[126.7313957982212,37.6297070012084],[126.723673201507,37.6292866036887],[126.7215731036071,37.633156499818796],[126.713507605978,37.6324782025736],[126.7136863037181,37.6414866983538],[126.700563001152,37.643479499592196],[126.7005795985216,37.6383580037476],[126.6893024986861,37.6347918990985]]]}}]}