{"type":"FeatureCollection","features":[{"type":"Feature","properties":{"interval":15,"stationId":"5340678916","profile":"off-peak"},"geometry":{"type":"Polygon","coordinates":[[[126.6146129997399,37.641746900091704],[126.61473127206179,37.641635288764355],[126.6146457000967,37.6417603000336],[126.6146129997399,37.641746900091704]]]}},{"type":"Feature","properties":{"interval":30,"stationId":"5340678916","profile":"off-peak"},"geometry":{"type":"Polygon","coordinates":[[[126.6146129997399,37.641746900091704],[126.61473127206179,37.641635288764355],[126.6146457000967,37.6417603000336],[126.6146129997399,37.641746900091704]]]}},{"type":"Feature","properties":{"interval":60,"stationId":"5340678916","profile":"off-peak"},"geometry":{"type":"Polygon","coordinates":[[[126.6146129997399,37.641746900091704],[126.61473127206179,37.641635288764355],[126.6146457000967,37.6417603000336],[126.6146129997399,37.641746900091704]]]}}]}