{"type":"FeatureCollection","features":[{"type":"Feature","properties":{"interval":15,"stationId":"5340662955","profile":"off-peak"},"geometry":{"type":"Polygon","coordinates":[[[126.6600722995307,37.648963900718],[126.66351419872329,37.6382329007156],[126.6760673002583,37.6402491990466],[126.674305400057,37.6454082992585],[126.6962929005536,37.649892699332305],[126.6916430000195,37.6542199010542],[126.6854350003963,37.651803702466104],[126.68063070119939,37.6618141006119],[126.675547999323,37.6596964008125],[126.6758771985185,37.6523375012108],[126.66929259998821,37.6496918000951],[126.6702374995261,37.6462707006308],[126.6600722995307,37.648963900718]]]}},{"type":"Feature","properties":{"interval":30,"stationId":"5340662955","profile":"off-peak"},"geometry":{"type":"Polygon","coordinates":[[[126.60815529904781,37.6423637996896],[126.61179949955951,37.637241200392495],[126.6172621989769,37.6420128979106],[126.64199069546619,37.6278563983413],[126.6584181991797,37.630845098215204],[126.6616683002499,37.6382526975041],[126.66925479831221,37.6327662005885],[126.6748838001356,37.6362482991955],[126.6781815985754,37.6307721973561],[126.6875005010025,37.639901298091196],[126.691872298429,37.6269440004586],[126.6975427992487,37.6213447991369],[126.7085183983999,37.620946098190196],[126.715076396521,37.6091163983145],[126.723685497457,37.6102895992865],[126.73144499746829,37.6020783007666],[126.74158990111829,37.6098246987875],[126.7005682010017,37.653074201761],[126.6712389993613,37.6693208010464],[126.6747055968349,37.6659901021498],[126.66752510089721,37.6646991013733],[126.66414779996039,37.658048300866895],[126.64734130069489,37.6520782012227],[126.62477650062459,37.6574283001024],[126.60815529904781,37.6423637996896]]]}},{"type":"Feature","properties":{"interval":60,"stationId":"5340662955","profile":"off-peak"},"geometry":{"type":"Polygon","coordinates":[[[126.5840932989508,37.648202200561],[126.5919432963332,37.6437931995899],[126.58923009939329,37.6275045997671],[126.6001557997503,37.6186312994521],[126.6135988993836,37.6157273998898],[126.6279358986815,37.6196748978869],[126.6278551983276,37.6134360991848],[126.6440374014549,37.6215865986987],[126.6419907008698,37.627856397156],[126.645773797736,37.628510597029496],[126.6501795984523,37.6124082016089],[126.6612400990086,37.6212744945542],[126.67353319794499,37.6146244965638],[126.6705351009431,37.6096904014979],[126.6826682010924,37.6121613976835],[126.6858093979512,37.6066828031621],[126.6904728985567,37.612726795795496],[126.698813398667,37.6006500999135],[126.70620439705431,37.6013757957373],[126.71312259742581,37.5890896012922],[126.7275022989583,37.5844281983308],[126.75085829635671,37.5890056963726],[126.74978139743361,37.5837050016733],[126.75590959544259,37.5782841005166],[126.7542954009335,37.585355099229304],[126.7603930005004,37.5906033966823],[126.7661997955459,37.5870850006154],[126.7644514972942,37.581161406538996],[126.77098290080801,37.584408597538],[126.77443739851469,37.5805687994703],[126.77098290258071,37.5844085988895],[126.7781210006866,37.587052699336],[126.78838039861199,37.586152999566],[126.78661289800979,37.5787482034993],[126.79695499925799,37.5843018977194],[126.79891689954789,37.577712100643],[126.7868125023315,37.5761432007323],[126.7904878968201,37.5663747007525],[126.7993937003088,37.5758302957253],[126.8043332988424,37.5680287006308],[126.7984198005241,37.563155202025094],[126.8139417975667,37.5471032001008],[126.81173150014149,37.544513201433595],[126.8282531992224,37.5449612996294],[126.8279767998851,37.5365008999312],[126.853042299647,37.517992999341196],[126.8676185995804,37.524442798143504],[126.8752414991644,37.520185399375904],[126.8991856002464,37.5237330992446],[126.8949114002819,37.5276942008763],[126.87855710157349,37.525843101309704],[126.8655306005199,37.5325918006076],[126.85940169988051,37.5300352005464],[126.85176660112141,37.5366587021003],[126.8501003009216,37.550474299532],[126.8534516998453,37.5509349990619],[126.86901369878909,37.5413977995072],[126.8854284992165,37.5393150996272],[126.8844261009614,37.54819169955449],[126.872700499452,37.5514839014047],[126.8595211088125,37.567348303588],[126.8348612077972,37.5787932067942],[126.8239386996207,37.5771339022829],[126.8136433988504,37.58662950189],[126.79421590003929,37.5887094002816],[126.7873887030048,37.5978881971098],[126.788808900128,37.6011956988531],[126.79580969806851,37.5992544973823],[126.7932960047529,37.6060217977882],[126.7495330103501,37.6257048129676],[126.73458530363041,37.6259087997377],[126.7322577072408,37.636029311645494],[126.7104103006216,37.641336901388996],[126.7092955029372,37.6471675971324],[126.723066200545,37.659533699726396],[126.7091753057203,37.6472156146569],[126.6747056082085,37.665990112339905],[126.65800540118599,37.683975606461296],[126.629180200799,37.669328101222],[126.6271821022698,37.6738589003157],[126.6145419003074,37.676781400882206],[126.5840932989508,37.648202200561]]]}}]}