{"type":"FeatureCollection","features":[{"type":"Feature","properties":{"interval":15,"stationId":"5340688293","profile":"off-peak"},"geometry":{"type":"Polygon","coordinates":[[[126.75753859839061,37.604959200076905],[126.76423419658241,37.602091697528],[126.76487659946689,37.593675600316395],[126.7762215014703,37.5957521968904],[126.7690536010583,37.595149299474706],[126.7808076989901,37.60193389763],[126.77309150118461,37.609828900023295],[126.75753859839061,37.604959200076905]]]}},{"type":"Feature","properties":{"interval":30,"stationId":"5340688293","profile":"off-peak"},"geometry":{"type":"Polygon","coordinates":[[[126.7931612964959,37.577130500140605],[126.8035801992859,37.5713500991522],[126.7984198005241,37.563155202025094],[126.81098919567499,37.5510347031301],[126.8349535981909,37.555973699007104],[126.8306792990132,37.5478108999634],[126.83555989886351,37.5404491001201],[126.8442477004609,37.5398373996461],[126.8387788007915,37.5443667006063],[126.8443113002616,37.5609258993301],[126.8316947021224,37.571664199451],[126.8209408999889,37.5689803014591],[126.8155881998943,37.5715773002168],[126.8141115014902,37.5810707010191],[126.8027107018311,37.5777491008125],[126.79695500018569,37.5843019003959],[126.79891689954789,37.577712100643],[126.7931612964959,37.577130500140605]]]}},{"type":"Feature","properties":{"interval":60,"stationId":"5340688293","profile":"off-peak"},"geometry":{"type":"Polygon","coordinates":[[[126.5997757966114,37.6495053003461],[126.60486999891181,37.645457201849105],[126.6054425989852,37.6308452999546],[126.6235958957004,37.63120900034],[126.63001439727559,37.626911297254104],[126.6370336996588,37.6314314960671],[126.6498858980576,37.622660100573],[126.65521990118211,37.6295588962781],[126.6680256986513,37.627445995735],[126.6774738983991,37.6198945991647],[126.67707340124849,37.6250953954955],[126.6807463975755,37.622870897720006],[126.68289279542911,37.6153413052496],[126.6790766002094,37.610729402839894],[126.6419059015568,37.6130753048479],[126.6427951990204,37.6089647000107],[126.6257068006209,37.6043345031922],[126.6194997006074,37.596543002036796],[126.6139390030613,37.601492600652],[126.6117020982124,37.5917590007433],[126.6185823969532,37.58623149648189],[126.6280093976185,37.5874344998867],[126.6236217020062,37.5851865021347],[126.6384310945715,37.5855891951456],[126.64080990131039,37.589385298634],[126.65536419796999,37.584887696858004],[126.658436194898,37.5829323988133],[126.6555248978093,37.5795232022225],[126.6584362003054,37.582932396039496],[126.6628596987343,37.5789201994299],[126.663982599179,37.5685656002312],[126.6696335985972,37.568390900900795],[126.6609443022643,37.5675524999602],[126.6536711998783,37.5517522033265],[126.6604154997795,37.535845299775495],[126.66755309979291,37.5398696963548],[126.66958719819469,37.5362149000156],[126.6558683008758,37.5264612009292],[126.66255649765189,37.5229412997071],[126.6590947000165,37.5192157013298],[126.661525896957,37.500459999828095],[126.6696225983266,37.494698598891],[126.6644266017969,37.4899530020057],[126.6769256976876,37.481677999042404],[126.6769722987882,37.4699690002209],[126.6686988006754,37.4645286014342],[126.6860397991886,37.4642481995931],[126.6959355999163,37.4559890995713],[126.6951188001385,37.4336727004542],[126.6985771987413,37.4321346006898],[126.7071411004421,37.457424198907496],[126.7160752999836,37.461778599443704],[126.7196117017151,37.4806764961976],[126.733251201073,37.4845864988864],[126.7448403978709,37.481684298074796],[126.7457251989417,37.4772336996276],[126.7785005954918,37.4717542971964],[126.7841871991298,37.4639712015356],[126.7804161987659,37.4509789024338],[126.7680769010679,37.4433312041684],[126.77488089792669,37.4374199001006],[126.77051589968241,37.4286346002793],[126.78144689858121,37.430923898365805],[126.79293769994139,37.4241640992816],[126.807328000201,37.4354336997526],[126.8129266001111,37.451895895276394],[126.8065729061458,37.453327201905694],[126.80880120391751,37.4584609967719],[126.81453240017271,37.4604965967093],[126.8148920013295,37.4713671994345],[126.822669098958,37.471275697901],[126.8305117007993,37.4849576949153],[126.84878759853899,37.4701387998933],[126.86448309968,37.4717940992014],[126.8677081995269,37.4667678995185],[126.8766232006231,37.474271899467595],[126.8844807976551,37.47384679905149],[126.8854678013754,37.4812134973912],[126.89442000083919,37.4833699995405],[126.8945781995729,37.4896781976382],[126.9005200998454,37.488603699323896],[126.9041347000009,37.4963727998157],[126.91484849870001,37.4936636001734],[126.9067326006821,37.4894465008243],[126.907585398931,37.4836573998112],[126.91401739840461,37.481034900314],[126.9208073000689,37.4888360987338],[126.93372979951249,37.4699446990795],[126.9367689999234,37.4707644995284],[126.9323795011141,37.476024698794205],[126.9458197998966,37.4806673994411],[126.9340665005204,37.4881143002026],[126.9316434003884,37.497075100386205],[126.9467782999458,37.5000060990282],[126.9565425998644,37.4906978998504],[126.9538170001253,37.5068434981698],[126.96806069623989,37.5014516003906],[126.9709202988524,37.49607729924271],[126.98051249877591,37.4971903972969],[126.97613110009391,37.476446200742],[126.981166098643,37.4729792994822],[126.9872567994412,37.4754984977098],[126.9833508006744,37.4805276005288],[126.9872836995149,37.485969897581],[126.9992240004826,37.4812759992688],[126.9961644014947,37.4823227002869],[126.9996400010953,37.4883913998463],[126.9909495010712,37.4938124003458],[126.99277820114611,37.4966125989503],[127.0076559982668,37.4971921997307],[127.00577479897889,37.4917014015778],[127.0167446000592,37.4815422996385],[127.0199638999338,37.4939067991452],[127.0141628998857,37.500038099402296],[127.0284791995402,37.4944510998491],[127.03596130020729,37.5049958986271],[127.0506667005115,37.5025077997391],[127.048610299643,37.5107612994172],[127.0624063993578,37.5105544986658],[127.0651884006483,37.5146916995097],[127.03962130019879,37.5180661005631],[127.0343457005516,37.5101623001625],[127.0326748003656,37.5165895001117],[127.0253596006159,37.5138297001767],[127.01939590104591,37.5197078999113],[126.98225230228459,37.5043262024756],[126.9621734067801,37.5108909062009],[126.9560014012205,37.5190756025993],[126.9514884017787,37.5152049001753],[126.9439275094567,37.520071704963506],[126.9579426978494,37.5318428947132],[126.9612508995169,37.522169399705106],[126.9677472996831,37.5232316993408],[126.9708582998509,37.5173805003677],[126.9796467995013,37.520756499767096],[126.9679798012762,37.5271948998531],[126.9714152998329,37.5301171982414],[126.9773998999212,37.5266332997455],[126.978374501028,37.5336479992743],[126.9835428000535,37.531094499467],[126.9729330012391,37.539570898540504],[126.9738175002496,37.5457287994564],[126.9830756998686,37.5484502993127],[126.98062159981181,37.5541311990779],[126.98541950052521,37.5584620987064],[127.0000554998906,37.5600338994427],[127.00524779866721,37.554563800755794],[127.00126989794279,37.5406533013777],[126.9848365990451,37.5421555997958],[126.99705589930231,37.5276681995635],[127.0056423998714,37.5332869989319],[127.0036485022772,37.544275599426996],[127.0180785004201,37.561197399026696],[127.0394878001652,37.5578573996718],[127.0401953009626,37.5636867997369],[127.0234808008184,37.5685997004772],[127.0170567006381,37.5752707004443],[126.99649290073941,37.5761134007308],[126.995842198897,37.572014700725],[126.989280901209,37.579354099967304],[126.9737780010132,37.5797637007037],[126.96860380047009,37.5734683015598],[126.9596645001459,37.5750450998424],[126.9533800015097,37.569510200867505],[126.9307500003475,37.578681700346195],[126.92507020052629,37.589117799935295],[126.9324021003806,37.5970951990118],[126.9393227998147,37.5960451990206],[126.94126340172309,37.6106956993696],[126.9353337007908,37.6172728006569],[126.94023420131131,37.6225703961278],[126.9296522014239,37.6278934007918],[126.92384510006619,37.6260399005688],[126.9207142019502,37.6301845973157],[126.9258818007111,37.6386001977644],[126.9151736007218,37.65169960026],[126.9106870010142,37.651411600793004],[126.9113775002861,37.6466522014308],[126.9174084000603,37.645976398998],[126.9120500999793,37.6356010005624],[126.9192716983476,37.628696599989595],[126.9100369002705,37.6225358009711],[126.91258909869711,37.6201068003964],[126.9060631997383,37.6057645016186],[126.9017051034411,37.6059713011812],[126.8998854960372,37.593601702351],[126.8934395014202,37.5891805021057],[126.8786611000841,37.5988580007525],[126.8819628013185,37.6044708980107],[126.878074101216,37.6188542992832],[126.86612310346139,37.6152553036742],[126.8606058020722,37.6192630011357],[126.8622934961774,37.6128716037522],[126.8486847010613,37.632298698232496],[126.8443336001,37.6272952034382],[126.8383783033406,37.631684400854596],[126.84211570053009,37.647869196026804],[126.8544300000837,37.6479499997097],[126.8491910054277,37.649307905266696],[126.8458898046778,37.6582751997724],[126.8500450005226,37.6607621972854],[126.8335325005431,37.6597144008082],[126.8343006988879,37.6468074010523],[126.812244001972,37.6385154023613],[126.81156270324989,37.6466787010006],[126.820226202207,37.6509883985319],[126.81286030240669,37.6552183991674],[126.8160879006212,37.6673074999299],[126.80317190046189,37.6810071005728],[126.7695093003907,37.6947070004603],[126.7671149004694,37.7001011000067],[126.75351740003751,37.6906710003755],[126.750947899708,37.6819624015472],[126.7390352005052,37.6798626011871],[126.7444491998025,37.677491497515504],[126.7410389985748,37.6712193999214],[126.751130199768,37.6700644996817],[126.7542161986123,37.663023200436],[126.7551819004669,37.6660867985183],[126.76520329712879,37.658109799245295],[126.76574829842279,37.649210099415],[126.7750804972546,37.644803197024196],[126.7791599988024,37.631956898689296],[126.7897222998799,37.6292330951661],[126.79677429886179,37.6199399999859],[126.8032240990806,37.6223960994418],[126.8108894978684,37.6095863998414],[126.8009157051766,37.602192807881295],[126.7785912088946,37.612429511784896],[126.7864381010477,37.6248072994071],[126.7785912045639,37.6124295134087],[126.7447803108016,37.6284870128128],[126.74313889840221,37.6236750024702],[126.73458530363041,37.6259087997377],[126.7322577072408,37.636029311645494],[126.7104103006216,37.641336901388996],[126.7092955029372,37.6471675971324],[126.7195121927205,37.6551438891561],[126.7091753057203,37.6472156146569],[126.6642497152325,37.676066005778296],[126.662371398395,37.6678700013285],[126.6586697009037,37.670126000618104],[126.6449480005308,37.6585320035496],[126.6191293003192,37.6638276004313],[126.5997757966114,37.6495053003461]]]}}]}