{"type":"FeatureCollection","features":[{"type":"Feature","properties":{"interval":15,"stationId":"5349724970","profile":"off-peak"},"geometry":{"type":"Polygon","coordinates":[[[126.9684660995301,37.5757880996661],[126.97916879953999,37.5692560999835],[126.97231049936,37.5631653007082],[126.9745261996571,37.5606771999765],[127.0009223993864,37.558760499807],[127.01065709950021,37.5516409997449],[127.01644970094429,37.561530499244505],[127.0252748999772,37.5648981995082],[127.0316310998299,37.5617365998359],[127.0210268004264,37.5695631996162],[127.0156309998775,37.5671190003864],[127.0183519000865,37.573643899181],[126.998500900509,37.576237400414996],[126.9940670005531,37.572039100012596],[126.9868615007353,37.5824801001262],[126.9684660995301,37.5757880996661]]]}},{"type":"Feature","properties":{"interval":30,"stationId":"5349724970","profile":"off-peak"},"geometry":{"type":"Polygon","coordinates":[[[126.907068798973,37.547545201145],[126.9127827993493,37.544461900273],[126.9251961988854,37.5477128988063],[126.9270311997178,37.552109299772596],[126.9310831997889,37.5466563999217],[126.9437570995667,37.5456264996447],[126.92894719949379,37.5297021005023],[126.93723840002829,37.523487699383],[126.9433087014992,37.534791498968296],[126.9530751998896,37.5397654996207],[126.9654289992685,37.5370454987561],[126.9689138001677,37.532016501678996],[126.96678279993121,37.5295647003366],[126.96353720088301,37.5349692001998],[126.9623737000613,37.526742201741804],[126.9712209997993,37.518457499897096],[126.9807011995975,37.5203219991846],[126.9679798012762,37.5271948998531],[126.9803209003361,37.5342520997768],[126.9729330012391,37.539570898540504],[126.9738175002496,37.5457287994564],[126.99204969883499,37.5558371953458],[126.9996731970121,37.544271800134],[126.9916012999217,37.538076700457],[126.9876302008547,37.5406526997422],[126.9846773003454,37.535010000487],[126.99729959975541,37.5288186997413],[127.0074760004233,37.5330076991119],[127.00617260086,37.5423250992107],[127.0103219979769,37.5368106028684],[127.0201214942982,37.537420798766],[127.0213773997346,37.5263299011532],[127.0023301001784,37.510258500723396],[127.00080989950409,37.501061301369504],[127.0062846003687,37.5001449996237],[127.0101801001623,37.5076836000854],[127.0166164001243,37.5089808995466],[127.02965889946461,37.4931652997755],[127.02768640007999,37.4991111995484],[127.03230710007969,37.5068512990425],[127.0522727003396,37.5037745993665],[127.0456553009845,37.507889299568],[127.05458469923451,37.5105848997357],[127.0581024001238,37.5204234990139],[127.0448748003012,37.520902700348],[127.04991480001999,37.5253409991971],[127.0483565025784,37.536127092657004],[127.05979640070319,37.538753200468705],[127.0661297997531,37.5306388998453],[127.07494439988031,37.5373790993318],[127.0853385996872,37.5322565993039],[127.0968100000222,37.5355097993119],[127.0858058006258,37.5420971998378],[127.0773168009387,37.538160500675495],[127.07544870079799,37.5491013001681],[127.0635381014031,37.546333600028596],[127.0561262014958,37.54950360222],[127.0530562003579,37.5603631992351],[127.0621579995334,37.5560545001034],[127.07173319925529,37.5604109997708],[127.0676471006453,37.5654025003223],[127.0613342996072,37.5633966009936],[127.0543501005931,37.5729643000053],[127.0413548013582,37.5716155002449],[127.0544705002496,37.580085099872],[127.0527595005337,37.5859921999514],[127.0406952997501,37.5872273003107],[127.0358487006134,37.5941675004856],[127.0334761999568,37.58846010003],[127.0222249013227,37.5896861999825],[127.0225030017348,37.5966040991276],[127.03417759987411,37.610675399255896],[127.0300649003065,37.617875300209604],[127.0285367978758,37.6111115992205],[127.0194607998597,37.6060384025099],[127.01981930010679,37.597383201409805],[127.01335660139769,37.6049019003119],[127.0086152979474,37.594597801873704],[126.97986730132159,37.589877102112006],[126.9795457996229,37.583859599859196],[126.9732932003652,37.5836735001154],[126.96985740470639,37.5909128994247],[126.9595816003259,37.5803758015988],[126.9567812022768,37.5875377986597],[126.9495428020279,37.5889020006692],[126.9506246000421,37.594464099157705],[126.93874200216841,37.5989808984526],[126.93938280006451,37.6105684994681],[126.9331597002991,37.617778699675306],[126.92672540056519,37.616012300320904],[126.9290847004776,37.621528500030195],[126.9170079005069,37.6234608005747],[126.9157627995134,37.608751300358904],[126.92534569720239,37.6120626997074],[126.9257699995625,37.598707099974895],[126.9337248998146,37.5946364995302],[126.93618909963851,37.5818251999118],[126.94580379831099,37.5802202995503],[126.9518654983127,37.5668923014009],[126.947745101497,37.5622374026705],[126.91911399986559,37.5625518010939],[126.9148790001811,37.5543092005102],[126.9094530007884,37.5567950999219],[126.907068798973,37.547545201145]]]}},{"type":"Feature","properties":{"interval":60,"stationId":"5349724970","profile":"off-peak"},"geometry":{"type":"Polygon","coordinates":[[[126.79658169934801,37.561461700198905],[126.8107390002502,37.553671397363296],[126.8225277994423,37.5530760997298],[126.827157097876,37.5458786006441],[126.8241466998524,37.5392725010983],[126.8393891993437,37.5173317011405],[126.86364209941421,37.505198299919606],[126.8428846994957,37.4956353005531],[126.8536623991932,37.4862398990465],[126.8470835003031,37.4815191007554],[126.85211219974849,37.4733189994644],[126.8593698003909,37.477533197420705],[126.8673021993355,37.468977300186],[126.8763777996996,37.472028699638],[126.8780785994402,37.4629686005157],[126.8841907986653,37.4609881993166],[126.88392779792669,37.451676802042904],[126.8937942979367,37.446299400427904],[126.8966561006637,37.4530147979356],[126.9022960999382,37.4498167995368],[126.90640429962721,37.4550676992869],[126.9039779007522,37.4610493998101],[126.9078365003312,37.467281999571],[126.89337110077679,37.4766141008565],[126.8947427007563,37.4794488989564],[126.92536680120321,37.4744250977255],[126.9315651951812,37.4643686004752],[126.94600539996661,37.468423198438096],[126.9427875012636,37.473874199151496],[126.9511186998564,37.4777814991414],[126.9578834957586,37.4685551986163],[126.95371620421301,37.4703374008129],[126.9562774016518,37.4741764969738],[126.96207339824869,37.472514798523996],[126.9705464980872,37.4630812992468],[126.97436260043851,37.4622457964732],[126.9806033997507,37.4710080979516],[126.9884666994664,37.4660825001595],[126.9914109989426,37.4451236991351],[126.99936479980829,37.4383811017412],[126.98493960097251,37.431082601008804],[126.9839787996012,37.423462301247994],[126.99028009988061,37.4211522995963],[127.0174707000495,37.436040499771096],[127.01782110278211,37.441856196458],[127.012154403076,37.444976502589704],[127.0150043993806,37.4574452986298],[127.0058475064104,37.4623663998264],[127.0089986005116,37.473225398308195],[127.0288213955605,37.4534607027716],[127.0428341941796,37.4527490978072],[127.04457879368509,37.4402141051215],[127.0407989974649,37.4382830070526],[127.0472525979354,37.4322286017697],[127.0699220000119,37.4341684996747],[127.0723027017981,37.442386196871205],[127.0608600031131,37.4610822006421],[127.0609518018377,37.472155197038504],[127.06604179870719,37.473207796130495],[127.0653840994555,37.4694233999278],[127.0945594983742,37.477512398464405],[127.10386319842921,37.4725958987336],[127.11340869893509,37.4783527975366],[127.11874399728681,37.4766816984144],[127.11347360068831,37.4659773010191],[127.127031498002,37.4635682000864],[127.1210428994371,37.451835200522],[127.1239716967933,37.441797402598596],[127.11981930094571,37.442326102069906],[127.1195983983402,37.438045499474],[127.12821399742,37.4257381996226],[127.13791959830661,37.4282337990664],[127.1410112995625,37.4375347994524],[127.13733020038829,37.4396309999128],[127.1402372999432,37.450887999815],[127.1285331009358,37.4594867987305],[127.1330217005207,37.467423797941],[127.1383440993053,37.455616399994994],[127.1412048034204,37.460779794971195],[127.1554478996138,37.4542742996594],[127.1541397977437,37.443704102203895],[127.1608192996839,37.4443410984596],[127.1623946004317,37.4558123997665],[127.15657590067441,37.4531734017706],[127.1419558003739,37.469491800389],[127.12493020018549,37.4701223004118],[127.1280041995669,37.475466499396006],[127.1360562994749,37.4724507999296],[127.1388686996859,37.4839155996219],[127.15680169917461,37.487427400814],[127.1619950004615,37.493006599364],[127.158698299249,37.502238300278805],[127.14332400148491,37.5032124013234],[127.15601220042541,37.5320171992403],[127.1559794007822,37.5462171998622],[127.17443930092631,37.557203198990194],[127.18183280013089,37.5568275999497],[127.1814260019855,37.560068901528396],[127.1759873999801,37.5576256038407],[127.1569409000245,37.5632284012538],[127.1497605016788,37.5632577018159],[127.1489863003175,37.558843603535905],[127.1448429037372,37.5619093021659],[127.1399924016646,37.5560290052629],[127.1348011016496,37.5633676003697],[127.1259341948053,37.5589419073938],[127.11510870397959,37.5613228044222],[127.1155311035572,37.5647197010253],[127.10520480353479,37.561066599831996],[127.1020837052608,37.5772690958468],[127.1077941995503,37.576745296370596],[127.1075785026304,37.5971895967448],[127.11403290007439,37.6017118994109],[127.11334570098529,37.6106347991514],[127.1014670024446,37.6199269002852],[127.1082920006968,37.625703599801],[127.1040589042909,37.633687194413],[127.1127793002036,37.6343153986346],[127.11144090142281,37.6407660992359],[127.1193392970437,37.6422381988234],[127.11099999991191,37.6265420011909],[127.11326129730311,37.62357139880881],[127.1273918948693,37.628195896636804],[127.12267440192299,37.633938298764996],[127.12807689907869,37.636476599222604],[127.1287433000461,37.645993399919],[127.1400385988283,37.639364798910805],[127.1432454991006,37.643651697737],[127.148137396814,37.6410202994505],[127.15350880081739,37.6503521989038],[127.146604704685,37.6589211988384],[127.1382461017081,37.6574295022319],[127.1322628995386,37.6493950041453],[127.1284483013307,37.654919801040805],[127.121397300769,37.647526201637405],[127.1133849998691,37.6494138007606],[127.1127726007557,37.641731401101],[127.1057415995195,37.6436432003788],[127.1034642938223,37.6338333995916],[127.0901133009782,37.629182212028105],[127.0771401057792,37.6381066025793],[127.0764500064693,37.64444799623789],[127.0930275011644,37.6611040991243],[127.0884260069425,37.6713271979216],[127.0905210038803,37.680848500273505],[127.0680656008046,37.676646404524],[127.0461389022936,37.693173101694605],[127.0454720021179,37.6988974998472],[127.0417465977,37.6908346032287],[127.0364363030103,37.6925146015487],[127.0367731985414,37.6798513062888],[127.0427387984155,37.676375698935004],[127.0305154000167,37.6653940021563],[127.01319650479621,37.663031003056396],[127.0039110013071,37.6714942025626],[127.0025713962918,37.6587418069018],[127.00793319207929,37.654995298365606],[127.00110819576871,37.6426454075331],[127.00299369328981,37.6252988039026],[126.9950004012831,37.6265685026329],[126.9866148982834,37.6189374066207],[126.9897691963637,37.6039255019993],[126.98588440024851,37.5980129079119],[126.959456201425,37.608804801128],[126.9615588021776,37.6158111969333],[126.95414730032701,37.6163865032433],[126.9480518023973,37.6101291072072],[126.9434319070172,37.6150201023162],[126.9500527003964,37.6206099967263],[126.949208701883,37.6275272975063],[126.9391626051874,37.6346298002825],[126.9440888027659,37.6436351991108],[126.93163390373759,37.6442854023956],[126.93110400426751,37.6481010985799],[126.93727589912561,37.6459843999788],[126.93785850121131,37.6551340010624],[126.922507004921,37.6545623006932],[126.92461030163089,37.660635997974],[126.919909201009,37.6634662005836],[126.914837397372,37.6543257057942],[126.9083756015555,37.655006803855905],[126.9096355002956,37.658771100091606],[126.9083756008808,37.6550068038689],[126.9050448042588,37.6643456985262],[126.8891453991732,37.6676925009681],[126.882633601476,37.6594220018209],[126.871772799534,37.6593820006499],[126.8587533987794,37.6482168010469],[126.8491910054277,37.649307905266696],[126.8500450009027,37.6607622000626],[126.83252620095891,37.661020800426],[126.82870899745781,37.654616299917],[126.8338970991413,37.643644800374],[126.82115969954499,37.634331600102506],[126.829203699474,37.625724699524696],[126.83606760043351,37.6272174992919],[126.8399449998652,37.643503297018],[126.84661509637509,37.646264097245606],[126.8650758949582,37.6452960997764],[126.8698052996962,37.6373098000563],[126.8753756000849,37.641546897875],[126.8969218979976,37.6429396969011],[126.90627568864379,37.632631607209206],[126.8955102967152,37.6278336077267],[126.8999835948517,37.6137810015191],[126.8969469986923,37.6119450008961],[126.90121089663289,37.611796496682395],[126.8998854960372,37.593601702351],[126.8934395014202,37.5891805021057],[126.8824612005197,37.5914980007278],[126.8785082016893,37.6054484997694],[126.8754479996257,37.603208700761606],[126.87204270064849,37.6087919001358],[126.876471500981,37.6133532003231],[126.86612310346139,37.6152553036742],[126.8667837971086,37.6094020047937],[126.86350260038981,37.6097613044344],[126.8466418011322,37.624019800313796],[126.8262040004186,37.6139469036505],[126.8181509016219,37.620135100076595],[126.81427630311221,37.6175529037],[126.8147053988556,37.6016130003947],[126.8301623966494,37.599270399051605],[126.8319012009386,37.6070415976627],[126.8416654983796,37.6032815003583],[126.8551225998835,37.613303797918896],[126.8572755002254,37.5968600003886],[126.8597919011131,37.5996575980162],[126.8650379989065,37.5952117998378],[126.8600792003273,37.5953976004269],[126.8618188989606,37.592035200925196],[126.87905469938819,37.5943661967271],[126.881484898772,37.590306399279704],[126.876822299132,37.5804730014687],[126.8894642984547,37.56647919995191],[126.8875792987489,37.5628849028145],[126.8808038000369,37.5660411002084],[126.8746962030468,37.554989209591405],[126.8595211088125,37.567348303588],[126.8642369026165,37.573749398970094],[126.8558023060148,37.567675706567],[126.8384187063841,37.5774975065542],[126.8335961990398,37.5742725019593],[126.8289614021511,37.5786130983033],[126.81199380039689,37.5795114001084],[126.8087339998803,37.5740780012575],[126.8021358997962,37.574724800561796],[126.8042669989087,37.5688747997847],[126.79658169934801,37.561461700198905]]]}}]}