{"type":"FeatureCollection","features":[{"type":"Feature","properties":{"interval":15,"stationId":"5438824808","profile":"off-peak"},"geometry":{"type":"Polygon","coordinates":[[[127.1005467988561,37.3427338996513],[127.1073878994013,37.331029698814504],[127.1180509994874,37.3340109989353],[127.1128635006518,37.3505691989504],[127.1005467988561,37.3427338996513]]]}},{"type":"Feature","properties":{"interval":30,"stationId":"5438824808","profile":"off-peak"},"geometry":{"type":"Polygon","coordinates":[[[127.0733019993415,37.316117600605],[127.074582698915,37.308912899932906],[127.08169399956,37.3086678998675],[127.0882180004924,37.3187966992578],[127.1101605992655,37.30892090034369],[127.11046660234099,37.3166219995189],[127.1265479986681,37.329171798741996],[127.1240146006159,37.335005099046796],[127.12983290667,37.3443602979566],[127.120794903524,37.348537799411105],[127.12120950104031,37.3582106001175],[127.1212286974764,37.354760401641606],[127.1116373004083,37.3555750004567],[127.1187973997351,37.3683225987213],[127.1223284990319,37.3668996999304],[127.1196454003302,37.3717897992775],[127.1229070997245,37.3710137989299],[127.1263484994775,37.3858753984788],[127.1319859991385,37.3827040999717],[127.1282745039824,37.3882299979086],[127.134988800298,37.390717599323004],[127.13524790036449,37.3973065999184],[127.1310288001539,37.4033769996676],[127.12175220000731,37.3992043000992],[127.1213263983822,37.3888430013329],[127.1090733993382,37.3843534003216],[127.1049339989307,37.3655994997395],[127.0950301987026,37.363796701797405],[127.1017220971361,37.3542228015164],[127.0949226029842,37.354655301300994],[127.09120940059499,37.3467999009465],[127.0880039005474,37.3481542023273],[127.0925635989895,37.3310796003487],[127.0987910975437,37.330102799208696],[127.08968040081821,37.3271879014069],[127.0858569998897,37.3180349005066],[127.0733019993415,37.316117600605]]]}},{"type":"Feature","properties":{"interval":60,"stationId":"5438824808","profile":"off-peak"},"geometry":{"type":"Polygon","coordinates":[[[126.94733879935849,37.4818820007934],[126.9734923989904,37.4709115002039],[126.9924097986437,37.4796569966876],[126.99976239768219,37.474400599268606],[127.0218219960959,37.4730109980981],[127.0208606992867,37.460482899800205],[127.0366480926803,37.4515086006099],[127.03542989749549,37.4411110038096],[127.0449703978874,37.429604098281],[127.0660149005543,37.4347978984222],[127.0699338970519,37.4338431991758],[127.0694748994386,37.4271853992591],[127.074885399885,37.4304358955987],[127.0723027017981,37.442386196871205],[127.0666571054002,37.4464463004604],[127.0751493997535,37.4595884995093],[127.0595958020283,37.462624006328],[127.0593902009029,37.47558540007],[127.07018909660309,37.4825540952299],[127.0676148991773,37.4775614002226],[127.0701890984539,37.4825540950361],[127.0781203989912,37.4748685001881],[127.09301049992321,37.4772609987158],[127.1030900992023,37.4732373980921],[127.1080953990912,37.4687016998339],[127.1036708010925,37.4650179031988],[127.1075870996172,37.459911100014196],[127.1102593010038,37.463746197438105],[127.1173853960301,37.462511298083],[127.1167570002008,37.4293677028343],[127.1029299005294,37.427146501473],[127.1054402968544,37.422544602445704],[127.0914071983567,37.4101352005997],[127.09730949906209,37.4078203992008],[127.10032819901011,37.397639500960096],[127.0903225015026,37.4059594007261],[127.0871057969745,37.3950219018581],[127.0780909014007,37.387669601179],[127.0841110949564,37.3752918024858],[127.07711279843879,37.3664776057886],[127.0806275937345,37.3601099043888],[127.0671896979691,37.358610102527],[127.07743149436641,37.354707499462506],[127.07953089625539,37.344740103176605],[127.06346810020129,37.3439829024763],[127.06947309657879,37.338439201983505],[127.0613884981111,37.3267133010277],[127.0547766009655,37.3233799002368],[127.052966398546,37.326492704628805],[127.0436966971332,37.3129716043404],[127.03386380141501,37.313085904058795],[127.023075401022,37.299910004557695],[127.0303793995608,37.280570300262504],[127.0469941998662,37.270047399705305],[127.0607934997779,37.2702601989821],[127.08009800400691,37.286782898266395],[127.0958508959766,37.2888284953231],[127.0926404986775,37.2810997010806],[127.098235495826,37.2781174987494],[127.09802830000639,37.270157600865694],[127.09184330060039,37.2718320010935],[127.09465629861809,37.2573397025967],[127.0896682008161,37.2545880008579],[127.0892818010105,37.270872697973196],[127.0804724002009,37.2757580002959],[127.0592979987743,37.2611426013378],[127.0546753995598,37.247591802436105],[127.04969060174041,37.2481431011358],[127.0515688013366,37.2565747993059],[127.031622201864,37.2679469000286],[127.03478609870011,37.269018098957396],[127.0255916998465,37.2670946011258],[127.0173310007261,37.2730384011425],[127.0067726998875,37.2672618001867],[127.0130338994168,37.2585278989391],[127.0222891991821,37.2603698997091],[127.0369421980774,37.2421794995834],[127.0434927998959,37.2431211990043],[127.0555250982121,37.2347872980823],[127.0617919991002,37.234363398945],[127.0706911991873,37.2417910983142],[127.0759423979101,37.2381275993264],[127.0928386012327,37.2543874986381],[127.1026199988697,37.2472670998253],[127.1088762009303,37.2486755983054],[127.1156505999858,37.2554801979484],[127.1128793020185,37.2645420963466],[127.12107880146961,37.2684533914277],[127.1302682956693,37.266616597277896],[127.13500789678541,37.2575399989859],[127.1511220973416,37.2618106966793],[127.1511095983369,37.2569959007633],[127.16499709844969,37.2526564993291],[127.1676857060299,37.2619445987382],[127.16082040589211,37.2704071955065],[127.161845301229,37.2763385009285],[127.1534325009839,37.278460700128996],[127.15062190008281,37.2862145000044],[127.13888160165861,37.2852642033564],[127.1277880000405,37.2979816002837],[127.1248892023371,37.3050064991255],[127.12854379936171,37.3054757988488],[127.1206462039677,37.307655907786604],[127.11939440521951,37.317975997466505],[127.1305706976274,37.3106507989365],[127.1370756008357,37.3192236966399],[127.1360772032931,37.327855893452],[127.151267999194,37.330188698547],[127.1412165044094,37.3348953983224],[127.1468816987442,37.3371648960529],[127.14183060236411,37.3363757045358],[127.1413446023378,37.3446032974104],[127.1473975976079,37.3473645952143],[127.1423083046903,37.349967398820496],[127.1416850035704,37.3579364995047],[127.1539769020975,37.382429499882804],[127.1596980978816,37.384850198054004],[127.1496209005625,37.392236700458],[127.1465520010541,37.3877731038464],[127.1413861055956,37.3908833013815],[127.1610819993546,37.4122267998248],[127.1541906043256,37.429200694018405],[127.1711371004358,37.433530498044604],[127.1787374008013,37.4522057979016],[127.1733926025742,37.4645855989365],[127.1571617987485,37.463724401623],[127.1504624008912,37.4718778001519],[127.1446016012215,37.471468601001604],[127.1449391005788,37.4844188000954],[127.13594620608,37.4885741992277],[127.13927820139091,37.495412798898094],[127.1363513001698,37.5054476996212],[127.1289271002541,37.511535700171706],[127.1340189002006,37.5169517997392],[127.12755510040529,37.5183743014287],[127.1240113011715,37.513349200551],[127.1177907021576,37.5213391988239],[127.121266298682,37.521222898940195],[127.1181368007747,37.5264099985146],[127.1285032997382,37.525953699635004],[127.1296185999873,37.535934999561704],[127.13300509950251,37.5342419989977],[127.1254517000961,37.5443369998177],[127.1313016002178,37.54733619957619],[127.13078580057609,37.552844699859804],[127.1246806001767,37.553556400176795],[127.1257377994645,37.5451239004576],[127.11393000112659,37.5352100015728],[127.1147916988656,37.5247626022907],[127.1105452995116,37.5203493020308],[127.1014410944636,37.524417908986905],[127.09160630004469,37.537853300680204],[127.1014410926962,37.52441790795881],[127.09393219851229,37.5129911001938],[127.0901429014044,37.5182930999828],[127.06729280106241,37.5157587015265],[127.0695863012657,37.528163091296],[127.0756306003586,37.5304180988581],[127.0726129009683,37.5364757996909],[127.07688970092579,37.5519056999597],[127.0606772001972,37.5353785007552],[127.0664122993724,37.528904800454],[127.0630166019607,37.522088607466195],[127.0428565055,37.531398004729105],[127.0452592030973,37.536984499142605],[127.0520951000778,37.5382079997204],[127.0459459009737,37.551492600070404],[127.0352856999289,37.544148200152904],[127.0428564992157,37.5313979997789],[127.0298119015357,37.531858400579296],[127.0203219066938,37.5376218963993],[127.0234068006872,37.5439053995368],[127.0176618008774,37.5446678003865],[127.01958230080899,37.5502131005388],[127.0033594002465,37.5595882005724],[127.0142907994363,37.5509700997606],[127.0112415003116,37.5416006010175],[127.0201214960419,37.5374208005529],[127.0228182996094,37.52828030095],[127.0124065003083,37.5278878034352],[127.0102327995609,37.5184777020705],[126.98253579971649,37.5021375021887],[126.9721374023538,37.5056941999739],[126.97057699923681,37.5023683000031],[126.9800486984619,37.5007714993622],[126.982639398341,37.493766899967795],[126.9708995003833,37.4871444010089],[126.9636376002872,37.4884994009492],[126.96681199533151,37.4828641998867],[126.94733879935849,37.4818820007934]]]}}]}