{"type":"FeatureCollection","features":[{"type":"Feature","properties":{"interval":15,"stationId":"5571709416","profile":"off-peak"},"geometry":{"type":"Polygon","coordinates":[[[127.09134499891191,37.5988692987889],[127.09157981862427,37.59895769481709],[127.09157981839216,37.598957696266986],[127.09134499891191,37.5988692987889]]]}},{"type":"Feature","properties":{"interval":30,"stationId":"5571709416","profile":"off-peak"},"geometry":{"type":"Polygon","coordinates":[[[127.09134499891191,37.5988692987889],[127.09157981862427,37.59895769481709],[127.09157981839216,37.598957696266986],[127.09134499891191,37.5988692987889]]]}},{"type":"Feature","properties":{"interval":60,"stationId":"5571709416","profile":"off-peak"},"geometry":{"type":"Polygon","coordinates":[[[127.09134499891191,37.5988692987889],[127.09157981862427,37.59895769481709],[127.09157981839216,37.598957696266986],[127.09134499891191,37.5988692987889]]]}}]}