{"type":"FeatureCollection","features":[{"type":"Feature","properties":{"interval":15,"stationId":"5723047769","profile":"off-peak"},"geometry":{"type":"Polygon","coordinates":[[[126.80485449825491,37.321125500109304],[126.8048545002205,37.321125499404],[126.80489231914294,37.32114829833481],[126.80485449825491,37.321125500109304]]]}},{"type":"Feature","properties":{"interval":30,"stationId":"5723047769","profile":"off-peak"},"geometry":{"type":"Polygon","coordinates":[[[126.80485449825491,37.321125500109304],[126.8048545002205,37.321125499404],[126.80489231914294,37.32114829833481],[126.80485449825491,37.321125500109304]]]}},{"type":"Feature","properties":{"interval":60,"stationId":"5723047769","profile":"off-peak"},"geometry":{"type":"Polygon","coordinates":[[[126.80485449825491,37.321125500109304],[126.8048545002205,37.321125499404],[126.80489231914294,37.32114829833481],[126.80485449825491,37.321125500109304]]]}}]}