{"type":"FeatureCollection","features":[{"type":"Feature","properties":{"interval":15,"stationId":"5747397251","profile":"off-peak"},"geometry":{"type":"Polygon","coordinates":[[[126.9977698994413,37.581899700472],[127.0048292001838,37.5841549996549],[127.00380319992269,37.5878925990376],[127.00986059957799,37.5854007991391],[127.0131836995271,37.5749682008352],[127.0072100995983,37.5725123004311],[127.01702519963881,37.564847899109296],[127.01946289919019,37.569982899636],[127.0250687996553,37.567711099616695],[127.0305028989038,37.5719829990943],[127.046795098221,37.5698781996514],[127.04207320060081,37.5776166992837],[127.0473447998459,37.581661399623],[127.0292644010047,37.5807223000281],[127.0315884005995,37.589223699586796],[127.0221762020661,37.5908644002522],[127.0226034008405,37.601251599075596],[127.0278517009048,37.605679099719204],[127.0193266011611,37.602753301383004],[127.0084722003355,37.6173669998975],[127.0023428994409,37.6113678000849],[127.0076547994148,37.6078428997042],[127.0102748986558,37.591933600769494],[127.0035936008037,37.5920435005599],[126.9977698994413,37.581899700472]]]}},{"type":"Feature","properties":{"interval":30,"stationId":"5747397251","profile":"off-peak"},"geometry":{"type":"Polygon","coordinates":[[[126.9645086991125,37.565491899291096],[126.9718487994333,37.5542833000529],[126.97006379942,37.531625599967896],[126.9769050991805,37.5332696996319],[126.97538779999229,37.5502719994752],[127.00021180012921,37.5569872984765],[126.9997052995851,37.5380873011332],[126.9856943995485,37.5349345006509],[126.9980378992617,37.5291862996324],[127.00260110131211,37.5370730980513],[127.0058960989918,37.535316099232205],[127.0102138004341,37.547708199078706],[127.0112415003116,37.5416006010175],[127.0201214960419,37.5374208005529],[127.0234068006872,37.5439053995368],[127.0185392011835,37.545054299693],[127.02660469983239,37.549350999058404],[127.02516680063799,37.552364000186095],[127.0378498984,37.5565451992817],[127.0419446967194,37.5512665988129],[127.0367224000213,37.5477328010671],[127.0395416992741,37.5411809011],[127.0548975971094,37.534294794465396],[127.0612231997925,37.5370049993288],[127.0697849993431,37.530641199353596],[127.07191330008351,37.536699198425104],[127.07867749859359,37.5375653993148],[127.0822700996394,37.533012899668],[127.0947305011742,37.5328721005327],[127.0968100000222,37.5355097993119],[127.0858058006258,37.5420971998378],[127.0773168009387,37.538160500675495],[127.07544870079799,37.5491013001681],[127.0528792008257,37.5506395004217],[127.05060830349139,37.558607098586],[127.0641558988401,37.5599660994387],[127.0535725011295,37.574562698788],[127.057377600314,37.5842475990442],[127.0678880998748,37.591841599549205],[127.0710919996197,37.6011590983926],[127.0661858008947,37.6091258996085],[127.0727736977173,37.612054900244],[127.0801058002015,37.6086470991523],[127.0819805004847,37.6175117989248],[127.09139999995129,37.6172799992114],[127.0904675997638,37.6221141996286],[127.0762890004855,37.6232001000946],[127.07123930110001,37.6293489997448],[127.0681940990503,37.616574200729104],[127.0435126001317,37.614601400376195],[127.0334275029909,37.6206708990939],[127.03763309878529,37.6221321976326],[127.03369390248831,37.6228105018514],[127.0315697023269,37.6329563992527],[127.041902300497,37.6515799994636],[127.0490790999231,37.6517560953611],[127.0458806024981,37.6569753992447],[127.0424308999879,37.651874801567004],[127.0346875998753,37.654409900949496],[127.0254421001143,37.6456383001252],[127.0175699015782,37.6614723994428],[127.0080348979523,37.6645939008119],[127.0072901981409,37.624157703215296],[126.99489300010741,37.620419406149104],[126.99963219940899,37.6111483999932],[126.9943825003056,37.6110095001388],[126.99403159813009,37.6069234000885],[127.0021004961062,37.5994819013508],[126.9939302004275,37.598523601823],[126.9893304995195,37.588648802239504],[126.9945329986113,37.5804279004985],[126.98563670014511,37.5832933002063],[126.9782540002557,37.5777603002944],[126.9736807006163,37.5818079001776],[126.9676912998785,37.5750711004141],[126.9716454991456,37.5700634007568],[126.9645086991125,37.565491899291096]]]}},{"type":"Feature","properties":{"interval":60,"stationId":"5747397251","profile":"off-peak"},"geometry":{"type":"Polygon","coordinates":[[[126.8407880985619,37.5324618998981],[126.84833129953479,37.526227099459],[126.8502855990218,37.5171798000579],[126.8630706993325,37.520505799202304],[126.8574119997912,37.5119888003553],[126.8636204001721,37.508654299548105],[126.86974959990381,37.514058399770704],[126.8721983986733,37.5093544006489],[126.8606636002373,37.4971592005856],[126.8555341000096,37.5015115008652],[126.8445359998732,37.4958533003028],[126.8576224992599,37.4861925997876],[126.8665307995694,37.4902580993897],[126.8710926992009,37.486645600455205],[126.880106400024,37.4925699996589],[126.8861436996647,37.4908289996861],[126.8880332998696,37.484343698835794],[126.89920000002999,37.4887799989426],[126.90340570072709,37.497043099740296],[126.9145716989768,37.4921883016487],[126.9062730997025,37.488891200980994],[126.90858419945921,37.4828199994285],[126.91548780005529,37.4820578991752],[126.92294099978159,37.4884164994943],[126.9225554990453,37.4826102004209],[126.9345892989043,37.4759926988262],[126.9499879003488,37.4770700983031],[126.9740155994378,37.4650136979783],[126.9806033997507,37.4710080979516],[126.9884666994664,37.4660825001595],[126.9913226001676,37.4467341023807],[127.00218269653341,37.441126500316905],[127.0003112006052,37.434642101062096],[126.9950140996322,37.437971100546896],[126.9889301997768,37.434096100984895],[126.98484569948029,37.426186400540196],[126.9887939987377,37.4209298005632],[126.9872003020117,37.4269868984318],[126.9961642989816,37.423590299002],[127.0009738015757,37.433175597352],[127.0094270984561,37.4301873980126],[127.0144235986998,37.435739494299],[127.00957410596709,37.4389227993866],[127.0184702007188,37.441877499795595],[127.0129600027971,37.4441875005584],[127.0112094029344,37.4588851003247],[127.0005726042313,37.4616383018114],[126.9913562997318,37.4550593028586],[126.990938200455,37.461865798193095],[127.0089985987954,37.473225397817494],[127.0218220002932,37.4730109983686],[127.0271905001229,37.4837784995985],[127.0312931988197,37.4625977989195],[127.0479189988471,37.457282000480596],[127.04673349929371,37.4488476015003],[127.0525457949028,37.449517296588894],[127.0495687978798,37.4403905057157],[127.0581294967114,37.4377601958289],[127.06235669965639,37.437334196979],[127.0666571047806,37.4464462969966],[127.0584834041438,37.4519174007154],[127.06322109936261,37.4532192999611],[127.05058100309729,37.4574698021436],[127.04983330137931,37.4705264003697],[127.06963869923929,37.475017699179304],[127.07018910077379,37.4825540973749],[127.0862732950425,37.4790287982093],[127.09019460199531,37.4855064958298],[127.1059203992554,37.478558297819404],[127.1077086006096,37.4886707975346],[127.117866498021,37.4814285992216],[127.12306529794299,37.466218599439294],[127.13413919968251,37.4663666998872],[127.1364532000712,37.4611130010179],[127.1528461006086,37.455241197271306],[127.1439642016116,37.4671040986087],[127.12493020018549,37.4701223004118],[127.1342485013007,37.4809696992237],[127.13339089999779,37.4931789992556],[127.14569059984349,37.4881193986948],[127.1556497999467,37.4913325998405],[127.1564470022105,37.4983889993713],[127.143967299828,37.4977821007001],[127.1395100006254,37.5064999994811],[127.15342699840569,37.515240498995794],[127.1510777046666,37.526560098562896],[127.15662199976809,37.5311155977749],[127.1481016011934,37.5400073005306],[127.1525299003776,37.5465792937057],[127.1497300028323,37.551579997717404],[127.16798869886,37.5568623973142],[127.1661632024442,37.5598682993434],[127.1465223022667,37.5547198015747],[127.13412290031589,37.5635961004902],[127.1084019004225,37.5577680009423],[127.0969278049465,37.5635443999243],[127.1184625976816,37.5993438982554],[127.1112167007045,37.613561298636704],[127.1132541997511,37.6203677993044],[127.1304823005503,37.628098896081596],[127.1266256034177,37.632279498407],[127.13280900076049,37.6372186992441],[127.1298745017555,37.6402890002364],[127.1330650001542,37.644343898070204],[127.1370917978573,37.6439397988393],[127.1366214981653,37.6357131023237],[127.1473116984386,37.6357641990503],[127.1526772006831,37.6541561980596],[127.1559708986633,37.647437000709],[127.1606578991765,37.6508067996376],[127.1485639016516,37.6548241013258],[127.1482984005814,37.662047798593],[127.1404743000458,37.661868300197604],[127.1359272008492,37.6515002042944],[127.1153585000673,37.6790532019047],[127.1032360026956,37.6698538055963],[127.0916301017448,37.687278102140404],[127.07402930181111,37.685366205208496],[127.0635903041739,37.6914701031819],[127.065913201851,37.7008708937811],[127.05985150045099,37.711111700751],[127.0511147062564,37.7107506013582],[127.0522463033326,37.7175577976785],[127.0641270995441,37.7257453979271],[127.0616382002723,37.744314599558],[127.0729754990777,37.7468600997734],[127.0790522998309,37.7546564976854],[127.0829983995878,37.7522562988979],[127.08104180116989,37.756036199816194],[127.0530262003226,37.7486407007518],[127.0438966003341,37.7525250006613],[127.0320664992316,37.7491532004811],[127.0275554996325,37.7445756003468],[127.0296826996523,37.7269084010811],[127.0362800956963,37.719820498660496],[127.0286372033392,37.7110439074371],[127.0303199936146,37.6937451980611],[127.02460109956199,37.68726560082111],[127.0291199928024,37.679283297333605],[127.02253639923751,37.6714398049249],[127.01415160762231,37.6748353015294],[127.0103464002277,37.6857979000102],[127.0005826942498,37.671500002636],[126.99369190114061,37.6740818000542],[126.9940968971661,37.6662259028214],[126.9884558004028,37.6636100027014],[126.99332609129151,37.6485120985817],[126.98067539869419,37.6396553023468],[126.97571909560051,37.617233405518604],[126.967419100035,37.6062101007515],[126.9761394974842,37.6058809955073],[126.9737313990083,37.5971969027184],[126.95198520173379,37.5993556015784],[126.9430022005684,37.604849903652195],[126.9446836990751,37.623571494801794],[126.932013001249,37.6300508010319],[126.9351959000938,37.6375015996602],[126.91998200121361,37.6587581014478],[126.91950889967289,37.6549730031293],[126.9051507008996,37.653748204348005],[126.90157350254769,37.6612274019879],[126.8923553012121,37.6632783999594],[126.888628999351,37.654725302053],[126.8765213030343,37.6570035008639],[126.8628691998546,37.6525430001373],[126.8685451975295,37.6433046010614],[126.8781368992852,37.644448498767105],[126.8826485006425,37.650519898080496],[126.91066669654069,37.640880799808095],[126.9027864990626,37.617101602504],[126.90803699937129,37.605690599801704],[126.903756499552,37.5911697998415],[126.8994079002163,37.5853676007862],[126.8843016996585,37.5809006012526],[126.88813999883261,37.5730299988583],[126.89477049726311,37.5733598996338],[126.8898768990098,37.5587404001367],[126.90193619927079,37.5504200998692],[126.8992705019365,37.544340105949196],[126.8896622004458,37.541233600588996],[126.88751599940251,37.5279039026978],[126.8757929008349,37.533850100326504],[126.8540751002779,37.528384500372304],[126.8499506006581,37.5354353001071],[126.8407880985619,37.5324618998981]]]}}]}