{"type":"FeatureCollection","features":[{"type":"Feature","properties":{"interval":15,"stationId":"5801559319","profile":"off-peak"},"geometry":{"type":"Polygon","coordinates":[[[127.0016717992168,37.5645768991009],[127.011088499624,37.556674200088004],[127.0176777989733,37.557564898801004],[127.0192785995582,37.5506736998272],[127.0302524995802,37.555937198423905],[127.03847179960229,37.553389598494505],[127.045318999315,37.5409768988204],[127.0491170992462,37.545492498535005],[127.0453116010202,37.5469613005353],[127.0477245003115,37.5616532996736],[127.057465799783,37.5620165995689],[127.06218679942941,37.5571364000144],[127.0700415003763,37.5603174998398],[127.05826650028351,37.562980600620804],[127.05142670055399,37.5717668997426],[127.012841800198,37.567951300659395],[127.007893600157,37.5727447000436],[127.0016717992168,37.5645768991009]]]}},{"type":"Feature","properties":{"interval":30,"stationId":"5801559319","profile":"off-peak"},"geometry":{"type":"Polygon","coordinates":[[[126.9305661995265,37.5570735003532],[126.93277449896979,37.551369999910996],[126.95166359939941,37.552109299493196],[126.9435556996186,37.5382197013499],[126.9630811996887,37.55499969951261],[126.9711195001626,37.5550632992729],[126.9666996994259,37.5432142009371],[126.9724616003723,37.537435702124],[126.9657396990659,37.5289861001716],[126.9702459993842,37.5283306994887],[126.978374501028,37.5336479992743],[126.9733818003362,37.5452646995546],[126.9878311983921,37.5561638972448],[127.0008229980045,37.550340200165],[127.0002803967809,37.5445045036465],[126.9916012999217,37.538076700457],[126.9876302008547,37.5406526997422],[126.9846773003454,37.535010000487],[126.99369159818521,37.5294898996691],[127.0074760004233,37.5330076991119],[127.0039565000996,37.5394627000166],[127.0100074002667,37.5445936981047],[127.0201214960419,37.5374208005529],[127.027948199214,37.545732397947695],[127.0347079986954,37.5433035983278],[127.0335122989885,37.534467506073696],[127.026330899757,37.5286529006414],[127.026771999663,37.5182018005863],[127.0201552996145,37.520077900613394],[127.01477660024851,37.5091799022273],[127.011199602048,37.5122950007394],[127.0026155984926,37.5033022000935],[127.0147765992848,37.509179899182996],[127.0296681994553,37.4939342990065],[127.03230710007969,37.5068512990425],[127.0381764996342,37.505207998921804],[127.0339982999131,37.499817300164494],[127.0429690995982,37.4999182998841],[127.0471398995837,37.492412699641804],[127.05458149868849,37.493533899983],[127.0493445997346,37.489118401068005],[127.0554823999847,37.4823359004421],[127.07021859916661,37.490004699366],[127.0558111003946,37.5014159001231],[127.059494699574,37.507619699358],[127.06612450032951,37.5083051990608],[127.0614257005352,37.5215249001072],[127.0665350976611,37.5287175922587],[127.0942459998913,37.5330554993212],[127.1014410926962,37.52441790795881],[127.0946686992635,37.5124690005221],[127.1036454996465,37.508804399596805],[127.1045107012127,37.5156323991118],[127.11720770035879,37.517483599239796],[127.09590470633671,37.5334048021913],[127.1012975009439,37.5365157990803],[127.1008130997941,37.5421222966593],[127.1123994013646,37.545001394850594],[127.1169667991896,37.5269193003527],[127.1284432992324,37.5297857994336],[127.1335705994911,37.5220558998493],[127.1418051011138,37.5339745000038],[127.13068720058139,37.542439000438804],[127.13549860051671,37.549715499940795],[127.1301796010015,37.557359900077],[127.11718760051009,37.5436095013927],[127.1112135994238,37.5454726025825],[127.1087091007521,37.5530286006668],[127.0973988011866,37.5535221019064],[127.0960477047943,37.560141898622],[127.0893047023066,37.5633640010568],[127.09694489904639,37.5791456976608],[127.0934276004199,37.592706599391796],[127.1004100998451,37.5996734995636],[127.0981686005202,37.6018726003508],[127.07943640064421,37.6054525000897],[127.0752141006799,37.6014694004638],[127.0647436998743,37.6081638008698],[127.0609339980661,37.6000070019579],[127.0252424000079,37.587300701529],[127.0225030017348,37.5966040991276],[127.0318383004242,37.603241599522896],[127.0347290006438,37.6138282999027],[127.0300649003065,37.617875300209604],[127.0285367978758,37.6111115992205],[127.0194607998597,37.6060384025099],[127.01981930010679,37.597383201409805],[127.01335660139769,37.6049019003119],[127.0086152979474,37.594597801873704],[126.9991088004793,37.5957275007273],[126.9919669002948,37.5893912008431],[126.9941758989565,37.579992100677195],[126.9857817998958,37.583499600776605],[126.97867929994949,37.5780452004069],[126.973680700324,37.5818079002099],[126.96526680046199,37.5711393010109],[126.9600104015735,37.5778512000673],[126.9539508998777,37.5770278000163],[126.9595419988045,37.574180999538804],[126.9586499995281,37.564870800431],[126.9305661995265,37.5570735003532]]]}},{"type":"Feature","properties":{"interval":60,"stationId":"5801559319","profile":"off-peak"},"geometry":{"type":"Polygon","coordinates":[[[126.8128402965434,37.6178760002039],[126.81938219832021,37.6035099984512],[126.8269077994931,37.6019752992938],[126.8323980006028,37.6125104995173],[126.84313790037041,37.6128070993654],[126.8459911994004,37.611004001264504],[126.8391110004647,37.6071522031667],[126.8433292998236,37.602753799573],[126.8551225998835,37.613303797918896],[126.8572755002254,37.5968600003886],[126.8597919011131,37.5996575980162],[126.8650379989065,37.5952117998378],[126.8600792003273,37.5953976004269],[126.8618188989606,37.592035200925196],[126.88205429943059,37.5914059989004],[126.8785784993976,37.5815527003256],[126.8908786974366,37.569251799445105],[126.88385390503281,37.5532880055891],[126.86807620323721,37.5574093995698],[126.853086100315,37.5684017004311],[126.8481067000728,37.564798100214496],[126.84036880069709,37.573299400513406],[126.8357526996764,37.5698644007288],[126.8372255991679,37.565235200086796],[126.82898690039521,37.572566500525],[126.82558450010261,37.5708418006559],[126.819822897544,37.5603315003591],[126.83041249907599,37.5576803990879],[126.8292435998162,37.5399063000133],[126.8432661996385,37.5191163008895],[126.8605435992591,37.5059693991754],[126.8716892993529,37.507550599276904],[126.8751694977728,37.499973402181304],[126.8681351999236,37.500222600693],[126.87084029937759,37.495037501207506],[126.8676708003937,37.4932837006362],[126.8799993971038,37.4947562995101],[126.8755248990805,37.483171501011],[126.88030399853629,37.4757019997683],[126.8844807976551,37.47384679905149],[126.8823847021379,37.4789707990456],[126.8998107991454,37.4857946995916],[126.9157655999869,37.476854199620895],[126.9193979990326,37.4808329973084],[126.9345892989043,37.4759926988262],[126.93323579937281,37.4701169994006],[126.9511186998564,37.4777814991414],[126.9578834957586,37.4685551986163],[126.95371620421301,37.4703374008129],[126.9562774016518,37.4741764969738],[126.96207339824869,37.472514798523996],[126.96423119820611,37.4659469989328],[126.9716618988846,37.463633599447704],[126.9806033997507,37.4710080979516],[126.9884666994664,37.4660825001595],[126.9914109989426,37.4451236991351],[126.99936479980829,37.4383811017412],[126.98493960097251,37.431082601008804],[126.9839787996012,37.423462301247994],[126.99028009988061,37.4211522995963],[127.0174707000495,37.436040499771096],[127.01782110278211,37.441856196458],[127.012154403076,37.444976502589704],[127.0150043993806,37.4574452986298],[127.0058475064104,37.4623663998264],[127.0089986005116,37.473225398308195],[127.0226693991133,37.4658761987577],[127.0288213955605,37.4534607027716],[127.0428341941796,37.4527490978072],[127.04457879368509,37.4402141051215],[127.0407989974649,37.4382830070526],[127.0472525979354,37.4322286017697],[127.0699220000119,37.4341684996747],[127.0723027017981,37.442386196871205],[127.0666571054002,37.4464463004604],[127.061624102394,37.4689519938233],[127.077111598348,37.4750565942953],[127.0979551988038,37.4725652981078],[127.1173853960301,37.462511298083],[127.11793829528621,37.4561134033359],[127.1241496977556,37.4591378962324],[127.1182706986871,37.4305248016772],[127.12563399827671,37.4253608005712],[127.1191682989616,37.4093770996221],[127.123571199128,37.4048832996006],[127.11881370060141,37.4016797009701],[127.1164663006003,37.4068925003919],[127.1065737019734,37.4071510009214],[127.09804050003379,37.399086200546996],[127.1042811988208,37.3957435000492],[127.09911610011001,37.3881656003129],[127.1081065995921,37.3765657012448],[127.10051609993769,37.3637078031299],[127.10464219879461,37.3605171012166],[127.0981198968027,37.3498226048327],[127.1005046980188,37.346398800908005],[127.092790902224,37.3408281012086],[127.1001656000042,37.3323954991412],[127.11365290080471,37.3363669986826],[127.1098019012494,37.342512400591694],[127.1183758992647,37.348513399427205],[127.1132912006236,37.3589321990666],[127.12155139980901,37.3676151992149],[127.12174640147151,37.3824814000924],[127.135286800542,37.390040597569396],[127.1324410002913,37.406814497595704],[127.1393174009894,37.4104216997974],[127.13816320234899,37.4250912936042],[127.143066901024,37.427154999154396],[127.1449874013236,37.4375901998079],[127.15317829818059,37.441106397360905],[127.1612526998346,37.437143199850205],[127.1717369009641,37.452474098239904],[127.1672229003747,37.4611035002771],[127.1579854022972,37.4627600029397],[127.143911200307,37.47447990005],[127.1519412996634,37.4798239977045],[127.1495365017413,37.483066698738604],[127.1677512012006,37.4847620960337],[127.1705782053779,37.4897826953433],[127.16111810464399,37.4964304988573],[127.1652032008433,37.503649096503],[127.1695608999534,37.5029750998652],[127.1640278010701,37.5100096995309],[127.1554680044048,37.509337300922695],[127.15882910098591,37.518048298051994],[127.1554307032517,37.5196605988444],[127.1595396994273,37.520177698579495],[127.1510777040553,37.526560100746394],[127.1602526961374,37.529942098948396],[127.1627273003172,37.5414331980076],[127.15744890385581,37.5459042969648],[127.1692154957678,37.540961900394],[127.1771230002129,37.549978599596],[127.18608709990279,37.5489767993318],[127.1878442995474,37.5542157991999],[127.1962521973284,37.5485269004469],[127.19330060028,37.5471197018541],[127.20126999919759,37.532890099984805],[127.23100489897,37.5365432986741],[127.2299282008873,37.5427432005039],[127.2167096003185,37.5452086003747],[127.20160760107821,37.5717745014901],[127.19466040012891,37.574644300299404],[127.1854988998904,37.575273700417796],[127.1694480010275,37.563786201366206],[127.15686890069681,37.569307700501206],[127.1511847002546,37.5621201029535],[127.1281719005385,37.5732658997369],[127.12928049737499,37.5626744070862],[127.12072210313599,37.5698546000802],[127.12365300020511,37.5709941989406],[127.11302070592511,37.587296801139395],[127.1248166004319,37.5924127992487],[127.1390421998191,37.5846951986804],[127.1538598982948,37.589617899730904],[127.15447519843639,37.5853980008638],[127.16737840067941,37.5974136986827],[127.1635992013118,37.596420703363805],[127.1614158030819,37.604426495449204],[127.17474440038589,37.6018489991187],[127.1809769983556,37.608356896892694],[127.1873389981929,37.604642998598806],[127.1875587989152,37.5947972000153],[127.19453969970671,37.5955806983508],[127.2142180936505,37.5788367945922],[127.21772269979499,37.577971099783],[127.21971230107499,37.589274998905104],[127.2227011998676,37.5876283998719],[127.21444200472291,37.5959262984974],[127.21234200012421,37.5902173016348],[127.2026828026743,37.592714102738704],[127.2059552015217,37.6018918948707],[127.2108536982243,37.6027612949614],[127.2036928068771,37.607021500771204],[127.2036920068779,37.6125200952726],[127.1959621984129,37.607100106291],[127.1905159038592,37.6123739010172],[127.1846087007828,37.6085392008545],[127.18163990091459,37.617669898914805],[127.1752404012402,37.6176107020535],[127.1757152011006,37.613290201203604],[127.16877940047681,37.616411499647995],[127.166872303376,37.6264512010009],[127.1328776013098,37.620484004495395],[127.1317722974239,37.6119615039591],[127.1139338010733,37.6201565019461],[127.118348697496,37.6128005998467],[127.1150028009004,37.610456000702],[127.1189472958711,37.6091920985274],[127.1139402008782,37.607053300666195],[127.1132613003149,37.6235713985442],[127.1273918948693,37.628195896636804],[127.12267440192299,37.633938298764996],[127.12807689907869,37.636476599222604],[127.1287433000461,37.645993399919],[127.1400385988283,37.639364798910805],[127.1432454991006,37.643651697737],[127.148137396814,37.6410202994505],[127.15350880081739,37.6503521989038],[127.146604704685,37.6589211988384],[127.1382461017081,37.6574295022319],[127.1322628995386,37.6493950041453],[127.1284483013307,37.654919801040805],[127.121397300769,37.647526201637405],[127.1133849998691,37.6494138007606],[127.1127726007557,37.641731401101],[127.1057415995195,37.6436432003788],[127.1034642938223,37.6338333995916],[127.0901133009782,37.629182212028105],[127.0885636025279,37.640951300259],[127.0825207007967,37.647776898676],[127.0930275011644,37.6611040991243],[127.0884260069425,37.6713271979216],[127.0905210038803,37.680848500273505],[127.0783332042364,37.681581804288996],[127.0738879015389,37.677515905328],[127.060911301019,37.683874504467504],[127.06077730141399,37.692151897155696],[127.05533670063559,37.6895650004921],[127.0544843024407,37.695860599136005],[127.06006629685871,37.6993696956269],[127.04995650115819,37.7105620001886],[127.06076469978699,37.7262317989548],[127.0551993002628,37.7286703003209],[127.0592104001114,37.7468699000493],[127.0440451000985,37.7478947009019],[127.02959600032929,37.7403653009936],[127.03727909876761,37.734415999530505],[127.03374240055449,37.7278203016555],[127.0418969981693,37.7183549011595],[127.0423697980779,37.7125062987539],[127.0336393969261,37.708826699862605],[127.0385632942592,37.695570807451396],[127.0310832983495,37.693342402637995],[127.02908599935,37.6857562021071],[127.03531459544001,37.6861400975274],[127.0362548944997,37.6796971039704],[127.0299455003085,37.680639301915406],[127.0308672986919,37.670749802916006],[127.02497770119,37.6626819010157],[127.01319650479621,37.663031003056396],[127.0039110013071,37.6714942025626],[127.0025713962918,37.6587418069018],[127.00793319207929,37.654995298365606],[127.00110819576871,37.6426454075331],[127.00299369328981,37.6252988039026],[126.9950004012831,37.6265685026329],[126.9866148982834,37.6189374066207],[126.9897691963637,37.6039255019993],[126.98588440024851,37.5980129079119],[126.98139950473339,37.6017646041602],[126.9731895005419,37.596691700505204],[126.95198520173379,37.5993556015784],[126.9430022005684,37.604849903652195],[126.9446837032188,37.6235714985866],[126.9315247017373,37.630559700523],[126.9361645997287,37.6341690977888],[126.9318801028933,37.6421092979541],[126.9350502997231,37.642556297507106],[126.92017079949609,37.6542441007365],[126.9075273008483,37.6532374017694],[126.91344409846931,37.6503204983442],[126.9059230023195,37.6487635016595],[126.91066669654069,37.640880799808095],[126.9027864990626,37.617101602504],[126.9061441990358,37.6050135002342],[126.89760549916839,37.5840072012283],[126.8949386004773,37.5889145991026],[126.88109180113929,37.5922518995124],[126.8785082016893,37.6054484997694],[126.8754479996257,37.603208700761606],[126.87204270064849,37.6087919001358],[126.876471500981,37.6133532003231],[126.86612310346139,37.6152553036742],[126.8667837971086,37.6094020047937],[126.86350260038981,37.6097613044344],[126.8466418011322,37.624019800313796],[126.8289034973005,37.6138723000746],[126.8181509016219,37.620135100076595],[126.8128402965434,37.6178760002039]]]}}]}