{"type":"FeatureCollection","features":[{"type":"Feature","properties":{"interval":15,"stationId":"5812010548","profile":"off-peak"},"geometry":{"type":"Polygon","coordinates":[[[127.0208692993357,37.4958805004708],[127.0427678998214,37.492179698681504],[127.04768540088921,37.4995033982696],[127.0532938994486,37.4944257988044],[127.0569962006765,37.5053888994046],[127.06615939901221,37.503143799671996],[127.0674040004465,37.5099616995926],[127.0762194015259,37.511737399699804],[127.0589071003393,37.5139987007964],[127.05594450070909,37.5085021002849],[127.0493001002654,37.5090564007587],[127.0396434002598,37.5190962006562],[127.0392842998521,37.5113301003204],[127.03062600018819,37.5083266007454],[127.0208692993357,37.4958805004708]]]}},{"type":"Feature","properties":{"interval":30,"stationId":"5812010548","profile":"off-peak"},"geometry":{"type":"Polygon","coordinates":[[[126.9362400997843,37.484600899714295],[126.9400302996069,37.4784365997657],[126.9460103003438,37.4803214999171],[126.9751209996036,37.4687687989966],[126.9924097986437,37.4796569966876],[127.00236629558191,37.471743699492094],[127.02599839999631,37.483798099234605],[127.0379270995933,37.4736410997386],[127.0331603997382,37.4692237000979],[127.0444668995403,37.4645554981656],[127.0463481007249,37.4718667001867],[127.0414175999116,37.4754089007697],[127.0446460000141,37.481432699342896],[127.0583711997884,37.4773182990696],[127.07018909660309,37.4825540952299],[127.0676148991773,37.4775614002226],[127.0751340008114,37.4848463982566],[127.0862732950425,37.4790287982093],[127.0882302000567,37.4943992998859],[127.0818307001805,37.498387100285505],[127.1097625997086,37.501025198873904],[127.1116965994351,37.4910757004109],[127.1180483990643,37.4888278992498],[127.1261359991915,37.475774099988506],[127.1294403000369,37.4809532994442],[127.1224630012245,37.4900414010347],[127.1259648004486,37.4960561992595],[127.1200966008585,37.4972890996109],[127.1145330006414,37.5128534993424],[127.1209097008379,37.514472599070196],[127.1169424003242,37.5243768998513],[127.125454100438,37.5273115984381],[127.12804109966861,37.5370885987919],[127.1248440009032,37.5426658998053],[127.1184826995247,37.5408755012245],[127.11715389851831,37.5252151008849],[127.1080166006653,37.5277463004894],[127.10376870067991,37.5242208011971],[127.0982464012034,37.5413900005706],[127.08497030019589,37.5439446004637],[127.0775251008568,37.540301800491],[127.080076899696,37.54526739886],[127.07544870079799,37.5491013001681],[127.08402099967941,37.5545682995041],[127.0825836002176,37.560640899923605],[127.0764103007194,37.560101001076106],[127.0748889997879,37.552327400841705],[127.063599398949,37.542930301196805],[127.05938920134099,37.5472348999565],[127.0534019002193,37.5452991010885],[127.0483018004334,37.553753899942194],[127.04594590092671,37.5514926006146],[127.04229480015299,37.5596493995291],[127.0450986011363,37.5662771993155],[127.0291897000889,37.5671306003546],[127.02736299831679,37.5591431005033],[127.0172851993659,37.5554221009438],[127.0212221989439,37.550221199244],[127.0331627995783,37.5552077993504],[127.0270483999456,37.5502355005123],[127.04115969898079,37.5392909998142],[127.0428564992157,37.5313979997789],[127.0348859019531,37.535619197466396],[127.0267335003445,37.5309970004145],[127.02647159964789,37.5217639004602],[127.007573300559,37.518391600635304],[126.987980300565,37.5024320029736],[126.9757610999008,37.5042761007443],[126.9870423998926,37.4980223997863],[126.9927239990231,37.5021853987011],[126.9959764990511,37.4962016999057],[126.98696540037861,37.4869002011865],[126.9794363015441,37.4928208009139],[126.969768499601,37.4778123019715],[126.9551966004473,37.486667999793],[126.9362400997843,37.484600899714295]]]}},{"type":"Feature","properties":{"interval":60,"stationId":"5812010548","profile":"off-peak"},"geometry":{"type":"Polygon","coordinates":[[[126.8059573994516,37.5601897002117],[126.8207902994932,37.568707398185204],[126.823366099256,37.5604707007718],[126.83013629982611,37.5615434991159],[126.8314974999637,37.570441998214],[126.8374427993516,37.5621471000596],[126.830633099521,37.5499717009242],[126.8345843993255,37.5455016998236],[126.8322061998628,37.5399201999468],[126.84463739861229,37.5269530993412],[126.8422713997445,37.5183734005855],[126.8581138983946,37.504247899732704],[126.87104219969231,37.5068274979692],[126.8726803982772,37.503237900925505],[126.8647991999584,37.5017433007361],[126.86650369833549,37.4931213016352],[126.8596138009151,37.4930528011124],[126.8552048995666,37.4991643008285],[126.8515453000808,37.4948544014064],[126.8552098998565,37.4868423011887],[126.8502855001818,37.4822902020696],[126.842246300973,37.489470599818695],[126.8438895003726,37.492537599711795],[126.8315412991255,37.489685400287],[126.8508058986767,37.4720058989869],[126.8574891999382,37.4745008984099],[126.8693512992164,37.465404699728204],[126.877552601241,37.472799098056],[126.89407129823759,37.474502999128696],[126.9001058987806,37.469213600203005],[126.9173791988505,37.4673849992134],[126.9332299976285,37.452547399735],[126.93837779783709,37.4569597960189],[126.9702725963907,37.4536241958752],[126.9702427964205,37.4498908996085],[126.9748010994056,37.458718988974304],[126.9824641917425,37.455020592672696],[126.97408039832011,37.4236057012122],[126.9845770975479,37.4229187973119],[126.983052999072,37.4173489028818],[126.9792831985929,37.4110874024645],[126.9680170990609,37.410575101178004],[126.954562200631,37.3990753027036],[126.9431699010951,37.396456301712796],[126.9407278994218,37.3844120004471],[126.9450376953981,37.3827037972847],[126.9687824001675,37.383679098754705],[126.9880469004952,37.392155599728305],[126.9878437012354,37.3970108992347],[126.9809268028508,37.3991004012141],[126.9859939990955,37.4152191963869],[126.98453209965619,37.408347901800106],[126.990944400458,37.418754499137],[126.9960808986362,37.420816698560905],[126.993136400287,37.4148483024272],[127.0135352993252,37.420449698918],[127.0263645005639,37.434356393716996],[127.0129600027971,37.4441875005584],[127.01440980115319,37.4513853966309],[127.0234697998766,37.44589739911],[127.0243540007236,37.4513686991396],[127.03701379591159,37.450556294364304],[127.03356739903779,37.4354101003099],[127.0428577910148,37.4278851068375],[127.0660149005543,37.4347978984222],[127.0699338970519,37.4338431991758],[127.0681133995571,37.4274817997978],[127.0752233981361,37.4244846943103],[127.07197930296779,37.4249974004287],[127.0807237973805,37.4311709885492],[127.0719894029564,37.435428102570604],[127.0674286024856,37.4511892984112],[127.0813203993818,37.4594112997933],[127.0706757012502,37.4635264000485],[127.06854149771159,37.4591990058429],[127.06162410364,37.4689519961506],[127.077111598348,37.4750565942953],[127.0920017994442,37.464414199592],[127.0982229982273,37.466151399806],[127.1063017995609,37.4556494001534],[127.1078905003625,37.462021898029306],[127.11579469763069,37.462988797790196],[127.11975629818231,37.4362048013147],[127.11232149925479,37.4276913020086],[127.1169598964789,37.423805098583905],[127.1139486979035,37.4094372003687],[127.1049349986543,37.40539540290651],[127.0994178025707,37.411137400586504],[127.0936509002261,37.4082496006059],[127.10032819901011,37.397639500960096],[127.0903041994589,37.402410701836594],[127.0899403994032,37.38997680055],[127.1048664984794,37.3747625021248],[127.0891116018607,37.364455804338505],[127.097092495353,37.3618020952956],[127.0979067945387,37.355956301141404],[127.09120940059499,37.3467999009465],[127.0859710040196,37.3521936001918],[127.088088699593,37.3301316027348],[127.0759666992945,37.3206686033515],[127.06586380045441,37.319142200441505],[127.0701380974662,37.310610402752005],[127.0634400004772,37.3041080070212],[127.0646439991899,37.2937095003781],[127.0694280998858,37.2896394995361],[127.07925869999009,37.2936903984234],[127.0799121002616,37.3026283997397],[127.09708690060049,37.3141082985589],[127.1081950995782,37.3118245985372],[127.1058654984976,37.3048910993581],[127.11413040094119,37.3110619939321],[127.1061006025116,37.3157908008827],[127.1174189998291,37.324857399040596],[127.1225737004937,37.340626099656305],[127.11977240337791,37.3453854991581],[127.12766470436479,37.353283297908504],[127.1214777027201,37.3570933999023],[127.12325560151459,37.362313998308196],[127.129557197935,37.363327796349],[127.1271994006185,37.3741468996017],[127.1389818003548,37.381649696448996],[127.1373504016384,37.3859811988518],[127.1436860984977,37.386190598393],[127.1413861055956,37.3908833013815],[127.14624910019941,37.3948056991846],[127.1447912022269,37.4255324930609],[127.1711371004358,37.433530498044604],[127.1729228021384,37.4473401984036],[127.1787373990404,37.452205798216404],[127.1733926025742,37.4645855989365],[127.1565713029954,37.4735745074657],[127.1495365017413,37.483066698738604],[127.1630922012955,37.4914511985167],[127.1585687004389,37.5048532000845],[127.1485321016466,37.506954699219],[127.1613600996301,37.5151001996416],[127.1555939007962,37.5300975987929],[127.1602526961374,37.529942098948396],[127.1633478009813,37.5392130989448],[127.15744890385581,37.5459042969648],[127.1993171002986,37.5625649992144],[127.1900006005463,37.5700238999228],[127.18292680048471,37.559093502503806],[127.1689588015167,37.564170100982295],[127.1448429021352,37.561909303622],[127.1390681017225,37.5668924080462],[127.14015419970819,37.5638071004469],[127.1353438011298,37.566412399974496],[127.1259341948053,37.5589419073938],[127.11510870397959,37.5613228044222],[127.1155311035572,37.5647197010253],[127.10520480353479,37.561066599831996],[127.1043380058825,37.5696255968896],[127.1132866012937,37.5786868974972],[127.1075785026304,37.5971895967448],[127.1106024996064,37.5945008994335],[127.11558940239391,37.603859198586804],[127.10262590039021,37.6162173995912],[127.0966122002434,37.615299201229206],[127.0943282021374,37.6242320978957],[127.10001320058761,37.6265455993283],[127.0866586034292,37.6269147019076],[127.0771401057792,37.6381066025793],[127.0721731011639,37.6566365982536],[127.0805266012665,37.662242399418],[127.08151050075519,37.672846500404],[127.0730738007947,37.6653341031323],[127.0665928004232,37.6670430002852],[127.05817910122211,37.673674999497806],[127.0612562997143,37.6738545996964],[127.0582239011944,37.682057798312606],[127.048582200092,37.6804635020925],[127.0494640002528,37.690984700002],[127.0449337012052,37.6936324995406],[127.0411168996966,37.6880743006359],[127.0426767000728,37.6723969005207],[127.03661829998521,37.6681196006329],[127.0449306984762,37.659492599796],[127.02933949949511,37.65005940056081],[127.0302076002633,37.6437578005805],[127.01421840016481,37.643941500464095],[127.012903996879,37.6221298007743],[126.9996645002164,37.618585800858895],[127.0036126987803,37.600301804105996],[126.9923199998513,37.599670001214],[126.9795457996229,37.583859599859196],[126.9732932003652,37.5836735001154],[126.9688780003682,37.5897548006647],[126.9595816003259,37.5803758015988],[126.9567812022768,37.5875377986597],[126.9495428020279,37.5889020006692],[126.9496740002199,37.594376499428904],[126.9392513016591,37.5964834009501],[126.9330838004744,37.619402899418496],[126.92962589994181,37.614827600514396],[126.92712320049729,37.6225112000081],[126.9153820001892,37.6212443002538],[126.9142512996767,37.6097521001157],[126.9253393985263,37.612295300631],[126.92614659957009,37.5998751996726],[126.9509792974001,37.5709677997412],[126.9404777002686,37.563640301211805],[126.9156588018252,37.5718283028685],[126.9158409991508,37.5610386999987],[126.91220800129281,37.5606721003086],[126.9017238012428,37.5713591009979],[126.9061195003744,37.580344600179195],[126.8964941010768,37.5823313003318],[126.89293209940449,37.576794700351904],[126.9012655985342,37.5716972995701],[126.89819850005121,37.5612025007589],[126.8953917001932,37.5626534001192],[126.9015424991512,37.5594225996176],[126.9060417983634,37.548690199721406],[126.9037013034173,37.5429679034095],[126.8864358003243,37.546840001076305],[126.8722516001906,37.5568362003201],[126.8679827006916,37.5543878005053],[126.85977170201569,37.5659152982568],[126.8446345023677,37.5741210984173],[126.8167230012996,37.570881400514],[126.8059573994516,37.5601897002117]]]}}]}