{"type":"FeatureCollection","features":[{"type":"Feature","properties":{"interval":15,"stationId":"5835544503","profile":"off-peak"},"geometry":{"type":"Polygon","coordinates":[[[126.97129169956129,37.5394163994944],[126.9713311995218,37.5394164994943],[126.97136807224757,37.53956902876859],[126.97129169956129,37.5394163994944]]]}},{"type":"Feature","properties":{"interval":30,"stationId":"5835544503","profile":"off-peak"},"geometry":{"type":"Polygon","coordinates":[[[126.97129169956129,37.5394163994944],[126.9713311995218,37.5394164994943],[126.97136807224757,37.53956902876859],[126.97129169956129,37.5394163994944]]]}},{"type":"Feature","properties":{"interval":60,"stationId":"5835544503","profile":"off-peak"},"geometry":{"type":"Polygon","coordinates":[[[126.97129169956129,37.5394163994944],[126.9713311995218,37.5394164994943],[126.97136807224757,37.53956902876859],[126.97129169956129,37.5394163994944]]]}}]}