{"type":"FeatureCollection","features":[{"type":"Feature","properties":{"interval":15,"stationId":"5890637492","profile":"off-peak"},"geometry":{"type":"Polygon","coordinates":[[[127.2074311979726,37.587583100717204],[127.20764334861512,37.587498995071634],[127.20764334821801,37.58749899579043],[127.2074311979726,37.587583100717204]]]}},{"type":"Feature","properties":{"interval":30,"stationId":"5890637492","profile":"off-peak"},"geometry":{"type":"Polygon","coordinates":[[[127.2074311979726,37.587583100717204],[127.20764334861512,37.587498995071634],[127.20764334821801,37.58749899579043],[127.2074311979726,37.587583100717204]]]}},{"type":"Feature","properties":{"interval":60,"stationId":"5890637492","profile":"off-peak"},"geometry":{"type":"Polygon","coordinates":[[[127.2074311979726,37.587583100717204],[127.20764334861512,37.587498995071634],[127.20764334821801,37.58749899579043],[127.2074311979726,37.587583100717204]]]}}]}