{"type":"FeatureCollection","features":[{"type":"Feature","properties":{"interval":15,"stationId":"5890164134","profile":"off-peak"},"geometry":{"type":"Polygon","coordinates":[[[127.3108616992269,37.5542765001322],[127.3108616998617,37.5542764979304],[127.31087910058109,37.5543009999321],[127.3108616992269,37.5542765001322]]]}},{"type":"Feature","properties":{"interval":30,"stationId":"5890164134","profile":"off-peak"},"geometry":{"type":"Polygon","coordinates":[[[127.3108616992269,37.5542765001322],[127.3108616998617,37.5542764979304],[127.31087910058109,37.5543009999321],[127.3108616992269,37.5542765001322]]]}},{"type":"Feature","properties":{"interval":60,"stationId":"5890164134","profile":"off-peak"},"geometry":{"type":"Polygon","coordinates":[[[127.3108616992269,37.5542765001322],[127.3108616998617,37.5542764979304],[127.31087910058109,37.5543009999321],[127.3108616992269,37.5542765001322]]]}}]}