{"type":"FeatureCollection","features":[{"type":"Feature","properties":{"interval":15,"stationId":"5890164147","profile":"off-peak"},"geometry":{"type":"Polygon","coordinates":[[[127.3279369990642,37.5464554998972],[127.32813133506521,37.54639609893665],[127.32813133556981,37.54639609949645],[127.3279369990642,37.5464554998972]]]}},{"type":"Feature","properties":{"interval":30,"stationId":"5890164147","profile":"off-peak"},"geometry":{"type":"Polygon","coordinates":[[[127.3279369990642,37.5464554998972],[127.32813133506521,37.54639609893665],[127.32813133556981,37.54639609949645],[127.3279369990642,37.5464554998972]]]}},{"type":"Feature","properties":{"interval":60,"stationId":"5890164147","profile":"off-peak"},"geometry":{"type":"Polygon","coordinates":[[[127.3279369990642,37.5464554998972],[127.32813133506521,37.54639609893665],[127.32813133556981,37.54639609949645],[127.3279369990642,37.5464554998972]]]}}]}