{"type":"FeatureCollection","features":[{"type":"Feature","properties":{"interval":15,"stationId":"5891336948","profile":"off-peak"},"geometry":{"type":"Polygon","coordinates":[[[126.8012320994978,37.6464877005462],[126.80139299344401,37.64636905743524],[126.80130730008051,37.6465154000234],[126.8012320994978,37.6464877005462]]]}},{"type":"Feature","properties":{"interval":30,"stationId":"5891336948","profile":"off-peak"},"geometry":{"type":"Polygon","coordinates":[[[126.8012320994978,37.6464877005462],[126.80139299344401,37.64636905743524],[126.80130730008051,37.6465154000234],[126.8012320994978,37.6464877005462]]]}},{"type":"Feature","properties":{"interval":60,"stationId":"5891336948","profile":"off-peak"},"geometry":{"type":"Polygon","coordinates":[[[126.8012320994978,37.6464877005462],[126.80139299344401,37.64636905743524],[126.80130730008051,37.6465154000234],[126.8012320994978,37.6464877005462]]]}}]}