{"type":"FeatureCollection","features":[{"type":"Feature","properties":{"interval":15,"stationId":"5891336974","profile":"off-peak"},"geometry":{"type":"Polygon","coordinates":[[[126.79493917137951,37.657604282770606],[126.79503119984389,37.6575202999393],[126.79493917188502,37.6576042840432],[126.79493917137951,37.657604282770606]]]}},{"type":"Feature","properties":{"interval":30,"stationId":"5891336974","profile":"off-peak"},"geometry":{"type":"Polygon","coordinates":[[[126.79493917137951,37.657604282770606],[126.79503119984389,37.6575202999393],[126.79493917188502,37.6576042840432],[126.79493917137951,37.657604282770606]]]}},{"type":"Feature","properties":{"interval":60,"stationId":"5891336974","profile":"off-peak"},"geometry":{"type":"Polygon","coordinates":[[[126.79493917137951,37.657604282770606],[126.79503119984389,37.6575202999393],[126.79493917188502,37.6576042840432],[126.79493917137951,37.657604282770606]]]}}]}