{"type":"FeatureCollection","features":[{"type":"Feature","properties":{"interval":15,"stationId":"5891337012","profile":"off-peak"},"geometry":{"type":"Polygon","coordinates":[[[126.77367769975059,37.6696690997478],[126.7903067997576,37.6639413987973],[126.7963367990243,37.6554790001303],[126.80260390028029,37.6622419996817],[126.7931367006672,37.6645478011022],[126.7923385008735,37.671295798772604],[126.7974376010361,37.676689698655],[126.789729600723,37.680582299468796],[126.777021501174,37.6788150007413],[126.77367769975059,37.6696690997478]]]}},{"type":"Feature","properties":{"interval":30,"stationId":"5891337012","profile":"off-peak"},"geometry":{"type":"Polygon","coordinates":[[[126.7610764997341,37.6757072002877],[126.76497809922239,37.6607371996742],[126.77428379964621,37.6574165992055],[126.77364450100231,37.661810199296],[126.77864019600659,37.661746799359406],[126.7745082999611,37.6508459009475],[126.7861389995313,37.6499909999228],[126.7834204991351,37.640342999583304],[126.7942994990557,37.6309367993044],[126.8037280999365,37.6307458978693],[126.8017703027897,37.6384579996376],[126.8064391982842,37.640846097904195],[126.8065792981154,37.631793101223906],[126.8158779001308,37.6360162992528],[126.8078407050196,37.6577612974571],[126.8152125988221,37.6639313955409],[126.805155802578,37.6847236991472],[126.7792239004176,37.6929114005228],[126.7610764997341,37.6757072002877]]]}},{"type":"Feature","properties":{"interval":60,"stationId":"5891337012","profile":"off-peak"},"geometry":{"type":"Polygon","coordinates":[[[126.69519609774801,37.509235699590796],[126.7021138006762,37.502281598262606],[126.71194679935071,37.5070097990151],[126.71613449819479,37.5010596988953],[126.71656969970189,37.4902550004103],[126.7072290007844,37.487525402548],[126.7092478989283,37.4746016001906],[126.7164262017184,37.4844915974454],[126.72397500041029,37.4858640993935],[126.782968399906,37.4714285961224],[126.7884837959429,37.466589299561406],[126.7827512972457,37.4576330000856],[126.7858348955625,37.4508168034105],[126.77402930103169,37.444040802509804],[126.7738822998501,37.433974100644804],[126.79204639850721,37.4292159995658],[126.80902169988491,37.445767497749],[126.8042301045711,37.4604435980174],[126.8107087993598,37.464359598555305],[126.814009001083,37.479355899271305],[126.8357075996236,37.4932608991105],[126.82734430084409,37.500342800539],[126.81604230143101,37.4971025997178],[126.817350100873,37.505574698447],[126.8218408963822,37.5059677980539],[126.8215953043942,37.5182951958858],[126.83247990038059,37.5233995993121],[126.8260058006867,37.5365680001616],[126.81644900051971,37.5375522990928],[126.8152202010818,37.5450602969737],[126.8282531992224,37.5449612996294],[126.8291846999228,37.536183699941404],[126.8542011000668,37.5183117998713],[126.8676185995804,37.524442798143504],[126.8752414991644,37.520185399375904],[126.8805540988176,37.5238077982486],[126.8958546999746,37.5218510997367],[126.9013598005872,37.526379998986805],[126.9055524999214,37.5210557997588],[126.9101115999645,37.5268367987146],[126.8973536004609,37.544023598239505],[126.884656401367,37.546965700117305],[126.88412890197739,37.551406198209605],[126.8769347009557,37.551835101169],[126.8623439059897,37.5637587071776],[126.8595211088125,37.567348303588],[126.8642369026165,37.573749398970094],[126.8558023060148,37.567675706567],[126.8348612077972,37.5787932067942],[126.8032047000638,37.5817389005586],[126.79857720175589,37.5876523015123],[126.7887793993929,37.579745603523506],[126.7963111998215,37.5843892975929],[126.79951389937669,37.5789520999992],[126.7868125023315,37.5761432007323],[126.7904878976809,37.5663747016224],[126.7993937003088,37.5758302957253],[126.8043332988424,37.5680287006308],[126.7984198005241,37.563155202025094],[126.8139417975667,37.5471032001008],[126.80718159838241,37.538683202811605],[126.80312890001551,37.5376786020303],[126.80024320125689,37.5436315996429],[126.7942545013281,37.5413629018853],[126.7994939974746,37.532399502766694],[126.7859471011206,37.5384869000914],[126.7870517972544,37.5339478011687],[126.7750027998127,37.525815200153694],[126.77725029888711,37.520171499329194],[126.76019049968889,37.5122773018079],[126.7539082001469,37.516449901472896],[126.74722470033771,37.511438303343205],[126.745848901416,37.514772400122496],[126.72276520059789,37.5162396001671],[126.7154921976028,37.509264201932695],[126.7048430005036,37.5152635009017],[126.69519609774801,37.509235699590796]]]}}]}