{"type":"FeatureCollection","features":[{"type":"Feature","properties":{"interval":15,"stationId":"5891334845","profile":"off-peak"},"geometry":{"type":"Polygon","coordinates":[[[126.8676067992274,37.6032851000476],[126.86774538219187,37.603221893705395],[126.86774538284668,37.603221894248],[126.8676067992274,37.6032851000476]]]}},{"type":"Feature","properties":{"interval":30,"stationId":"5891334845","profile":"off-peak"},"geometry":{"type":"Polygon","coordinates":[[[126.8676067992274,37.6032851000476],[126.86774538219187,37.603221893705395],[126.86774538284668,37.603221894248],[126.8676067992274,37.6032851000476]]]}},{"type":"Feature","properties":{"interval":60,"stationId":"5891334845","profile":"off-peak"},"geometry":{"type":"Polygon","coordinates":[[[126.8676067992274,37.6032851000476],[126.86774538219187,37.603221893705395],[126.86774538284668,37.603221894248],[126.8676067992274,37.6032851000476]]]}}]}