{"type":"FeatureCollection","features":[{"type":"Feature","properties":{"interval":15,"stationId":"5891337069","profile":"off-peak"},"geometry":{"type":"Polygon","coordinates":[[[126.7608998988446,37.6930879006132],[126.7608999005312,37.693087899427404],[126.76098230044879,37.6930873994279],[126.7608998988446,37.6930879006132]]]}},{"type":"Feature","properties":{"interval":30,"stationId":"5891337069","profile":"off-peak"},"geometry":{"type":"Polygon","coordinates":[[[126.7608998988446,37.6930879006132],[126.7608999005312,37.693087899427404],[126.76098230044879,37.6930873994279],[126.7608998988446,37.6930879006132]]]}},{"type":"Feature","properties":{"interval":60,"stationId":"5891337069","profile":"off-peak"},"geometry":{"type":"Polygon","coordinates":[[[126.7608998988446,37.6930879006132],[126.7608999005312,37.693087899427404],[126.76098230044879,37.6930873994279],[126.7608998988446,37.6930879006132]]]}}]}