{"type":"FeatureCollection","features":[{"type":"Feature","properties":{"interval":15,"stationId":"5893030219","profile":"off-peak"},"geometry":{"type":"Polygon","coordinates":[[[126.966337899856,37.5306510001246],[126.96635509767394,37.53057325589906],[126.96633790045689,37.5306510000143],[126.966337899856,37.5306510001246]]]}},{"type":"Feature","properties":{"interval":30,"stationId":"5893030219","profile":"off-peak"},"geometry":{"type":"Polygon","coordinates":[[[126.966337899856,37.5306510001246],[126.96635509767394,37.53057325589906],[126.96633790045689,37.5306510000143],[126.966337899856,37.5306510001246]]]}},{"type":"Feature","properties":{"interval":60,"stationId":"5893030219","profile":"off-peak"},"geometry":{"type":"Polygon","coordinates":[[[126.966337899856,37.5306510001246],[126.96635509767394,37.53057325589906],[126.96633790045689,37.5306510000143],[126.966337899856,37.5306510001246]]]}}]}