{"type":"FeatureCollection","features":[{"type":"Feature","properties":{"interval":15,"stationId":"5896286321","profile":"off-peak"},"geometry":{"type":"Polygon","coordinates":[[[127.06239069957789,37.109129099420294],[127.0623907012526,37.1091290995254],[127.06241307336089,37.1093049554099],[127.06239069957789,37.109129099420294]]]}},{"type":"Feature","properties":{"interval":30,"stationId":"5896286321","profile":"off-peak"},"geometry":{"type":"Polygon","coordinates":[[[127.06239069957789,37.109129099420294],[127.0623907012526,37.1091290995254],[127.06241307336089,37.1093049554099],[127.06239069957789,37.109129099420294]]]}},{"type":"Feature","properties":{"interval":60,"stationId":"5896286321","profile":"off-peak"},"geometry":{"type":"Polygon","coordinates":[[[127.06239069957789,37.109129099420294],[127.0623907012526,37.1091290995254],[127.06241307336089,37.1093049554099],[127.06239069957789,37.109129099420294]]]}}]}