{"type":"FeatureCollection","features":[{"type":"Feature","properties":{"interval":15,"stationId":"5896399383","profile":"off-peak"},"geometry":{"type":"Polygon","coordinates":[[[127.013346799459,37.2451077989618],[127.01334680125409,37.2451077989624],[127.0133468006477,37.2451078009225],[127.013346799459,37.2451077989618]]]}},{"type":"Feature","properties":{"interval":30,"stationId":"5896399383","profile":"off-peak"},"geometry":{"type":"Polygon","coordinates":[[[127.013346799459,37.2451077989618],[127.01334680125409,37.2451077989624],[127.0133468006477,37.2451078009225],[127.013346799459,37.2451077989618]]]}},{"type":"Feature","properties":{"interval":60,"stationId":"5896399383","profile":"off-peak"},"geometry":{"type":"Polygon","coordinates":[[[127.013346799459,37.2451077989618],[127.01334680125409,37.2451077989624],[127.0133468006477,37.2451078009225],[127.013346799459,37.2451077989618]]]}}]}