{"type":"FeatureCollection","features":[{"type":"Feature","properties":{"interval":15,"stationId":"5896638408","profile":"off-peak"},"geometry":{"type":"Polygon","coordinates":[[[126.90251689978969,37.4344842996467],[126.90254376610892,37.43453866697404],[126.90254376524011,37.43453866749174],[126.90251689978969,37.4344842996467]]]}},{"type":"Feature","properties":{"interval":30,"stationId":"5896638408","profile":"off-peak"},"geometry":{"type":"Polygon","coordinates":[[[126.90251689978969,37.4344842996467],[126.90254376610892,37.43453866697404],[126.90254376524011,37.43453866749174],[126.90251689978969,37.4344842996467]]]}},{"type":"Feature","properties":{"interval":60,"stationId":"5896638408","profile":"off-peak"},"geometry":{"type":"Polygon","coordinates":[[[126.90251689978969,37.4344842996467],[126.90254376610892,37.43453866697404],[126.90254376524011,37.43453866749174],[126.90251689978969,37.4344842996467]]]}}]}