{"type":"FeatureCollection","features":[{"type":"Feature","properties":{"interval":15,"stationId":"5896284769","profile":"off-peak"},"geometry":{"type":"Polygon","coordinates":[[[127.043775499778,37.1867868999199],[127.044031600336,37.186435398468],[127.0440316011613,37.1864354003552],[127.043775499778,37.1867868999199]]]}},{"type":"Feature","properties":{"interval":30,"stationId":"5896284769","profile":"off-peak"},"geometry":{"type":"Polygon","coordinates":[[[127.043775499778,37.1867868999199],[127.044031600336,37.186435398468],[127.0440316011613,37.1864354003552],[127.043775499778,37.1867868999199]]]}},{"type":"Feature","properties":{"interval":60,"stationId":"5896284769","profile":"off-peak"},"geometry":{"type":"Polygon","coordinates":[[[127.043775499778,37.1867868999199],[127.044031600336,37.186435398468],[127.0440316011613,37.1864354003552],[127.043775499778,37.1867868999199]]]}}]}