{"type":"FeatureCollection","features":[{"type":"Feature","properties":{"interval":15,"stationId":"5900500358","profile":"off-peak"},"geometry":{"type":"Polygon","coordinates":[[[126.8620566993878,37.5012759000056],[126.8627062993958,37.4965738995458],[126.87516949969,37.4999733979278],[126.87083700055989,37.5047755019761],[126.8620566993878,37.5012759000056]]]}},{"type":"Feature","properties":{"interval":30,"stationId":"5900500358","profile":"off-peak"},"geometry":{"type":"Polygon","coordinates":[[[126.84948559864489,37.4992229997427],[126.86415159619919,37.4857567988971],[126.8740111996264,37.4848576991184],[126.8776319020761,37.4989471980182],[126.88698259999269,37.498769799529995],[126.8813226008186,37.5039419996962],[126.88680980016919,37.50751559978],[126.8804373008105,37.5088943010184],[126.8777111010621,37.515697001233505],[126.8687986024112,37.5162902007172],[126.8684525998118,37.510479700512896],[126.8553817008964,37.510695201696],[126.8575781983843,37.5079802008324],[126.84948559864489,37.4992229997427]]]}},{"type":"Feature","properties":{"interval":60,"stationId":"5900500358","profile":"off-peak"},"geometry":{"type":"Polygon","coordinates":[[[126.6867109992826,37.4637719990912],[126.6990203999759,37.459278099414796],[126.71037480014989,37.4652247995539],[126.7137173022721,37.481871996651506],[126.72643099719211,37.4842800989815],[126.7785005954918,37.4717542971964],[126.78242799699319,37.4671090975135],[126.796726396362,37.4682696974847],[126.8022357991672,37.4594034993198],[126.8049961019421,37.4701684977141],[126.8175964014266,37.4742022968612],[126.82490059957411,37.4688671985242],[126.8305117007993,37.4849576949153],[126.8508625989354,37.4682087996863],[126.8565671993458,37.4701282995308],[126.8632231984073,37.4642695980778],[126.8715487995607,37.4675920967807],[126.8725621993313,37.4586451001099],[126.879045498775,37.4570230993645],[126.8820395987365,37.4467228994712],[126.8986383983611,37.444671898738],[126.8975849983899,37.426666301645],[126.90433209240261,37.4203745985408],[126.9023525996567,37.41084940026779],[126.9158809993316,37.4088328999116],[126.9200237993078,37.3975115008106],[126.9298843989811,37.3947482993425],[126.9318446016919,37.4017631985161],[126.9184791024382,37.407484403066],[126.91828810006889,37.415335499803],[126.90298139987681,37.4232893003929],[126.9112006023442,37.434777499390904],[126.9054114002231,37.447556399343505],[126.9105050009408,37.4513243990885],[126.9076495018444,37.4625679016518],[126.9114831004692,37.4672565978543],[126.9026574002497,37.4780322994823],[126.9099781999346,37.4802876972665],[126.9169345998838,37.4745918992477],[126.922967697886,37.480083198233906],[126.9297473991756,37.4682132005488],[126.9359360994796,37.4665901995338],[126.94089800024051,37.4743054994185],[126.9499879003488,37.4770700983031],[126.9681252991682,37.4700870995691],[126.97275030002321,37.4742834986618],[126.9811660988682,37.4729792991079],[126.9794919003089,37.4812572000717],[126.965445299982,37.4785276010016],[126.97168380048069,37.4860455003214],[126.96214350237419,37.482750903207],[126.95862430032629,37.4894684004808],[126.9358024006579,37.4894345022656],[126.9349389004237,37.4926107001831],[126.9383335012464,37.4983311997111],[126.9480174990789,37.4990935999957],[126.9563148997857,37.4915760996166],[126.9538170001253,37.5068434981698],[126.9800009995618,37.5033887993208],[126.96916940013959,37.5068163007899],[126.97087809843089,37.516393191213005],[126.9800943002044,37.520760698745896],[126.9679798012762,37.5271948998531],[126.97891520048731,37.5340094989128],[126.9729330012391,37.539570898540504],[126.9738175002496,37.5457287994564],[126.9804300003766,37.5462699979821],[126.9864685002474,37.56529259996],[126.9984713996472,37.566654399918896],[126.99642179948479,37.570587899557],[127.0021529996888,37.5681028997548],[127.0047699004347,37.5729834000396],[126.9820736004724,37.5765391007216],[126.9507395001543,37.5602816006321],[126.9238752004681,37.5663613998408],[126.9113870002508,37.559727101381306],[126.9007722018202,37.5669698003706],[126.90514379936951,37.560539399642806],[126.8992705019365,37.544340105949196],[126.8703010997264,37.5503014011569],[126.8642039003175,37.5617692998863],[126.8516994002203,37.5628902011337],[126.8625902991349,37.5457814999824],[126.88085669945319,37.5388138003328],[126.8737954013021,37.5314809005193],[126.8509079003332,37.54094710086979],[126.8491135009868,37.5502717002026],[126.8434900021459,37.554100000388],[126.8486712007086,37.5573061991772],[126.8407464008069,37.563019601186994],[126.84196700020709,37.5702815991054],[126.830844100967,37.5627921010454],[126.82867840281911,37.5706467997952],[126.8253692001952,37.5695827011183],[126.819841398607,37.5604431019513],[126.8140898003156,37.5671956999999],[126.8043541001391,37.5689657010305],[126.7970553001239,37.562509900990804],[126.80971429714299,37.5539131004016],[126.8152090011199,37.560931098157596],[126.826136098584,37.5537226008212],[126.8259912000144,37.5399935000864],[126.8359783987583,37.5262286997233],[126.82907809753371,37.5105129023342],[126.8170635025909,37.5057288026912],[126.8171552025201,37.5226142002278],[126.8220551997312,37.5248792995406],[126.80983810253349,37.533658100552294],[126.8115929004717,37.5362712996297],[126.8071816052651,37.5386832021212],[126.80320320046489,37.532873201413295],[126.8002576020609,37.5373081996672],[126.7924971000356,37.5294755028578],[126.7979377982714,37.5255966999051],[126.7874188006638,37.5239530005464],[126.7912105986415,37.5192122000219],[126.7793749990081,37.5062887010126],[126.76010839998229,37.504312400310404],[126.7689844986806,37.5027593993857],[126.7680931000361,37.4985091011793],[126.75708570006671,37.5026517003026],[126.7342658006677,37.4961797999572],[126.722893900605,37.502438300377705],[126.72514460061849,37.5086589000431],[126.71534080015141,37.5078484014158],[126.7205193996373,37.5034990004618],[126.7149676994879,37.4907882022088],[126.70468799941631,37.489487500692505],[126.7021006989487,37.4785277022095],[126.6949060013879,37.4767205015327],[126.6961272984517,37.4646593001785],[126.6867109992826,37.4637719990912]]]}}]}