{"type":"FeatureCollection","features":[{"type":"Feature","properties":{"interval":15,"stationId":"5902085994","profile":"off-peak"},"geometry":{"type":"Polygon","coordinates":[[[126.6167582991434,37.475585999402],[126.61697863989949,37.47642090202465],[126.6171095002687,37.477784299221305],[126.61697863817778,37.47642090273675],[126.6167582991434,37.475585999402]]]}},{"type":"Feature","properties":{"interval":30,"stationId":"5902085994","profile":"off-peak"},"geometry":{"type":"Polygon","coordinates":[[[126.6167582991434,37.475585999402],[126.61697863989949,37.47642090202465],[126.6171095002687,37.477784299221305],[126.61697863817778,37.47642090273675],[126.6167582991434,37.475585999402]]]}},{"type":"Feature","properties":{"interval":60,"stationId":"5902085994","profile":"off-peak"},"geometry":{"type":"Polygon","coordinates":[[[126.6167582991434,37.475585999402],[126.61697863989949,37.47642090202465],[126.6171095002687,37.477784299221305],[126.61697863817778,37.47642090273675],[126.6167582991434,37.475585999402]]]}}]}