{"type":"FeatureCollection","features":[{"type":"Feature","properties":{"interval":15,"stationId":"5902086886","profile":"off-peak"},"geometry":{"type":"Polygon","coordinates":[[[126.7276866988458,37.4873730000803],[126.7448403967462,37.481684297814496],[126.7449437012146,37.4896429006999],[126.7494037002037,37.4915947991238],[126.7408882991444,37.4969224016408],[126.7276866988458,37.4873730000803]]]}},{"type":"Feature","properties":{"interval":30,"stationId":"5902086886","profile":"off-peak"},"geometry":{"type":"Polygon","coordinates":[[[126.7150131982001,37.484480700954],[126.7280831979559,37.4801003966981],[126.733251201073,37.4845864988864],[126.7449310968822,37.4719935988081],[126.74572520111319,37.477233695829696],[126.7597092964495,37.4798709994361],[126.76513850025651,37.4875802990036],[126.7493944001202,37.505742700195796],[126.7401513003703,37.5069055005642],[126.7221957999644,37.4990658002436],[126.7150131982001,37.484480700954]]]}},{"type":"Feature","properties":{"interval":60,"stationId":"5902086886","profile":"off-peak"},"geometry":{"type":"Polygon","coordinates":[[[126.608550797717,37.477166401675404],[126.6246206009956,37.4683815974403],[126.6351369997279,37.455541799630495],[126.6564958999429,37.4583122991012],[126.6776706997412,37.44449679936611],[126.69006999850251,37.4454499987754],[126.6942266986041,37.4261811989103],[126.6828225004022,37.4125137004708],[126.6856409993288,37.4102875000344],[126.6971346990301,37.414311398892],[126.698880001407,37.4183399991807],[126.69364590150171,37.4217691001092],[126.7031123980117,37.422832797641604],[126.70137740400399,37.435947899958705],[126.7090718013681,37.445685498993605],[126.7254558989288,37.449173097524],[126.74011039866721,37.4434283981334],[126.75001330183201,37.447033597547495],[126.7504503016061,37.4618091993465],[126.7660651980767,37.4651143950764],[126.7684457021685,37.4724160993923],[126.7785005954918,37.4717542971964],[126.78384779500111,37.4610713024316],[126.77999699879399,37.4577186034462],[126.786110395287,37.455958298268996],[126.7858348955625,37.4508168034105],[126.77173379934551,37.444371702387095],[126.77406929991089,37.429812600214795],[126.7942376987,37.427156197007896],[126.8050604018924,37.4431517973006],[126.80844259894221,37.4423515983632],[126.8107708012641,37.4497106969622],[126.8065729061458,37.453327201905694],[126.8114944012243,37.4600299952029],[126.80697550248749,37.4620473994989],[126.817212399954,37.47405749793],[126.822669098958,37.471275697901],[126.8332433993655,37.488281896268],[126.8398614985115,37.473665199191],[126.84820279813769,37.4732007997421],[126.8508625989354,37.4682087996863],[126.86717609946159,37.469630799532496],[126.8693512992164,37.465404699728204],[126.8772463003063,37.4737394990596],[126.8850411013937,37.4740064995447],[126.8854678013754,37.4812134973912],[126.90079719963519,37.4878268993693],[126.90005220127131,37.5061533989685],[126.9083814981121,37.5032681010696],[126.90663189964859,37.497819899646004],[126.9280987982964,37.4985200995792],[126.9119648019804,37.5025050021695],[126.9213817006334,37.5146282996123],[126.9262571999557,37.50852239781889],[126.9292930019701,37.5171359978646],[126.92382749957301,37.5155092008863],[126.9236473013015,37.521297597113296],[126.910752400478,37.520635900807605],[126.9084875998681,37.5146486009657],[126.9007009003102,37.5121171012403],[126.89910690102491,37.521008100260104],[126.9048201994736,37.5212066998376],[126.8994843020925,37.525929898411604],[126.9026465998994,37.5259294993529],[126.9003059001449,37.5321213991269],[126.90496280049271,37.5352324999373],[126.8986590998813,37.5365919005736],[126.8991901992272,37.5310860018689],[126.89065089992759,37.5274396003822],[126.8870790002942,37.5124123017357],[126.8819849002255,37.5163830999294],[126.8711197019362,37.5122479009613],[126.8700352987523,37.5049266020445],[126.846291200487,37.5062609997443],[126.8364371011263,37.498840000588004],[126.8296670023198,37.5021342003559],[126.8317462002406,37.506484396005696],[126.8170635025909,37.5057288026912],[126.8171552025201,37.5226142002278],[126.8220551997312,37.5248792995406],[126.8071816052651,37.5386832021212],[126.80320320046489,37.532873201413295],[126.8002576020609,37.5373081996672],[126.7924971000356,37.5294755028578],[126.7979377982714,37.5255966999051],[126.7874188006638,37.5239530005464],[126.7912105986415,37.5192122000219],[126.7827659989985,37.5140524010882],[126.7609325038296,37.522059400635506],[126.75400450212739,37.5179828060325],[126.74385510164801,37.5295441983386],[126.73337110049209,37.5280685007322],[126.7360592003892,37.5305641991481],[126.7322032014379,37.5364486999179],[126.7433041001867,37.5422380995471],[126.74787550058991,37.5524108968485],[126.7437420005581,37.556668900897],[126.7355236998541,37.5483302007662],[126.7151607001387,37.5433905005252],[126.7162186989312,37.5361478006498],[126.7100314992978,37.5290263998947],[126.7153161991262,37.5250619995122],[126.7072053000803,37.51736290109],[126.71013719932121,37.512901401398295],[126.7035212008899,37.517588600788805],[126.6921997003576,37.510590902782596],[126.7025571913346,37.498671001093804],[126.69007260073559,37.4935251014503],[126.6893681991047,37.4883837020081],[126.6800755983608,37.4877441009302],[126.6746879999253,37.4794416012788],[126.65132340014699,37.4788576002646],[126.6312489066882,37.4875731073063],[126.608550797717,37.477166401675404]]]}}]}