{"type":"FeatureCollection","features":[{"type":"Feature","properties":{"interval":15,"stationId":"5902086034","profile":"off-peak"},"geometry":{"type":"Polygon","coordinates":[[[126.6564316994414,37.4667475002384],[126.65658650069341,37.466719398833504],[126.6565865007136,37.4667194002602],[126.6564316994414,37.4667475002384]]]}},{"type":"Feature","properties":{"interval":30,"stationId":"5902086034","profile":"off-peak"},"geometry":{"type":"Polygon","coordinates":[[[126.6564316994414,37.4667475002384],[126.65658650069341,37.466719398833504],[126.6565865007136,37.4667194002602],[126.6564316994414,37.4667475002384]]]}},{"type":"Feature","properties":{"interval":60,"stationId":"5902086034","profile":"off-peak"},"geometry":{"type":"Polygon","coordinates":[[[126.6564316994414,37.4667475002384],[126.65658650069341,37.466719398833504],[126.6565865007136,37.4667194002602],[126.6564316994414,37.4667475002384]]]}}]}