{"type":"FeatureCollection","features":[{"type":"Feature","properties":{"interval":15,"stationId":"5902086056","profile":"off-peak"},"geometry":{"type":"Polygon","coordinates":[[[126.69222769925061,37.464620699537],[126.69247601812144,37.46458695132052],[126.69247601766664,37.46458695220102],[126.69222769925061,37.464620699537]]]}},{"type":"Feature","properties":{"interval":30,"stationId":"5902086056","profile":"off-peak"},"geometry":{"type":"Polygon","coordinates":[[[126.69222769925061,37.464620699537],[126.69247601812144,37.46458695132052],[126.69247601766664,37.46458695220102],[126.69222769925061,37.464620699537]]]}},{"type":"Feature","properties":{"interval":60,"stationId":"5902086056","profile":"off-peak"},"geometry":{"type":"Polygon","coordinates":[[[126.69222769925061,37.464620699537],[126.69247601812144,37.46458695132052],[126.69247601766664,37.46458695220102],[126.69222769925061,37.464620699537]]]}}]}