{"type":"FeatureCollection","features":[{"type":"Feature","properties":{"interval":15,"stationId":"5910775684","profile":"off-peak"},"geometry":{"type":"Polygon","coordinates":[[[126.6778226994183,37.418416000987904],[126.6778226995539,37.418415999800104],[126.67793097419685,37.418352380552726],[126.6778226994183,37.418416000987904]]]}},{"type":"Feature","properties":{"interval":30,"stationId":"5910775684","profile":"off-peak"},"geometry":{"type":"Polygon","coordinates":[[[126.6778226994183,37.418416000987904],[126.6778226995539,37.418415999800104],[126.67793097419685,37.418352380552726],[126.6778226994183,37.418416000987904]]]}},{"type":"Feature","properties":{"interval":60,"stationId":"5910775684","profile":"off-peak"},"geometry":{"type":"Polygon","coordinates":[[[126.6778226994183,37.418416000987904],[126.6778226995539,37.418415999800104],[126.67793097419685,37.418352380552726],[126.6778226994183,37.418416000987904]]]}}]}