{"type":"FeatureCollection","features":[{"type":"Feature","properties":{"interval":15,"stationId":"5915757374","profile":"off-peak"},"geometry":{"type":"Polygon","coordinates":[[[127.1531053990102,37.5548144999562],[127.1594618988059,37.5550941982599],[127.1585255989535,37.5517610004625],[127.1668384994161,37.5480021994862],[127.1820802009568,37.5587820999688],[127.1767528008904,37.557787500935305],[127.173694600763,37.5639185004871],[127.1624150020416,37.563009702967705],[127.1531053990102,37.5548144999562]]]}},{"type":"Feature","properties":{"interval":30,"stationId":"5915757374","profile":"off-peak"},"geometry":{"type":"Polygon","coordinates":[[[127.11938359959791,37.5398930000821],[127.12199939982321,37.5344799999627],[127.1419175993326,37.5317588997673],[127.1525299003776,37.5465792937057],[127.17034269991781,37.5376913998385],[127.1792856006075,37.547400799467695],[127.1762728010631,37.5493450002296],[127.18251119855479,37.5466017994795],[127.1878442995474,37.5542157991999],[127.1962521973284,37.5485269004469],[127.19330060028,37.5471197018541],[127.20126999919759,37.532890099984805],[127.23100489897,37.5365432986741],[127.2299282008873,37.5427432005039],[127.2167096003185,37.5452086003747],[127.20160760107821,37.5717745014901],[127.18880530046759,37.576315900313894],[127.18132919989759,37.571015800461396],[127.1730155019261,37.5719112987385],[127.1694480010275,37.563786201366206],[127.156712500204,37.5695194003237],[127.1547888989848,37.5627120023426],[127.1485801006775,37.5640752011092],[127.1343285998721,37.5527746004255],[127.1331789985318,37.5375747007321],[127.11938359959791,37.5398930000821]]]}},{"type":"Feature","properties":{"interval":60,"stationId":"5915757374","profile":"off-peak"},"geometry":{"type":"Polygon","coordinates":[[[126.9710883993156,37.569772299955495],[126.9768421986541,37.5668454997718],[126.9754529994676,37.5608290005182],[126.97965320004481,37.5653819995622],[126.9863403997716,37.5584233995732],[127.0015017995707,37.5586116991151],[127.0045265993956,37.5532665002307],[126.9997052995851,37.5380873011332],[126.9872792013897,37.535730300058894],[126.989295499381,37.5328104999251],[126.9978776991712,37.533010198921296],[127.0095536996153,37.5476898994101],[127.01070369759519,37.5395094001696],[127.0161633988517,37.5379736997164],[127.02744080050739,37.5459545997778],[127.04115969898079,37.5392909998142],[127.0428564992157,37.5313979997789],[127.0272697001109,37.5311851005767],[127.0276611985071,37.5245962000705],[127.0326321995354,37.5234520004468],[127.01755540085361,37.522357299842504],[127.0156671000617,37.5149143007101],[127.0075698008469,37.5143259008182],[126.99913520076059,37.5055981019305],[127.0044371997988,37.497994299732305],[127.0174479977299,37.5067203982276],[127.02023369903871,37.5014753996149],[127.0061025015535,37.4955046016876],[127.0044237963115,37.4881455000922],[127.0139582987762,37.4881671996331],[127.0175698986275,37.4829475994444],[127.020241999954,37.492718399722],[127.03975199959689,37.4927836991467],[127.0441309000102,37.4974243989258],[127.0532938994486,37.4944257988044],[127.0593026974192,37.486299000539006],[127.0596672000875,37.492941799624596],[127.067489099403,37.4861023997879],[127.0754904016117,37.489971999007004],[127.08063599748439,37.477255997612495],[127.0866501004825,37.4836873968529],[127.09814539911001,37.4792301996354],[127.1121799990723,37.481175298512],[127.11520179975349,37.4754256000162],[127.11765059838021,37.4776243974717],[127.1168602982807,37.4661116009408],[127.1134904999831,37.4656172003601],[127.1260508984112,37.4657021986118],[127.1210428994371,37.451835200522],[127.1239716967933,37.441797402598596],[127.11981930094571,37.442326102069906],[127.1195983983402,37.438045499474],[127.12336309941931,37.4394174984129],[127.12387869938121,37.4294939003455],[127.1296706996256,37.4262297975637],[127.14823009964661,37.440940898617804],[127.1368483006229,37.4432747001831],[127.1373718002852,37.449182899366996],[127.1269294002194,37.4597187002297],[127.1304889030535,37.466350799014],[127.13668799870851,37.4650029991558],[127.1383440993053,37.455616399994994],[127.1446251955351,37.455750996324],[127.155275600756,37.440827798709904],[127.1620853994268,37.4407895994822],[127.1669655003397,37.450208699730794],[127.16525490021489,37.4563890999326],[127.1551727021253,37.4592464003701],[127.1497852009134,37.4678857989248],[127.1340516016438,37.471266400372095],[127.1385741002178,37.479391299628205],[127.1638910994448,37.4870571989776],[127.1612591010632,37.5048339987649],[127.1540951007837,37.5031769033468],[127.1469699012442,37.5079335992285],[127.16167330269161,37.5203336978267],[127.15745030412039,37.522253499477195],[127.1624665991041,37.525204696526],[127.1593668017382,37.5328886983121],[127.1681627988804,37.534064398869496],[127.1643864990763,37.5288162013329],[127.1678863983577,37.5230964993043],[127.1748449993901,37.5184955006346],[127.1824469937601,37.520180395836604],[127.1961822981147,37.511013200406204],[127.2042078002697,37.513207698323406],[127.205960399154,37.5185538945261],[127.22391310113021,37.5147209964511],[127.2388140913988,37.5258627896292],[127.24772180057339,37.5235414982972],[127.2568983021318,37.534684588065495],[127.2434118024408,37.5410271037059],[127.24876719932641,37.545038799036],[127.24170710412069,37.554641201012],[127.22579010885259,37.5498653069477],[127.1964176021183,37.5820975086174],[127.1662802999948,37.5767326069441],[127.1710308001361,37.5733391988461],[127.1694480010275,37.563786201366206],[127.15691990367351,37.5717815995966],[127.1547888989848,37.5627120023426],[127.1430426026123,37.5628965036991],[127.1251650011569,37.5769448007065],[127.1318110955519,37.5650700050749],[127.1259341948053,37.5589419073938],[127.11510870397959,37.5613228044222],[127.1155311035572,37.5647197010253],[127.1101633985762,37.560822300076296],[127.0966863057247,37.564156500537806],[127.10491160243289,37.578555794560096],[127.1006846006772,37.584045100933295],[127.1006362002087,37.6016196999834],[127.0825291005825,37.6066263015112],[127.08616330021779,37.6133728969447],[127.0818117016484,37.614807200879],[127.087438200292,37.6217155001212],[127.0712180014339,37.631449600395904],[127.07208060028441,37.6379224985109],[127.0662195009846,37.6411240002211],[127.06347939919951,37.634582400183],[127.0691805965493,37.6275704993581],[127.0651821995161,37.6233061002697],[127.0719906981888,37.619711099974005],[127.0645963003336,37.614301100500896],[127.0727736977173,37.612054900244],[127.06898929882159,37.5990562003539],[127.07696849955421,37.5840476992757],[127.0706370001443,37.5764310007973],[127.0640838014049,37.572918802403095],[127.05498040026491,37.5813290999189],[127.0541207005743,37.5847451000059],[127.062577300079,37.5883043997437],[127.0593349005332,37.5927643997764],[127.03189419977599,37.5781480011565],[127.0217063005301,37.5810005002047],[127.01907169919019,37.5752264004879],[127.0154620007329,37.579069599818],[127.0127571002411,37.5733501005108],[127.0036664994219,37.570992000096496],[126.988935199953,37.578117300236805],[126.9824589995157,37.5720462012802],[126.97267380030999,37.5755287003727],[126.9710883993156,37.569772299955495]]]}}]}