{"type":"FeatureCollection","features":[{"type":"Feature","properties":{"interval":15,"stationId":"5917210895","profile":"off-peak"},"geometry":{"type":"Polygon","coordinates":[[[126.8841101988274,37.5265217998943],[126.9061807992262,37.516989500301705],[126.9217397996419,37.515824598803704],[126.9247312989072,37.5112303002832],[126.9342327005854,37.5206454987366],[126.9402922998365,37.520865799332405],[126.9433087014992,37.534791498968296],[126.9496583996829,37.5349199992197],[126.9554316999385,37.5418509987851],[126.95985040023949,37.5559234000403],[126.9544204009187,37.5572238000588],[126.94914220053269,37.5466822010871],[126.93992690024551,37.5488802003584],[126.9440717991462,37.5463307998446],[126.9319007061079,37.5303241101152],[126.9136870000992,37.5307860001282],[126.91770629901481,37.5258890998243],[126.91533000007969,37.5201256007147],[126.90676710089069,37.5263811009719],[126.9030677998412,37.5386311036075],[126.9048235992562,37.5358988000377],[126.8976836999559,37.5370871009976],[126.8946113998781,37.5278441004501],[126.8841101988274,37.5265217998943]]]}},{"type":"Feature","properties":{"interval":30,"stationId":"5917210895","profile":"off-peak"},"geometry":{"type":"Polygon","coordinates":[[[126.79658169934801,37.561461700198905],[126.8048853001534,37.557865299446505],[126.8236527995637,37.567413698944904],[126.8252008984495,37.5590973001642],[126.8349296979224,37.556682599488205],[126.82953669992351,37.5491505014807],[126.84442959930709,37.5212200999259],[126.8641309988823,37.5156607003813],[126.8616918992843,37.509978000147896],[126.8687833001287,37.514983199685005],[126.8794135998299,37.5140854998046],[126.8751694977728,37.499973402181304],[126.8846531997422,37.498971599097494],[126.88553419838219,37.4931149996331],[126.8907771997047,37.4914233995022],[126.8833963994624,37.4860632003116],[126.8852018993322,37.4832479000282],[126.90185060017801,37.49033879969431],[126.9026704002847,37.496544699034104],[126.9147269988215,37.4947360991009],[126.9063094001212,37.4859894007403],[126.9135945999121,37.482880099424705],[126.921485499509,37.4876800994552],[126.9332422993663,37.4690242004934],[126.93900550020149,37.4789661992492],[126.934581400693,37.4823674000475],[126.93512539988541,37.5001964991027],[126.9498945006641,37.5002335995049],[126.9552352997695,37.5046474990652],[126.96393789855131,37.5008804980703],[126.96702360133041,37.5049628970459],[126.9715641989455,37.4996405004852],[126.9817233006383,37.501561598464804],[126.9865598995699,37.497261599403004],[126.9788994011016,37.503359700029094],[126.99573959879959,37.4997476017288],[127.00979529984369,37.505919699146396],[127.0020892994981,37.5107717009881],[126.98731360123169,37.5023149030907],[126.97673620004251,37.5042057017695],[126.9621734067801,37.5108909062009],[126.9594866030375,37.517484002239904],[126.9439275094567,37.520071704963506],[126.96121520127839,37.5323666973721],[126.9612508997671,37.5221694003581],[126.9768134001379,37.5214529988716],[126.9679798012762,37.5271948998531],[126.97891520048731,37.5340094989128],[126.9729330012391,37.539570898540504],[126.97060000068211,37.5547299996062],[126.97660040023409,37.552872899619295],[126.9748755003054,37.555890300098504],[126.9875910998764,37.5597554997895],[126.98654570063769,37.562971200063],[127.0074581990978,37.5582687992917],[127.0090279998555,37.5534978004317],[127.0166510994657,37.556365899610604],[127.0224487000397,37.5510033996662],[127.0191940001079,37.5621561990694],[127.0249400001177,37.565665399878],[126.9977768007241,37.5758880003494],[126.995842198897,37.572014700725],[126.9895983028978,37.580791600028896],[126.9743325000782,37.582159900021104],[126.95864380028921,37.5760290004379],[126.947745101497,37.5622374026705],[126.9346984007346,37.5606700002222],[126.92023599994461,37.565325800322796],[126.91220800129281,37.5606721003086],[126.9005898000249,37.572697700546],[126.9056020006855,37.5781688001998],[126.8924018016378,37.5810160013911],[126.9012655985342,37.5716972995701],[126.8975149015004,37.566813702964694],[126.9075008992766,37.5468732000047],[126.9037013034173,37.5429679034095],[126.8872783006537,37.5467203004895],[126.88385390225241,37.5532879963278],[126.8790706994826,37.5520276008312],[126.8595211088125,37.567348303588],[126.8401461982725,37.5753630021345],[126.8134105008729,37.5709314006563],[126.807191699289,37.5611885003636],[126.8040410015744,37.565736798948606],[126.79658169934801,37.561461700198905]]]}},{"type":"Feature","properties":{"interval":60,"stationId":"5917210895","profile":"off-peak"},"geometry":{"type":"Polygon","coordinates":[[[126.692658598767,37.6348508009424],[126.6963707989601,37.6256138988117],[126.70611889886851,37.62481699838],[126.715076396521,37.6091163983145],[126.7321526983418,37.5985883989275],[126.7374454047259,37.604485696709695],[126.7524869973463,37.6013690994954],[126.7539903991651,37.6048962967338],[126.758667596026,37.6006928997588],[126.75770579937189,37.592003700043],[126.7632200985256,37.5886451990552],[126.7651357000271,37.5921290986904],[126.78686339611251,37.5902688977439],[126.7887793993929,37.579745603523506],[126.78454190103949,37.584805800297296],[126.7771773988476,37.577653800115],[126.7904878988427,37.566374692500794],[126.7993937003088,37.5758302957253],[126.8043332988424,37.5680287006308],[126.7984198005241,37.563155202025094],[126.8139417975667,37.5471032001008],[126.80718159838241,37.538683202811605],[126.7991161984364,37.5375927030439],[126.7994939974746,37.532399502766694],[126.794963602005,37.5361854989807],[126.7924971000356,37.5294755028578],[126.7876692999334,37.5305440003242],[126.7835008998348,37.5251902010709],[126.787131000169,37.5136910019083],[126.7793750001475,37.506288701071796],[126.76067639978349,37.5060981004655],[126.7618696995997,37.499414399817596],[126.7673044003607,37.5036188985262],[126.7788254994358,37.496830799912196],[126.78288309849651,37.5002775982725],[126.7857933985935,37.4945396001913],[126.7814487000497,37.4903660002018],[126.75710080013701,37.494448400972104],[126.7578202002298,37.497565100252004],[126.7359628010417,37.4891861004881],[126.72185730067909,37.5015157005309],[126.7164977990421,37.487618101456796],[126.7073043994721,37.4769527014221],[126.698570200022,37.4743376016641],[126.69748489954661,37.468661100195696],[126.71037480014989,37.4652247995539],[126.70584810124879,37.474551599616895],[126.7132241982258,37.476005097592804],[126.7164262017184,37.4844915974454],[126.7344132992139,37.4878589997895],[126.7378917990259,37.482196700234105],[126.7449683999844,37.4838987987798],[126.7449437012146,37.4896429006999],[126.7581237986173,37.4887552983582],[126.7638338986606,37.4785667971734],[126.768479300162,37.4823931978236],[126.77745759844551,37.4738230013587],[126.78923209890381,37.4769135961806],[126.7884837959832,37.466589302205705],[126.7967263987688,37.4682696947606],[126.8012774989966,37.4607740968622],[126.8065809988149,37.4774634986183],[126.81941169859951,37.4753184992625],[126.8305117007993,37.4849576949153],[126.83712479462069,37.4805566989843],[126.8453663992064,37.460878101382505],[126.86705859825459,37.4593822985355],[126.8793406978747,37.4412639006664],[126.8823293026545,37.444952997101495],[126.89477169783561,37.4424996990805],[126.8884521990543,37.437326102273],[126.8940642943536,37.4292692050951],[126.8972410990438,37.431111598586604],[126.898848998589,37.4238380998643],[126.8920254011499,37.4175909007283],[126.89202790077721,37.423914699936795],[126.88565130346451,37.422809401843296],[126.8854166036992,37.4287187959339],[126.8735645985266,37.421488201139596],[126.8747347962834,37.417480701414895],[126.88499149828729,37.4069674992525],[126.888986400894,37.412303598765604],[126.9056973992914,37.4041984981958],[126.9127747995091,37.3949690013684],[126.9238042989903,37.39211249745421],[126.9222742997682,37.381722002207205],[126.9359679976534,37.3783305981884],[126.9342122995988,37.3659448001166],[126.9497108983415,37.3613682993232],[126.94783240022899,37.3519456014309],[126.94089259995779,37.347784500150205],[126.943263200127,37.342738099673795],[126.9578269011302,37.3550140984933],[126.9506892008212,37.3576025006179],[126.9492726021297,37.3645063985143],[126.9547511996539,37.367927799304894],[126.9522947016027,37.3746632982539],[126.9405650049958,37.379772899981],[126.9502823007208,37.3849641987727],[126.9553711993147,37.3822574996581],[126.9689746001538,37.394693498701905],[126.9597298005153,37.3995403018844],[126.93980580098041,37.3916093010903],[126.93276040387781,37.403529398309],[126.9367069999129,37.4088672989528],[126.9307688005492,37.4047208044425],[126.9285082028098,37.410259698903594],[126.9213905017351,37.4109928020107],[126.922900302068,37.4205469989834],[126.917342002439,37.4215873013838],[126.91642020148501,37.4347735979771],[126.9112123032444,37.437081500236],[126.9170423978194,37.4402146973634],[126.9084406023389,37.444598401117],[126.9166385000733,37.4479951997914],[126.91894960095911,37.457141398942596],[126.9493013978848,37.4483971003054],[126.9610431037062,37.4627564951985],[126.968676296073,37.462033995921004],[126.96825479649449,37.458810399144596],[126.9806033997507,37.4710080979516],[126.9884666994664,37.4660825001595],[126.9903535987343,37.4442588046065],[126.99453269627769,37.443519800074796],[126.98466100074491,37.4311341025752],[126.9831299994093,37.4233687003356],[126.9884509999463,37.4190771991361],[127.0152881987494,37.4292533986993],[127.01043600127319,37.4342396961498],[127.0169883995233,37.432817701097804],[127.01782110278211,37.441856196458],[127.0121255031049,37.449066798499395],[127.0175589012526,37.4585516970411],[127.0058475064104,37.4623663998264],[127.0089985987954,37.473225397817494],[127.0212210986114,37.4693816991922],[127.0179179041973,37.471109100270496],[127.02500479882251,37.4744296987761],[127.0247369982073,37.46546680171],[127.0300829995587,37.4597812000174],[127.0399256977817,37.457150296662704],[127.0393775008116,37.4633291997054],[127.0469078998096,37.4567538000083],[127.0493805951982,37.440232799981295],[127.045416799162,37.4390298011843],[127.0660149005543,37.4347978984222],[127.0633288021466,37.4427550944741],[127.0666571047806,37.4464462969966],[127.06261900197019,37.4490596009629],[127.0673937994682,37.453968498057904],[127.0591365017235,37.4579211031611],[127.0534642027216,37.4680563003761],[127.0582170029539,37.479580997518006],[127.07018909660309,37.4825540952299],[127.0676148991773,37.4775614002226],[127.0701890984539,37.4825540950361],[127.08063599748439,37.477255997612495],[127.09019460199531,37.4855064958298],[127.1059178012898,37.4826400972768],[127.1119469979607,37.489798498638],[127.12547839744171,37.4741699007883],[127.13193290028329,37.4802787997985],[127.1266330003506,37.490632500363496],[127.1291620995934,37.497055599000205],[127.1392781986018,37.4954127988472],[127.1425036997234,37.4904201014277],[127.14816690081061,37.4938429994479],[127.1326571010302,37.5022979005858],[127.1399182995917,37.506793799706195],[127.1378990998231,37.5152791991897],[127.14148489815119,37.511331500050794],[127.1499389009996,37.5173665000178],[127.15601220042541,37.5320171992403],[127.14323880035461,37.5419545999753],[127.146542100765,37.550199399394195],[127.141266199121,37.552410700166206],[127.1339178003857,37.5455448004922],[127.1272485999503,37.554687100631604],[127.1191641034235,37.5473863052194],[127.1023338023104,37.5591174008001],[127.0958701049719,37.5573508014131],[127.1008481003187,37.590797699893905],[127.09801990029929,37.6013782996736],[127.0825291005825,37.6066263015112],[127.0843172018461,37.6147785985943],[127.0913512978565,37.6164913991789],[127.0887301004582,37.6240612004385],[127.0785419999719,37.6233882003596],[127.0712392999787,37.6293490021006],[127.0670129998702,37.6205746002369],[127.0628406040426,37.620674500137],[127.0592242016386,37.6266339006785],[127.0613206001151,37.6371973001896],[127.0561709028927,37.636900101163],[127.0578475980636,37.6226805020111],[127.0540913993904,37.6169940024647],[127.03704180009619,37.617962601589596],[127.03857749943491,37.6266393986903],[127.0330577003366,37.6268151009736],[127.0416730017518,37.6484497992284],[127.0460007990065,37.6495575991704],[127.0512589997336,37.643342698727196],[127.0514284042237,37.6521253975715],[127.0453245005533,37.6579848002034],[127.02752399947249,37.6535908003729],[127.021732700131,37.6471373000866],[127.015283201123,37.6490869006872],[127.0161552004276,37.6555113993769],[127.0112845003058,37.6586070007368],[127.01224299850959,37.630173900341106],[126.9964492988119,37.6183019015663],[127.0036126971662,37.600301803883696],[126.99119040248539,37.6015249017126],[126.9836760989288,37.595846800535696],[126.9630631005112,37.601488599849006],[126.9605455960121,37.5935663032587],[126.9430022005684,37.604849903652195],[126.9479025021502,37.6221580984519],[126.9315247017373,37.630559700523],[126.9196669010272,37.654980601084],[126.9075273008483,37.6532374017694],[126.89386230005769,37.6611372001148],[126.8850556997039,37.6511697002318],[126.8984545990749,37.6460053996043],[126.9078776992423,37.6480748983453],[126.91066669660869,37.6408808024068],[126.90743889976851,37.6336248070641],[126.9126076989714,37.628436301460795],[126.9014990003501,37.6167990028066],[126.9014158975142,37.5982735012405],[126.896412700233,37.5895893018735],[126.89282320094149,37.5984574007786],[126.8824100028979,37.596138501230605],[126.8785350002102,37.5990812005293],[126.8819628013185,37.6044708980107],[126.8728707014675,37.6058365000015],[126.8749360009927,37.616022899319496],[126.86229349961441,37.6128716045845],[126.85360450301461,37.6145250021534],[126.8556104001381,37.6200366995509],[126.8493129008427,37.623879100889106],[126.83372709985301,37.6187632006383],[126.8089268020411,37.6246963039428],[126.8058254987935,37.6138758004962],[126.8192747992356,37.599066900257],[126.83016239907731,37.599270397085],[126.83429389854591,37.607078297625996],[126.8416654983796,37.6032815003583],[126.8496385007403,37.608364995786],[126.8589414977086,37.6049388984213],[126.8599854956063,37.5920125018416],[126.87459679691301,37.592212399269],[126.8707763013914,37.585609001809395],[126.8564870035001,37.585090801551004],[126.8470022003363,37.572538409249496],[126.8218896997441,37.583948800437504],[126.8243651991955,37.5820150005486],[126.8168942009732,37.580768501483796],[126.8144506027807,37.583393799390905],[126.81806789916341,37.584668898115794],[126.7974345021687,37.5973542993358],[126.7926421002955,37.587334601677696],[126.7798890021249,37.5992873991718],[126.77769180013,37.592642603121796],[126.7690536010583,37.595149299474706],[126.7869881008384,37.6035563988074],[126.7845775031717,37.6101980993491],[126.7825988999914,37.606968302412],[126.7708486995936,37.6147200012951],[126.765887398632,37.6087440035864],[126.75833450127901,37.6112171017567],[126.7467470006414,37.6071389019446],[126.73946720049791,37.6202750996244],[126.713507605978,37.6324782025736],[126.7116147015835,37.6385495998618],[126.7058526993032,37.6349812027875],[126.7025045016763,37.6410110003307],[126.692658598767,37.6348508009424]]]}}]}