{"type":"FeatureCollection","features":[{"type":"Feature","properties":{"interval":15,"stationId":"5919544688","profile":"off-peak"},"geometry":{"type":"Polygon","coordinates":[[[126.8913603993165,37.5777561993226],[126.8961649993033,37.5741406988884],[126.8943427994737,37.5699727014487],[126.9071479996025,37.5697210993586],[126.9133087005148,37.5854908997724],[126.9074152003423,37.5867902005452],[126.8913603993165,37.5777561993226]]]}},{"type":"Feature","properties":{"interval":30,"stationId":"5919544688","profile":"off-peak"},"geometry":{"type":"Polygon","coordinates":[[[126.87967879940689,37.5806166998662],[126.88337369753161,37.579869100014406],[126.8832599987022,37.5740700042627],[126.8808736010886,37.5774323009004],[126.8885899001846,37.5593140997251],[126.9075008992766,37.5468732000047],[126.9037013034173,37.5429679034095],[126.9241942010719,37.544589699368906],[126.9414705995169,37.54078229959929],[126.94363589988491,37.5350163000276],[126.9625370004501,37.5358174989809],[126.9647459008468,37.5408618999569],[126.9556408008163,37.551111500176795],[126.9626845998924,37.5573376998316],[126.96252679993741,37.5515017000463],[126.9707189011227,37.5486294995767],[126.9682381014746,37.5615674001529],[126.9346984007346,37.5606700002222],[126.9330975008227,37.5666655998616],[126.92534740022961,37.5699454999081],[126.9233461010679,37.588909999969395],[126.92806400015871,37.59910909855],[126.9381406024305,37.6000709011555],[126.9343369021405,37.616418199063],[126.937169701711,37.623495500088694],[126.9162146998638,37.622399900315095],[126.89847659905969,37.5846647014998],[126.8834346004361,37.5901883012885],[126.87967879940689,37.5806166998662]]]}},{"type":"Feature","properties":{"interval":60,"stationId":"5919544688","profile":"off-peak"},"geometry":{"type":"Polygon","coordinates":[[[126.68850299899749,37.637992501908805],[126.6876084998914,37.6320305999987],[126.6932950954555,37.6303425004067],[126.6903012985443,37.627402600930004],[126.6965374984541,37.6197914995684],[126.7119308965036,37.617341698923894],[126.712470399127,37.606473300957596],[126.7172358996054,37.6019419998474],[126.7360204976295,37.5972822010568],[126.7357877054398,37.6017749970094],[126.74144069978679,37.5993435994408],[126.74688749967319,37.6034310960163],[126.7540274987647,37.590276100945495],[126.7694039985222,37.5858370972622],[126.78686339611251,37.5902688977439],[126.7887793993929,37.579745603523506],[126.78454190103949,37.584805800297296],[126.7762201995694,37.5758302008978],[126.7904878988427,37.566374692500794],[126.7993937003088,37.5758302957253],[126.8035801992859,37.5713500991522],[126.7984198005241,37.563155202025094],[126.8139417975667,37.5471032001008],[126.80718159838241,37.538683202811605],[126.7991161984364,37.5375927030439],[126.7994939974746,37.532399502766694],[126.794963602005,37.5361854989807],[126.7924971000356,37.5294755028578],[126.7904068021259,37.5321177002156],[126.7825158006615,37.5263016009825],[126.7868800986253,37.5183033994711],[126.7847025992138,37.5115774005422],[126.7783831004847,37.5073013005333],[126.7638784009267,37.5082191002871],[126.7599648999639,37.5036380002811],[126.7618696995997,37.499414399817596],[126.7834099981725,37.498309999475],[126.7809212994801,37.4899096000781],[126.77421460017159,37.488299400106904],[126.767522201077,37.495741499606],[126.7479347990284,37.4897961016697],[126.7581237986173,37.4887552983582],[126.7558212998795,37.4860618003241],[126.7638338986606,37.4785667971734],[126.7700255999531,37.4823529989225],[126.78284549709309,37.474154998364604],[126.78923209890381,37.4769135961806],[126.7877358983507,37.4693591019632],[126.7917912989508,37.465797898685096],[126.7967263987688,37.4682696947606],[126.8002740994435,37.457636299691195],[126.80658100135679,37.4774634991225],[126.82817699916049,37.4868794985643],[126.8305747000921,37.492103897868496],[126.83637590065649,37.4819054018372],[126.8444975000931,37.482902597589806],[126.8496288994011,37.473118200191],[126.8593698003909,37.477533197420705],[126.8677081995269,37.4667678995185],[126.8767410987555,37.4709464996431],[126.88366179934759,37.4484924002227],[126.8964245987683,37.448650198668304],[126.8986383983611,37.444671898738],[126.8964246015898,37.4486501994998],[126.9074816999868,37.4526492998494],[126.9046585003787,37.4755397994281],[126.911250899829,37.4748422991579],[126.9121303998044,37.4792756978929],[126.9126065994952,37.4731574991267],[126.9265699979128,37.4721506017848],[126.92710869875151,37.4662696017435],[126.934962400767,37.4643186986733],[126.9482827981887,37.4657950004637],[126.9432154012776,37.474421398863996],[126.9513558996192,37.4777402991826],[126.9578834957586,37.4685551986163],[126.95371620421301,37.4703374008129],[126.9562774016518,37.4741764969738],[126.96207339824869,37.472514798523996],[126.9618084985136,37.4684270026118],[126.98004529947261,37.4667566995114],[126.9806033997507,37.4710080979516],[126.9884666994664,37.4660825001595],[126.99016859954041,37.4565612994207],[126.99570889725949,37.4546053986619],[126.994640298814,37.448409499118796],[127.00218269753981,37.4411265035531],[127.00228639863,37.435085400618796],[126.9927916992101,37.430865400380604],[126.9994129992956,37.4302026998701],[127.01043600127319,37.4342396961498],[127.012509902983,37.4436008963774],[127.0036067002151,37.449896600536],[127.0091515008338,37.4548112985722],[127.0043290034947,37.4585220985696],[126.9957088994094,37.454605403112495],[126.9885779016484,37.457269300819],[126.99337640061471,37.4722495989852],[127.0050829004204,37.4814844991526],[126.9972030019428,37.493692100551094],[127.00562109916879,37.495984899218506],[127.0021844985824,37.4901915015002],[127.0162256988938,37.48141119864199],[127.0223600997663,37.485466398963],[127.0157179003487,37.5000570995946],[127.02965889946461,37.4931652997755],[127.0384197997567,37.505846999361005],[127.05056949885619,37.5012307988309],[127.05235570058251,37.506889000600104],[127.04811890013441,37.5106119995665],[127.0622760993746,37.507968299804105],[127.0665364001817,37.516119899837896],[127.0595359005043,37.518744600488695],[127.0538244009894,37.513913401408],[127.0546230004746,37.520375000075305],[127.04563670031061,37.5205208004677],[127.04991480001999,37.5253409991971],[127.0483565025784,37.536127092657004],[127.06967689998241,37.5289048994175],[127.073145800256,37.5339335990116],[127.0847625996043,37.5302488998303],[127.0942459998913,37.5330554993212],[127.10239749992799,37.5179972997031],[127.1079943006949,37.5190847973926],[127.0959047083552,37.5334047932379],[127.1008130997941,37.5421222966593],[127.1104844000326,37.5457219998683],[127.1079949015483,37.5493016006945],[127.09830370052491,37.547637701566],[127.08557760055649,37.565906299490905],[127.07432399848881,37.561428402092794],[127.0702208007025,37.56967949985],[127.064246200229,37.5683680007015],[127.0534884009227,37.5760648002532],[127.0545266002613,37.5820614998364],[127.0681205002994,37.59382479929],[127.0665761007214,37.6059673995669],[127.06203579889821,37.6008558991511],[127.0644658995911,37.5964673006387],[127.0454825009003,37.5881961009408],[127.0431407007481,37.6004121994102],[127.0615232006567,37.6119997999434],[127.05319250027709,37.614883499806],[127.0368153006701,37.6061605999476],[127.03509240212449,37.6157145995632],[127.02909750043281,37.6194445005628],[127.01581060193219,37.6074471010305],[127.0089084001374,37.6189127996525],[127.0229731003565,37.6213671993535],[127.01432110025,37.6225811002856],[127.0010303998698,37.6113689999771],[127.0062326994346,37.6077504004592],[127.00478440053861,37.5936357015382],[126.99645000070889,37.5967600006347],[126.9893304995195,37.588648802239504],[126.9667379998243,37.5925653005405],[126.9624077012285,37.58711070171319],[126.9558751033638,37.595897796864804],[126.9631494002715,37.603916499459196],[126.9615588021776,37.6158111969333],[126.9573292038999,37.614250503536496],[126.93980640086039,37.643081799939594],[126.93163390373759,37.6442854023956],[126.934325503046,37.653169900095705],[126.9225070049674,37.6545623003652],[126.92217480347729,37.6641961994417],[126.91795559855859,37.6638442016715],[126.91886879639989,37.659590703142506],[126.91220940061379,37.6601199007663],[126.888318600936,37.6686606011748],[126.885724999614,37.662925102231306],[126.8713067982117,37.6600319029685],[126.85304000157869,37.647980006594594],[126.84776940684931,37.6534912010834],[126.85048380108371,37.6641665988901],[126.8334623989669,37.6624362005193],[126.8274106996362,37.6581649014008],[126.82964229877331,37.6452035995308],[126.8263104987538,37.6411353023284],[126.81321920099681,37.6379029029738],[126.81156270324989,37.6466787010006],[126.8170053978072,37.6506404970388],[126.80837410448619,37.6542842009342],[126.8064581040353,37.6625198984936],[126.8123750000618,37.665771099849],[126.8002439013069,37.670606299984605],[126.799590802329,37.6776556002396],[126.7904526012247,37.6800511017632],[126.79095150104881,37.683462999357204],[126.7837161009495,37.6821900015757],[126.76832430076121,37.699743299882904],[126.7549829999539,37.691952701431],[126.7585248995323,37.692350298742504],[126.7606481003886,37.677480600982406],[126.7503451007926,37.6838918011683],[126.739225600341,37.6811588021458],[126.74362139929539,37.668021300191],[126.7522330985172,37.6682875992673],[126.75381969899779,37.662620999111404],[126.7544386012102,37.6658985987065],[126.76558229671771,37.657212898694596],[126.7648543993167,37.6481950004301],[126.7703950988631,37.6495902986463],[126.77690489738231,37.6320779001368],[126.8036184976571,37.6272504983884],[126.7990479992341,37.621136902095806],[126.804198697551,37.6198503008074],[126.8115995946542,37.6002448977958],[126.8202630005559,37.5967471994903],[126.81863540251601,37.586671909131496],[126.8096464003864,37.5867430026141],[126.7974345021687,37.5973542993358],[126.792482098911,37.591449501264805],[126.7956042986509,37.5886382003528],[126.7898646004592,37.588518900549595],[126.7846020041661,37.596110797788995],[126.7877400005908,37.603410499363804],[126.7845775031717,37.6101980993491],[126.7672508066662,37.6189987126851],[126.765887398632,37.6087440035864],[126.7619701025493,37.6102287021017],[126.7607997034062,37.616657098835695],[126.7641905000154,37.616444299048496],[126.75910019836431,37.613733701363394],[126.7524946008736,37.6177812006603],[126.7510196003288,37.613811902428104],[126.74069260153631,37.6235217991478],[126.737973900129,37.6186507031867],[126.7327409042299,37.6206222023691],[126.7325673020231,37.633328400143704],[126.723673201507,37.6292866036887],[126.7103112005727,37.6443710994485],[126.7019129006566,37.6458570007097],[126.6934768976669,37.6373979028399],[126.68850299899749,37.637992501908805]]]}}]}