{"type":"FeatureCollection","features":[{"type":"Feature","properties":{"interval":15,"stationId":"5919544689","profile":"off-peak"},"geometry":{"type":"Polygon","coordinates":[[[126.9224839995797,37.5550846996464],[126.9315446001682,37.553529799575],[126.9325960995261,37.5454209995634],[126.93772539985251,37.5488874993351],[126.9433170994611,37.535689600051796],[126.9529766991562,37.5366815988951],[126.9650614989815,37.5308914004305],[126.9665314999262,37.525506199919],[126.9706468003954,37.530431399724996],[126.96417130105911,37.5317001000137],[126.965423299693,37.5354100982714],[126.97331849941921,37.5312840998242],[126.97891520048731,37.5340094989128],[126.96109080030779,37.549584000018505],[126.97202900060621,37.5494441996448],[126.9659951002608,37.568850300062],[126.94956959960871,37.550227100481],[126.942831900387,37.549899800313],[126.9273606000355,37.5608596001256],[126.9224839995797,37.5550846996464]]]}},{"type":"Feature","properties":{"interval":30,"stationId":"5919544689","profile":"off-peak"},"geometry":{"type":"Polygon","coordinates":[[[126.8528339996622,37.524517200278595],[126.8749146003269,37.5205312996541],[126.8805540988176,37.5238077982486],[126.8946446986521,37.517273699566694],[126.89287459922299,37.514707700941],[126.9052213990374,37.5153044995726],[126.904104298843,37.510709001711],[126.909980399451,37.507857899035095],[126.9188675986057,37.5104307992789],[126.92079779953801,37.5043066998573],[126.9306174002143,37.5131784981899],[126.9392156991129,37.504401099577805],[126.9585027998647,37.5123742988951],[126.95846739982301,37.506889001663104],[126.964798700701,37.5066408993379],[126.97087809843089,37.516393191213005],[126.97224059759591,37.5067409006587],[126.98789789941739,37.4989806994631],[126.97944060039,37.505994700284106],[126.9794681016923,37.5181341985581],[126.9939389021081,37.5178691974651],[127.0098549001214,37.530081099714494],[127.00590340036189,37.5383319000738],[127.0102138004341,37.547708199078706],[127.0111310996664,37.5411147003973],[127.0201214942982,37.537420798766],[127.0234068006872,37.5439053995368],[127.0176618008774,37.5446678003865],[127.0248586003114,37.5551394987803],[127.0340958002312,37.555591099519],[127.0444230999977,37.5655588985846],[127.0361199000144,37.562908900968296],[127.025180900487,37.567238700168495],[127.0171437005511,37.5764858992291],[127.021934000366,37.5855637997807],[127.0190917004998,37.5875338002514],[127.0131836995271,37.5749682008352],[127.0037763003667,37.5734738005316],[126.99790010110979,37.5775494991029],[126.99462319999691,37.5720246000271],[126.98923290336421,37.5829215004785],[126.971620299998,37.5829941005942],[126.95590389978699,37.5772834004125],[126.947745101497,37.5622374026705],[126.94043410048711,37.56644819954791],[126.9349754005657,37.5641696008492],[126.9338432009037,37.5703097999131],[126.9244870002581,37.576478100467206],[126.910537901413,37.5741618011088],[126.9124547013094,37.5862857999054],[126.8917539021235,37.5857262005332],[126.8859871989747,37.5809598005995],[126.88813999836081,37.573030001123605],[126.8919731000605,37.5752733977203],[126.8968985984102,37.5709917003929],[126.8962297999786,37.5627916015603],[126.9060417983634,37.548690199721406],[126.9048235992562,37.5358988000377],[126.8917918002515,37.5419571003294],[126.8889426998326,37.5402443005609],[126.89701559866711,37.5328970000929],[126.8888925996612,37.527298201118],[126.8789825995745,37.5242115016316],[126.86412150035899,37.529098900637],[126.8528339996622,37.524517200278595]]]}},{"type":"Feature","properties":{"interval":60,"stationId":"5919544689","profile":"off-peak"},"geometry":{"type":"Polygon","coordinates":[[[126.6955143990693,37.4752316996845],[126.6981463987048,37.4655503999821],[126.7105983000307,37.4638565996001],[126.7113172046722,37.478831899691606],[126.7164262017184,37.4844915974454],[126.7415643990449,37.4817653979176],[126.7478633001463,37.484600098806204],[126.74410420205409,37.4907021996406],[126.7753789985168,37.473160799282105],[126.78284549709309,37.474154998364604],[126.7907420975813,37.4644829998141],[126.7967263987688,37.4682696947606],[126.8002740994435,37.457636299691195],[126.8067014002741,37.4626567993906],[126.80088590130279,37.4625360006768],[126.8012095032287,37.4672205984285],[126.8085398015226,37.4747577989572],[126.8207396969096,37.4737448005027],[126.8315562993159,37.4877008972938],[126.8518196987659,37.4705818000278],[126.858074599281,37.4722284999752],[126.8685676989442,37.4651328998907],[126.8754965999406,37.470589599306194],[126.8739925990958,37.461685300910496],[126.8849092989518,37.4505756004485],[126.8820996993874,37.4485968010261],[126.8955684976923,37.4465264969974],[126.9008552975872,37.441009100668104],[126.89758500122811,37.426666301638704],[126.901586998477,37.4267252988328],[126.9023404948741,37.4139843027281],[126.9075791995982,37.4108082991989],[126.91427760021921,37.4146214997303],[126.90298139987681,37.4232893003929],[126.909635902557,37.431275494592],[126.9080972008154,37.4407047983663],[126.9016846000263,37.4401309013019],[126.8966760018333,37.4458453001401],[126.90907970044641,37.4526970985534],[126.9097173000748,37.4674393983105],[126.9042456019488,37.471717400897305],[126.9169034994663,37.4730132969926],[126.93167779628921,37.4633338977733],[126.9333380989607,37.457287700579705],[126.95043319963051,37.4598647994698],[126.9542727003333,37.4646411996704],[126.9584329001006,37.459453599569905],[126.968676296073,37.462033995921004],[126.9660403987089,37.4565765013785],[126.97480109595709,37.4587189957643],[126.9806033997507,37.4710080979516],[126.9884666994664,37.4660825001595],[126.9922611956211,37.4535594021874],[126.97899939520731,37.4471788005145],[126.982394695219,37.4447844982651],[126.9802270961708,37.4350276021915],[126.97240049957121,37.4248179045502],[126.9856117965132,37.4203730998576],[126.978923998902,37.4162845033023],[126.97885399902209,37.4103054032465],[126.96896439923411,37.411977801133105],[126.954562200631,37.3990753027036],[126.9431699010951,37.396456301712796],[126.9371935996878,37.3822735007292],[126.9307533002506,37.3875988001317],[126.9407128987056,37.3779926991297],[126.9379196999566,37.3672597000308],[126.9468408992061,37.364227800208],[126.95195190061949,37.37147379912739],[126.93891880029899,37.377824600690495],[126.9396383000872,37.3835845990177],[126.9583057002485,37.3818667992757],[126.9885420982731,37.3918838981424],[126.9810458027318,37.4020217982927],[126.9839678002205,37.411488198659804],[126.98453209965619,37.408347901800106],[126.9911760003167,37.4151467977589],[127.0213561027579,37.4263952988641],[127.0183982003931,37.4276449011346],[127.0263645005639,37.434356393716996],[127.02598570464421,37.4380427996014],[127.02058260230369,37.435722501836096],[127.01918900369729,37.441673095885506],[127.02334639953989,37.445007392551204],[127.0253716000045,37.4641126980867],[127.0122579062753,37.4621928032869],[127.01045950621409,37.469771899863396],[127.02350519848011,37.4761747969628],[127.0245870022462,37.482275498514],[127.0271905001229,37.4837784995985],[127.03132019904889,37.462620201507505],[127.0482365000566,37.4600570989348],[127.050566101559,37.4621404996674],[127.0456829017922,37.4646264996201],[127.0539288998697,37.4769063992007],[127.0640735998707,37.4769753983638],[127.07018909660309,37.4825540952299],[127.0676148991773,37.4775614002226],[127.07018910077379,37.4825540973749],[127.0856558006175,37.4800323989964],[127.0852001010007,37.4874510004059],[127.0806819021557,37.4873690995773],[127.08716310106709,37.4940655003338],[127.08177480034891,37.5019157977015],[127.1117658992135,37.4998320997856],[127.12035899965939,37.489929599701604],[127.1156287007924,37.495843200781806],[127.1153104007343,37.5095842997316],[127.1235159996719,37.4958097001903],[127.1406690993711,37.4943108984462],[127.14218119514939,37.4884456032979],[127.1547503006842,37.4969208994803],[127.14276390033571,37.4967155007311],[127.1351962004868,37.50304589962769],[127.1409963018761,37.5244418977987],[127.1505144996479,37.526861399631],[127.1457685016847,37.5310384000826],[127.1466983008129,37.5508643995378],[127.141266199121,37.552410700166206],[127.135133200506,37.5462601000229],[127.1296769005027,37.5560973012626],[127.1191641034235,37.5473863052194],[127.1111680027374,37.5510545040866],[127.1128006011048,37.5580703970707],[127.0958701049719,37.5573508014131],[127.0962059041593,37.5686982996006],[127.10491160243289,37.578555794560096],[127.1005887000214,37.5868988985695],[127.1075785006598,37.5971895959408],[127.1106024996064,37.5945008994335],[127.11707889959179,37.600784399394904],[127.10262590039021,37.6162173995912],[127.0966122002434,37.615299201229206],[127.0996603009405,37.6264082994656],[127.0738423008944,37.6318591023439],[127.0766049006737,37.6372630990983],[127.069058101365,37.6506110004362],[127.0817931006267,37.6616603998074],[127.078743502198,37.6658275997548],[127.0843910993304,37.6699246985281],[127.0799764018636,37.6745612995435],[127.0757940014702,37.672894201435],[127.0757040981644,37.6657673026991],[127.0634269007615,37.6615927006663],[127.06190150065021,37.6672347999038],[127.055276600438,37.6686195007279],[127.0507473009534,37.6642580011673],[127.0441852013551,37.6734719000304],[127.0513970988642,37.678551899809605],[127.0566326000885,37.67542209883],[127.0561868019145,37.6794429002611],[127.0495505006227,37.6801854017947],[127.0452801019233,37.6915495998948],[127.0422147999539,37.6909260034476],[127.045661299523,37.687163000127896],[127.0417052995258,37.6796344003893],[127.0440379988362,37.6734918000444],[127.03649469966011,37.6673527004466],[127.0426341987409,37.6591827002785],[127.019302601855,37.6507502012609],[127.0175699015782,37.6614723994428],[127.00598720153461,37.665405805019304],[127.0058637977,37.6295126997025],[126.99101949733789,37.6124990059333],[126.9963571973186,37.6014656017719],[126.9826048994328,37.5963825015508],[126.96322480139561,37.601902700460094],[126.95377409994491,37.5969814039526],[126.9497509019581,37.6043532997529],[126.9430022005684,37.604849903652195],[126.9479025021502,37.6221580984519],[126.9375318065229,37.628642801004],[126.94147420258051,37.632233497413296],[126.93492610023169,37.6311961003862],[126.9225070039402,37.6545622976209],[126.9051507008996,37.653748204348005],[126.9015735002334,37.6612273999225],[126.8939200022077,37.661252000278196],[126.886083801686,37.654164402469696],[126.8765213030343,37.6570035008639],[126.8623142060358,37.653067004603],[126.8650758954374,37.6452961009071],[126.8725564975433,37.6413350997547],[126.8837559004644,37.649852498731704],[126.8959739992995,37.6456959991568],[126.90588200123801,37.6486695977506],[126.9115921956832,37.643608599679],[126.90743889976851,37.6336248070641],[126.9112692980042,37.6296592994554],[126.8974778025058,37.6114787023023],[126.90121089663289,37.611796496682395],[126.9008392970045,37.6059978024811],[126.89349300067181,37.6035960006958],[126.88749540310171,37.6061081008477],[126.8841881011229,37.6168239995532],[126.8887612996598,37.6199847998466],[126.88151160226529,37.6274232992061],[126.86505660041651,37.623938602391405],[126.8580466027924,37.6315472007382],[126.8561111999217,37.621730800404904],[126.8469884027576,37.629713700817504],[126.8478576016089,37.6353756968353],[126.8435478030105,37.6373737005786],[126.84661510139239,37.6462640984126],[126.8547526016731,37.647606600456804],[126.8491910054277,37.649307905266696],[126.8500450009027,37.6607622000626],[126.83252620095891,37.661020800426],[126.82964229877331,37.6452035995308],[126.813543000673,37.63775060312609],[126.81156270324989,37.6466787010006],[126.8170053978072,37.6506404970388],[126.80837410448619,37.6542842009342],[126.8106546001226,37.6684773000818],[126.8018647005553,37.6698167007756],[126.80189230102711,37.6768555980637],[126.7916867005591,37.6845927997518],[126.7820084007596,37.6814707013603],[126.78279840006141,37.687579098438],[126.76748480005631,37.7016329001116],[126.76061390123499,37.6992999011137],[126.7625165002005,37.716214899041795],[126.7592598001101,37.7172140001691],[126.75691829800199,37.711160999223495],[126.7624614975957,37.697616700565696],[126.7534489999161,37.690660300000395],[126.75769699894889,37.683507499980195],[126.74067000126679,37.6825152015012],[126.73995209772549,37.6696655004559],[126.7456375985278,37.6706662971443],[126.7550466989418,37.661628199761104],[126.7572572991022,37.6649705995023],[126.7636090005621,37.6467809018442],[126.7712079980502,37.6470922011444],[126.7751082975853,37.6335036003373],[126.8036184976571,37.6272504983884],[126.7990479992341,37.621136902095806],[126.804198697551,37.6198503008074],[126.8115995946542,37.6002448977958],[126.8274720948983,37.593520291500404],[126.8310088003069,37.594307797744],[126.82833480179109,37.600493699527],[126.83906559968119,37.6048205993203],[126.835974299918,37.5990962003379],[126.8485646001214,37.5959339946225],[126.8608726987922,37.5780007007589],[126.8573032994918,37.577046701615195],[126.8641757976413,37.5739832002595],[126.8558023060148,37.567675706567],[126.8348612077972,37.5787932067942],[126.8168942009732,37.580768501483796],[126.8136434008056,37.586629497532],[126.81806789916341,37.584668898115794],[126.803256800891,37.590758299617896],[126.7898682003568,37.5864119010623],[126.7887793993929,37.579745603523506],[126.78454190103949,37.584805800297296],[126.7835185001106,37.5734904020715],[126.7904878976809,37.5663747016224],[126.7993937003088,37.5758302957253],[126.8043332988424,37.5680287006308],[126.7984198005241,37.563155202025094],[126.8139417975667,37.5471032001008],[126.80718159838241,37.538683202811605],[126.79736170019089,37.5379965026401],[126.7994939974746,37.532399502766694],[126.7905810017418,37.5370751009098],[126.7800281002732,37.5244214014036],[126.7868676986343,37.513677200808196],[126.77886389999661,37.50838760048],[126.758639700233,37.507060500785805],[126.7531324006286,37.5109691001689],[126.7480318006223,37.5073627],[126.75314879978,37.5003800995379],[126.7740544986803,37.5005831973279],[126.7759668997593,37.492847400456306],[126.7565630004991,37.500339800534896],[126.73298340041589,37.491924000378795],[126.7224665004979,37.5024664004368],[126.7258377004449,37.5081054996351],[126.7412053986896,37.5036983993773],[126.7412556003545,37.5100536001047],[126.7355356006812,37.506774200498604],[126.7154922034486,37.509264199952796],[126.7188967972073,37.5033690988705],[126.7163828980727,37.4914214015756],[126.70918070000691,37.4868427001744],[126.70542689954911,37.4758011008663],[126.6955143990693,37.4752316996845]]]}}]}