{"type":"FeatureCollection","features":[{"type":"Feature","properties":{"interval":15,"stationId":"6033314783","profile":"off-peak"},"geometry":{"type":"Polygon","coordinates":[[[126.9847699996778,37.478754800013995],[126.995468798221,37.4793514973263],[127.002366295811,37.471743701215594],[127.0104726000291,37.4830034990757],[127.0211712999104,37.4863366991639],[127.0153564004559,37.488588800137705],[127.02164760098759,37.4957951992411],[127.0275071992215,37.4941515997334],[127.04053550012681,37.5017991997331],[127.0320017000163,37.4992091006927],[127.023808100401,37.506542500511],[127.0233066998483,37.497197200765],[127.00261330011739,37.4963566006648],[127.0014738992614,37.4854974027403],[126.9907845997659,37.49074920073431],[126.9847699996778,37.478754800013995]]]}},{"type":"Feature","properties":{"interval":30,"stationId":"6033314783","profile":"off-peak"},"geometry":{"type":"Polygon","coordinates":[[[126.90367599964121,37.4854090999051],[126.9345892989043,37.4759926988262],[126.93323579937281,37.4701169994006],[126.9511186998564,37.4777814991414],[126.9578834957586,37.4685551986163],[126.95371620421301,37.4703374008129],[126.9562774016518,37.4741764969738],[126.96207339824869,37.472514798523996],[126.96423119820611,37.4659469989328],[126.9716618988846,37.463633599447704],[126.9806033997507,37.4710080979516],[126.9884666994664,37.4660825001595],[126.99016859954041,37.4565612994207],[126.99644120036491,37.466098095940104],[127.0048038951012,37.4634496992881],[127.0271905001229,37.4837784995985],[127.03049929930451,37.4740025996556],[127.05131939963739,37.477699399833796],[127.0539199997642,37.4842859987551],[127.06027250017699,37.482949398282],[127.0729723995567,37.4912609994728],[127.0818427988391,37.4887305986385],[127.0856368001732,37.4939149996399],[127.07062540164189,37.4989341013938],[127.0717563004636,37.505398995189196],[127.1025455994037,37.507826499971],[127.10888510049209,37.521179598997705],[127.0938134000003,37.5369879001126],[127.0917181003919,37.5344847010353],[127.1014410926962,37.52441790795881],[127.09393219851229,37.5129911001938],[127.0849549009058,37.5183538984195],[127.0718884011582,37.51456490315],[127.0717714012752,37.518199499515404],[127.0448748003012,37.520902700348],[127.0416366007112,37.522179600599],[127.0447285015482,37.529582599569295],[127.023166703849,37.5335236004976],[127.0234068006872,37.5439053995368],[127.0176618008774,37.5446678003865],[127.01958230080899,37.5502131005388],[127.0030361997276,37.5604006007066],[127.0067765987013,37.5522420003651],[127.0150523985216,37.549076799622505],[127.0111310996664,37.5411147003973],[127.0228724984799,37.533976696129095],[127.0224706996086,37.5243139013901],[127.0165584011404,37.5245088009917],[127.01265099924551,37.5185799010208],[127.0118892023719,37.52212690057021],[126.9903664000701,37.5032182030007],[126.967023602021,37.504962901660406],[126.97087809843089,37.516393191213005],[126.9830335979017,37.5198066995862],[126.9679798012762,37.5271948998531],[126.9769050991805,37.5332696996319],[126.9724616004714,37.537435702135205],[126.9640430001283,37.5313219003782],[126.96980719919631,37.5168811001913],[126.9651209038826,37.5094379076345],[126.9525474005853,37.5147772998817],[126.9507595981438,37.5092323003503],[126.9427930018113,37.509918900066204],[126.9481783000537,37.5129607988792],[126.9452265995332,37.5142628012673],[126.9359292994227,37.513223000737604],[126.9322656970384,37.503528601036706],[126.9185819999383,37.5016564016323],[126.9178240995585,37.492316299898],[126.9095023003264,37.4925321001046],[126.90367599964121,37.4854090999051]]]}},{"type":"Feature","properties":{"interval":60,"stationId":"6033314783","profile":"off-peak"},"geometry":{"type":"Polygon","coordinates":[[[126.7459200997869,37.4916374000912],[126.7581237986173,37.4887552983582],[126.7628025996588,37.4800226993896],[126.794774699593,37.4733542991655],[126.80250000036449,37.478782499072004],[126.8182888999652,37.476394299104],[126.81777960231439,37.481802598182],[126.8224785991869,37.478938499002396],[126.8332433993655,37.488281896268],[126.84728669714829,37.4663424012257],[126.8841907986653,37.4609881993166],[126.88392779792669,37.451676802042904],[126.8937942979367,37.446299400427904],[126.8966561006637,37.4530147979356],[126.9022960999382,37.4498167995368],[126.90640429962721,37.4550676992869],[126.9039779007522,37.4610493998101],[126.9101325010192,37.4646602989978],[126.93052669817911,37.4519810989556],[126.9383778012526,37.4569597941436],[126.9529372970535,37.446190296682495],[126.96427880094001,37.4525847933202],[126.9652349999838,37.4459100999949],[126.97283439660289,37.4421466010046],[126.9669591991184,37.418126499981],[126.9704540964626,37.4138946034318],[126.9613302025111,37.4151487041359],[126.9621493973218,37.4113427028584],[126.9451822985506,37.4005546030525],[126.94063110310181,37.402175301431804],[126.9286259002576,37.3901586007591],[126.9269869993698,37.382460001406905],[126.9345518979212,37.381376198210695],[126.93586499973071,37.375234901147905],[126.9178706001181,37.3467261015143],[126.9242695954109,37.340288399778196],[126.94680919944281,37.3598799992374],[126.94909469873771,37.3507048012408],[126.9417809998601,37.3450162004543],[126.9475795997591,37.342769999802805],[126.9554066006213,37.3517679989065],[126.94958630192411,37.3594061988142],[126.9577637002677,37.369068999930704],[126.95046430032839,37.378103698819],[126.9598850994304,37.376219799548004],[126.99079949577869,37.3875868973359],[126.9941660002849,37.39612669739591],[126.99059270354819,37.3960169009789],[126.99115610010139,37.4032379008508],[126.9843868031083,37.4040808014809],[126.9863965987482,37.4111849965334],[126.9914481983661,37.4085005992165],[127.0026190988646,37.4154924956406],[127.0133960000839,37.415237099536796],[127.01833470168229,37.4226014972472],[127.02436739780781,37.4197240980967],[127.0165118017939,37.4285273000164],[127.0233913023436,37.4335323937841],[127.0269283988065,37.428073399243104],[127.027788205623,37.4354973991177],[127.0358295967756,37.4391796965403],[127.0449703978874,37.429604098281],[127.0660149005543,37.4347978984222],[127.0699338970519,37.4338431991758],[127.0681133995571,37.4274817997978],[127.07477039734661,37.4260345994324],[127.0723027017981,37.442386196871205],[127.0666571054002,37.4464463004604],[127.0753274998366,37.4544487990236],[127.0724285030203,37.457735400091195],[127.0785054996827,37.459709199369],[127.0706757012502,37.4635264000485],[127.06854149771159,37.4591990058429],[127.06162410364,37.4689519961506],[127.077111598348,37.4750565942953],[127.090420796136,37.4670207992167],[127.1047632989075,37.4682166968012],[127.1173853960301,37.462511298083],[127.11793829528621,37.4561134033359],[127.1241496977556,37.4591378962324],[127.1182706986871,37.4305248016772],[127.1253111994581,37.421661600139004],[127.1132490982865,37.4068956006421],[127.1037247998645,37.405589902712],[127.0994178025707,37.411137400586504],[127.10032819901011,37.397639500960096],[127.0936159003858,37.4017509006265],[127.09816669953629,37.392556201408304],[127.09362349882821,37.3868480004459],[127.10061039926339,37.3853904980859],[127.1048664984794,37.3747625021248],[127.0937328004033,37.3655941047137],[127.0979067945387,37.355956301141404],[127.0869910997129,37.3374064008674],[127.0925954997778,37.3339329989628],[127.0706596000156,37.3161633011709],[127.074001298135,37.303035103793505],[127.0635571047296,37.3040198003441],[127.0624442991894,37.2988016000563],[127.0689727992642,37.2964396994916],[127.0656044996446,37.2914111012662],[127.0687220999307,37.2914670983383],[127.0779277003196,37.295370799082804],[127.0768979003149,37.3061019984289],[127.0864113995333,37.3053365996455],[127.0944797991254,37.3152468997675],[127.10808499818721,37.3157525991339],[127.1101605992655,37.30892090034369],[127.1127647997113,37.3131748996636],[127.1061006025116,37.3157908008827],[127.1236126007063,37.349875898073],[127.1205968000778,37.3625062983839],[127.1279132001677,37.366417299683505],[127.1240962008839,37.375842299503205],[127.1360491993198,37.3794178995268],[127.1337794020494,37.3900222975877],[127.1440773002555,37.3879473989686],[127.143120003409,37.395179998087],[127.1322664026935,37.403553200121095],[127.1393174009894,37.4104216997974],[127.13816320234899,37.4250912936042],[127.143066901024,37.427154999154396],[127.1449874013236,37.4375901998079],[127.1645383003521,37.4390680990466],[127.1717369009641,37.452474098239904],[127.1672229003747,37.4611035002771],[127.1446016012215,37.471468601001604],[127.14279640029119,37.480745299926404],[127.1619950004615,37.493006599364],[127.16111320066601,37.5004379991729],[127.1472342012979,37.5049671019876],[127.1500999003983,37.513962197805704],[127.1542191975385,37.5119476018512],[127.1569168017656,37.5214497970552],[127.1596831994954,37.5201346985783],[127.1510777040553,37.526560100746394],[127.1602526961374,37.529942098948396],[127.1599821995932,37.5412543984112],[127.15327160349,37.5402638058156],[127.1559794007822,37.5462171998622],[127.17443930092631,37.557203198990194],[127.179355798593,37.555120200303996],[127.1814260019855,37.560068901528396],[127.1497605016788,37.5632577018159],[127.1489863003175,37.558843603535905],[127.1448429037372,37.5619093021659],[127.1399924016646,37.5560290052629],[127.1314801006672,37.5634192009921],[127.11916409474131,37.5473863077548],[127.1039889999643,37.5579017996874],[127.0958701049719,37.5573508014131],[127.0962059041593,37.5686982996006],[127.10491160243289,37.578555794560096],[127.1013618012781,37.584978399692794],[127.1044431014216,37.5965903003443],[127.1119337956447,37.598872798316805],[127.1139402016492,37.607053296805894],[127.10166250043271,37.612991201133006],[127.0978075983947,37.607929301976405],[127.0856569012022,37.6062527024871],[127.09011890011249,37.6222632994795],[127.0738941002274,37.6293755001794],[127.0722509018251,37.6386700006951],[127.06270190121809,37.6477955001895],[127.0624930006169,37.6577796003902],[127.0558037011519,37.6545927009317],[127.0623076988182,37.6505551997265],[127.0601778991521,37.6451915031485],[127.052831403138,37.6460163028821],[127.04571280124401,37.6574378010277],[127.0397151003145,37.651445600762806],[127.0439556999818,37.6512371978142],[127.0466148979793,37.6413253999829],[127.0525146986337,37.6419948979323],[127.0511689991423,37.6264981007447],[127.0578475980636,37.6226805020111],[127.05455269988221,37.6201745027115],[127.0376087007415,37.6117032000095],[127.0274810023747,37.630435702861],[127.0302838005996,37.6421324000663],[127.0232567001203,37.642544800890704],[127.01421450003889,37.633876900243095],[127.0227200994258,37.632444700246204],[127.0116549997699,37.625170600663594],[127.012903997733,37.622129801946905],[127.0023356011004,37.6185802009883],[126.9994592995612,37.6119424010326],[127.0055458992494,37.607461299004996],[127.0065626994337,37.5964715018723],[126.9974344006356,37.5989820002502],[126.98665640104821,37.589019803623906],[126.96985740387889,37.5909129021537],[126.9647932979204,37.5838181015647],[126.95787200118599,37.5848118013857],[126.9491947002045,37.5991437005705],[126.9413837020202,37.598611300922805],[126.9376256027803,37.6043698006862],[126.9412633999851,37.610695698431],[126.9207142019502,37.6301845973157],[126.9258818007111,37.6386001977644],[126.9165098005193,37.64338040077],[126.9120500999793,37.6356010005624],[126.9218531984292,37.6272775010376],[126.9129370003495,37.6238580030575],[126.909611099998,37.6150776002102],[126.9154567994714,37.604122500009105],[126.9102787004399,37.6004701007281],[126.90490679929,37.581740700804],[126.888630099844,37.5793721007502],[126.89951949977839,37.5725312996205],[126.8975149015004,37.566813702964694],[126.8925468004778,37.5679579005614],[126.8918947997951,37.5631579004132],[126.8985115985441,37.5580554990047],[126.8916955994208,37.5460439004571],[126.883853906023,37.5532880054524],[126.8870128018739,37.559434099442996],[126.8785532998584,37.5528588007853],[126.8623439059897,37.5637587071776],[126.8595211088125,37.567348303588],[126.8642369026165,37.573749398970094],[126.859521102296,37.5673483068944],[126.8384187063841,37.5774975065542],[126.8335961990398,37.5742725019593],[126.8289614021511,37.5786130983033],[126.81199380039689,37.5795114001084],[126.8087339998803,37.5740780012575],[126.8021358997962,37.574724800561796],[126.8042669989087,37.5688747997847],[126.7970553001239,37.562509900990804],[126.8092432002735,37.5548605996136],[126.81651729981161,37.5606582984304],[126.8317426996993,37.5539733004222],[126.82809159973729,37.548435600434],[126.8324488995628,37.5286160007215],[126.8377049997364,37.5253053995743],[126.8372029994041,37.5157843998046],[126.84618089902989,37.5125385009423],[126.83950059869309,37.499526002564906],[126.8170635025909,37.5057288026912],[126.8155244030164,37.5137781992361],[126.80031620275929,37.512761898697],[126.7941451044306,37.510329003969495],[126.7952264003722,37.505290202081],[126.7854982013749,37.5105324000029],[126.7802799000028,37.505826801526304],[126.7749037007,37.5089052999918],[126.7692203000503,37.5039618007308],[126.76010839998229,37.504312400310404],[126.7764724996471,37.4976825999413],[126.7967727988908,37.497759000209804],[126.8010447990907,37.506187799676],[126.8073142984032,37.5021708960531],[126.80507100064649,37.495595802628195],[126.7841964001105,37.4872939005014],[126.7619995000252,37.4918965006291],[126.75629380071939,37.4980582993369],[126.7459200997869,37.4916374000912]]]}}]}