{"type":"FeatureCollection","features":[{"type":"Feature","properties":{"interval":15,"stationId":"6033315012","profile":"off-peak"},"geometry":{"type":"Polygon","coordinates":[[[127.08447309851519,37.5115306000573],[127.08447310082809,37.5115305999051],[127.0844741000138,37.511581900077104],[127.08447309851519,37.5115306000573]]]}},{"type":"Feature","properties":{"interval":30,"stationId":"6033315012","profile":"off-peak"},"geometry":{"type":"Polygon","coordinates":[[[127.08447309851519,37.5115306000573],[127.08447310082809,37.5115305999051],[127.0844741000138,37.511581900077104],[127.08447309851519,37.5115306000573]]]}},{"type":"Feature","properties":{"interval":60,"stationId":"6033315012","profile":"off-peak"},"geometry":{"type":"Polygon","coordinates":[[[127.08447309851519,37.5115306000573],[127.08447310082809,37.5115305999051],[127.0844741000138,37.511581900077104],[127.08447309851519,37.5115306000573]]]}}]}