{"type":"FeatureCollection","features":[{"type":"Feature","properties":{"interval":15,"stationId":"6033364507","profile":"off-peak"},"geometry":{"type":"Polygon","coordinates":[[[126.8655471997398,37.512227600181404],[126.86590019869627,37.51232114079434],[126.8663497000481,37.5125011999079],[126.86590019917067,37.512321141298344],[126.8655471997398,37.512227600181404]]]}},{"type":"Feature","properties":{"interval":30,"stationId":"6033364507","profile":"off-peak"},"geometry":{"type":"Polygon","coordinates":[[[126.8655471997398,37.512227600181404],[126.86590019869627,37.51232114079434],[126.8663497000481,37.5125011999079],[126.86590019917067,37.512321141298344],[126.8655471997398,37.512227600181404]]]}},{"type":"Feature","properties":{"interval":60,"stationId":"6033364507","profile":"off-peak"},"geometry":{"type":"Polygon","coordinates":[[[126.8655471997398,37.512227600181404],[126.86590019869627,37.51232114079434],[126.8663497000481,37.5125011999079],[126.86590019917067,37.512321141298344],[126.8655471997398,37.512227600181404]]]}}]}