{"type":"FeatureCollection","features":[{"type":"Feature","properties":{"interval":15,"stationId":"6033314702","profile":"off-peak"},"geometry":{"type":"Polygon","coordinates":[[[126.9231696991082,37.4924266007282],[126.9272158986764,37.4877944997485],[126.9246936995122,37.4824680991263],[126.9378103993168,37.4740393995839],[126.9511186998564,37.4777814991414],[126.95287139914261,37.4744912998778],[126.9699614000631,37.4751606997021],[126.9552305006972,37.4870748002566],[126.9406112001502,37.4906878005616],[126.9316879993678,37.4878157004821],[126.9231696991082,37.4924266007282]]]}},{"type":"Feature","properties":{"interval":30,"stationId":"6033314702","profile":"off-peak"},"geometry":{"type":"Polygon","coordinates":[[[126.87558249949389,37.5003084024417],[126.8845289998175,37.505287498888904],[126.8820827998656,37.4878447009504],[126.8861564989655,37.4825096997356],[126.8945781995729,37.4896781976382],[126.9019959990497,37.4788248998158],[126.92438350009931,37.474351499583896],[126.93167779628921,37.4633338977733],[126.94600539996661,37.468423198438096],[126.9512801999349,37.465198199385206],[126.9537161999259,37.4703373968341],[126.9579103988314,37.463722601700695],[126.9772968992246,37.465246799371805],[126.9806033997507,37.4710080979516],[126.98522289564539,37.466822100470104],[126.9964533002208,37.4734590989194],[127.00236629558191,37.471743699492094],[127.0110576004022,37.483182899162706],[127.02037130057079,37.482691997731],[127.0227274003926,37.4944396995432],[127.0283621999436,37.4922058994649],[127.0526344003479,37.5038905993641],[127.0456553007786,37.5078893001131],[127.0419732001838,37.5027145004164],[127.031106100163,37.5018456008843],[127.0180667998747,37.516523800725004],[127.02133549962991,37.4992577003523],[127.01186000078489,37.5016000011448],[127.0059029998159,37.497487000489],[127.0133163990074,37.5080108986104],[127.01070419994191,37.5146254009882],[127.0078685994468,37.507635401120396],[127.0011719004804,37.5066068020725],[127.0036366988617,37.5015266988005],[126.9979152992877,37.492784100908004],[126.9817804005812,37.4976595023669],[126.97157339995209,37.490786300381906],[126.9731123981704,37.4879376002157],[126.9643796019097,37.490861301146296],[126.9645176974973,37.4859579018434],[126.96047130154369,37.487097900703404],[126.9623021005968,37.493693498538896],[126.9536684003442,37.4961380004345],[126.9514481008157,37.505424300076],[126.9379470003279,37.509932000598596],[126.9293041029884,37.50456530252141],[126.9269428001386,37.512049499931],[126.9346440000518,37.5123608988256],[126.9286144008955,37.513977500086206],[126.9310871007621,37.520691200225805],[126.92220930018351,37.5237859001996],[126.9265336979496,37.5148348001982],[126.916079900445,37.5180649003269],[126.9166567985,37.5069580008063],[126.9066554998381,37.502425301912396],[126.8974324008751,37.50800249985561],[126.89996940080421,37.5206140998324],[126.9072227999858,37.5219462996588],[126.8994843020925,37.525929898411604],[126.90490460055089,37.5358248993449],[126.8986590998813,37.5365919005736],[126.8991901992272,37.5310860018689],[126.8917775003575,37.5292034005076],[126.8899193000971,37.5211432004188],[126.8898156988301,37.5131533005194],[126.8956893001628,37.5116564996977],[126.8934365004856,37.508068901864696],[126.8816064010193,37.507235700709906],[126.87558249949389,37.5003084024417]]]}},{"type":"Feature","properties":{"interval":60,"stationId":"6033314702","profile":"off-peak"},"geometry":{"type":"Polygon","coordinates":[[[126.6955143990693,37.4752316996845],[126.6981463987048,37.4655503999821],[126.7105983000307,37.4638565996001],[126.7113172046722,37.478831899691606],[126.7164262017184,37.4844915974454],[126.7415643990449,37.4817653979176],[126.7478633001463,37.484600098806204],[126.74410420205409,37.4907021996406],[126.7753789985168,37.473160799282105],[126.7793121006265,37.475916896602705],[126.7841688993208,37.4706835973194],[126.7892321002155,37.4769135962659],[126.79874359933089,37.465549598368305],[126.8036703998619,37.4750977994551],[126.8207396969096,37.4737448005027],[126.8305117007993,37.4849576949153],[126.83712479462069,37.4805566989843],[126.84071309888961,37.4627551005535],[126.8736577017278,37.4584879945884],[126.8800562973324,37.443940500241595],[126.8917429000163,37.444187497314296],[126.8988990985725,37.4378833006345],[126.89758500122811,37.426666301638704],[126.901586998477,37.4267252988328],[126.8967347030686,37.418915404620606],[126.89202790077721,37.423914699936795],[126.88565130346451,37.422809401843296],[126.8865846029915,37.4319483927865],[126.8707860999517,37.419172402878],[126.886821600145,37.405635099544],[126.888986400894,37.412303598765604],[126.89406659824711,37.408337799038],[126.8937568010343,37.4180385986079],[126.90422689949379,37.411288200680104],[126.91404869996609,37.411370999047],[126.9112523003183,37.420088200190904],[126.90298139987681,37.4232893003929],[126.909635902557,37.431275494592],[126.9044821014592,37.442336500065906],[126.9143770009972,37.4519786990669],[126.9327054974824,37.4448020952445],[126.94205429812939,37.448321294486306],[126.94999079792849,37.4428727981104],[126.958710702277,37.4478786949474],[126.9689264999775,37.4468000967675],[126.9748010994056,37.458718988974304],[126.9824641917425,37.455020592672696],[126.97899939520731,37.4471788005145],[126.982394695219,37.4447844982651],[126.97240049957121,37.4248179045502],[126.9856117965132,37.4203730998576],[126.978923998902,37.4162845033023],[126.97885399902209,37.4103054032465],[126.96896439923411,37.411977801133105],[126.954562200631,37.3990753027036],[126.9431699010951,37.396456301712796],[126.9371935996878,37.3822735007292],[126.9307533002506,37.3875988001317],[126.9407128987056,37.3779926991297],[126.9379196999566,37.3672597000308],[126.9468408992061,37.364227800208],[126.95071820005249,37.3740106990579],[126.937529901858,37.3813242001682],[126.9707253999951,37.38408659994651],[126.9885420982731,37.3918838981424],[126.9810458027318,37.4020217982927],[126.9839678002205,37.411488198659804],[126.98453209965619,37.408347901800106],[126.9911760003167,37.4151467977589],[127.01956159877311,37.4237539988475],[127.0183982003931,37.4276449011346],[127.0263645005639,37.434356393716996],[127.02598570464421,37.4380427996014],[127.02058260230369,37.435722501836096],[127.01918900369729,37.441673095885506],[127.0243540007236,37.4513686991396],[127.0433234949404,37.4508386944969],[127.04457879368509,37.4402141051215],[127.0358295996003,37.439179701931295],[127.04725259771779,37.4322285973755],[127.0699220000119,37.4341684996747],[127.0723027017981,37.442386196871205],[127.0674286024856,37.4511892984112],[127.07529189752789,37.455181099315496],[127.07162230016971,37.4607557998889],[127.065361701748,37.4563163012367],[127.0609518037972,37.472155197183106],[127.08454369452289,37.4727825945993],[127.0921277006373,37.4773468984669],[127.1068384995663,37.4736629996195],[127.1097692016812,37.483148998978194],[127.1166719980354,37.483360899221],[127.117006698788,37.4629665000223],[127.1260508984112,37.4657021986118],[127.1205479003614,37.4490460004505],[127.1239716967933,37.441797402598596],[127.1203112992871,37.4391640988814],[127.1267495994444,37.427439700000704],[127.13539490042119,37.4295414993287],[127.1376394003816,37.4503062997519],[127.126679700664,37.4593549986999],[127.1330217005207,37.467423797941],[127.13861179937601,37.460158300955605],[127.1435428010737,37.4615515979772],[127.12493020018549,37.4701223004118],[127.1256739004506,37.4735260997298],[127.1336907993923,37.4731373994277],[127.1313790007069,37.4827612992905],[127.1378799994281,37.4942599989024],[127.14218119514939,37.4884456032979],[127.1547503006842,37.4969208994803],[127.1402570009044,37.4993694994632],[127.13388980254521,37.510733299018796],[127.1398927005135,37.521420301397406],[127.12490470134681,37.5191926003293],[127.122219801831,37.5227211990471],[127.1392775008659,37.528031696672],[127.1328491002628,37.5304584005554],[127.1366125004128,37.5361097998123],[127.1330364001426,37.5355843019904],[127.1293644001005,37.5443801996063],[127.135580499726,37.5467514996379],[127.13465310072459,37.5528009997544],[127.12322780067359,37.5543190025193],[127.121874699727,37.544218801115704],[127.1117108019526,37.536151001386195],[127.1088705006727,37.5503228996732],[127.09662440064099,37.5502300000447],[127.090777602765,37.5618207011546],[127.0962059004804,37.5686982954582],[127.0927948000756,37.569262801041795],[127.0983820019686,37.579680199957096],[127.0974825003282,37.5891437987272],[127.07529300055191,37.621197200114196],[127.0737949996591,37.601495900128704],[127.0799657997818,37.5910796997552],[127.0773241990277,37.5675628014695],[127.06090640064119,37.566355801262795],[127.05435010020149,37.5729643002487],[127.0450003996696,37.571794500699404],[127.0642586994862,37.5908129997474],[127.0582659003331,37.5931126997438],[127.0403915001839,37.5845561004614],[127.0359752004681,37.5951909001452],[127.0313087000813,37.590547800320806],[127.0221762018532,37.590864399720104],[127.0237584022115,37.5979121988004],[127.0357350998026,37.602354999185906],[127.0370399997596,37.612649999176405],[127.0247156004001,37.6320039001083],[127.0189909998981,37.624873700335804],[127.0272207995583,37.6205238002171],[127.022674999347,37.6114925007739],[127.01227830017321,37.6070059005084],[127.0123954001748,37.611551199543804],[127.0062352015294,37.6139570014494],[127.0105626987576,37.6071024004663],[127.0065626994337,37.5964715018723],[126.9973200011393,37.5983399999732],[126.9903163986222,37.5869105006943],[126.9702059003462,37.5850350000238],[126.9645834996401,37.577333402361],[126.9416284001648,37.59303710020129],[126.9403845995358,37.586907500456306],[126.94940889839249,37.5820240984203],[126.950979299686,37.5709678031325],[126.9357637007203,37.5776290989986],[126.9338788997878,37.5727548008139],[126.9248190003977,37.5769875002275],[126.9256679013262,37.5958293997079],[126.9352856996001,37.6009024989057],[126.936341699619,37.5977217005998],[126.93622960263541,37.621665100129],[126.9178148003292,37.6237419002695],[126.9133738997854,37.609515500144504],[126.8998854960372,37.593601702351],[126.9012210975491,37.586897800947],[126.8858015010147,37.5881798999564],[126.87967879903789,37.5806167008052],[126.8883152988493,37.568696900456],[126.8838538945578,37.553288000356105],[126.8623439059897,37.5637587071776],[126.8595211088125,37.567348303588],[126.8668534014802,37.5727194982168],[126.8611423010146,37.5771011001271],[126.8641757976413,37.5739832002595],[126.8558023060148,37.567675706567],[126.8348612077972,37.5787932067942],[126.8117000023181,37.581630000617295],[126.8074853984572,37.5777139024469],[126.79984250226559,37.5832909990732],[126.7954923997577,37.575665202439204],[126.8043332988424,37.5680287006308],[126.7984198005241,37.563155202025094],[126.80971429714299,37.5539131004016],[126.8228206987983,37.5520596990711],[126.821608799743,37.5456505002038],[126.8274755985343,37.5445907005683],[126.82018639881319,37.5388994012756],[126.8423682997917,37.510698399878805],[126.84198529921011,37.5050650029072],[126.8296670023198,37.5021342003559],[126.830159201587,37.506429400055005],[126.8212983029093,37.5072747009248],[126.8143472017466,37.518272999089504],[126.80727460172069,37.513928301674106],[126.8142185999372,37.523171498945],[126.8039630020497,37.531931200685506],[126.79484370012,37.5232735003296],[126.8019817988393,37.5189564995828],[126.80177250020719,37.5134284014771],[126.7903804999785,37.509662004502],[126.78469600080109,37.5136669000028],[126.769489202028,37.5074746021952],[126.7531324006286,37.5109691001689],[126.7480318006223,37.5073627],[126.75314879978,37.5003800995379],[126.7740544986803,37.5005831973279],[126.7759668997593,37.492847400456306],[126.7565630004991,37.500339800534896],[126.73298340041589,37.491924000378795],[126.7224665004979,37.5024664004368],[126.72364860065011,37.508505399316],[126.7170880984041,37.5077321015321],[126.72097649987701,37.5023691009022],[126.7163828980727,37.4914214015756],[126.70918070000691,37.4868427001744],[126.70542689954911,37.4758011008663],[126.6955143990693,37.4752316996845]]]}}]}