{"type":"FeatureCollection","features":[{"type":"Feature","properties":{"interval":15,"stationId":"6039313082","profile":"off-peak"},"geometry":{"type":"Polygon","coordinates":[[[127.11808929956389,37.540480000899805],[127.132840699379,37.524719200147],[127.1452427004989,37.5350267996556],[127.1395733007121,37.5427676998335],[127.11808929956389,37.540480000899805]]]}},{"type":"Feature","properties":{"interval":30,"stationId":"6039313082","profile":"off-peak"},"geometry":{"type":"Polygon","coordinates":[[[127.024813398996,37.55566550000351],[127.03835429987579,37.557042399857],[127.0496647991755,37.565576998576795],[127.0605710976739,37.5543190009012],[127.069231697704,37.5553424005982],[127.0640448997532,37.5312102008186],[127.0671302995329,37.5302902986914],[127.080076899696,37.54526739886],[127.0943558999366,37.5352415997636],[127.1040691015462,37.5406262918483],[127.1115261994896,37.536292098816496],[127.1111354989214,37.5224366999434],[127.10433230045669,37.522110500957496],[127.0946686992635,37.5124690005221],[127.1005281996004,37.5073769998517],[127.0916062001544,37.504261900350805],[127.0901197998855,37.5133078992833],[127.0846112012688,37.5159868003707],[127.067560200307,37.5101598007169],[127.08345899955961,37.5087163999306],[127.08725819847359,37.506656900425504],[127.0854479994592,37.502161700151305],[127.0947622983926,37.4993914002365],[127.1117658992135,37.4998320997856],[127.10887199925841,37.4897444010845],[127.09881840095,37.491963900846905],[127.0954001974687,37.4847840006196],[127.0989166990449,37.4827609981713],[127.1119469979607,37.489798498638],[127.12307289904919,37.4846053996832],[127.1362808995496,37.490572898908496],[127.1422009996645,37.4843990995309],[127.1583353998907,37.4899237999522],[127.158253100391,37.5000607996807],[127.1451148998938,37.5008943003007],[127.1410112003148,37.5101926995717],[127.1546334000124,37.514969899813494],[127.1510777046666,37.526560098562896],[127.15662199976809,37.5311155977749],[127.1543232005872,37.549153499633306],[127.1775989003499,37.5577712976529],[127.1663322012185,37.5620816002495],[127.1399924016646,37.5560290052629],[127.1329994006676,37.5637336000105],[127.11916409474131,37.5473863077548],[127.1107829031225,37.5545735005676],[127.09739879971019,37.5535221008995],[127.0960477047943,37.560141898622],[127.0879059007477,37.5652805988248],[127.09188710008159,37.5794118999209],[127.0873737995958,37.583598000666704],[127.082547099697,37.5699727005455],[127.07285059921199,37.5600953021058],[127.0695248006774,37.568585899832804],[127.0603192012284,37.567044700573895],[127.04914650069121,37.5725512007965],[127.0351164994929,37.5640198004509],[127.02677120036469,37.5651448003079],[127.03323449894951,37.561462300142004],[127.024813398996,37.55566550000351]]]}},{"type":"Feature","properties":{"interval":60,"stationId":"6039313082","profile":"off-peak"},"geometry":{"type":"Polygon","coordinates":[[[126.883310899911,37.5260622999826],[126.9067270999296,37.518452699589794],[126.9099578988477,37.5156969004214],[126.9064491994003,37.511428099983],[126.9152626996543,37.517784599086],[126.9154332991572,37.514411800575594],[126.9222957990859,37.5147349998933],[126.9221157999823,37.5088597009724],[126.9306174002143,37.5131784981899],[126.9303426989614,37.5028825016828],[126.9077016988216,37.500157701934405],[126.9256831994403,37.4967306996478],[126.9265637997477,37.493793400746604],[126.92020620026689,37.4940315001001],[126.9253683987337,37.4893557992754],[126.9228008987599,37.4840321002453],[126.93372979951249,37.4699446990795],[126.9368498004714,37.4707572994676],[126.9325064009872,37.474049200769706],[126.9455043999238,37.477206499531604],[126.9789128990182,37.4669156991565],[126.9895242987826,37.474894396166796],[127.0052131992478,37.4696947995817],[127.00637860262,37.4759685972568],[127.0172239994496,37.471869297766],[127.0271905001229,37.4837784995985],[127.025385799619,37.4735162009135],[127.0369325993448,37.461747100743096],[127.0434919005153,37.4650151977059],[127.0483620989911,37.4621339986416],[127.0465971023156,37.4681599978035],[127.06394429700751,37.475339196816],[127.06474899620281,37.469338302816894],[127.077111598348,37.4750565942953],[127.08454369452289,37.4727825945993],[127.1054156988334,37.4577383003673],[127.11579469763069,37.462988797790196],[127.11975629818231,37.4362048013147],[127.11232149925479,37.4276913020086],[127.1165463968924,37.4274120949769],[127.1193261984183,37.4118205011059],[127.1063879998585,37.3949628003824],[127.1118605990532,37.3890291001191],[127.107599200008,37.3846414005904],[127.1110010970729,37.3812129020113],[127.1034045029662,37.3813435020916],[127.1049339989307,37.3655994997395],[127.0986095999512,37.363200900736004],[127.1042371989991,37.3637168980553],[127.1059862983811,37.354204101852496],[127.1019666998276,37.347469000221594],[127.1038060003605,37.3501027985443],[127.10544029863439,37.3439627010791],[127.100272299646,37.3405523007606],[127.10779219828501,37.3334850001479],[127.11365290080471,37.3363669986826],[127.1098019012494,37.342512400591694],[127.11649680026399,37.3488974994248],[127.1100319009864,37.356820999708496],[127.1236861998936,37.3703105989456],[127.1241150008682,37.3762561992445],[127.1367280006292,37.379880798931005],[127.1414187017013,37.3953132998667],[127.13570610179539,37.4010904984761],[127.1465680998852,37.406660999806],[127.147018900003,37.414986698526],[127.1381632023943,37.4250912998737],[127.16879539877459,37.4344987977212],[127.1729228021384,37.4473401984036],[127.1765807999922,37.4473547998768],[127.1733926025742,37.4645855989365],[127.1589492030751,37.4689371021637],[127.1495365017413,37.483066698738604],[127.17521720085871,37.4778199957289],[127.17627530117,37.4845364995329],[127.1831008977507,37.483575998961996],[127.1662101005255,37.5074865010683],[127.1593668017382,37.5328886983121],[127.16555289800999,37.5367605982574],[127.1681627988804,37.534064398869496],[127.1643864990763,37.5288162013329],[127.1678863983577,37.5230964993043],[127.17608350085601,37.5292089991925],[127.1740009022822,37.533502998692],[127.1800954988149,37.5402158980335],[127.1810903987439,37.5369396004281],[127.18748410063601,37.541018994073596],[127.1977576961403,37.5224308001694],[127.2118209966394,37.5261193967542],[127.2162344000214,37.5329634985082],[127.2274334994688,37.5247816989541],[127.2291605015598,37.531912497635396],[127.23586319530119,37.5302580986652],[127.2412227031242,37.5414166987175],[127.2108015018769,37.5584606002436],[127.20786860634949,37.573429005407796],[127.1924012003808,37.5821966004424],[127.1670649992153,37.5763353003973],[127.171555999828,37.564815500179805],[127.1610240013075,37.5711337967362],[127.1511847002546,37.5621201029535],[127.13305430176389,37.5679201058674],[127.1251650011569,37.5769448007065],[127.1183267029344,37.5750162018131],[127.1108507029626,37.5951664981541],[127.1139402008782,37.607053300666195],[127.0959453009103,37.6156769008515],[127.0969165001907,37.6251872973374],[127.0866586034292,37.6269147019076],[127.0805779026134,37.636308600319296],[127.0828841003072,37.639644896983],[127.07645000561959,37.6444480010963],[127.0797500009612,37.650599997647895],[127.07589630227369,37.6537186997951],[127.0854270015908,37.6741472981547],[127.0671621006533,37.669040202258195],[127.0632104029615,37.6731875993105],[127.0659758013635,37.680621796145594],[127.045179900959,37.6922352009379],[127.045744600098,37.695789898628504],[127.0380253976654,37.686646500377],[127.0500053986333,37.6714864009353],[127.0385146001675,37.6680822011883],[127.0505387995965,37.6597423999201],[127.0286608996323,37.651057001050205],[127.0302075996056,37.643757800036305],[127.0178542008141,37.6400556000593],[127.01623020059439,37.64331400006839],[127.0188531994902,37.638752700228196],[127.01052109989841,37.6247665006972],[127.012903997733,37.622129801946905],[127.0010894998975,37.6183559005355],[126.9990205003016,37.6129750008923],[127.0056704989465,37.5981079003708],[126.9961809005812,37.599567400824895],[126.9893304995195,37.588648802239504],[126.9749579990518,37.5830084008759],[126.96935049952751,37.5878905018643],[126.9595816003259,37.5803758015988],[126.9411053014022,37.5958796004493],[126.9346507009828,37.6128834001203],[126.9262113999936,37.6148801006912],[126.9250130985645,37.609688999886906],[126.9329368991956,37.604340300278594],[126.92785189942359,37.599698799767395],[126.93580179951279,37.5949697999352],[126.9386883998359,37.5843509003032],[126.9492116985897,37.5822828981615],[126.9531328970453,37.5684282998649],[126.9395112000614,37.5629901001836],[126.9182475000718,37.5640032001701],[126.9140112998362,37.5553257006085],[126.9061778000586,37.551729800417],[126.910483899503,37.5444418006076],[126.9251962006242,37.5477128987932],[126.9380085962518,37.5404393017248],[126.9319007011547,37.5303241114216],[126.9144592998814,37.529996200672],[126.9172840994437,37.5181309025043],[126.9056868007708,37.5279368996767],[126.9030677998412,37.5386311036075],[126.9048235992562,37.5358988000377],[126.8976836999559,37.5370871009976],[126.8921437990171,37.525692400728595],[126.883310899911,37.5260622999826]]]}}]}