{"type":"FeatureCollection","features":[{"type":"Feature","properties":{"interval":15,"stationId":"6039314031","profile":"off-peak"},"geometry":{"type":"Polygon","coordinates":[[[126.79658169934801,37.561461700198905],[126.8148235996119,37.557912999672],[126.80664540064649,37.5636680003339],[126.81943439932,37.572214599198304],[126.8166285001407,37.5787708996598],[126.7987832004932,37.580562600463104],[126.8043332988424,37.5680287006308],[126.79658169934801,37.561461700198905]]]}},{"type":"Feature","properties":{"interval":30,"stationId":"6039314031","profile":"off-peak"},"geometry":{"type":"Polygon","coordinates":[[[126.78730799317759,37.5671271998009],[126.7936973998185,37.5670303991262],[126.7993937003088,37.5758302957253],[126.8043332988424,37.5680287006308],[126.7984198005241,37.563155202025094],[126.8178335997527,37.547374299671],[126.8274317997253,37.547831898046695],[126.83093869953281,37.5372542003421],[126.853042299647,37.517992999341196],[126.8676185995804,37.524442798143504],[126.877111099615,37.521867799850604],[126.8764237013856,37.5285408002343],[126.8546456009561,37.5280810008322],[126.85517200089609,37.5344141991151],[126.84884680030531,37.5373868004268],[126.8476726997328,37.5552512993383],[126.8647064005301,37.5557531985952],[126.8560901014421,37.5670459994818],[126.8374991999191,37.5674718001754],[126.8293821014729,37.5730915012022],[126.8289614021511,37.5786130983033],[126.82314200079671,37.574437502696405],[126.8144506027807,37.583393799390905],[126.81806789916341,37.584668898115794],[126.8028278012103,37.590475599698195],[126.7898682003568,37.5864119010623],[126.7887793993929,37.579745603523506],[126.7874786006937,37.5828608004083],[126.78661289800979,37.5787482034993],[126.79347060266211,37.583896698085496],[126.7984296986404,37.581064900109304],[126.7954923997577,37.575665202439204],[126.7868125023315,37.5761432007323],[126.78730799317759,37.5671271998009]]]}},{"type":"Feature","properties":{"interval":60,"stationId":"6039314031","profile":"off-peak"},"geometry":{"type":"Polygon","coordinates":[[[126.60232088939689,37.5583256055639],[126.6059607933615,37.5476175902007],[126.6116552976719,37.5431288954209],[126.61755549993849,37.547704796583],[126.61816299933099,37.540975903311896],[126.6502296992595,37.5527595994036],[126.6566579997744,37.537686399824196],[126.66755309979291,37.5398696963548],[126.66958719819469,37.5362149000156],[126.6567108001634,37.525927001571404],[126.66255649765189,37.5229412997071],[126.6568256002331,37.518109800907595],[126.66185469961701,37.5179467983322],[126.661525896957,37.500459999828095],[126.66749459787479,37.497226598200996],[126.6644266009068,37.489953002263],[126.6769256976876,37.481677999042404],[126.67576049893009,37.4701899001951],[126.6687744990178,37.4629536997643],[126.685485398941,37.4646922991865],[126.69807039862411,37.4542564994815],[126.69525729976479,37.4341269009346],[126.6985771987413,37.4321346006898],[126.7001839019427,37.4430524990587],[126.7171096001164,37.4625818983961],[126.71504990117519,37.4670578002217],[126.72292290170991,37.4806839974819],[126.73588219826651,37.483458199665],[126.7448403978709,37.481684298074796],[126.74572520111319,37.477233695829696],[126.7785005954918,37.4717542971964],[126.78418719878691,37.463971200734505],[126.7804161987659,37.4509789024338],[126.7680768973872,37.4433312037836],[126.7723789985314,37.4408856989183],[126.7711047006744,37.4289669029002],[126.78386589737339,37.4289686979265],[126.79287909645129,37.4234456993944],[126.7803328997109,37.415229801977496],[126.7752946002112,37.403307402184204],[126.7808939990912,37.4051190889554],[126.790256300049,37.398373198686],[126.7985938995955,37.3989729991443],[126.7998391011545,37.4045051961632],[126.7959946045876,37.4133770965804],[126.7906438029042,37.4105500033812],[126.7884009051471,37.4148583990728],[126.8011933000756,37.4338360992655],[126.8075289996362,37.4351862995185],[126.81428820298979,37.4527789996153],[126.8065729061458,37.453327201905694],[126.80880120391751,37.4584609967719],[126.8147050980136,37.457205898027],[126.81757119922061,37.4619812994373],[126.8131570007849,37.4648344998765],[126.8176493020485,37.4742474969587],[126.82490059957411,37.4688671985242],[126.8305117007993,37.4849576949153],[126.8398614985115,37.473665199191],[126.84820279813769,37.4732007997421],[126.8508625989354,37.4682087996863],[126.86717609946159,37.469630799532496],[126.8693512992164,37.465404699728204],[126.89701739941789,37.483838798013004],[126.91575249949149,37.476475099444905],[126.922967697886,37.480083198233906],[126.9332422993663,37.4690242004934],[126.93865300019141,37.4752880997988],[126.9511186998564,37.4777814991414],[126.9658607992344,37.4718172988103],[126.969642799995,37.4830651990407],[126.97949189859919,37.4812572000337],[126.9726563998299,37.4759226004746],[126.981166098643,37.4729792994822],[126.9872567994412,37.4754984977098],[126.9839863005621,37.4804910999962],[126.9872836995149,37.485969897581],[126.99881700008041,37.479693598652396],[126.99799500075551,37.4922459984557],[126.99236190045,37.493539100386],[127.00480879937071,37.4962596998294],[127.0037724998036,37.4917831011399],[127.0168037996051,37.4811807995383],[127.0223600997663,37.485466398963],[127.017337100478,37.4893991999321],[127.02099850015921,37.4942878995517],[127.0135770005603,37.4995783993761],[127.02847920064431,37.4944510984897],[127.0363406007715,37.5051030988214],[127.04885559838219,37.5026937983016],[127.0515882004825,37.506774200095],[127.0460307007112,37.5099893993956],[127.0599956986873,37.5123402980903],[127.06376209893861,37.507542899647],[127.0650488006127,37.513823899235895],[127.0648841001911,37.5171041000799],[127.05010570011011,37.5143841005918],[127.0403194003816,37.5198446006697],[127.0343457002894,37.5101623007038],[127.0332574004951,37.516769600116305],[127.02511250046591,37.51431380051049],[127.020155300322,37.5200779001678],[127.0156671000617,37.5149143007101],[127.0055255006274,37.5155617007386],[126.98225230228459,37.5043262024756],[126.9621734067801,37.5108909062009],[126.9560014012205,37.5190756025993],[126.95360099966611,37.5150279003523],[126.9439275094567,37.520071704963506],[126.95794269860271,37.5318428939515],[126.9601139964314,37.5253845004099],[126.9570789995008,37.5253309004336],[126.9708582998509,37.5173805003677],[126.9809571001933,37.5214587993638],[126.97707610144491,37.5312093003956],[126.97891520048731,37.5340094989128],[126.9806629997055,37.5277932000065],[126.9852200004632,37.5323165999563],[126.9729330012391,37.539570898540504],[126.9738175002496,37.5457287994564],[126.9838665997215,37.5481778990354],[126.9816216007838,37.5542403993638],[126.99084819865371,37.5589723995783],[127.0015017991933,37.5586116998077],[127.0063761989192,37.5536416993091],[126.997064299621,37.5421066022992],[126.9851516004557,37.5446987005126],[126.98713309933589,37.5357269998214],[126.9964206988478,37.526479999878596],[127.0055138001852,37.5322188994761],[127.0087072008465,37.5483392993506],[127.0193531995068,37.5602331989068],[127.0284921994542,37.5619607992367],[127.0291565991049,37.5554226998075],[127.0412291003664,37.5575731994221],[127.0410256998456,37.5618149994569],[127.0180907001712,37.5751529005614],[127.00219440104979,37.577511100922],[127.0026141004862,37.5850546008784],[126.99947590005489,37.5837254010955],[127.0021924983979,37.5767555007689],[126.9940670005531,37.572039100012596],[126.991999601233,37.578860699596],[126.9850565004849,37.5806070003877],[126.9559746003204,37.5763233003589],[126.95969039986839,37.5717443003403],[126.9533800015097,37.569510200867505],[126.9303314010952,37.5791057007111],[126.92445720128471,37.5908838996222],[126.9345755992717,37.5961207995536],[126.94069589776129,37.592694100171805],[126.9402834993356,37.5859360990549],[126.9525010009832,37.5823182992854],[126.93859140041181,37.5967009001914],[126.94126340172309,37.6106956993696],[126.9353337007908,37.6172728006569],[126.94023420131131,37.6225703961278],[126.9260330000442,37.627606803880404],[126.9237357000163,37.64287039814],[126.9132450006569,37.65294630017571],[126.9149082957584,37.6391517017291],[126.91135409686899,37.6341704997805],[126.9192716983476,37.628696599989595],[126.91017289964101,37.6219491997603],[126.90916749966169,37.6100924010368],[126.9017051034411,37.6059713011812],[126.8998854960372,37.593601702351],[126.8934395014202,37.5891805021057],[126.8794624017891,37.607446201421],[126.877131301404,37.6199511012121],[126.86612310346139,37.6152553036742],[126.8607743020957,37.6215755016551],[126.8622934961774,37.6128716037522],[126.8486847010613,37.632298698232496],[126.8443336001,37.6272952034382],[126.8383783033406,37.631684400854596],[126.8491910011532,37.64930789590429],[126.8544300000837,37.6479499997097],[126.8491910054277,37.649307905266696],[126.8458898046778,37.6582751997724],[126.8500450005226,37.6607621972854],[126.8306541997458,37.658414100840304],[126.8321022991776,37.6479956005423],[126.8263104987538,37.6411353023284],[126.8142160029911,37.6408767028341],[126.81287230194029,37.6491003985789],[126.820226202207,37.6509883985319],[126.8128603016657,37.6552184023109],[126.8167091010717,37.667237397955],[126.803633804458,37.6815798974782],[126.7946421999789,37.6822743013832],[126.7788647002982,37.696731200029305],[126.7725334023139,37.694519902255],[126.76834370074181,37.6996939999322],[126.7507689003688,37.6836987013614],[126.737893498059,37.6784564022077],[126.7406819989318,37.6707099004309],[126.7507313993964,37.6688371992559],[126.76558229671771,37.657212898694596],[126.7637437998652,37.6467008000801],[126.7712142999937,37.6471014999907],[126.77690489738231,37.6320779001368],[126.7879529982439,37.630382598674295],[126.7785912045639,37.6124295134087],[126.7528113079211,37.6234502976531],[126.7528602985623,37.6193053011901],[126.745057399763,37.6187912039185],[126.74312410169631,37.6226603000494],[126.7486654992301,37.6246742976839],[126.73458530363041,37.6259087997377],[126.7317838004739,37.635786200243096],[126.7104103006216,37.641336901388996],[126.7005682010017,37.653074201761],[126.6712390116751,37.6693208090092],[126.6747055968349,37.6659901021498],[126.6641482024838,37.6644933001719],[126.66414779996039,37.658048300866895],[126.6469386993042,37.6520876016082],[126.6238146000021,37.657400500669304],[126.6154108009845,37.648432900677],[126.62351799692381,37.634457601585495],[126.64199069546619,37.6278563983413],[126.6502816997549,37.632271294133],[126.6590025988466,37.629314798322106],[126.6616683002499,37.6382526975041],[126.6672518982513,37.6365050977576],[126.6693168990441,37.6281179005719],[126.6748838001356,37.6362482991955],[126.6781815985754,37.6307721973561],[126.68277709793149,37.6316162978869],[126.6827140990749,37.6246268002549],[126.6860051980902,37.62679520056059],[126.68956819714009,37.6183732968059],[126.7018491963317,37.6167726967756],[126.7063034964129,37.6016681007059],[126.7217156968849,37.5920376993084],[126.7194680964586,37.5780590029024],[126.7127986026407,37.5779765029222],[126.6967310004918,37.5645394062125],[126.6899443072785,37.5660625046894],[126.6957173015055,37.578864191887696],[126.7013783999532,37.5794664968101],[126.6922286040364,37.580417103795895],[126.69898070044351,37.5961764002842],[126.6911552018123,37.595310503756096],[126.6864987016261,37.588339606392495],[126.6658365048674,37.6021164019243],[126.6668668038371,37.6064661975745],[126.67907659590381,37.6107293976595],[126.6735332016081,37.6146245005669],[126.6714782001866,37.6111883037864],[126.6449400007678,37.6141832033943],[126.6346568006587,37.6063973021234],[126.62376230126219,37.6070955993582],[126.62541199727299,37.6003737029382],[126.6194997006074,37.596543002036796],[126.6139390030613,37.601492600652],[126.6099144999808,37.5925023026728],[126.6234301949156,37.5840576984762],[126.6386789943236,37.585459795275],[126.64080990131039,37.589385298634],[126.65536419796999,37.584887696858004],[126.658436194898,37.5829323988133],[126.6555248978093,37.5795232022225],[126.6584362003054,37.582932396039496],[126.6628596987343,37.5789201994299],[126.663982599179,37.5685656002312],[126.6696335985972,37.568390900900795],[126.6609443022643,37.5675524999602],[126.6518444007774,37.5545430009413],[126.641967108565,37.5603639987715],[126.6427233005581,37.5690647000925],[126.6332100996013,37.5683895014256],[126.6269349005154,37.5551878040433],[126.61334310079519,37.5476997025986],[126.613102200468,37.5527858990689],[126.60811990000991,37.546798605675],[126.60232090362419,37.558325593629206],[126.6097137004247,37.5558361986135],[126.60232088939689,37.5583256055639]]]}}]}