{"type":"FeatureCollection","features":[{"type":"Feature","properties":{"interval":15,"stationId":"6039313985","profile":"off-peak"},"geometry":{"type":"Polygon","coordinates":[[[126.8504666996755,37.5239561999324],[126.8676185995804,37.524442798143504],[126.8716775994124,37.5191645997454],[126.88135539795401,37.5202794000238],[126.88616599994721,37.5158989998977],[126.90962100032141,37.5218732995965],[126.8995637999205,37.523663902266],[126.8944537006502,37.531813999109595],[126.8808288993017,37.5239219032309],[126.8767716018681,37.5300653999674],[126.86458050063341,37.5307306004063],[126.8504666996755,37.5239561999324]]]}},{"type":"Feature","properties":{"interval":30,"stationId":"6039313985","profile":"off-peak"},"geometry":{"type":"Polygon","coordinates":[[[126.806484899493,37.564157700941905],[126.81152759965441,37.5562810988958],[126.8152090011199,37.560931098157596],[126.82631089840919,37.555036799507],[126.8245029991975,37.549165200604996],[126.82896959974889,37.5449894002768],[126.82548489866181,37.5399312993412],[126.8415551989436,37.5170457996531],[126.8574199994659,37.5135087993756],[126.8609768982051,37.5084648997021],[126.87080109889389,37.5128785006824],[126.8699760999005,37.5099150996815],[126.88267259932941,37.5070921995979],[126.8778334989232,37.501486500423],[126.8901549996604,37.509571598867],[126.8869950993951,37.5039557009446],[126.89362799933221,37.4933204999853],[126.8988811003541,37.5000274992702],[126.8923499005204,37.5027128001137],[126.8958485000267,37.5076559994667],[126.8929588009633,37.50994509998851],[126.90297679963801,37.5141768987348],[126.9223462993308,37.5052837998468],[126.9325441987189,37.517945597055],[126.9388643995526,37.5081660008725],[126.94777570045629,37.5130598987801],[126.9566939992512,37.510508399669796],[126.95310400049699,37.5146103004176],[126.93352780090349,37.514892800003],[126.9408573992163,37.5194792983639],[126.9448079039357,37.5337597983793],[126.95123170063519,37.534476799381],[126.9526847004962,37.540451699723],[126.9646299995637,37.5377254991558],[126.95663650030521,37.5451018996177],[126.96988680108599,37.5673793991869],[126.9630415002874,37.567884401325195],[126.9498337999667,37.5505115005025],[126.9410715005137,37.548931200121096],[126.9319007061079,37.5303241101152],[126.9084656010311,37.532284600235194],[126.8952210999389,37.5410137003468],[126.8887421992074,37.5380024018862],[126.8509079003332,37.54094710086979],[126.8501003016675,37.5504743006494],[126.8442193014166,37.5531075013805],[126.8480378002283,37.5604426001248],[126.8400132011896,37.566624101410596],[126.8295128005473,37.566718000349404],[126.819841398607,37.5604431019513],[126.806484899493,37.564157700941905]]]}},{"type":"Feature","properties":{"interval":60,"stationId":"6039313985","profile":"off-peak"},"geometry":{"type":"Polygon","coordinates":[[[126.692658598767,37.6348508009424],[126.6963707989601,37.6256138988117],[126.70611889886851,37.62481699838],[126.715076396521,37.6091163983145],[126.7281284981415,37.6044402976195],[126.73002789989509,37.5979424012012],[126.7374454047259,37.604485696709695],[126.7524869973463,37.6013690994954],[126.7539903991651,37.6048962967338],[126.758667596026,37.6006928997588],[126.757077698836,37.592046703284595],[126.7632200985256,37.5886451990552],[126.7651357000271,37.5921290986904],[126.78686339611251,37.5902688977439],[126.7887793993929,37.579745603523506],[126.78454190103949,37.584805800297296],[126.7762201995694,37.5758302008978],[126.7904878988427,37.566374692500794],[126.7993937003088,37.5758302957253],[126.8043332988424,37.5680287006308],[126.7984198005241,37.563155202025094],[126.8139417975667,37.5471032001008],[126.80718159838241,37.538683202811605],[126.80312890001551,37.5376786020303],[126.80024320125689,37.5436315996429],[126.7994939974746,37.532399502766694],[126.794963602005,37.5361854989807],[126.7924971000356,37.5294755028578],[126.7876692999334,37.5305440003242],[126.7835008998348,37.5251902010709],[126.787131000169,37.5136910019083],[126.7793750001475,37.506288701071796],[126.76067639978349,37.5060981004655],[126.7618696995997,37.499414399817596],[126.7673044003607,37.5036188985262],[126.7756063971284,37.497538400372704],[126.7834099981725,37.498309999475],[126.7814487000497,37.4903660002018],[126.75710080013701,37.494448400972104],[126.758050000718,37.4978171001359],[126.737873100401,37.4884632015455],[126.7236400011031,37.5010512999308],[126.7073043994721,37.4769527014221],[126.6964035998093,37.4720260006003],[126.6997634997969,37.4662908993519],[126.71118400019691,37.4662658996409],[126.7087190006664,37.4722325985949],[126.71510090209999,37.4755600970645],[126.7119019040875,37.4773949011286],[126.7164262017184,37.4844915974454],[126.7320564999176,37.486511699206204],[126.7378917990259,37.482196700234105],[126.7449683999844,37.4838987987798],[126.7449437012146,37.4896429006999],[126.7581237986173,37.4887552983582],[126.7638338986606,37.4785667971734],[126.78284549709309,37.474154998364604],[126.78923209890381,37.4769135961806],[126.7877358983507,37.4693591019632],[126.7917912989508,37.465797898685096],[126.7967263987688,37.4682696947606],[126.8012774989966,37.4607740968622],[126.80821870032109,37.475740199017594],[126.8182888999652,37.476394299104],[126.8305117007993,37.4849576949153],[126.8398614985115,37.473665199191],[126.8449051970217,37.474417798859996],[126.8442294994626,37.468102600524105],[126.8705347965238,37.4619579974243],[126.8712944000405,37.455585998839496],[126.8736577017278,37.4584879945884],[126.88143559536441,37.4537959986657],[126.8785526982473,37.450087102374596],[126.8861049988788,37.4422625997919],[126.8966341003654,37.4458347975751],[126.9010072989706,37.4370443003986],[126.8982269995473,37.4315326010193],[126.9048664992654,37.4246509999603],[126.90983800136259,37.4357997989777],[126.9044177015405,37.4417914000313],[126.9143770009972,37.4519786990669],[126.91227510078811,37.4586071005441],[126.91732810005111,37.4697345976504],[126.93347799882079,37.4603340975333],[126.9416955990816,37.4604852991676],[126.94600539996661,37.468423198438096],[126.9490608996808,37.460608399544995],[126.9567417979612,37.4654232990383],[126.9571948975081,37.4622927021689],[126.9760630982995,37.4642565979892],[126.9806033997507,37.4710080979516],[126.99570889725949,37.4546053986619],[126.9961793990894,37.445750399063805],[127.00258999777479,37.445920000296],[127.00218269753981,37.4411265035531],[127.00816499945901,37.438201001119296],[127.00026420109981,37.4387228003339],[127.00228639863,37.435085400618796],[126.9927916992101,37.430865400380604],[126.9995311998818,37.4303238998788],[127.010064499341,37.434249799472006],[127.012509902983,37.4436008963774],[127.0036067002151,37.449896600536],[127.0043290034947,37.4585220985696],[126.9957088994094,37.454605403112495],[126.9885779016484,37.457269300819],[126.9970105011338,37.471482498918704],[127.00482309933099,37.4714052981162],[127.00637860262,37.4759685972568],[127.0143377979471,37.4729863001096],[127.0271905001229,37.4837784995985],[127.0300374983704,37.4661511992974],[127.0473531993948,37.4607755989447],[127.0528852004133,37.4833182995152],[127.0841073000852,37.4909744998211],[127.082395102665,37.496759000632196],[127.0745987006097,37.4977076010834],[127.0745258004104,37.5032230969929],[127.1151095005344,37.498257199623595],[127.11350080040759,37.5102919998406],[127.10790440124589,37.5125186996037],[127.11704280051269,37.5193188988399],[127.1103604997718,37.5167280028207],[127.0959047069892,37.5334047919073],[127.1092443010177,37.5472335990751],[127.09592410134131,37.5481995020752],[127.0962523005288,37.5542569001872],[127.085618401117,37.560505899900605],[127.085246300984,37.5676368994638],[127.0710442001666,37.5607266001113],[127.0699964009269,37.569326000203496],[127.0634941007521,37.5679765003915],[127.05329930026221,37.576183000321],[127.05418980015641,37.582436100013005],[127.0681205002994,37.59382479929],[127.0665761007214,37.6059673995669],[127.06203579889821,37.6008558991511],[127.0644658995911,37.5964673006387],[127.04448380083049,37.588052800599996],[127.043330400195,37.6016654997279],[127.0615232005582,37.6119997994455],[127.0528786003139,37.6145770003065],[127.0393951995789,37.6058234000744],[127.03338290038441,37.6069267008737],[127.0353728015813,37.613731000216305],[127.0280619998153,37.6191050004473],[127.01946079925561,37.606038402542005],[127.0087395016918,37.6177343004029],[127.00178379930689,37.6114526999313],[127.00804529808761,37.5937792016454],[126.99645000070889,37.5967600006347],[126.989944200067,37.5892439009066],[126.9665688995716,37.5909857013764],[126.9647932979204,37.5838181015647],[126.9579265019656,37.5844816004213],[126.93874200216841,37.5989808984526],[126.94207590091061,37.611485898579396],[126.9353337007908,37.6172728006569],[126.94023420131131,37.6225703961278],[126.9260330000442,37.627606803880404],[126.9237357000163,37.64287039814],[126.9132450006569,37.65294630017571],[126.9149082957584,37.6391517017291],[126.91135409686899,37.6341704997805],[126.9192716983476,37.628696599989595],[126.91003689724229,37.6225357993818],[126.8998854960372,37.593601702351],[126.8838071991164,37.5872452005093],[126.8832599987022,37.5740700042627],[126.8808736010886,37.5774323009004],[126.88436969959989,37.5668960002341],[126.8724422050059,37.5571563075192],[126.8595211088125,37.567348303588],[126.8668534014802,37.5727194982168],[126.8612815998607,37.5759023011988],[126.8641757976413,37.5739832002595],[126.8558023060148,37.567675706567],[126.8218896997441,37.583948800437504],[126.8243651991955,37.5820150005486],[126.8168942009732,37.580768501483796],[126.81256160858979,37.5897968060066],[126.8096464003864,37.5867430026141],[126.7974345021687,37.5973542993358],[126.7926421002955,37.587334601677696],[126.7798890021249,37.5992873991718],[126.77769180013,37.592642603121796],[126.7690536010583,37.595149299474706],[126.7869881008384,37.6035563988074],[126.7845775031717,37.6101980993491],[126.7825988999914,37.606968302412],[126.7708486995936,37.6147200012951],[126.765887398632,37.6087440035864],[126.75833450127901,37.6112171017567],[126.7467470006414,37.6071389019446],[126.73946720049791,37.6202750996244],[126.713507605978,37.6324782025736],[126.7116147015835,37.6385495998618],[126.7058526993032,37.6349812027875],[126.7025045016763,37.6410110003307],[126.692658598767,37.6348508009424]]]}}]}