{"type":"FeatureCollection","features":[{"type":"Feature","properties":{"interval":15,"stationId":"6039313073","profile":"off-peak"},"geometry":{"type":"Polygon","coordinates":[[[127.1199650992649,37.5107024988363],[127.1245826006253,37.4967691017574],[127.1302979974634,37.499652498455106],[127.13072060109731,37.5087074991076],[127.13897850056699,37.5189400975172],[127.14303189948549,37.5174648988946],[127.1409963018761,37.5244418977987],[127.1490630014515,37.5299999968614],[127.1512818992326,37.5274297994316],[127.1454229015684,37.5286897013272],[127.1410475007818,37.5370012999766],[127.12516000003559,37.5319900007634],[127.1273828987135,37.5132890008393],[127.1199650992649,37.5107024988363]]]}},{"type":"Feature","properties":{"interval":30,"stationId":"6039313073","profile":"off-peak"},"geometry":{"type":"Polygon","coordinates":[[[127.0672516990264,37.499060899604004],[127.0723886985257,37.4913023009436],[127.0818427988391,37.4887305986385],[127.082235898446,37.4853369020322],[127.0761697999022,37.4848060002873],[127.0804739970481,37.4796919996579],[127.0862732950425,37.4790287982093],[127.09019460199531,37.4855064958298],[127.1060139999064,37.4789021996561],[127.1077086006096,37.4886707975346],[127.12922589998229,37.4756391995881],[127.12827040084761,37.484200199674795],[127.1331202001381,37.4879160988872],[127.14101619991989,37.481978599768695],[127.16189070037291,37.4899927977398],[127.1593161005135,37.503106900416],[127.1484228988779,37.5019430020488],[127.14420730204981,37.5077522000977],[127.1564442993416,37.5143013988411],[127.1510777046666,37.526560098562896],[127.1593668017382,37.5328886983121],[127.1544373026868,37.5323049022055],[127.1545571024469,37.538845099047904],[127.14415740197819,37.5526400990654],[127.12963670012071,37.5449155004857],[127.131682200797,37.5507946994739],[127.1261554010932,37.5533665013206],[127.1122812015245,37.5357747014599],[127.1147916983367,37.524762601981806],[127.1056962990927,37.5211858018822],[127.09878469820329,37.5103093024693],[127.0879350008293,37.508163000921904],[127.0767507997375,37.5177960007357],[127.0703796995375,37.5115811008377],[127.08359159853211,37.500655098962206],[127.0946230987638,37.4983713995173],[127.0961589958373,37.487556699912],[127.0840999012885,37.4885678011999],[127.082395102665,37.496759000632196],[127.0672516990264,37.499060899604004]]]}},{"type":"Feature","properties":{"interval":60,"stationId":"6039313073","profile":"off-peak"},"geometry":{"type":"Polygon","coordinates":[[[126.8821041980264,37.5249139022389],[126.8907899988163,37.5197536006863],[126.8912116992156,37.5134239005368],[126.9054261999341,37.517961999443195],[126.90403769924811,37.509690900299205],[126.9194000988995,37.5113172996526],[126.9187042994588,37.498317200040105],[126.928459799959,37.4961795985409],[126.9357281991727,37.5016164991551],[126.94631250003951,37.4992732997515],[126.9530822997835,37.490295799898895],[126.9588368004826,37.494122998796705],[126.9620847975258,37.4907064010982],[126.96079829956449,37.482569301473404],[126.9552305006972,37.4870748002566],[126.9334475007734,37.485955700434],[126.9260659998758,37.490004600743696],[126.92517909866869,37.4837301004568],[126.9325482987878,37.47796160003],[126.93551139936069,37.4836478996424],[126.9384841992436,37.478039800091196],[126.9703039002003,37.4723501986283],[126.9747245983843,37.4677653983961],[126.9848792982386,37.4695703001073],[126.9924097986437,37.4796569966876],[127.0020006961436,37.4702819001193],[127.0122848981993,37.473095899300894],[127.01667359378591,37.4696353001366],[127.02500479882251,37.4744296987761],[127.0239851989297,37.468698199395696],[127.0312931988197,37.4625977989195],[127.0482365000566,37.4600570989348],[127.04673349929371,37.4488476015003],[127.0525457949028,37.449517296588894],[127.0495687978798,37.4403905057157],[127.0581294967114,37.4377601958289],[127.06235669965639,37.437334196979],[127.065408801141,37.450202096367896],[127.0507890997919,37.456718200751595],[127.04891270252651,37.4659634980575],[127.0568640006681,37.4735769953871],[127.060049398262,37.4690968997581],[127.077111598348,37.4750565942953],[127.08454369452289,37.4727825945993],[127.1093717993521,37.4551570995144],[127.1078905003625,37.462021898029306],[127.11579469763069,37.462988797790196],[127.11975629818231,37.4362048013147],[127.11232149925479,37.4276913020086],[127.1169598964789,37.423805098583905],[127.1149804984113,37.419760602309296],[127.1122443011475,37.4220743999955],[127.11457519594211,37.415281501203],[127.1112985999056,37.4142349009844],[127.1193261984183,37.4118205011059],[127.1042141999324,37.397783501542506],[127.1084880982287,37.389188301661804],[127.1001711997026,37.3820026014738],[127.1047964985438,37.3772776015526],[127.1049339989307,37.3655994997395],[127.0950301987026,37.363796701797405],[127.10464219879461,37.3605171012166],[127.0961962002298,37.3400022007718],[127.1088548990909,37.3303706008446],[127.10458680049011,37.323989001101396],[127.0936171002199,37.3247335005801],[127.0899116999331,37.3203664000811],[127.09861960038741,37.322705399528296],[127.1040189001012,37.3187458008571],[127.1065272006274,37.325317999371904],[127.11124869882731,37.320916499609005],[127.1126388011115,37.332797899462],[127.1176368001328,37.3369407998397],[127.1153253005148,37.3426313000172],[127.1199596003914,37.3517388993523],[127.112668101106,37.3556005008426],[127.1188210004554,37.361125699991305],[127.11847250006,37.3681009989429],[127.1250801996045,37.3676458998533],[127.12829169980431,37.3759676987399],[127.1420608012227,37.3832124984227],[127.1402661000029,37.387798999266],[127.14624910019941,37.3948056991846],[127.1367145006202,37.3964503022606],[127.13570610179539,37.4010904984761],[127.14818080114111,37.4054571984353],[127.1456492011573,37.4121632986741],[127.14946489999029,37.4169610987308],[127.1432155034492,37.4160598015955],[127.1447912022269,37.4255324930609],[127.1661544985169,37.431141495905],[127.1752364012615,37.4386075992689],[127.17797040345941,37.456979500249304],[127.1743843033045,37.4671800000294],[127.16571980259191,37.4671595018659],[127.1667453005843,37.473412299158],[127.169727597602,37.4787585938117],[127.1760758912537,37.473548899021395],[127.1809271987577,37.476949396794005],[127.1856271039194,37.4866704021889],[127.17894670581529,37.4846897046761],[127.1763611084009,37.488947400418404],[127.1593668017382,37.5328886983121],[127.1681627988804,37.534064398869496],[127.1654864985805,37.525602900348204],[127.17468529792629,37.5215750990359],[127.1712846997516,37.5121837001949],[127.17991769148331,37.5118598985587],[127.1762071062399,37.516017004163395],[127.1820223004247,37.5218219983584],[127.1740009022822,37.533502998692],[127.1766071010205,37.5453595982235],[127.1808802008461,37.5448711982945],[127.1776498008601,37.5509236994889],[127.1830414989636,37.544173000747],[127.189586899056,37.5466460985694],[127.19401029867011,37.5429120996479],[127.2020637971965,37.5293553987643],[127.2061209007293,37.535767296202906],[127.22596160046831,37.5315401978416],[127.2359553005658,37.5420936998264],[127.2106277017744,37.5557859011823],[127.2033850019541,37.565392099652094],[127.2035963010025,37.5744569991324],[127.1983163016039,37.5754743005578],[127.199151899018,37.5691733011216],[127.1877540004045,37.579037200337105],[127.1730155019261,37.5719112987385],[127.1694480010275,37.563786201366206],[127.15686890069681,37.569307700501206],[127.1547888989848,37.5627120023426],[127.1430426026123,37.5628965036991],[127.1305230029776,37.570850902419004],[127.12928049737499,37.5626744070862],[127.1241699024856,37.568773300987296],[127.1043380030065,37.5696256034903],[127.1020837052608,37.5772690958468],[127.1077941995503,37.576745296370596],[127.10933870276929,37.5811040996067],[127.1060285005683,37.6008904002142],[127.0879851016441,37.6093444020037],[127.0861633017412,37.613372898701805],[127.0923716995721,37.616045398133195],[127.0943282002964,37.6242320981848],[127.07991880039191,37.6342210999376],[127.0738423008944,37.6318591023439],[127.0770522998453,37.635731899447606],[127.06956890013399,37.6563723998902],[127.0573795004979,37.66844150111],[127.0526513996685,37.665189201011],[127.05937519957581,37.6578954989999],[127.0511935999001,37.652641700263196],[127.0606054987688,37.6369208008994],[127.0628405997781,37.6206745016901],[127.05784759975221,37.6226805024915],[127.0619219999181,37.6183553013827],[127.0493634998157,37.616765600651],[127.03476579968141,37.605081300250404],[127.0400533977522,37.5949098006432],[127.0235476004818,37.589668700915794],[127.0225030017348,37.5966040991276],[127.03417759987411,37.610675399255896],[127.0287460004343,37.6174564008865],[127.0289731996035,37.609514299585],[127.0237956004323,37.6088270999783],[127.0205370003928,37.5984346004349],[127.01699490070921,37.5972609015213],[127.0116337001857,37.6047703004687],[127.0133334991885,37.598677701050605],[127.00804529808761,37.5937792016454],[126.9980453005735,37.5950829005429],[126.9930755993002,37.5815802010787],[126.9692964001731,37.579875900190295],[126.9641623003128,37.571462500078106],[126.9611232002273,37.577063599548104],[126.9550761004653,37.577205700183],[126.9596116992028,37.573024100302696],[126.95291399914801,37.5609458015208],[126.9308602001885,37.5581255006268],[126.93927599975831,37.5462112000921],[126.9459625993206,37.545200600237],[126.9418467000039,37.541152400486304],[126.94390459970259,37.535494100038],[126.9531559000589,37.540501099764],[126.9596300988633,37.5355893992949],[126.96187899935009,37.5228858003858],[126.95738589983601,37.5185346031403],[126.9397551997689,37.5157392002901],[126.9350130072186,37.5286435067469],[126.9174056009654,37.5336933997569],[126.9101116010296,37.5268367993322],[126.90060250112,37.5405379015439],[126.8909789002733,37.5408999003565],[126.8938059994308,37.5318651005858],[126.88971280018289,37.525924701498894],[126.8821041980264,37.5249139022389]]]}}]}