{"type":"FeatureCollection","features":[{"type":"Feature","properties":{"interval":15,"stationId":"6048955112","profile":"off-peak"},"geometry":{"type":"Polygon","coordinates":[[[126.8827552991487,37.487279999683],[126.88689099983941,37.4819830998115],[126.9045230998485,37.495583698531995],[126.9147269988215,37.4947360991009],[126.92898819895241,37.4818833000631],[126.94145809968761,37.5035110989975],[126.95163270034651,37.5025726997749],[126.94165050048089,37.5093553996592],[126.9293041029884,37.50456530252141],[126.92370940086,37.5129447006924],[126.9147653002438,37.505369900591795],[126.9050501997844,37.5054159002636],[126.9029639990089,37.496733000624396],[126.89646009996869,37.4970247014143],[126.8827552991487,37.487279999683]]]}},{"type":"Feature","properties":{"interval":30,"stationId":"6048955112","profile":"off-peak"},"geometry":{"type":"Polygon","coordinates":[[[126.8206961989996,37.4880574004328],[126.8332433993655,37.488281896268],[126.8494825989247,37.4709928005819],[126.8558302002187,37.4738189979871],[126.8703936998319,37.4644037988686],[126.87989039956639,37.473027297856895],[126.8864338977672,37.469411099057204],[126.881251801682,37.4659566009052],[126.8883319990438,37.465284698681096],[126.885758499262,37.4536323002155],[126.8964245987683,37.448650198668304],[126.8966561006637,37.4530147979356],[126.9025292001088,37.4534112997236],[126.9030030005144,37.4687225999127],[126.8956598005164,37.475311499617895],[126.9008821987031,37.479253899765006],[126.9157524989848,37.476475099828505],[126.922967697886,37.480083198233906],[126.920648099962,37.4737388007083],[126.9265699979128,37.4721506017848],[126.9251097989928,37.4647162005729],[126.93974729875009,37.4627428985076],[126.94600539996661,37.468423198438096],[126.9463680976922,37.462461001246396],[126.952355201361,37.469939700397696],[126.94328040036481,37.4708418009905],[126.9447729988957,37.476809098078796],[126.9631281989452,37.4723932001216],[126.9719138999541,37.4768467989501],[126.98327479970321,37.471046498947],[126.99063509941291,37.4848644971965],[126.9988169972293,37.479693600252595],[126.9998061016678,37.4869875985098],[126.9972030019428,37.493692100551094],[126.9662893016386,37.492007599791],[126.96088710177459,37.5037301979941],[126.97003099978281,37.5057517966196],[126.9585245009621,37.516837000647],[126.9383678999026,37.513334800029604],[126.9404750002415,37.522541000123],[126.9324007994999,37.529466100858],[126.9324295992823,37.5252939007296],[126.923070900602,37.5267732004262],[126.8997960012151,37.51278740057],[126.9002261008529,37.521650599479],[126.9072204000452,37.5208467998955],[126.9002438010891,37.5283786995874],[126.9056110999916,37.531203599029695],[126.90083210130051,37.5374820001014],[126.8991901992272,37.5310860018689],[126.8838340002762,37.5259865005353],[126.8908693997889,37.523126900041],[126.89194529909291,37.5099870003677],[126.87436939973051,37.507698800614],[126.8721287998537,37.4992930999985],[126.8788977987341,37.5009756979715],[126.8802017974285,37.491252100131796],[126.87415800070069,37.4915583007165],[126.87139809974549,37.485776900877894],[126.8647143995244,37.4826822019454],[126.8540187003464,37.48796020191671],[126.8446366014038,37.4832065029788],[126.8409756008859,37.4940884002645],[126.8206961989996,37.4880574004328]]]}},{"type":"Feature","properties":{"interval":60,"stationId":"6048955112","profile":"off-peak"},"geometry":{"type":"Polygon","coordinates":[[[126.6639224995556,37.4654988995379],[126.66840169964901,37.4613356990005],[126.6757133002566,37.466634398627995],[126.6829552990141,37.4649890990043],[126.6894359992417,37.4571573999628],[126.70189359950571,37.4552977996429],[126.7039457024034,37.463205499244104],[126.7136377997724,37.464309099093704],[126.71209290510801,37.4730591995654],[126.72643099949,37.4842800962682],[126.7267316991893,37.480807899740405],[126.73588219826651,37.483458199665],[126.7433442972619,37.4770805987779],[126.7513026002233,37.4787377978707],[126.7502520012739,37.472678103930406],[126.7597857947089,37.476620596120895],[126.76549059632771,37.475117394785705],[126.7659998958184,37.4700499998531],[126.7785005954918,37.4717542971964],[126.7841334997143,37.463535297536],[126.7907420975813,37.4644829998141],[126.7858163991414,37.4471454999235],[126.7768400998549,37.4431516000293],[126.7828426986042,37.4315886993352],[126.7929926994474,37.4321277997266],[126.7963641002859,37.4417755000232],[126.8031903010763,37.4453932973095],[126.8072206013717,37.4660270003497],[126.81622150056539,37.4708016970432],[126.8265096994063,37.467720898044305],[126.83800919761221,37.4554063001614],[126.8352990002823,37.4540909010875],[126.84541679325069,37.4484884014988],[126.848126199004,37.4513368977387],[126.8448068033646,37.452093900479404],[126.8517829979603,37.4536315986975],[126.84083380527579,37.458558699802595],[126.8527967973737,37.4609447975059],[126.8642887950633,37.444591001187206],[126.8681966982425,37.4429000989819],[126.8722093000409,37.447763893857996],[126.8763566958935,37.442636698985204],[126.8747664977342,37.4350341988866],[126.88104799660661,37.4295095021334],[126.86694700273969,37.415759304690795],[126.87975349030461,37.4126149956445],[126.8869665981091,37.4051790987388],[126.88988039915209,37.4110691976396],[126.89336399894971,37.409315198060604],[126.8952616982274,37.4057029010107],[126.891357000557,37.405057401734496],[126.9035834961224,37.4005470947207],[126.9079091988347,37.388905197161804],[126.91707729722471,37.3817565981698],[126.9144107001977,37.3752697041924],[126.9216872980504,37.376396197756904],[126.925154295141,37.3722645998044],[126.9197676005786,37.3593931006208],[126.9244902953693,37.3510087999572],[126.9149748985981,37.3442350053299],[126.9224761972043,37.342732997333606],[126.92450909930419,37.337098601106895],[126.9136618970972,37.333741704138],[126.9084061994668,37.3261001006615],[126.91516319877259,37.3202047992484],[126.9282592009636,37.3330559973694],[126.92226980198639,37.3349750993344],[126.9297287013065,37.3438828976146],[126.9356950957401,37.3447067995131],[126.9314255996096,37.341344900152606],[126.9374296988614,37.3376265004554],[126.9446526004657,37.3438753983021],[126.95688129914481,37.3420569975954],[126.9679031985029,37.350501296618],[126.96069060138791,37.362965800365394],[126.95956010137401,37.3707977997878],[126.9632244021728,37.3722711978776],[126.95532440064109,37.378425300391704],[126.98982150041651,37.392860499632896],[126.9810458027318,37.4020217982927],[126.9839678002205,37.411488198659804],[126.98453209965619,37.408347901800106],[126.9971658989269,37.4177019946782],[127.0026190944363,37.4154924965929],[127.0224474991275,37.4226685988262],[127.0241140000476,37.425259399801604],[127.0165118017939,37.4285273000164],[127.0263645005639,37.434356393716996],[127.02912090150899,37.4409486966955],[127.0228863029532,37.437558606286004],[127.0226383009519,37.4471195003046],[127.0296254998914,37.4597153993132],[127.0189996004677,37.4654474005371],[127.0212211003864,37.469381698424996],[127.027185800594,37.4716418971378],[127.03635009940291,37.460651696864296],[127.0482365000566,37.4600570989348],[127.04673349929371,37.4488476015003],[127.0525457949028,37.449517296588894],[127.0495687978798,37.4403905057157],[127.06235669965639,37.437334196979],[127.065408801141,37.450202096367896],[127.0507890997919,37.456718200751595],[127.0515280008921,37.4719811001262],[127.07018909660309,37.4825540952299],[127.0676148991773,37.4775614002226],[127.07018910077379,37.4825540973749],[127.0752955975684,37.4776654010326],[127.0862732988695,37.4790287962641],[127.085757799385,37.475536899756],[127.0911703990535,37.477425399482904],[127.0856558014768,37.4800324005079],[127.09019460199531,37.4855064958298],[127.1059203992554,37.478558297819404],[127.1077086006096,37.4886707975346],[127.1262000000413,37.4851099992798],[127.1343142000366,37.4993001998927],[127.133734101118,37.50561359960329],[127.1273512995122,37.504729601818795],[127.12603980117291,37.509447999498],[127.1329327997558,37.5102457989506],[127.13897850056699,37.5189400975172],[127.14303189948549,37.5174648988946],[127.1392775008659,37.528031696672],[127.14611739797229,37.5239434004545],[127.1510776989161,37.5265600970882],[127.1267114002128,37.5429187994321],[127.11753020016431,37.541589300152495],[127.1176446993221,37.5259340009853],[127.12404169983641,37.5274606996126],[127.1268510995717,37.5347599988334],[127.1324680993983,37.523702600251],[127.1257442015247,37.5208742015095],[127.1222972990351,37.5150736007624],[127.1260397995142,37.5094480001983],[127.11764240080639,37.4994304009139],[127.1177907021576,37.5213391988239],[127.1028939015547,37.5253121001058],[127.0994498011574,37.541960596821006],[127.1123994013646,37.545001394850594],[127.0918509031682,37.5602811007782],[127.0954605007837,37.56994880114],[127.09192780276939,37.5720105994009],[127.1003506010444,37.579637296567604],[127.0978814007998,37.5928786000025],[127.0817245013871,37.6072791008584],[127.0736180005881,37.6280841001847],[127.07079709932789,37.6162000014873],[127.0740736997983,37.614799299282204],[127.07419919968669,37.5954348001137],[127.07974759939431,37.5908348998302],[127.0757949999102,37.580390800118],[127.07946279803821,37.574095400889],[127.07521909983859,37.570581099849996],[127.07946579689799,37.5699867003326],[127.0740951005906,37.5662463002006],[127.0585798008495,37.5682904002459],[127.05050949978171,37.574306500371996],[127.0670990003385,37.5940461993976],[127.06740980066479,37.604403700433195],[127.0612687000078,37.5909186007512],[127.05516210109701,37.593440001120804],[127.0521460996254,37.5884199003116],[127.0406342000611,37.586646800580496],[127.0373173027361,37.5944905004193],[127.0235476004818,37.589668700915794],[127.0225030017348,37.5966040991276],[127.03417759987411,37.610675399255896],[127.0287460004343,37.6174564008865],[127.0289731996035,37.609514299585],[127.0237956004323,37.6088270999783],[127.0205370003928,37.5984346004349],[127.01699490070921,37.5972609015213],[127.0116337001857,37.6047703004687],[127.0133334991885,37.598677701050605],[127.00804529808761,37.5937792016454],[126.9980453005735,37.5950829005429],[126.9930578996631,37.5840689017574],[126.98183970091489,37.5883332998198],[126.97827950069559,37.583410000396704],[126.9696413015056,37.5872211004093],[126.96395429807829,37.5804550012942],[126.95459600216269,37.5808824017763],[126.9423534000928,37.5927979003713],[126.9376637997439,37.589085500718305],[126.9492116985897,37.5822828981615],[126.9506130986576,37.574189500753405],[126.93576370067389,37.5776291006047],[126.9313360004645,37.5740875011711],[126.92486930049459,37.5797550002285],[126.9241824020862,37.5916384997439],[126.92806400015871,37.59910909855],[126.9363416984576,37.5977217000999],[126.937169701711,37.623495500088694],[126.9192807000621,37.625177500736896],[126.90293299897671,37.601692402005895],[126.89847659905969,37.5846647014998],[126.8855446003802,37.5886231011744],[126.87927310040311,37.5848878005477],[126.8871645988215,37.569152900038496],[126.8908786985856,37.5692517972274],[126.8875792987489,37.5628849028145],[126.88398410198441,37.5642547016285],[126.8838538945578,37.553288000356105],[126.8623439059897,37.5637587071776],[126.8595211088125,37.567348303588],[126.8668534014802,37.5727194982168],[126.8611423010146,37.5771011001271],[126.8641757976413,37.5739832002595],[126.859521102296,37.5673483068944],[126.8348612077972,37.5787932067942],[126.8140181015836,37.5822472998425],[126.8074853984572,37.5777139024469],[126.7971407003606,37.584697801415004],[126.79951389937669,37.5789520999992],[126.7901986994585,37.5765489007222],[126.8035801992859,37.5713500991522],[126.7984198005241,37.563155202025094],[126.8120899988992,37.5520232990114],[126.8228206987983,37.5520596990711],[126.8211193976825,37.5348600005171],[126.834446097146,37.516908201720106],[126.8296051002408,37.513236301865305],[126.8171552025201,37.5226142002278],[126.8242447991724,37.5241008993575],[126.8229986011042,37.5270174992832],[126.8071816052651,37.5386832021212],[126.7991162011542,37.5375927009027],[126.7965190004337,37.5313669008098],[126.7945500024186,37.535873099293106],[126.7893814006324,37.528870200072],[126.7958217991665,37.527994698733],[126.7950780998856,37.523039400563704],[126.7841686997095,37.5243586003377],[126.7374830009764,37.5136492004435],[126.7389437005445,37.5197915999655],[126.7363451998866,37.517349701120395],[126.7222607009664,37.5252217989153],[126.7310117003328,37.5290342988565],[126.7278967000819,37.5362770989442],[126.731623401102,37.544948499722096],[126.7262772000531,37.546625200642104],[126.719797700246,37.543489600171604],[126.71529709908211,37.5312310011686],[126.71920269929339,37.523985401618],[126.7125550000973,37.518577701485704],[126.718788197516,37.516629899478396],[126.7066230014225,37.5122924008809],[126.7044111000795,37.518377400834],[126.69689609984451,37.5143790011607],[126.69838769826269,37.5109678994902],[126.6921997003576,37.510590902782596],[126.7025571913346,37.498671001093804],[126.7074937002305,37.5022867988283],[126.7143292968026,37.4999550007979],[126.7149676994879,37.4907882022088],[126.704104800201,37.493160701197695],[126.7005322992622,37.480595701784104],[126.6918658005501,37.479057600622596],[126.69025579757,37.4679910002412],[126.6811220042285,37.4738330983075],[126.6639224995556,37.4654988995379]]]}}]}