{"type":"FeatureCollection","features":[{"type":"Feature","properties":{"interval":15,"stationId":"6048955208","profile":"off-peak"},"geometry":{"type":"Polygon","coordinates":[[[127.05677499942391,37.5338253008159],[127.0764119002541,37.5273276994419],[127.0797357003581,37.5279333995133],[127.0772711001467,37.5368801996123],[127.0891616002003,37.536445299201496],[127.0794829000568,37.5398535003766],[127.0801368023271,37.5464210987866],[127.07544870079799,37.5491013001681],[127.0853484002977,37.5569853001441],[127.08850670033219,37.5746409992946],[127.05677499942391,37.5338253008159]]]}},{"type":"Feature","properties":{"interval":30,"stationId":"6048955208","profile":"off-peak"},"geometry":{"type":"Polygon","coordinates":[[[126.9964781989237,37.5028042005542],[127.0041329993577,37.4962187999996],[127.0125778998798,37.4992863997602],[127.0075478997785,37.4917971001836],[127.01497309880291,37.4826530000411],[127.0195463008863,37.4846394997741],[127.0146206004224,37.488373600419806],[127.0194855000905,37.4936246992366],[127.0127917011851,37.4976257003251],[127.0152600003229,37.5042099988284],[127.0291234991704,37.4929407996852],[127.03046950104269,37.498236499804996],[127.0389091004619,37.5000471991482],[127.0448054001216,37.4985639992477],[127.04672359921511,37.4920544998603],[127.05458149868849,37.493533899983],[127.0398989997778,37.4861483003369],[127.0487205997305,37.4823768998321],[127.0468179008611,37.487075799674],[127.0539681998358,37.486738298351],[127.05446219961951,37.4822036003926],[127.0704113996302,37.4891165994374],[127.0582288005612,37.5049769989527],[127.0758717003119,37.5081891989463],[127.0855880986526,37.5029086003831],[127.1078337993349,37.5038461988868],[127.1206285001405,37.5167726999466],[127.1169424002649,37.5243768991433],[127.125454100438,37.5273115984381],[127.13293369949109,37.521755999975305],[127.1211502001813,37.5106404003],[127.1260726996821,37.4993783002341],[127.1306097003581,37.503514500107],[127.1299069007508,37.5114168990435],[127.1367198997416,37.5139217980948],[127.1335493031817,37.5201137991674],[127.1434782004379,37.5286903994582],[127.142236601134,37.5383062997329],[127.1339763999455,37.5418562004245],[127.1369347006963,37.5524186999902],[127.1311811013351,37.5574369011669],[127.1240264006347,37.555054401474905],[127.11718760051009,37.5436095013927],[127.10931310132429,37.5483632996918],[127.1107829031225,37.5545735005676],[127.1046770993685,37.5518264030347],[127.09504510104719,37.5555421010952],[127.10084810026419,37.590797700523105],[127.09525240122511,37.601030799756295],[127.0817245013871,37.6072791008584],[127.0812534001818,37.6177557995632],[127.0878251997856,37.618899199903204],[127.0712392999787,37.6293490021006],[127.0680483997179,37.623603300386996],[127.0721315979934,37.6166111010762],[127.0657485993826,37.614481000525195],[127.07204689885701,37.6148951994349],[127.07161399991969,37.598081201],[127.07727149912739,37.5867363001366],[127.0731571005398,37.5793570000599],[127.0787884998359,37.577189500548805],[127.0715979006897,37.567859701203],[127.0622200004632,37.5669200006063],[127.0520650001812,37.5731550001824],[127.0457665000858,37.5703856009116],[127.0390303000639,37.5798205009773],[127.03058060069439,37.5755198004612],[127.02222860024091,37.5788667006463],[127.021190799624,37.5729564999374],[127.0264181998909,37.5702190999676],[127.0048184008166,37.5672911009753],[127.0147249003739,37.559599498493895],[127.02603099880601,37.561246999701304],[127.01884479922559,37.552196199807696],[127.0378498984,37.5565451992817],[127.02902200024239,37.550111400437196],[127.0419446967194,37.5512665988129],[127.0356009996136,37.544250500050595],[127.0428564992157,37.5313979997789],[127.0298119015357,37.531858400579296],[127.017021598667,37.517906101975896],[126.9974624006949,37.5080607010214],[126.9964781989237,37.5028042005542]]]}},{"type":"Feature","properties":{"interval":60,"stationId":"6048955208","profile":"off-peak"},"geometry":{"type":"Polygon","coordinates":[[[126.83416079978461,37.5690327000053],[126.8386028988154,37.5686843989628],[126.83899149960371,37.5633221987192],[126.845756698353,37.5648203996839],[126.852991499682,37.553314399474495],[126.8591848002571,37.555909399304795],[126.86449539943139,37.5402823000217],[126.8911718999187,37.536670499938296],[126.8827901003325,37.524809201225],[126.8734848004407,37.529748501163894],[126.8683934996802,37.5262388001204],[126.86404140044341,37.5310100006012],[126.8528224001545,37.5273915001853],[126.8524065982422,37.5190904996595],[126.8676185995804,37.524442798143504],[126.8824579994864,37.5182210995563],[126.8731805997617,37.500183801970906],[126.8666171009065,37.5004380009125],[126.87084029937759,37.495037501207506],[126.8534907001672,37.4942530021426],[126.8578405996442,37.4900896985854],[126.87710320014679,37.4942663995111],[126.8802106974196,37.49111390027],[126.8677311999159,37.4809568033968],[126.8576225012591,37.4861926014278],[126.8454004994332,37.481998601045994],[126.8498581997707,37.4730449000733],[126.8593698003909,37.477533197420705],[126.8654584996021,37.4685516997814],[126.8772463003063,37.4737394990596],[126.88586989715691,37.4706895987304],[126.9041610997103,37.4834319985095],[126.9227500981036,37.4802987980183],[126.9315651951812,37.4643686004752],[126.9482827981887,37.4657950004637],[126.9432154012776,37.474421398863996],[126.9513558996192,37.4777402991826],[126.95092269994551,37.468208601734894],[126.9578834957586,37.4685551986163],[126.9583427997889,37.464635300080495],[126.9600976006984,37.4682039985829],[126.95371620421301,37.4703374008129],[126.9562774016518,37.4741764969738],[126.96207339824869,37.472514798523996],[126.96243729863271,37.464879800927996],[126.97436260043851,37.4622457964732],[126.9806033997507,37.4710080979516],[126.9884666994664,37.4660825001595],[126.9903535957674,37.4442588005434],[126.99453269627769,37.443519800074796],[126.98466100074491,37.4311341025752],[126.9831299994093,37.4233687003356],[126.9884509999463,37.4190771991361],[127.0152881987494,37.4292533986993],[127.01043600127319,37.4342396961498],[127.0169883995233,37.432817701097804],[127.01782110278211,37.441856196458],[127.0121255031049,37.449066798499395],[127.0175589012526,37.4585516970411],[127.0058475064104,37.4623663998264],[127.0081222041357,37.469623992568806],[127.01667359558431,37.4696352925575],[127.0288213988033,37.4534606987734],[127.0428341941796,37.4527490978072],[127.03779659921719,37.4493451012112],[127.0433234949404,37.4508386944969],[127.0454052928586,37.4470130983225],[127.0407989974649,37.4382830070526],[127.04740549951579,37.4309742992772],[127.0699220000119,37.4341684996747],[127.0723027017981,37.442386196871205],[127.0666571054002,37.4464463004604],[127.070586899817,37.456766699285104],[127.0608600031131,37.4610822006421],[127.061624102394,37.4689519938233],[127.077111598348,37.4750565942953],[127.0979551988038,37.4725652981078],[127.1078904996966,37.4620218978892],[127.11579469763069,37.462988797790196],[127.1190968997101,37.4530433994007],[127.1241496977556,37.4591378962324],[127.1165559991153,37.4280512006228],[127.1241473992545,37.4313582991433],[127.12368449897549,37.4180922015248],[127.1191682989616,37.4093770996221],[127.1003140997108,37.4051553012828],[127.1013613979769,37.3991934994061],[127.0963222994789,37.3982312011757],[127.1042811988208,37.3957435000492],[127.0984577001456,37.3881098007472],[127.1042916982128,37.3864572985043],[127.1062781971263,37.3792768020667],[127.1049339989307,37.3655994997395],[127.0972003995372,37.36363240008],[127.10464219879461,37.3605171012166],[127.09124389923339,37.3378177001253],[127.1028606979731,37.3301441999775],[127.11537940055959,37.339079999382],[127.1098019012494,37.342512400591694],[127.12079489922631,37.3485377979185],[127.1183419001278,37.354648600678395],[127.112668101106,37.3556005008426],[127.12351569979229,37.3675125993761],[127.12174640147151,37.3824814000924],[127.1271746997617,37.3857988991755],[127.1319859991385,37.3827040999717],[127.1282745039824,37.3882299979086],[127.1378656998302,37.3917356998544],[127.1322664026935,37.403553200121095],[127.140614500307,37.4093522986973],[127.13816320234899,37.4250912936042],[127.15317829818059,37.441106397360905],[127.1642182995902,37.43730819928739],[127.1694334009836,37.4457506973444],[127.1680885003567,37.461623999702404],[127.1579854022972,37.4627600029397],[127.1464241998311,37.4740544007356],[127.1519041000217,37.4770485998309],[127.1495365017413,37.483066698738604],[127.17015439879741,37.4825208982749],[127.16835660759949,37.4860355990904],[127.1737121016031,37.4906016988622],[127.16111810464399,37.4964304988573],[127.1684700020516,37.5063640997975],[127.1598728014242,37.510260002656004],[127.159374702196,37.5255910961396],[127.1510777040553,37.526560100746394],[127.1602526961374,37.529942098948396],[127.1627273003172,37.5414331980076],[127.15744890385581,37.5459042969648],[127.1692154951136,37.540961897196],[127.1776498008601,37.5509236994889],[127.1860728991509,37.546944199391696],[127.1902712010272,37.5518612996532],[127.1962521973284,37.5485269004469],[127.19330060028,37.5471197018541],[127.2010666998757,37.532051099522896],[127.2088876007825,37.536041996943304],[127.227629299656,37.5337070990844],[127.23303340099089,37.5392952004137],[127.2296645000436,37.5379442005426],[127.2327326995765,37.542501198241496],[127.2275070013959,37.545398199549204],[127.21865460046749,37.5464510003859],[127.2049793025952,37.5616262009406],[127.20268580191299,37.573264600324805],[127.199151899018,37.5691733011216],[127.1858091001747,37.5767369003075],[127.1791438000771,37.5702631004341],[127.1720483009672,37.5703052016061],[127.1694480010275,37.563786201366206],[127.15686890069681,37.569307700501206],[127.1511847002546,37.5621201029535],[127.13305430176389,37.5679201058674],[127.1312051022955,37.5741014991684],[127.1217731043215,37.5789587019554],[127.1222593017048,37.5832117985166],[127.12554129842279,37.5815127002157],[127.1207375020342,37.5993352981937],[127.1243131995913,37.601379297142095],[127.1139402008782,37.607053300666195],[127.1053885060976,37.6348586951016],[127.1127793002036,37.6343153986346],[127.11144090142281,37.6407660992359],[127.1193392970437,37.6422381988234],[127.11099999991191,37.6265420011909],[127.11326129730311,37.62357139880881],[127.1273919017736,37.6281958947095],[127.1330650001542,37.644343898070204],[127.138866897988,37.6382756033321],[127.1432454991006,37.643651697737],[127.148137396814,37.6410202994505],[127.1522867003905,37.6540670000892],[127.14379480127829,37.6600159006423],[127.1359272008492,37.6515002042944],[127.1260547002826,37.6553228005942],[127.1228902006909,37.6481563007755],[127.1134765997831,37.650470301029905],[127.11113079963509,37.644006600454496],[127.1048877004565,37.6439784007402],[127.0972866019932,37.6334250072858],[127.0882022043309,37.6499737990495],[127.0941919016595,37.6602283992304],[127.0884260069425,37.6713271979216],[127.0925915018576,37.6772542964528],[127.05710160653159,37.6946662002253],[127.0590118035171,37.7065208971531],[127.0511147063345,37.71075060018],[127.06076469978699,37.7262317989548],[127.05653070027769,37.732304900249005],[127.05818240042001,37.7464586986641],[127.04512310032119,37.7493769001994],[127.02959600032929,37.7403653009936],[127.04221529823239,37.710451300808906],[127.03566030133901,37.7159961003241],[127.0319069986585,37.7075394011499],[127.03856329086581,37.6955708029778],[127.0310832983495,37.693342402637995],[127.0285064984228,37.6846795004394],[127.0427387984155,37.676375698935004],[127.0298593991932,37.669845500235304],[127.0320898997018,37.660589900068096],[127.0254760997809,37.6545875024716],[127.0080348979523,37.6645939008119],[127.0081908972402,37.6272587001143],[126.99489300010741,37.620419406149104],[126.99963219940899,37.6111483999932],[126.9943825003056,37.6110095001388],[126.9963571973186,37.6014656017719],[126.98588440024851,37.5980129079119],[126.986656398752,37.589019803133205],[126.98037740189689,37.5891784013922],[126.9749579990518,37.5830084008759],[126.96935049952751,37.5878905018643],[126.9595816003259,37.5803758015988],[126.9468523006884,37.5948010001501],[126.9392513016591,37.5964834009501],[126.9357496001031,37.6125185995084],[126.9198188002575,37.6235470007416],[126.91731979957841,37.6157019001934],[126.92368429989071,37.615568499382],[126.9296900987985,37.6046974003167],[126.926487099564,37.600520599906105],[126.9346804995165,37.5953061996205],[126.93547019884579,37.587111000385],[126.94949759830381,37.5801133003311],[126.94837939920599,37.5707090025606],[126.9428669007864,37.5671925030807],[126.9136731999999,37.570072600896005],[126.9159481997646,37.567759699910205],[126.9084712004247,37.561476500746096],[126.89952670108799,37.574032199211494],[126.9048871987861,37.5752033988715],[126.9049692007242,37.5795846989853],[126.8937790000732,37.5800733000843],[126.90140659839321,37.5703305009369],[126.90280369876551,37.551467698997],[126.8992705019365,37.544340105949196],[126.8906405001648,37.5432751008948],[126.88225270113219,37.548936402048305],[126.883853900275,37.5532879981182],[126.86455550068099,37.5533546009938],[126.86312820083441,37.5629677991775],[126.853086100315,37.5684017004311],[126.8481067000728,37.564798100214496],[126.8452120017902,37.573387899150504],[126.83416079978461,37.5690327000053]]]}}]}