{"type":"FeatureCollection","features":[{"type":"Feature","properties":{"interval":15,"stationId":"6048955183","profile":"off-peak"},"geometry":{"type":"Polygon","coordinates":[[[126.9665410957238,37.481973400449604],[126.98327479970321,37.471046498947],[126.99063509941291,37.4848644971965],[126.9988169972293,37.479693600252595],[126.99799500075551,37.4922459984557],[126.9824733005692,37.4955761009173],[126.9731123981704,37.4879376002157],[126.96619590057931,37.488495900422095],[126.9665410957238,37.481973400449604]]]}},{"type":"Feature","properties":{"interval":30,"stationId":"6048955183","profile":"off-peak"},"geometry":{"type":"Polygon","coordinates":[[[126.9025120992967,37.501562300604505],[126.9045230991544,37.4955836993994],[126.9259417998433,37.4907483000292],[126.9228223987384,37.4845130997643],[126.9324479989307,37.4762868996441],[126.9331786987337,37.4701369001538],[126.9366923999287,37.4702928996865],[126.9325064009872,37.474049200769706],[126.949182298986,37.4770386985544],[126.9760630982995,37.4642565979892],[126.9806033997507,37.4710080979516],[126.9884666994664,37.4660825001595],[126.9914109989426,37.4451236991351],[126.99926449990859,37.4401674999548],[126.9857636001485,37.43150140059],[126.9842731993068,37.4243019004084],[126.99329179972909,37.4217927991511],[127.01089330039461,37.4295621983145],[127.01782110278211,37.441856196458],[127.012154403076,37.444976502589704],[127.0150043993806,37.4574452986298],[127.0005726042313,37.4616383018114],[127.0020006999485,37.470281898982],[127.0083026004598,37.47833399992609],[127.0213229996191,37.4826522977707],[127.0271905001229,37.4837784995985],[127.0373998993243,37.476413700048],[127.0484510994051,37.482208999001095],[127.0501348015864,37.4879938997894],[127.0607291000087,37.4868894985951],[127.0597547000217,37.492566398677404],[127.0666472988788,37.4953858985071],[127.0545815014353,37.4935339007514],[127.0531412006339,37.5093495002239],[127.066924000364,37.5085804989674],[127.0614257005352,37.5215249001072],[127.0665350976611,37.5287175922587],[127.0759749987316,37.5292401990346],[127.0719668014931,37.5385398985778],[127.07494439988031,37.5373790993318],[127.0738255006921,37.5439795000926],[127.0774763005039,37.544990398879904],[127.0752624010172,37.5510716984155],[127.0695027004289,37.5486401006415],[127.05976220021269,37.533668000756],[127.0654360995201,37.5303353992268],[127.0630166019607,37.522088607466195],[127.0471936007903,37.5263677002054],[127.020321908255,37.5376219039081],[127.0234068006872,37.5439053995368],[127.0176618008774,37.5446678003865],[127.0227894006719,37.5481889995314],[127.0086549011225,37.559017899604804],[127.00742750034071,37.567244700422506],[127.0015757998007,37.5594369012567],[127.0075397989779,37.548657899787],[127.0150523985216,37.549076799622505],[127.0112414995468,37.5416006006839],[127.0228724984799,37.533976696129095],[127.0224706996086,37.5243139013901],[127.0162277005471,37.5249216013911],[127.0133818988196,37.519496100865595],[127.0145379997231,37.5250393976577],[127.0030453953418,37.5141234067652],[126.9961536022336,37.515376105512495],[127.000788500583,37.5229619993562],[126.9918795007936,37.5256546998927],[126.9852753009248,37.5199647005145],[126.9776460001405,37.5252147000923],[126.97302450124519,37.5216151004475],[126.9679798012762,37.5271948998531],[126.9818925994374,37.5322782986074],[126.9729330012391,37.539570898540504],[126.9738175002496,37.5457287994564],[126.9804300003766,37.5462699979821],[126.97835710033999,37.5526739998456],[126.9982487997934,37.5611032995167],[126.9789049001756,37.565889899865404],[126.9707454012707,37.5607430000533],[126.97187749915621,37.550370101001704],[126.9576361000626,37.5414371002894],[126.9583776990341,37.5228597993584],[126.9689243000292,37.5191301979616],[126.9651209038826,37.5094379076345],[126.9525474005853,37.5147772998817],[126.932975800552,37.5132577016351],[126.93024750014749,37.507806000421105],[126.9208143009255,37.5149653008593],[126.91700119926941,37.506089599898004],[126.9025120992967,37.501562300604505]]]}},{"type":"Feature","properties":{"interval":60,"stationId":"6048955183","profile":"off-peak"},"geometry":{"type":"Polygon","coordinates":[[[126.74673969941861,37.488919901422896],[126.7564050999535,37.4878531999163],[126.7638338986606,37.4785667971734],[126.7701019999236,37.4833956989573],[126.78050729943129,37.475544596975],[126.7975337999937,37.4725104994537],[126.8040172004449,37.4788955992893],[126.82659769937379,37.4785943983366],[126.8305117007993,37.4849576949153],[126.83712479462069,37.4805566989843],[126.8453663992064,37.460878101382505],[126.84982909930109,37.4640348975816],[126.85959199884951,37.4582604003596],[126.8755137998717,37.4583899946864],[126.88143559536441,37.4537959986657],[126.88077609743061,37.4461941001559],[126.89477169783561,37.4424996990805],[126.8966341003654,37.4458347975751],[126.898848998589,37.4238380998643],[126.90433209240261,37.4203745985408],[126.8972145995201,37.416712402203004],[126.90234049505209,37.413984301652405],[126.8990164993515,37.409171600023],[126.9066883964249,37.4080515985619],[126.91177369952669,37.3944622002646],[126.91807300057671,37.393305397081],[126.9174822971261,37.3793589001032],[126.925154295141,37.3722645998044],[126.9157132000484,37.356245800525905],[126.9245948949789,37.353040199217105],[126.9150133014875,37.350887904371795],[126.9149715957875,37.3339423039374],[126.8994053994557,37.315952199978895],[126.8979725984647,37.3071342015815],[126.9066124992081,37.3022368008244],[126.9124738028447,37.3097865988615],[126.9113286007219,37.3168310975325],[126.92162589860739,37.3221955995189],[126.91811850091541,37.3228611019131],[126.9209058014564,37.328684697700794],[126.9310758015788,37.3295769993349],[126.9258879037263,37.334608703239695],[126.92729720231699,37.340095397753004],[126.95306720049051,37.3424006986485],[126.9648973001393,37.3517037951922],[126.96406660138429,37.3581271991942],[126.9559881019453,37.3614233991542],[126.964848798166,37.3681054973704],[126.95956010137401,37.3707977997878],[126.9786273020142,37.3772146953619],[126.984289898136,37.3839530953086],[126.9876489976849,37.379738298673],[126.9907995043226,37.387586898033504],[126.9987125000858,37.3846475993888],[126.9959804037233,37.4080186966687],[127.0011002986034,37.4059366987507],[127.02495779912489,37.418925196206594],[127.0165118017939,37.4285273000164],[127.0233913023436,37.4335323937841],[127.0269283988065,37.428073399243104],[127.033411196448,37.4346150903435],[127.04285779749519,37.427885095779494],[127.0660149005543,37.4347978984222],[127.0699338970519,37.4338431991758],[127.0681133995571,37.4274817997978],[127.0747704001767,37.4260345993915],[127.0760572038909,37.434575199866394],[127.0699190041818,37.4357917034657],[127.0723027017981,37.442386196871205],[127.0666571054002,37.4464463004604],[127.0674286024856,37.4511892984112],[127.07603039946619,37.452742098551205],[127.0724285030203,37.457735400091195],[127.0781882003086,37.4590781993889],[127.0706757012502,37.4635264000485],[127.06854149771159,37.4591990058429],[127.0640789021742,37.461644903397],[127.06162410364,37.4689519961506],[127.0865052017244,37.475355996908796],[127.11269249713719,37.469414198292],[127.1082798996873,37.4648111001975],[127.1116126996504,37.46375719742711],[127.1249976994644,37.466956197357796],[127.1208687005638,37.4588187005711],[127.1241496977556,37.4591378962324],[127.1210428994371,37.451835200522],[127.1244797962852,37.4468378975581],[127.1239716967933,37.441797402598596],[127.11981930094571,37.442326102069906],[127.1201858993002,37.4299908003984],[127.1241473992545,37.4313582991433],[127.12821399742,37.4257381996226],[127.1444874983183,37.4307555989895],[127.15317829818059,37.441106397360905],[127.1642182995902,37.43730819928739],[127.171529200586,37.4522854983401],[127.1675976006826,37.4613805994163],[127.1532369026734,37.465759399588],[127.1513536004284,37.472029699901704],[127.1463053995177,37.4706151018551],[127.1430179001549,37.479537999928496],[127.1454102003374,37.4840866993431],[127.16015400022981,37.4874811997433],[127.1630248001577,37.4935467988096],[127.1593161005135,37.503106900416],[127.1469699012442,37.5079335992285],[127.1596831994954,37.5201346985783],[127.1510777040553,37.526560100746394],[127.1602526961374,37.529942098948396],[127.15649760031589,37.549149597875],[127.16683849928219,37.5480022001533],[127.1845527995265,37.5592986987509],[127.1497605016788,37.5632577018159],[127.1489863003175,37.558843603535905],[127.1448429037372,37.5619093021659],[127.1399924016646,37.5560290052629],[127.1305817008266,37.5609882999982],[127.1084019002173,37.5577680021091],[127.0969278049465,37.5635443999243],[127.1020837052608,37.5772690958468],[127.1144081001722,37.5789841971999],[127.1121703999376,37.5764899042209],[127.10933870276929,37.5811040996067],[127.1058647017138,37.596934600255],[127.1155894000972,37.6038591978507],[127.0959453009103,37.6156769008515],[127.0969165001907,37.6251872973374],[127.0866586034292,37.6269147019076],[127.0771401057792,37.6381066025793],[127.0706204003573,37.656067200048206],[127.07876210095671,37.660893800277194],[127.0733665997072,37.6647190006151],[127.0698739997086,37.6596676002289],[127.0634269007615,37.6615927006663],[127.06704209942819,37.663795799108804],[127.05742240065379,37.6714431005099],[127.06071299853731,37.678955096606906],[127.05841630044131,37.6769191030634],[127.0553544002777,37.6835338007753],[127.0435269996519,37.6801694996238],[127.0559177990723,37.6713187004214],[127.05065359995581,37.6675412007044],[127.05817650029441,37.6576097991773],[127.0558037011519,37.6545927009317],[127.0422654001204,37.657824400710005],[127.02752399947249,37.6535908003729],[127.02168450004821,37.6468530002843],[127.015283201123,37.6490869006872],[127.0161552000832,37.6555113993598],[127.01161180039159,37.6583479004939],[127.01224299850959,37.630173900341106],[126.9964492988119,37.6183019015663],[127.0036126971662,37.600301803883696],[126.99119040248539,37.6015249017126],[126.9834042988751,37.5903590030729],[126.9667379998243,37.5925653005405],[126.9611550002016,37.5840366026036],[126.95064500079489,37.5983475002636],[126.9412375022538,37.5989707013253],[126.9356104006192,37.621764399900705],[126.9207142019502,37.6301845973157],[126.9258818007111,37.6386001977644],[126.9151736007218,37.65169960026],[126.9106870010142,37.651411600793004],[126.9113775002861,37.6466522014308],[126.9174084000603,37.645976398998],[126.91140439942619,37.6342342015648],[126.9192716983476,37.628696599989595],[126.9123273009592,37.624352502563],[126.9111686994764,37.6061296006081],[126.90016729860291,37.5865427013021],[126.8826043993655,37.5834155008817],[126.8908786974366,37.569251799445105],[126.8838539020941,37.5532880073865],[126.8623439059897,37.5637587071776],[126.8595211088125,37.567348303588],[126.8642369026165,37.573749398970094],[126.859521102296,37.5673483068944],[126.8348612077972,37.5787932067942],[126.8335961990398,37.5742725019593],[126.8294270009384,37.5797014997238],[126.818164200531,37.5765263011846],[126.81373000038151,37.5809000001707],[126.8029426997452,37.575092101050096],[126.80001780209031,37.58135420101],[126.79854950028269,37.5784273005042],[126.8043332988424,37.5680287006308],[126.7984198005241,37.563155202025094],[126.80971429714299,37.5539131004016],[126.8163940999348,37.5606694984192],[126.8293959998908,37.5552540998007],[126.83305539990481,37.5297112007037],[126.8612468984759,37.5047570999],[126.83812670006701,37.4991674029235],[126.8304193014404,37.501338299783],[126.81924440204091,37.4929054024444],[126.8090512041421,37.4982759999682],[126.82256530019109,37.5060001994446],[126.8170635025909,37.5057288026912],[126.8155244030164,37.5137781992361],[126.80609940117519,37.514836299091996],[126.7902222001583,37.5056725039895],[126.785498200001,37.510532401045005],[126.7802799000028,37.505826801526304],[126.7638784010549,37.5082190998616],[126.7599648999639,37.5036380002811],[126.77710329962679,37.4967716999361],[126.8033287000128,37.5015040965817],[126.8017288986796,37.488673902791504],[126.7956109041646,37.494269599644305],[126.7803151008288,37.4832231010495],[126.76740250048441,37.4952156998454],[126.74673969941861,37.488919901422896]]]}}]}