{"type":"FeatureCollection","features":[{"type":"Feature","properties":{"interval":15,"stationId":"6050654948","profile":"off-peak"},"geometry":{"type":"Polygon","coordinates":[[[126.7274806988377,37.5076690004116],[126.7426757982125,37.498056398866005],[126.7543594009075,37.5075705998919],[126.7423621004192,37.5149626010138],[126.7274806988377,37.5076690004116]]]}},{"type":"Feature","properties":{"interval":30,"stationId":"6050654948","profile":"off-peak"},"geometry":{"type":"Polygon","coordinates":[[[126.6922221966183,37.5105070984192],[126.7025571913346,37.498671001093804],[126.7111318984063,37.500752900087605],[126.7162466988024,37.496707801061206],[126.7060280990281,37.476418601124806],[126.6979982998501,37.4721183002914],[126.7082542993102,37.461393099967204],[126.7143947990154,37.4639272994755],[126.7103385008575,37.472442599348604],[126.7192323007898,37.4835914972681],[126.7328820998811,37.4864551992055],[126.7449527998876,37.4826785990057],[126.7478633001463,37.484600098806204],[126.74410420205409,37.4907021996406],[126.7596372993623,37.4875493994208],[126.76390170011301,37.481993098691696],[126.7676179005884,37.4903607997581],[126.7605849001676,37.488941000832995],[126.75658209978481,37.495691198993406],[126.78052989950291,37.4947923992],[126.7784989009011,37.498031999516],[126.7913332999845,37.4981230990401],[126.8010447990907,37.506187799676],[126.7994245035185,37.5105144997412],[126.7952264003722,37.505290202081],[126.7839101000021,37.511089800490204],[126.7624517007482,37.5111795012285],[126.7590047018804,37.5182375984078],[126.7416858005727,37.523732799929995],[126.7417201001983,37.5274804011699],[126.72374839947871,37.522365101772],[126.7222607009664,37.5252217989153],[126.7310117003328,37.5290342988565],[126.7279543013362,37.534232700954696],[126.73322799930109,37.5408022993781],[126.72685370059801,37.5470459006277],[126.7183976990289,37.543568100212504],[126.71540379929121,37.52790150064],[126.71920269929339,37.523985401618],[126.7125550000973,37.518577701485704],[126.71341079896001,37.5126833039032],[126.7066230014225,37.5122924008809],[126.709541599115,37.5172209986272],[126.7036822001179,37.5192035012353],[126.6922221966183,37.5105070984192]]]}},{"type":"Feature","properties":{"interval":60,"stationId":"6050654948","profile":"off-peak"},"geometry":{"type":"Polygon","coordinates":[[[126.60229049942289,37.4752913999599],[126.6147109961439,37.4748105992862],[126.62985839759091,37.4643637978252],[126.6317514991664,37.454386100085],[126.6412113990046,37.4544247986237],[126.64402199708461,37.446497001366204],[126.6562795998398,37.4456334995522],[126.6516539010364,37.4538197988244],[126.6545533998449,37.455429399175],[126.6641476989312,37.448036600000904],[126.6713062987952,37.4486135983211],[126.6783016993685,37.4356641001315],[126.6789817991317,37.4279860004902],[126.6647534991492,37.4090652004833],[126.6658660000805,37.3956080026971],[126.6542056005098,37.3971463005539],[126.64364770052761,37.3917197013997],[126.62874920110531,37.4051458007516],[126.6275251005343,37.4118423984272],[126.6253306987917,37.408526202140294],[126.6316024998618,37.378440499976605],[126.63786069945911,37.3762903000187],[126.6377346972358,37.3699699013924],[126.6522826993886,37.368682499357796],[126.6565358032262,37.3771525970255],[126.66587699989199,37.3766168998945],[126.6740180020428,37.382093997452905],[126.6700350057943,37.395378693154704],[126.69063629882389,37.3951077986367],[126.69753270198309,37.4009018974928],[126.7053905991142,37.3940774988016],[126.7143912997641,37.3981169989926],[126.71300080239111,37.4009480980537],[126.723538098916,37.3955763989942],[126.73762760054079,37.399414398705],[126.7356817004284,37.4047025004104],[126.7148193013975,37.4050735001248],[126.7124150028519,37.41809869976],[126.71930830007129,37.4217809994472],[126.7174026006934,37.4346892992425],[126.7215582994835,37.437928198389],[126.7179815037832,37.4429034975982],[126.7216856000791,37.4444737960279],[126.7360034992491,37.437952198115795],[126.7469607970171,37.4462665982596],[126.7507196974051,37.4354296002776],[126.7560205986141,37.438078595608495],[126.7577069969277,37.432799800887295],[126.7735855981935,37.433785098082],[126.7701982994338,37.428913902513095],[126.78144689858121,37.430923898365805],[126.79293769994139,37.4241640992816],[126.8075289995987,37.435186299802695],[126.8090217017854,37.445767498314304],[126.8128104997614,37.446178897713],[126.8129266001111,37.451895895276394],[126.8065729061458,37.453327201905694],[126.8114944012243,37.4600299952029],[126.8147050980136,37.457205898027],[126.8148920013295,37.4713671994345],[126.8263584000036,37.4715024985133],[126.8311376991998,37.4790031940578],[126.8453663992064,37.460878101382505],[126.8666794003792,37.4639781954041],[126.86959819966,37.458985099734],[126.8825377992841,37.4603366994728],[126.8860095998863,37.449331799886906],[126.8986383983611,37.444671898738],[126.8966561006637,37.4530147979356],[126.9015560998798,37.4496855992507],[126.9069231999826,37.4533402997939],[126.9072711002246,37.4650229999016],[126.89874570017011,37.478248999239895],[126.9075853994406,37.4836573983277],[126.91401739840461,37.481034900314],[126.9208762001183,37.48756989956539],[126.9310782998267,37.471396802162],[126.9368498004714,37.4707572994676],[126.9380766005264,37.4790539994018],[126.9554456000926,37.4793158994752],[126.9551645009902,37.4828930996203],[126.9370526002705,37.4844675003735],[126.9344038001969,37.490243799128805],[126.93979000002601,37.498118498728694],[126.954169898717,37.4916486998534],[126.9582104006264,37.494451999671],[126.9452265995332,37.5142628012673],[126.93488139913869,37.5075916007852],[126.9262572026647,37.5085224003864],[126.93313030001251,37.5172445995847],[126.9246388008124,37.5235222007402],[126.89679340003961,37.5101445013711],[126.8944271008598,37.5122035002069],[126.9018805994135,37.5165375986074],[126.8975108014086,37.5210182997656],[126.9002438010891,37.5283786995874],[126.9068619995809,37.5300278984006],[126.90523450063131,37.5362744991457],[126.8925551002703,37.5406137003499],[126.8911718999187,37.536670499938296],[126.9001699995256,37.53465459854441],[126.8912131001057,37.5266231007293],[126.8906891991294,37.5143064009083],[126.8787732004692,37.5169305002467],[126.8779077979686,37.5116342012437],[126.8711197019362,37.5122479009613],[126.8700352987523,37.5049266020445],[126.8454387012459,37.5074726003271],[126.8356954011506,37.5184795004577],[126.8275398029317,37.516153202959295],[126.825509504962,37.519993399119095],[126.83247990038059,37.5233995993121],[126.82887880059769,37.5240746016355],[126.8313831006286,37.529015900321596],[126.82628770122639,37.5309594997848],[126.8260058006867,37.5365680001616],[126.81644900051971,37.5375522990928],[126.815482000446,37.549886799277104],[126.8173379981271,37.5466586988791],[126.82146999951061,37.5520590991894],[126.82629159960351,37.5508252997533],[126.8316412996657,37.539522100373496],[126.8497535994651,37.5262643996358],[126.8536715000794,37.531140699603704],[126.8466395003572,37.5366486000469],[126.8460581995777,37.5564986979893],[126.8484481991981,37.5512270997404],[126.8551507996525,37.5521389990192],[126.872068799771,37.5406798996756],[126.8841409993375,37.5411755982374],[126.8812763010718,37.5427282007861],[126.88538750063589,37.5477461993368],[126.87020200185931,37.5547494001343],[126.8595211088125,37.567348303588],[126.83722630100999,37.572486301651004],[126.8294270009384,37.5797014997238],[126.8191715030803,37.5780373995881],[126.81951850241,37.5822267007251],[126.8117658018776,37.5868703997591],[126.8054913006559,37.584214702368996],[126.8019699008579,37.5893229011527],[126.7898682003568,37.5864119010623],[126.78661289800979,37.5787482034993],[126.79695499925799,37.5843018977194],[126.79891689954789,37.577712100643],[126.7868125023315,37.5761432007323],[126.7936973959229,37.5670304024866],[126.7993937003088,37.5758302957253],[126.8035801992859,37.5713500991522],[126.7984198005241,37.563155202025094],[126.8139417975667,37.5471032001008],[126.80718159838241,37.538683202811605],[126.80312890001551,37.5376786020303],[126.80024320125689,37.5436315996429],[126.7942545013281,37.5413629018853],[126.7994939974746,37.532399502766694],[126.7859471011206,37.5384869000914],[126.7870517972544,37.5339478011687],[126.77320830001409,37.5287690032035],[126.762097002002,37.5366477012614],[126.7647737010854,37.544112195101704],[126.7456342014431,37.5427395010121],[126.75179019988481,37.558545697645705],[126.7612608987706,37.5587983992307],[126.7624988005072,37.562889597798296],[126.75625560173481,37.567019898673095],[126.7583129008309,37.5732517990555],[126.7533707002529,37.567738401363805],[126.74673870296239,37.5727140981436],[126.7474732003353,37.5791630990921],[126.73708220203041,37.5833946008828],[126.7283194982067,37.581398201267604],[126.72621889583401,37.5712875024011],[126.71168130387319,37.570594502885896],[126.7203728963492,37.5710665972704],[126.72072349599861,37.5678139005231],[126.7030933006167,37.556430404302105],[126.704533694231,37.5532281023035],[126.69256710255601,37.5516821006911],[126.68847030299041,37.5692911029791],[126.6812700019557,37.5691271010265],[126.6806367054047,37.5729466007904],[126.6908061019031,37.587474398598296],[126.6759402056182,37.5987658029152],[126.6682823024216,37.5994150046257],[126.6612989004539,37.6104697003693],[126.6400452008212,37.6013020036082],[126.63709769923359,37.5957094003927],[126.6238355015765,37.5979085024652],[126.6218720993856,37.5940988014462],[126.6369767987555,37.591010498457905],[126.64360429970161,37.5953435996105],[126.6491740965166,37.5936193985586],[126.647579199172,37.5899178007814],[126.65396110006921,37.5997629974576],[126.6634729972452,37.5908582985428],[126.6616784996434,37.5838673019645],[126.6682660956059,37.5838882954746],[126.66841379545819,37.57739750196539],[126.6753417992114,37.575782299168],[126.6740299993701,37.5690900007051],[126.6637765000301,37.5697800017033],[126.67096459356921,37.565340600218796],[126.6536711998783,37.5517522033265],[126.6590325997173,37.5318112012807],[126.6484206999276,37.526459100740496],[126.6556131956216,37.522251601314096],[126.6511591000035,37.5221806000591],[126.6488668988519,37.515045600623],[126.6614716973889,37.5162789996076],[126.6618234931083,37.506879402860704],[126.6565111984206,37.5037937059464],[126.6487088999785,37.5070390017275],[126.64340490154859,37.4991378043234],[126.65059049921511,37.4862696004704],[126.6220413012838,37.487787599834796],[126.60229049942289,37.4752913999599]]]}}]}