{"type":"FeatureCollection","features":[{"type":"Feature","properties":{"interval":15,"stationId":"6102706816","profile":"off-peak"},"geometry":{"type":"Polygon","coordinates":[[[127.0703796987573,37.5115810989354],[127.0808434985649,37.5019349014174],[127.1005805983273,37.4952669987376],[127.1080098990995,37.5017517988728],[127.10067310071699,37.5112280002359],[127.0874321004288,37.509847801240106],[127.07590450084629,37.5174616003344],[127.0703796987573,37.5115810989354]]]}},{"type":"Feature","properties":{"interval":30,"stationId":"6102706816","profile":"off-peak"},"geometry":{"type":"Polygon","coordinates":[[[126.98636959892761,37.500967599420704],[127.02011429934241,37.5001549988043],[127.019051800168,37.4953126006141],[127.0076517000043,37.494190203002],[127.00799239922921,37.489512200018],[127.0453870994183,37.4994487991152],[127.0438167996534,37.493294000742296],[127.05458149868849,37.493533899983],[127.0449025000894,37.489145200943504],[127.0432032991687,37.483149700001995],[127.0489592994615,37.4889595989927],[127.0564782985467,37.485019200772],[127.0548087996534,37.4818480003556],[127.0704229999981,37.490108599813496],[127.0645126999449,37.4918864013365],[127.0607847007201,37.5002118996759],[127.0676453990179,37.5003977995268],[127.0723886985257,37.4913023009436],[127.0853036985248,37.5007904981299],[127.0864470997505,37.4933131994689],[127.0933868988991,37.497888697297796],[127.1042198983706,37.491047100629906],[127.1092995001067,37.495864399172],[127.10205300027499,37.4950449996611],[127.1031032992823,37.4980520993195],[127.108747499602,37.5006719986146],[127.12305209907,37.484645699642904],[127.1262000000413,37.4851099992798],[127.11720000085539,37.5021181992351],[127.1297382997659,37.5065094997378],[127.13897850056699,37.5189400975172],[127.14303189948549,37.5174648988946],[127.1344675022403,37.5215920010755],[127.1257442015247,37.5208742015095],[127.1254106993518,37.5174104004002],[127.1048733005338,37.5245438013122],[127.09590470633671,37.5334048021913],[127.0984694013367,37.5393667988978],[127.0864316007749,37.541935001393604],[127.0778758994109,37.535514000235],[127.08902639908199,37.5313078001086],[127.0963764946768,37.521841708249504],[127.091335698514,37.5192514073029],[127.06790030168601,37.5191666089965],[127.0428565055,37.531398004729105],[127.03594130006131,37.530341800526],[127.0344673995991,37.5169804014359],[127.01976980075361,37.5206913001267],[127.0082215996887,37.509918601512396],[127.0017181009253,37.5119797003739],[126.9991351983272,37.5055981024626],[126.98636959892761,37.500967599420704]]]}},{"type":"Feature","properties":{"interval":60,"stationId":"6102706816","profile":"off-peak"},"geometry":{"type":"Polygon","coordinates":[[[126.8354547991363,37.5685908997445],[126.8389914986251,37.5633222001313],[126.845756698353,37.5648203996839],[126.85062139944739,37.5541766001913],[126.8635398979833,37.553806000914705],[126.8673546987778,37.538947399978596],[126.8850778996734,37.5373234998738],[126.8818278005203,37.5423054012089],[126.8861292977481,37.546200497523195],[126.8909123997316,37.5371808989748],[126.8905088996608,37.5303826003829],[126.8827901003325,37.524809201225],[126.8734281000567,37.52947850027],[126.8681504999232,37.5254699008893],[126.85566300119031,37.528589700481994],[126.8516194000793,37.5242208005126],[126.8836082985468,37.5207221995511],[126.8738857999229,37.5065344014555],[126.8751694977728,37.499973402181304],[126.86883030083929,37.5015358000909],[126.8661651988435,37.498877100358705],[126.8700972987555,37.4966289993789],[126.86512279971639,37.4928343019222],[126.85652250095569,37.4972942004351],[126.8534907001672,37.4942530021426],[126.8722757984603,37.4890148003178],[126.8773363002956,37.501110197837],[126.8828086994542,37.4946945000287],[126.8757198000131,37.480097802296406],[126.8624328999561,37.4775378006663],[126.86322319947719,37.4738646999497],[126.87962159784429,37.4786672975524],[126.8844807976551,37.47384679905149],[126.8823847021379,37.4789707990456],[126.8998107991454,37.4857946995916],[126.9164855994422,37.475631399454095],[126.922967697886,37.480083198233906],[126.92064809959679,37.473738800508],[126.9315651951812,37.4643686004752],[126.95143859917971,37.46593449980681],[126.9537161999259,37.4703373968341],[126.9578834957586,37.4685551986163],[126.9554267987655,37.461425902131204],[126.97436260043851,37.4622457964732],[126.9806033997507,37.4710080979516],[126.9884666994664,37.4660825001595],[126.9903535987343,37.4442588046065],[126.99453269627769,37.443519800074796],[126.98466100074491,37.4311341025752],[126.9831299994093,37.4233687003356],[126.9886674969443,37.4196604007127],[127.0112878984502,37.4278766987994],[127.0097647019445,37.4316980986914],[127.0158692972541,37.4348400951984],[127.01782110278211,37.441856196458],[127.0121255031049,37.449066798499395],[127.01694069909091,37.455260798365195],[127.0058475064104,37.4623663998264],[127.0081222041357,37.469623992568806],[127.01667359558431,37.4696352925575],[127.0288213988033,37.4534606987734],[127.0428341941796,37.4527490978072],[127.0377692000274,37.4489792003659],[127.0433234949404,37.4508386944969],[127.04457879368509,37.4402141051215],[127.0407989974649,37.4382830070526],[127.0472525979354,37.4322286017697],[127.0699220000119,37.4341684996747],[127.0723027017981,37.442386196871205],[127.0666571054002,37.4464463004604],[127.061624102394,37.4689519938233],[127.0865052017244,37.475355996908796],[127.1047632969446,37.4682166988201],[127.1058782993989,37.459425900290796],[127.11579469763069,37.462988797790196],[127.1194199939955,37.4589331016612],[127.117607999149,37.4287246006431],[127.12563399827671,37.4253608005712],[127.1191682989616,37.4093770996221],[127.1003140997108,37.4051553012828],[127.1013613979769,37.3991934994061],[127.09807430052689,37.3996332007845],[127.1042811988208,37.3957435000492],[127.09903639942131,37.388093800016],[127.1071135991646,37.3796506996261],[127.1049339989307,37.3655994997395],[127.0972003995372,37.36363240008],[127.10267570056061,37.363756598015605],[127.1044523973015,37.3566222009038],[127.0925391987047,37.3376992001185],[127.1028606979731,37.3301441999775],[127.11365290080471,37.3363669986826],[127.1098019012494,37.342512400591694],[127.1190134,37.3462756998422],[127.1199596003914,37.3517388993523],[127.1132912006236,37.3589321990666],[127.1161808007158,37.3656557001485],[127.1227007999168,37.366938499668805],[127.119580901441,37.3783970993956],[127.135286800542,37.390040597569396],[127.1322664026935,37.403553200121095],[127.139877099857,37.4092053997812],[127.13816320234899,37.4250912936042],[127.16879539877459,37.4344987977212],[127.1729228021384,37.4473401984036],[127.1765807999922,37.4473547998768],[127.1733926025742,37.4645855989365],[127.1589492030751,37.4689371021637],[127.1495365017413,37.483066698738604],[127.17015439879741,37.4825208982749],[127.170957102755,37.4931658974358],[127.170578198796,37.4897827029745],[127.16111810464399,37.4964304988573],[127.1652032008433,37.503649096503],[127.16949729814691,37.502791297060895],[127.1648679028434,37.5068225000956],[127.1593668017382,37.5328886983121],[127.1692154951136,37.540961897196],[127.17121299811089,37.534790200443304],[127.1700775993533,37.5530334975223],[127.1845527995265,37.5592986987509],[127.1759873999801,37.5576256038407],[127.1609171997639,37.5635465005705],[127.1497605016788,37.5632577018159],[127.1489863003175,37.558843603535905],[127.1390681017225,37.5668924080462],[127.1434767981802,37.560308900983],[127.1399924016646,37.5560290052629],[127.1353438011298,37.566412399974496],[127.1259341948053,37.5589419073938],[127.0969278049465,37.5635443999243],[127.0962059041593,37.5686982996006],[127.10491160243289,37.578555794560096],[127.1052959005688,37.597776199158396],[127.1155894000972,37.6038591978507],[127.10166250043271,37.612991201133006],[127.0856569012022,37.6062527024871],[127.0908166998369,37.6218342994027],[127.0820013018234,37.624284800308395],[127.0784612005297,37.631696799251],[127.0723393012306,37.6290938019483],[127.0753636998407,37.6387113980201],[127.067174003566,37.6442526010374],[127.065964004056,37.6486485990914],[127.0695769004431,37.6492013985386],[127.0626135018469,37.649996701007105],[127.0661712003706,37.6555855990655],[127.0631099009473,37.6581698003879],[127.05489559996529,37.6528477000814],[127.0611258997661,37.6502817001115],[127.0576036992776,37.6454196012161],[127.04571280124401,37.6574378010277],[127.0400328997378,37.6542880011017],[127.0444810993933,37.6421610004688],[127.0549499975022,37.6359778000472],[127.0511689991423,37.6264981007447],[127.0578475980636,37.6226805020111],[127.0524543003333,37.6228811002205],[127.05234419929279,37.6118483020579],[127.03460459987289,37.6039301007087],[127.0346940002546,37.615870900127],[127.0292637006743,37.619036899963895],[127.0253354993246,37.614183600021796],[127.0285367978758,37.6111115992205],[127.0194607998597,37.6060384025099],[127.0084722003355,37.6173669998975],[127.0030744998672,37.613652200709595],[127.008781998932,37.6048269997986],[127.00861529751761,37.594597800826804],[126.9995881009824,37.5964548006128],[126.9909522991251,37.5875129009216],[126.9801394001662,37.5887751003533],[126.97827950069559,37.583410000396704],[126.96935049952751,37.5878905018643],[126.9595816003259,37.5803758015988],[126.9411053014022,37.5958796004493],[126.9346507009828,37.6128834001203],[126.9262113999936,37.6148801006912],[126.9250130985645,37.609688999886906],[126.9329368991956,37.604340300278594],[126.92628019983029,37.601300900759995],[126.9377400991775,37.5939561003329],[126.93843359980849,37.583452900292095],[126.9492116985897,37.5822828981615],[126.9553379980148,37.568294598913404],[126.9493240009438,37.560182100697496],[126.9458189022494,37.563024602106196],[126.93440540031371,37.5592616006342],[126.92361360022319,37.5644084001682],[126.9119863002217,37.5599079007642],[126.9007722018202,37.5669698003706],[126.9004145001753,37.572305300392394],[126.9060417983634,37.548690199721406],[126.9037013034173,37.5429679034095],[126.89206660072611,37.543193200445295],[126.8746962053692,37.5549892091139],[126.86353990169661,37.5538060005424],[126.8595211022663,37.5673482968238],[126.84690290092891,37.5660389003785],[126.84036880069709,37.573299400513406],[126.8354547991363,37.5685908997445]]]}}]}