{"type":"FeatureCollection","features":[{"type":"Feature","properties":{"interval":15,"stationId":"619039778","profile":"off-peak"},"geometry":{"type":"Polygon","coordinates":[[[126.74190919993859,37.35201759993431],[126.74198120181909,37.35203421984889],[126.74212819977329,37.3519540999814],[126.7419812018801,37.35203422004819],[126.74190919993859,37.35201759993431]]]}},{"type":"Feature","properties":{"interval":30,"stationId":"619039778","profile":"off-peak"},"geometry":{"type":"Polygon","coordinates":[[[126.74190919993859,37.35201759993431],[126.74198120181909,37.35203421984889],[126.74212819977329,37.3519540999814],[126.7419812018801,37.35203422004819],[126.74190919993859,37.35201759993431]]]}},{"type":"Feature","properties":{"interval":60,"stationId":"619039778","profile":"off-peak"},"geometry":{"type":"Polygon","coordinates":[[[126.74190919993859,37.35201759993431],[126.74198120181909,37.35203421984889],[126.74212819977329,37.3519540999814],[126.7419812018801,37.35203422004819],[126.74190919993859,37.35201759993431]]]}}]}