{"type":"FeatureCollection","features":[{"type":"Feature","properties":{"interval":15,"stationId":"660878435","profile":"off-peak"},"geometry":{"type":"Polygon","coordinates":[[[126.8903709994444,37.5085862998523],[126.8904135994681,37.508535299832396],[126.890370999784,37.5085863009853],[126.8903709994444,37.5085862998523]]]}},{"type":"Feature","properties":{"interval":30,"stationId":"660878435","profile":"off-peak"},"geometry":{"type":"Polygon","coordinates":[[[126.8903709994444,37.5085862998523],[126.8904135994681,37.508535299832396],[126.890370999784,37.5085863009853],[126.8903709994444,37.5085862998523]]]}},{"type":"Feature","properties":{"interval":60,"stationId":"660878435","profile":"off-peak"},"geometry":{"type":"Polygon","coordinates":[[[126.8903709994444,37.5085862998523],[126.8904135994681,37.508535299832396],[126.890370999784,37.5085863009853],[126.8903709994444,37.5085862998523]]]}}]}