{"type":"FeatureCollection","features":[{"type":"Feature","properties":{"interval":15,"stationId":"7121505500","profile":"off-peak"},"geometry":{"type":"Polygon","coordinates":[[[127.0463773999677,37.7364731001624],[127.0463774002565,37.7364730998978],[127.04640880348333,37.73663511903921],[127.0463773999677,37.7364731001624]]]}},{"type":"Feature","properties":{"interval":30,"stationId":"7121505500","profile":"off-peak"},"geometry":{"type":"Polygon","coordinates":[[[127.0463773999677,37.7364731001624],[127.0463774002565,37.7364730998978],[127.04640880348333,37.73663511903921],[127.0463773999677,37.7364731001624]]]}},{"type":"Feature","properties":{"interval":60,"stationId":"7121505500","profile":"off-peak"},"geometry":{"type":"Polygon","coordinates":[[[127.0463773999677,37.7364731001624],[127.0463774002565,37.7364730998978],[127.04640880348333,37.73663511903921],[127.0463773999677,37.7364731001624]]]}}]}