{"type":"FeatureCollection","features":[{"type":"Feature","properties":{"interval":15,"stationId":"7287842392","profile":"off-peak"},"geometry":{"type":"Polygon","coordinates":[[[126.9990024993178,37.503546200433],[127.00737119928209,37.5000901996785],[127.0182672987452,37.504547099020705],[127.02351719967601,37.5010230997189],[127.0233182002957,37.4947950005196],[127.029877999862,37.4927894984707],[127.02906850099559,37.5010741999564],[127.0383739003214,37.5086766988915],[127.0356020007398,37.512635100242996],[127.0387727996282,37.5151178990128],[127.0443038992393,37.5083852999675],[127.0464621001827,37.518069299347204],[127.01911320086691,37.5215418006525],[126.9990024993178,37.503546200433]]]}},{"type":"Feature","properties":{"interval":30,"stationId":"7287842392","profile":"off-peak"},"geometry":{"type":"Polygon","coordinates":[[[126.9152509995879,37.5000158008705],[126.9266385992526,37.4954120999463],[126.9343621007633,37.5005595996369],[126.9490034980987,37.4963654002728],[126.9467659992897,37.4927154022515],[126.96681199533151,37.4828641998867],[126.9473388001543,37.481882000648795],[126.9631281989452,37.4723932001216],[126.9829779976254,37.4699935010146],[126.9924097986437,37.4796569966876],[127.0032521991141,37.4740317977119],[127.00794829992789,37.480072399139296],[127.0287000986133,37.482525000852],[127.03132019904889,37.462620201507505],[127.0491043000014,37.4621893993061],[127.0456829017922,37.4646264996201],[127.0490873003583,37.4757795002414],[127.04466010104,37.4807755993221],[127.07021859916661,37.490004699366],[127.0645126999449,37.4918864013365],[127.0593651006445,37.5033374994322],[127.0717562959537,37.505398997219096],[127.07129040048609,37.5084874999245],[127.0681259026486,37.5056757008094],[127.0716458007976,37.5108370999241],[127.08359159853211,37.500655098962206],[127.1022664996915,37.5026830995424],[127.08993410089549,37.5086093014011],[127.08785120132261,37.514684199192],[127.0789091010002,37.518031399928496],[127.0718884011582,37.51456490315],[127.0641962037041,37.5209762981903],[127.0665351014744,37.5287175997148],[127.08006230009859,37.527337099454094],[127.0782415008163,37.5333795998836],[127.09318179872639,37.5324630985279],[127.09710960054299,37.5381725996001],[127.0810093003824,37.540796400424696],[127.0752624010172,37.5510716984155],[127.09288510015641,37.5492219998435],[127.08505730024551,37.5613708997447],[127.0891860006695,37.5662525989007],[127.0874420002578,37.5779793998805],[127.0929440002332,37.580681299880005],[127.0846651001188,37.5810482009599],[127.083723699536,37.5693978010116],[127.06071269888879,37.543823601158806],[127.0426314011374,37.5537998010173],[127.03603029915499,37.541985500067504],[127.0422705993292,37.538783699317406],[127.0428564992157,37.5313979997789],[127.0393509990096,37.530822801234706],[127.0348859019531,37.535619197466396],[127.020321908255,37.5376219039081],[127.027948199214,37.545732397947695],[127.01665110102671,37.556365901199],[127.02038020062321,37.5675813000008],[127.01620050005779,37.5749682003116],[127.0115498001022,37.564897300903496],[126.9846519999165,37.5793185002758],[126.98207359973591,37.576539100548],[126.98785969918531,37.57297860005],[126.9881799990854,37.5618667012047],[126.9744110998526,37.5567013000742],[127.0003410002764,37.5554637986787],[127.0037282990788,37.5479766016492],[127.0106478993535,37.546786898903804],[127.0103219979769,37.5368106028684],[127.0201214942982,37.537420798766],[127.0208889932903,37.5297237061238],[127.0124065003083,37.5278878034352],[127.0102327995609,37.5184777020705],[127.0030453953418,37.5141234067652],[126.9961536022336,37.515376105512495],[126.987980300565,37.5024320029736],[126.9558533007167,37.5141439034448],[126.949124399258,37.5138427000869],[126.9473390009383,37.5089915015796],[126.9427930018113,37.509918900066204],[126.9481783000537,37.5129607988792],[126.9391470003349,37.5143485001188],[126.9322656970384,37.503528601036706],[126.9152509995879,37.5000158008705]]]}},{"type":"Feature","properties":{"interval":60,"stationId":"7287842392","profile":"off-peak"},"geometry":{"type":"Polygon","coordinates":[[[126.7958203993537,37.577875000399295],[126.8038339991374,37.570262900158006],[126.797213300431,37.562617500764],[126.8095167001976,37.5544741994389],[126.8173668991082,37.5606905983936],[126.8293959998908,37.5552540998007],[126.8295459995542,37.538161100322505],[126.8406674993274,37.5217196009301],[126.86124689855579,37.5047571003877],[126.8324128999267,37.4957346031692],[126.82143349947779,37.4977200004588],[126.8229236983616,37.493087802261996],[126.8100845002302,37.490396401214504],[126.80404089984691,37.4828956003197],[126.8262939999191,37.4840965995209],[126.8251189998297,37.481241200947],[126.8332433993655,37.488281896268],[126.84728669714829,37.4663424012257],[126.8841907986653,37.4609881993166],[126.88392779792669,37.451676802042904],[126.8937942979367,37.446299400427904],[126.8964245987683,37.448650198668304],[126.8986383983611,37.444671898738],[126.8966561006637,37.4530147979356],[126.9015560998798,37.4496855992507],[126.906151100782,37.453703999754204],[126.9083210998364,37.4726775980718],[126.93059029894961,37.4557102025545],[126.953117499684,37.454446999686],[126.95853350574531,37.459023493561304],[126.9702725963907,37.4536241958752],[126.9806033997507,37.4710080979516],[126.9884666994664,37.4660825001595],[126.9922611956211,37.4535594021874],[126.981562200902,37.4492647057559],[126.98549339595789,37.440431300105],[126.9766589997389,37.433895903323204],[126.9740804015389,37.4236057025702],[126.9845770975479,37.4229187973119],[126.983052999072,37.4173489028818],[126.9899205000056,37.415162498608],[126.9940220000269,37.420503798616],[127.0006045964508,37.4177367943486],[127.01229100040551,37.4249157968005],[127.01956159877311,37.4237539988475],[127.0248279006623,37.436262798620405],[127.02058260230369,37.435722501836096],[127.01918900369729,37.441673095885506],[127.0273870986161,37.4521082992146],[127.03292539513609,37.4449206039733],[127.02912089799939,37.4409487023603],[127.04035298950619,37.423664601294],[127.0548408979841,37.4335890925844],[127.0597292958178,37.429682497292],[127.0660149005543,37.4347978984222],[127.0709975986133,37.429791600886205],[127.0681134014975,37.427481803196],[127.06672070289021,37.432978797699],[127.0667227969891,37.4269859008566],[127.0752233981361,37.4244846943103],[127.07197930296779,37.4249974004287],[127.08459640316299,37.4335100987688],[127.07905340089471,37.430477603964],[127.0719894029564,37.435428102570604],[127.0674286024856,37.4511892984112],[127.0727020993552,37.447452699454],[127.0754488009816,37.4578265987655],[127.08082299930119,37.455653598395195],[127.0869007012073,37.4623845003158],[127.0762424998106,37.4655846007189],[127.07874539581191,37.4615224011215],[127.0707625011634,37.463639199935706],[127.06854149771159,37.4591990058429],[127.06162410364,37.4689519961506],[127.077111598348,37.4750565942953],[127.0979551988038,37.4725652981078],[127.1078904997832,37.462021900052605],[127.11579469763069,37.462988797790196],[127.11793829528621,37.4561134033359],[127.1241496977556,37.4591378962324],[127.1167386998173,37.427887400163804],[127.1241473992545,37.4313582991433],[127.12113709871299,37.416502102627206],[127.11832720072519,37.4217278999718],[127.1195402976323,37.4149606030549],[127.1105173028283,37.4164845033633],[127.106622099427,37.4104897001136],[127.1087121001109,37.4135615979802],[127.1139486979035,37.4094372003687],[127.1049349986543,37.40539540290651],[127.10179530244221,37.415980697512296],[127.0914071983567,37.4101352005997],[127.09730949906209,37.4078203992008],[127.10032819901011,37.397639500960096],[127.0903041994589,37.402410701836594],[127.0857231996776,37.391249300472296],[127.09572749633959,37.3822275010713],[127.0960367958696,37.3755562068825],[127.089220094891,37.3694967057951],[127.0859709982461,37.3521936035811],[127.0814194027977,37.353325502449195],[127.0843868962391,37.349515501262005],[127.07860139914699,37.3279311003354],[127.0631537003977,37.3215929002327],[127.0646439991899,37.2937095003781],[127.0577837011887,37.2928318017546],[127.06029789998179,37.298526799772596],[127.0525746025954,37.2961936014664],[127.0381093017937,37.3034180037041],[127.0356989985927,37.294279000257006],[127.0415544976225,37.295320197993696],[127.0396563000742,37.2864805029573],[127.0501078982243,37.278783600530595],[127.0593899939713,37.281365098535005],[127.0625657006794,37.2873751990719],[127.0774386998365,37.2894531976292],[127.0977471996066,37.3102340972703],[127.1018088971787,37.3085518006427],[127.096795899788,37.2953665046723],[127.1073918969804,37.2921954996218],[127.10426789926619,37.2851391009715],[127.1017882012972,37.287924400011704],[127.1078729987018,37.2696194997311],[127.104485199083,37.2577231997211],[127.11254190033739,37.2651018994402],[127.1093333020514,37.2705838000823],[127.12200489911669,37.2730660983784],[127.12737809958,37.2682033993249],[127.1217654049953,37.2786375984382],[127.1222534015971,37.290432200816],[127.11598350287589,37.2924387002574],[127.1142924063538,37.3112017964541],[127.12426760099319,37.3297025989421],[127.1211275011456,37.338162397532],[127.1273969008515,37.339013399525996],[127.1245162019365,37.345260900812],[127.1320295009775,37.3511917983788],[127.12718220742379,37.358809798518806],[127.1335858000464,37.3710205980999],[127.1310351010101,37.374172100105206],[127.1418889998955,37.3802123976374],[127.139571300923,37.3869193991113],[127.14624910019941,37.3948056991846],[127.1367145006202,37.3964503022606],[127.1382341995382,37.4049410945871],[127.1443320990856,37.4075638996688],[127.13816320234899,37.4250912936042],[127.15317829818059,37.441106397360905],[127.1648903998642,37.4381146998106],[127.171529200586,37.4522854983401],[127.1675976003029,37.4613805991357],[127.1634110998533,37.4598063027838],[127.1504624008912,37.4718778001519],[127.1446016012215,37.471468601001604],[127.14612800059841,37.4842517993132],[127.1610607990932,37.4883035991776],[127.15995790064119,37.5011357005953],[127.1469699012442,37.5079335992285],[127.1596831994954,37.5201346985783],[127.1510777040553,37.526560100746394],[127.1602526961374,37.529942098948396],[127.15649760031589,37.549149597875],[127.16683849928219,37.5480022001533],[127.1845527995265,37.5592986987509],[127.1497605016788,37.5632577018159],[127.1489863003175,37.558843603535905],[127.1448429037372,37.5619093021659],[127.1399924016646,37.5560290052629],[127.1348011016496,37.5633676003697],[127.1259341948053,37.5589419073938],[127.11510870397959,37.5613228044222],[127.1155311035572,37.5647197010253],[127.10520480353479,37.561066599831996],[127.1043380058825,37.5696255968896],[127.115646601604,37.576181598969],[127.1167507003829,37.582069098592896],[127.1111834018009,37.593283399797095],[127.11367260114581,37.608510599208905],[127.0961403010649,37.6138480994807],[127.0969165001907,37.6251872973374],[127.0866586034292,37.6269147019076],[127.0805779026134,37.636308600319296],[127.0828841003072,37.639644896983],[127.07645000561959,37.6444480010963],[127.0797500009612,37.650599997647895],[127.07589630227369,37.6537186997951],[127.0852707001563,37.673448100699204],[127.0671621006533,37.669040202258195],[127.0632104029615,37.6731875993105],[127.0659757994333,37.680621797442996],[127.04206220052521,37.6945375016248],[127.0380253976654,37.686646500377],[127.0500053986333,37.6714864009353],[127.039743699821,37.6651486000059],[127.0505387995965,37.6597423999201],[127.0270418999438,37.651949100104105],[127.0238965004324,37.6465508007616],[127.0172927015372,37.6526054985482],[127.0175699006231,37.661472396757304],[127.0080348979523,37.6645939008119],[127.00835259751119,37.629023000489696],[127.0072901981409,37.624157703215296],[126.99489300010741,37.620419406149104],[126.99963219940899,37.6111483999932],[126.9943825003056,37.6110095001388],[126.9963571973186,37.6014656017719],[126.9749593987769,37.5905895024771],[126.9615269002213,37.5940038023681],[126.9638852997509,37.5867382020857],[126.9591389025997,37.5869323022845],[126.950302401134,37.6032416997302],[126.9441960019691,37.6010937018839],[126.94343190243609,37.6150200956001],[126.9369057992187,37.6155550023747],[126.9388650026805,37.621794096904104],[126.9313856017041,37.628822600248796],[126.9330692983683,37.6334717986371],[126.9253433030767,37.6397888012776],[126.92072640070711,37.6540468994872],[126.9075273008483,37.6532374017694],[126.91344409846931,37.6503204983442],[126.9059230023195,37.6487635016595],[126.9149082957584,37.6391517017291],[126.90743889976851,37.6336248070641],[126.9148604979654,37.6342176986817],[126.9176192991598,37.628686201169096],[126.91448360077,37.6295873004919],[126.9159887972977,37.624592402323096],[126.9071370016358,37.624834904116305],[126.9070412996198,37.6154818002428],[126.9138965999547,37.6051503996035],[126.9093808998859,37.588709300556594],[126.9034394987412,37.5851564011867],[126.90490679929,37.581740700804],[126.8886300992445,37.5793721004522],[126.88917449919019,37.575474300525805],[126.89951949977839,37.5725312996205],[126.8917482996079,37.562996800758],[126.8985115985441,37.5580554990047],[126.8916955994208,37.5460439004571],[126.883853906023,37.5532880054524],[126.8870128018739,37.559434099442996],[126.8785532998584,37.5528588007853],[126.8623439059897,37.5637587071776],[126.8595211088125,37.567348303588],[126.8642369026165,37.573749398970094],[126.859521102296,37.5673483068944],[126.8348612077972,37.5787932067942],[126.8335961990398,37.5742725019593],[126.8289614021511,37.5786130983033],[126.8118677018623,37.579955700944296],[126.80554959981701,37.5749774025824],[126.80001780209031,37.58135420101],[126.7958203993537,37.577875000399295]]]}}]}