{"type":"FeatureCollection","features":[{"type":"Feature","properties":{"interval":15,"stationId":"7798230510","profile":"off-peak"},"geometry":{"type":"Polygon","coordinates":[[[127.1874295992718,37.5635473999714],[127.1936495984771,37.5591835002088],[127.1979894993043,37.5451953005386],[127.21372720036199,37.5462894999042],[127.2044116014192,37.5594846998028],[127.1965795006337,37.557803001525],[127.1954116011095,37.5657687004297],[127.1874295992718,37.5635473999714]]]}},{"type":"Feature","properties":{"interval":30,"stationId":"7798230510","profile":"off-peak"},"geometry":{"type":"Polygon","coordinates":[[[127.1191808995566,37.5408076994838],[127.1288362994779,37.5321967001464],[127.1419175993326,37.5317588997673],[127.15649760031589,37.549149597875],[127.16506309895979,37.5505865990593],[127.1667264988109,37.5457972004609],[127.1790971994127,37.5512290991835],[127.2018002993933,37.5323598997902],[127.23303340099089,37.5392952004137],[127.2265295007102,37.5411901007079],[127.2204854122869,37.5554117052233],[127.2101884006131,37.5562015022591],[127.2049793025952,37.5616262009406],[127.20268580191299,37.573264600324805],[127.199151899018,37.5691733011216],[127.1870612998889,37.57709710036],[127.171555999828,37.564815500179805],[127.1493548006352,37.5635736017818],[127.1364718002323,37.5555465012626],[127.1331789985318,37.5375747007321],[127.1191808995566,37.5408076994838]]]}},{"type":"Feature","properties":{"interval":60,"stationId":"7798230510","profile":"off-peak"},"geometry":{"type":"Polygon","coordinates":[[[126.9710610998405,37.5731773995371],[126.9757989991216,37.561242200105],[127.0015017995707,37.5586116991151],[127.0045265993956,37.5532665002307],[126.9997052995851,37.5380873011332],[126.9846773003454,37.535010000487],[126.99734069970819,37.5331240988074],[127.0095536996153,37.5476898994101],[127.01070369759519,37.5395094001696],[127.0228724984799,37.533976696129095],[127.0203219066938,37.5376218963993],[127.02744080050739,37.5459545997778],[127.0422705993292,37.538783699317406],[127.0428564992157,37.5313979997789],[127.0273806004149,37.5317617995466],[127.0254560992367,37.5255319004217],[127.0318234999902,37.5228215004096],[127.0194493001769,37.5224002001434],[126.99913520076059,37.5055981019305],[127.0057891990007,37.4946256005778],[127.0044237963115,37.4881455000922],[127.0139582990283,37.4881671991059],[127.0175698986275,37.4829475994444],[127.020241999954,37.492718399722],[127.03975199959689,37.4927836991467],[127.0441309000102,37.4974243989258],[127.0532938994486,37.4944257988044],[127.0593026974192,37.486299000539006],[127.0754904016117,37.489971999007004],[127.08063599748439,37.477255997612495],[127.0866501004825,37.4836873968529],[127.09814539911001,37.4792301996354],[127.1121799990723,37.481175298512],[127.1149552997627,37.4754417999266],[127.11765059838021,37.4776243974717],[127.1168602982807,37.4661116009408],[127.11347360068831,37.4659773010191],[127.1260508984112,37.4657021986118],[127.1210428994371,37.451835200522],[127.1239716967933,37.441797402598596],[127.11981930094571,37.442326102069906],[127.1195983983402,37.438045499474],[127.12336309941931,37.4394174984129],[127.12387869938121,37.4294939003455],[127.1296706996256,37.4262297975637],[127.14823009964661,37.440940898617804],[127.1390274999503,37.4409814001231],[127.1271488013843,37.459948399538405],[127.1330217005207,37.467423797941],[127.1383440993053,37.455616399994994],[127.1446251955351,37.455750996324],[127.155275600756,37.440827798709904],[127.1620853994268,37.4407895994822],[127.1669655003397,37.450208699730794],[127.1652549003277,37.4563891003918],[127.1551727021253,37.4592464003701],[127.1466904006857,37.4702774014724],[127.1340516016438,37.471266400372095],[127.14093240010959,37.4804547994902],[127.1633716999642,37.487268298766494],[127.1612591010632,37.5048339987649],[127.1540951007837,37.5031769033468],[127.1469699012442,37.5079335992285],[127.159374702196,37.5255910961396],[127.1532189025254,37.5215489035741],[127.1536101015229,37.5301216971848],[127.1681627988804,37.534064398869496],[127.1664453990411,37.5259003997025],[127.1669861008836,37.5291620976759],[127.1799129983939,37.5236574988827],[127.1961822981147,37.511013200406204],[127.2042078002697,37.513207698323406],[127.205960399154,37.5185538945261],[127.22391310113021,37.5147209964511],[127.2388140913988,37.5258627896292],[127.24772180057339,37.5235414982972],[127.2568983021318,37.534684588065495],[127.2434118024408,37.5410271037059],[127.24876719932641,37.545038799036],[127.24170710412069,37.554641201012],[127.22579010885259,37.5498653069477],[127.1964176021183,37.5820975086174],[127.1662802999948,37.5767326069441],[127.1710308001361,37.5733391988461],[127.1694480010275,37.563786201366206],[127.15691990367351,37.5717815995966],[127.1547888989848,37.5627120023426],[127.1430426026123,37.5628965036991],[127.1251650011569,37.5769448007065],[127.1318110955519,37.5650700050749],[127.1259341948053,37.5589419073938],[127.11510870397959,37.5613228044222],[127.1155311035572,37.5647197010253],[127.1101633985762,37.560822300076296],[127.0966863057247,37.564156500537806],[127.10491160243289,37.578555794560096],[127.1006846006772,37.584045100933295],[127.1019987001872,37.6009314998442],[127.0825291005825,37.6066263015112],[127.0872226005055,37.6211972997997],[127.0712180014339,37.631449600395904],[127.07247170020459,37.637938198576],[127.0662195009846,37.6411240002211],[127.06347939919951,37.634582400183],[127.0691805965493,37.6275704993581],[127.0651821995161,37.6233061002697],[127.07013399810819,37.6182948013504],[127.064596300241,37.614301100572],[127.0727736977173,37.612054900244],[127.06898929882159,37.5990562003539],[127.0739286988694,37.5838160012393],[127.06916340003659,37.5764763002224],[127.0633523013163,37.572931003094695],[127.0551908000545,37.581035300212704],[127.0541207005743,37.5847451000059],[127.062577300079,37.5883043997437],[127.0593349005332,37.5927643997764],[127.03189419977599,37.5781480011565],[127.0217063005301,37.5810005002047],[127.01907169919019,37.5752264004879],[127.0136851008583,37.5802362006196],[127.0136047995789,37.5746953002729],[127.0048121999795,37.5715087003958],[126.99462319999691,37.5720246000271],[126.989000800282,37.5786838005622],[126.9824589995157,37.5720462012802],[126.9786418004727,37.5754517996816],[126.9710610998405,37.5731773995371]]]}}]}