{"type":"FeatureCollection","features":[{"type":"Feature","properties":{"interval":15,"stationId":"7864301049","profile":"off-peak"},"geometry":{"type":"Polygon","coordinates":[[[126.95146439596971,37.240879500426395],[126.96014269947891,37.2342707981649],[126.9667939010793,37.235709998752796],[126.974603502212,37.2490756993273],[126.95615000406809,37.2467090033423],[126.95146439596971,37.240879500426395]]]}},{"type":"Feature","properties":{"interval":30,"stationId":"7864301049","profile":"off-peak"},"geometry":{"type":"Polygon","coordinates":[[[126.9403200963147,37.2415516011285],[126.94542819747639,37.2334500016733],[126.9481387999347,37.2360379976705],[126.9574150996013,37.228169899170496],[126.95881759901721,37.231406896745106],[126.9716759986921,37.2274203978088],[126.9820016973337,37.232689895589594],[126.9815280024677,37.2421030994634],[126.9876871014289,37.252102899954494],[126.96706420124059,37.2611090997543],[126.9499800018283,37.2557335024203],[126.9403200963147,37.2415516011285]]]}},{"type":"Feature","properties":{"interval":60,"stationId":"7864301049","profile":"off-peak"},"geometry":{"type":"Polygon","coordinates":[[[126.7769949966465,37.3269146008107],[126.7871761961608,37.3221900971188],[126.7854367979002,37.3187866005223],[126.7971054974657,37.3192158981007],[126.7946763998948,37.312925604391],[126.8017152970172,37.3146817976181],[126.81891469863939,37.3019150992711],[126.82800199978959,37.3070300976017],[126.8425097991872,37.3000838972947],[126.8371877981659,37.286896404510905],[126.8509036934195,37.272435596675],[126.85805980086211,37.2741491957256],[126.8669174986853,37.2499303021444],[126.8779903991263,37.2512161952093],[126.88235509476159,37.2479038985216],[126.879768698488,37.2394319998648],[126.8870205979733,37.24587819817],[126.88503969994619,37.2418397021252],[126.88964199605499,37.2375682993935],[126.9054238985409,37.233377999241505],[126.9108251011063,37.2426817923615],[126.92449349761989,37.223120199696794],[126.9253851031628,37.2296531967442],[126.9304974980504,37.2273824990149],[126.93177039758811,37.220036200928604],[126.94357789491599,37.2119540026049],[126.94313169835199,37.2062523998777],[126.9495553022035,37.2114197973732],[126.9574273977284,37.205707800856196],[126.9632646000627,37.2072547976068],[126.96402910110021,37.2150383948699],[126.9794492982462,37.2059068953646],[126.98686289837231,37.2086783988121],[126.9815803055021,37.2114380999756],[126.9879194998302,37.2174597954224],[126.9981668958782,37.2164755000313],[127.00143710166651,37.2244137984093],[126.9985080026425,37.2372387980594],[126.98948640203591,37.2351984021832],[126.9880591022895,37.2389717006112],[126.99947340121,37.2572956964025],[127.0130380995112,37.2482094995244],[127.0225099983433,37.253208298190096],[127.036003997844,37.2389696996441],[127.0466339999733,37.245190899695196],[127.0520575991971,37.2360003014612],[127.0613749986742,37.2359664989985],[127.06921720108559,37.2441746981684],[127.07902099966,37.2455472991895],[127.0856134009548,37.2612658986141],[127.0814897018878,37.2608410019596],[127.0844623999594,37.265937098605804],[127.07792850048659,37.266969900157896],[127.07127459726759,37.2575917014549],[127.0641088003937,37.2589401010571],[127.0542352004664,37.2500279006779],[127.0525335014333,37.2604954992921],[127.04235920045541,37.2664549011371],[127.0385116007599,37.2752014002759],[127.0317402013856,37.273566400666],[127.01901120062989,37.2825104004701],[126.9982295006452,37.2814977002215],[126.9913762007461,37.2858478000279],[126.9854311005207,37.2840783011275],[126.98131089893799,37.2748707030892],[126.9540642006158,37.2817765025843],[126.94550669857189,37.272596900552806],[126.93616109917231,37.2705976014601],[126.9382643965221,37.2676645011932],[126.9333146014719,37.267629801227905],[126.9317537973915,37.2618520074777],[126.91167110106811,37.2693729020601],[126.9037394030833,37.266468805220896],[126.8936033027929,37.2774877980912],[126.88289280013649,37.2807459002047],[126.8824027999311,37.275721504509406],[126.878335301227,37.2759610040237],[126.8702546007515,37.2814317007515],[126.8759803985405,37.2857779990111],[126.879957503656,37.3024515946736],[126.86572730033821,37.315675199779704],[126.8580501000013,37.3130154013125],[126.8565615011461,37.3197211001969],[126.8469793002785,37.325927200109504],[126.83892560110209,37.3291550004239],[126.8312857004493,37.3227986065845],[126.82858900314599,37.3288316005515],[126.8189254004018,37.3319921999829],[126.7936010997535,37.3270036003744],[126.7905994002906,37.334173198638204],[126.7769949966465,37.3269146008107]]]}}]}