{"type":"FeatureCollection","features":[{"type":"Feature","properties":{"interval":15,"stationId":"7872218776","profile":"off-peak"},"geometry":{"type":"Polygon","coordinates":[[[126.9081480996535,37.250366999697896],[126.9081721711249,37.25035814331025],[126.90817217060001,37.25035814419135],[126.9081480996535,37.250366999697896]]]}},{"type":"Feature","properties":{"interval":30,"stationId":"7872218776","profile":"off-peak"},"geometry":{"type":"Polygon","coordinates":[[[126.9081480996535,37.250366999697896],[126.9081721711249,37.25035814331025],[126.90817217060001,37.25035814419135],[126.9081480996535,37.250366999697896]]]}},{"type":"Feature","properties":{"interval":60,"stationId":"7872218776","profile":"off-peak"},"geometry":{"type":"Polygon","coordinates":[[[126.9081480996535,37.250366999697896],[126.9081721711249,37.25035814331025],[126.90817217060001,37.25035814419135],[126.9081480996535,37.250366999697896]]]}}]}