{"type":"FeatureCollection","features":[{"type":"Feature","properties":{"interval":15,"stationId":"8445537865","profile":"off-peak"},"geometry":{"type":"Polygon","coordinates":[[[127.1280033984192,37.5883285027773],[127.1344747000199,37.5789909995784],[127.1495841993828,37.5853531974429],[127.1476780005403,37.5918074999999],[127.13595689997389,37.596507600136505],[127.1280033984192,37.5883285027773]]]}},{"type":"Feature","properties":{"interval":30,"stationId":"8445537865","profile":"off-peak"},"geometry":{"type":"Polygon","coordinates":[[[127.1179625966174,37.5927712997185],[127.1251649983072,37.5769447998401],[127.12202359948911,37.5736091025251],[127.12570400002559,37.5727032992647],[127.13115070065871,37.5782967963402],[127.14485809989219,37.574963499498004],[127.1594212997261,37.5830685991959],[127.1547579015877,37.587912598240905],[127.1565441004702,37.5945042005342],[127.1488978014914,37.6019699004944],[127.13370589976209,37.6081475003202],[127.1179625966174,37.5927712997185]]]}},{"type":"Feature","properties":{"interval":60,"stationId":"8445537865","profile":"off-peak"},"geometry":{"type":"Polygon","coordinates":[[[127.0698881996307,37.5922472000084],[127.0856359985456,37.5920055995315],[127.08840169947901,37.5846524000396],[127.09313609997409,37.5889455992641],[127.10139499459629,37.5762049006016],[127.0987090972822,37.5724973043092],[127.1102204952047,37.5665151976528],[127.1106924980471,37.5615016993969],[127.10520480353479,37.561066599831996],[127.1142170991952,37.5592045009853],[127.1190883048131,37.5657449910933],[127.1306750994209,37.5607680997668],[127.1300826994366,37.557411600300505],[127.1373620004652,37.5605185988828],[127.13734050052449,37.5670272990851],[127.1398623994234,37.5642540007143],[127.1478670004012,37.5790616979427],[127.174423999675,37.5861075914481],[127.1809904005686,37.5946339992919],[127.1876209999555,37.594428999032296],[127.1721299007296,37.6061135000065],[127.168241100823,37.614667000472295],[127.15059750042741,37.617227301021806],[127.1451600001684,37.625070699789],[127.1401620992705,37.6194175058117],[127.1328776013098,37.620484004495395],[127.1329757012117,37.6250528999265],[127.1195279001923,37.6153364049138],[127.1158481010735,37.618608701876305],[127.11900109581731,37.6072816004379],[127.11558939922901,37.6038592038603],[127.10166250043271,37.612991201133006],[127.0994493996819,37.605173200020204],[127.08249890067141,37.6006804011054],[127.0767600999055,37.604047900507794],[127.0698881996307,37.5922472000084]]]}}]}