{"type":"FeatureCollection","features":[{"type":"Feature","properties":{"interval":15,"stationId":"8874550904","profile":"off-peak"},"geometry":{"type":"Polygon","coordinates":[[[126.95062489888669,36.7693053001028],[126.95062490006869,36.7693052998278],[126.95079888136398,36.769405876529376],[126.95062489888669,36.7693053001028]]]}},{"type":"Feature","properties":{"interval":30,"stationId":"8874550904","profile":"off-peak"},"geometry":{"type":"Polygon","coordinates":[[[126.95062489888669,36.7693053001028],[126.95062490006869,36.7693052998278],[126.95079888136398,36.769405876529376],[126.95062489888669,36.7693053001028]]]}},{"type":"Feature","properties":{"interval":60,"stationId":"8874550904","profile":"off-peak"},"geometry":{"type":"Polygon","coordinates":[[[126.95062489888669,36.7693053001028],[126.95062490006869,36.7693052998278],[126.95079888136398,36.769405876529376],[126.95062489888669,36.7693053001028]]]}}]}