{"type":"FeatureCollection","features":[{"type":"Feature","properties":{"interval":15,"stationId":"9181579787","profile":"off-peak"},"geometry":{"type":"Polygon","coordinates":[[[126.888973598976,37.5397964000922],[126.9001699995256,37.53465459854441],[126.8991901992272,37.5310860018689],[126.90775790035309,37.5303403990383],[126.90831559906809,37.5236631988296],[126.91586669987339,37.5277376999124],[126.9197345993183,37.51984909987],[126.9263736985751,37.5193044991064],[126.9280955006876,37.5297915994173],[126.9226388030119,37.5339072043161],[126.9122690001728,37.5340877003445],[126.91243399922921,37.5282052994672],[126.9057777047794,37.5371812067522],[126.888973598976,37.5397964000922]]]}},{"type":"Feature","properties":{"interval":30,"stationId":"9181579787","profile":"off-peak"},"geometry":{"type":"Polygon","coordinates":[[[126.8464598998845,37.564715599658],[126.8613846988331,37.543056598374],[126.873172200291,37.535829999555496],[126.8827131990445,37.5362859993445],[126.8880172989012,37.5283575022442],[126.8683934996802,37.5262388001204],[126.86404140044341,37.5310100006012],[126.8522763994223,37.5243811003523],[126.8661403991272,37.5210807005818],[126.8676185995804,37.524442798143504],[126.8717258999517,37.5191854999791],[126.8817089996464,37.5213465989328],[126.88329179931989,37.512514199645295],[126.88976799838031,37.513090300053605],[126.88656679925819,37.5078218005272],[126.8794744005349,37.508619800980796],[126.87402299915759,37.499577000606806],[126.8804095001195,37.502181998331295],[126.8864754997325,37.4928594995244],[126.89828410052719,37.4921728991377],[126.89977690027531,37.5065425996108],[126.9052611999204,37.510699298698796],[126.91992139882221,37.5080413990283],[126.9199463997184,37.4977873998125],[126.9306174002143,37.5131784981899],[126.9392156991129,37.504401099577805],[126.9527605995581,37.5087771990992],[126.9608870977135,37.5037302014009],[126.97003099978281,37.5057517966196],[126.9585245009621,37.516837000647],[126.9348802004718,37.5131473008133],[126.9408788002087,37.5196939000254],[126.9383537064542,37.5256633080965],[126.9433087014992,37.534791498968296],[126.9496583996829,37.5349199992197],[126.9554316999385,37.5418509987851],[126.95856400102869,37.557760399802],[126.9532041994197,37.5571661003961],[126.94884619925931,37.546016700662],[126.9386849001955,37.5529857994552],[126.9500793009085,37.5569458996679],[126.93174530002891,37.5570003005088],[126.9280235005392,37.5628501998935],[126.91620920024499,37.5558841000386],[126.9074140004314,37.55984250057],[126.9037013034173,37.5429679034095],[126.8702020008684,37.554749400751696],[126.85655770097449,37.5665492999785],[126.8464598998845,37.564715599658]]]}},{"type":"Feature","properties":{"interval":60,"stationId":"9181579787","profile":"off-peak"},"geometry":{"type":"Polygon","coordinates":[[[126.6927965986514,37.464104099532],[126.7019066992936,37.4670543984775],[126.7107247000295,37.462273699630295],[126.7192323007898,37.4835914972681],[126.7448403978709,37.481684298074796],[126.7449437012146,37.4896429006999],[126.7624944972913,37.475740200880395],[126.7687516993588,37.4786262988214],[126.7834896996937,37.468002999775],[126.785169600917,37.4736923976299],[126.79874359933089,37.465549598368305],[126.8040228001626,37.4735914992495],[126.8241307990078,37.4745552983713],[126.8305117007993,37.4849576949153],[126.83712479462069,37.4805566989843],[126.84435049880051,37.462501500446905],[126.86334479891079,37.463102897390705],[126.8793406978747,37.4412639006664],[126.8917429000163,37.444187497314296],[126.8988991003516,37.4378832986212],[126.8967346991612,37.418915403225],[126.89202790077721,37.423914699936795],[126.88565130346451,37.422809401843296],[126.8865846029915,37.4319483927865],[126.86694700273969,37.415759304690795],[126.87975349030461,37.4126149956445],[126.8869665986028,37.4051790968542],[126.888986400894,37.412303598765604],[126.89585339958589,37.4052458998752],[126.89679980065179,37.4154215941562],[126.9023525996567,37.41084940026779],[126.9154491008079,37.411193999684805],[126.9130553011386,37.421129799683506],[126.90298139987681,37.4232893003929],[126.9112006023442,37.434777499390904],[126.9089975003765,37.4462713998188],[126.9166384993361,37.4479951998365],[126.91656930116851,37.4621542996615],[126.9239645980583,37.46323869795],[126.9330299975603,37.4565477991624],[126.96421030053901,37.4636722942827],[126.96825479649449,37.458810399144596],[126.9806033997507,37.4710080979516],[126.9884666994664,37.4660825001595],[126.9913226001676,37.4467341023807],[127.00218269653341,37.441126500316905],[127.0003112006052,37.434642101062096],[126.9950140996322,37.437971100546896],[126.98657200092059,37.430435801009],[126.9888288989591,37.4212571003195],[126.9867452024668,37.4264797989389],[126.9961642989816,37.423590299002],[127.0009738015757,37.433175597352],[127.0094270984561,37.4301873980126],[127.0144235986998,37.435739494299],[127.00957410596709,37.4389227993866],[127.012509902983,37.4436008963774],[127.01866870052031,37.4423884992846],[127.0126337031234,37.4445006002453],[127.0112094029344,37.4588851003247],[127.0005726042313,37.4616383018114],[126.9913562997318,37.4550593028586],[126.990938200455,37.461865798193095],[127.0089985987954,37.473225397817494],[127.0218220002932,37.4730109983686],[127.0271905001229,37.4837784995985],[127.0266104987753,37.473247200269],[127.0329860985645,37.4600894000738],[127.0425040993009,37.4615442997938],[127.0479189988471,37.457282000480596],[127.04673349929371,37.4488476015003],[127.0525457949028,37.449517296588894],[127.0495687978798,37.4403905057157],[127.06235669965639,37.437334196979],[127.065408801141,37.450202096367896],[127.0584834041438,37.4519174007154],[127.0634415991904,37.454090399576195],[127.0532147023989,37.455581602082404],[127.0495824006219,37.460613599023205],[127.0548087990867,37.481847998312396],[127.0611157971012,37.4806802989007],[127.07087350164281,37.4872191969418],[127.0862732950425,37.4790287982093],[127.09019460199531,37.4855064958298],[127.0890772016574,37.499777599435404],[127.10350899955161,37.4974124996778],[127.10976260040509,37.5010251988298],[127.1135979980986,37.4910372000385],[127.126241300042,37.4843897996533],[127.12240850112971,37.48857190060669],[127.1265006006369,37.4970871995297],[127.1176049005024,37.4974773001404],[127.11517000147201,37.5130309990015],[127.12229729933149,37.515073599145104],[127.1257861988907,37.5087255004486],[127.1329327997558,37.5102457989506],[127.13897850056699,37.5189400975172],[127.14303189948549,37.5174648988946],[127.1392775008659,37.528031696672],[127.14611739797229,37.5239434004545],[127.1510776989161,37.5265600970882],[127.15032020027209,37.532902299923705],[127.1442030003371,37.5295414018401],[127.133902400585,37.5379310003757],[127.1197421003973,37.5406562005032],[127.1169667991896,37.5269193003527],[127.1238781001648,37.5270732994806],[127.1246704000493,37.536437199396005],[127.1318663993663,37.5239536002737],[127.1209096997724,37.5144726014247],[127.1158634008192,37.522655100143204],[127.10995440010251,37.5202623021178],[127.1014410944636,37.524417908986905],[127.0947171017439,37.5376689009118],[127.08133879967049,37.5384403023561],[127.0789930005017,37.544006799186],[127.0824184996129,37.5451183992387],[127.0752624010172,37.5510716984155],[127.09500440007149,37.5497196982719],[127.0841448005835,37.5616424998449],[127.0898040012403,37.575946197859295],[127.0835816000632,37.575706500160905],[127.08536499967569,37.569731600484694],[127.07285059921199,37.5600953021058],[127.0699893999046,37.5658379003224],[127.0502912003128,37.574678500424696],[127.0675635002127,37.5934131987534],[127.0659787004798,37.6053343001495],[127.0612687000078,37.5909186007512],[127.0589166004967,37.5944565000065],[127.0526491003395,37.5931834001857],[127.0509308999842,37.5871981005226],[127.0445306009519,37.5875322006639],[127.0371028002723,37.5954590006265],[127.02437189965751,37.589443001141504],[127.0225030017348,37.5966040991276],[127.03417759987411,37.610675399255896],[127.0300649003065,37.617875300209604],[127.0193265997368,37.602753300041506],[127.01058930064511,37.6050788006515],[127.0125220005517,37.5997283004785],[127.00804529808761,37.5937792016454],[126.9991088004793,37.5957275007273],[126.99204409887611,37.5855675015436],[126.98193630034311,37.5912798021521],[126.9749579990518,37.5830084008759],[126.9755423994377,37.5896346967167],[126.96985740470639,37.5909128994247],[126.9579265019656,37.5844816004213],[126.9495428004813,37.588902000979395],[126.9484298002624,37.5981326995354],[126.9375355028557,37.603974798920106],[126.9396515007544,37.6074773975786],[126.9424994979064,37.6048507002053],[126.94343190243609,37.6150200956001],[126.93978680045629,37.6132757033982],[126.936214899987,37.6186903994737],[126.9446836990751,37.623571494801794],[126.932013001249,37.6300508010319],[126.9154741037077,37.6542489038534],[126.9077871003839,37.6524499006061],[126.913481398432,37.6497550989096],[126.9079287003138,37.6481667022563],[126.9149082957584,37.6391517017291],[126.90743889976851,37.6336248070641],[126.9148604979654,37.6342176986817],[126.9176192991598,37.628686201169096],[126.91448360077,37.6295873004919],[126.9159887972977,37.624592402323096],[126.9071370014022,37.624834901135905],[126.91003689724229,37.6225357993818],[126.905352097384,37.608127303285],[126.8986621991816,37.606388602090306],[126.9014158975142,37.5982735012405],[126.896412700233,37.5895893018735],[126.8829808994291,37.592225803912704],[126.8761115005302,37.5832914018666],[126.8542050993519,37.5817486006263],[126.8470022003363,37.572538409249496],[126.8168942009732,37.580768501483796],[126.8144506027807,37.583393799390905],[126.81806789916341,37.584668898115794],[126.8055531013851,37.5900379003495],[126.7898682003568,37.5864119010623],[126.7887793993929,37.579745603523506],[126.78454190103949,37.584805800297296],[126.78730799317759,37.5671271998009],[126.7936973998185,37.5670303991262],[126.7993937003088,37.5758302957253],[126.8035801992859,37.5713500991522],[126.7984198005241,37.563155202025094],[126.81650019872,37.545237099823204],[126.81857009773191,37.541451600582405],[126.8119085005382,37.536198804605604],[126.8200840993116,37.529094300079294],[126.8118758012143,37.530149002994904],[126.8070522035064,37.5363284002094],[126.7965190004337,37.5313669008098],[126.7979377982714,37.5255966999051],[126.7917751003797,37.5234029003577],[126.79857569524741,37.5142985025197],[126.7903804999785,37.509662004502],[126.7855020013879,37.5144854006591],[126.7670566014043,37.5078808010894],[126.75336460042669,37.5123752002821],[126.7459330992035,37.5080089013865],[126.7492874997115,37.4977425001722],[126.73596279963479,37.4891861018439],[126.7315997005016,37.498961099971304],[126.722893900605,37.502438300377705],[126.73822079957249,37.5065026995429],[126.74299569878819,37.5036126967874],[126.7432546010132,37.50948789962651],[126.7170880984041,37.5077321015321],[126.7163828980727,37.4914214015756],[126.7100270009809,37.4910278009718],[126.7070173992061,37.478896302000805],[126.6949060013879,37.4767205015327],[126.6961272984517,37.4646593001785],[126.6927965986514,37.464104099532]]]}}]}