{"type":"FeatureCollection","features":[{"type":"Feature","properties":{"interval":15,"stationId":"9589229146","profile":"off-peak"},"geometry":{"type":"Polygon","coordinates":[[[127.1917420993171,37.7193861003366],[127.2049657965058,37.711072501508504],[127.2133058007036,37.7159743001167],[127.206584400262,37.7300382003606],[127.1917420993171,37.7193861003366]]]}},{"type":"Feature","properties":{"interval":30,"stationId":"9589229146","profile":"off-peak"},"geometry":{"type":"Polygon","coordinates":[[[127.1814106960353,37.7212148988034],[127.1811292994049,37.7146007999817],[127.1900889987206,37.7048841004689],[127.1875770989609,37.7016086022627],[127.1938207998012,37.6981343999087],[127.2033755997387,37.7085095982896],[127.2210969999045,37.707435496894604],[127.224185098353,37.7139439934465],[127.2162775041622,37.7196577994182],[127.2245543958853,37.723285595790394],[127.2161126040141,37.7256808007689],[127.2154091015487,37.7382779004424],[127.2131949996009,37.7345230009491],[127.2076947010252,37.7386384005882],[127.2006214979627,37.725226505793195],[127.1960016015399,37.7330715994673],[127.1895296027074,37.7320597019829],[127.1814106960353,37.7212148988034]]]}},{"type":"Feature","properties":{"interval":60,"stationId":"9589229146","profile":"off-peak"},"geometry":{"type":"Polygon","coordinates":[[[127.0123753990379,37.6336750007742],[127.0163822993304,37.628573800026096],[127.0138926992507,37.6232530998246],[127.0229349989868,37.619121600032],[127.0193265997368,37.602753300041506],[127.0232608996002,37.5979472000328],[127.03906570020429,37.6129642997817],[127.0334275029909,37.6206708990939],[127.0433760997131,37.6415205983498],[127.0617790994379,37.6386762002766],[127.0559873985802,37.6300402999766],[127.06379630007811,37.6331077976029],[127.0691805965493,37.6275704993581],[127.0628406019794,37.6206745023778],[127.05784759975221,37.6226805024915],[127.0721055998565,37.6202526998238],[127.0689437002534,37.615897800682696],[127.07665399958671,37.6073488998835],[127.0817833009955,37.6116250995658],[127.080002400074,37.6273871996248],[127.0725700012723,37.6325299993291],[127.0772598042211,37.6478994984349],[127.0958514002108,37.6594587969246],[127.10664609773791,37.6493987990958],[127.1241841992903,37.646295399512496],[127.13025239952411,37.6486019986693],[127.1371489022802,37.6691368997692],[127.1342126004151,37.6678953006601],[127.13323480055179,37.6737013008584],[127.1318525000976,37.6701001009142],[127.1197746101308,37.6750586023064],[127.1077816004715,37.6884667022749],[127.1020562970405,37.6806885035962],[127.0816228017989,37.688001901727404],[127.07402930181111,37.685366205208496],[127.0738878949823,37.6775159036545],[127.0680656008046,37.676646404524],[127.0461389022936,37.693173101694605],[127.0454720021179,37.6988974998472],[127.04013480068271,37.6958835015759],[127.0417465977,37.6908346032287],[127.0364363030103,37.6925146015487],[127.034007499152,37.6774257008266],[127.04269089846339,37.6750263002844],[127.03035129973071,37.6690776006087],[127.0332652995714,37.6605012998711],[127.0216753005391,37.6543025022904],[127.0123753990379,37.6336750007742]]]}}]}