{"type":"FeatureCollection","features":[{"type":"Feature","properties":{"interval":15,"stationId":"9589229143","profile":"off-peak"},"geometry":{"type":"Polygon","coordinates":[[[127.1068381993482,37.663090399742],[127.1213850994597,37.6582365000491],[127.1240104001898,37.666707497108],[127.1143189006757,37.6759469006999],[127.1068381993482,37.663090399742]]]}},{"type":"Feature","properties":{"interval":30,"stationId":"9589229143","profile":"off-peak"},"geometry":{"type":"Polygon","coordinates":[[[127.0953684954914,37.6692487976387],[127.10062509639491,37.670966392609195],[127.1034448935751,37.667656095919504],[127.0978219992082,37.6602951013198],[127.105010597445,37.65350630182569],[127.1042445020659,37.657397696766296],[127.1125750980056,37.6574593969073],[127.11346379931851,37.6490357996159],[127.1219256006757,37.65435789817],[127.1256271986156,37.6490188991069],[127.1332445985569,37.655377198163094],[127.1341190005087,37.669032199523194],[127.1235757045807,37.6694679012246],[127.1088967064014,37.6845083964822],[127.1062260958302,37.675654505034004],[127.0953684954914,37.6692487976387]]]}},{"type":"Feature","properties":{"interval":60,"stationId":"9589229143","profile":"off-peak"},"geometry":{"type":"Polygon","coordinates":[[[126.9988046992781,37.5824397000549],[127.00380319992269,37.5878925990376],[127.0208938001872,37.588688099858],[127.02519480211859,37.6008205984898],[127.0382783995361,37.6085231993787],[127.0397000009942,37.614059999618],[127.0334275029909,37.6206708990939],[127.03920340046841,37.637557999368596],[127.0525146986337,37.6419948979323],[127.05508379948381,37.6290791009378],[127.0681492964089,37.6293831986424],[127.0628405997781,37.6206745016901],[127.0589181003061,37.625914500719404],[127.05790999955691,37.6192500002254],[127.07094089892189,37.623726298331505],[127.0721315979934,37.6166111010762],[127.0688542009097,37.6165784009295],[127.0745218992397,37.613030099839904],[127.0792678996644,37.599424899539706],[127.0803203003301,37.6274855997458],[127.0720580026787,37.6336904005126],[127.0771400994648,37.6381065991565],[127.0772598042211,37.6478994984349],[127.0992797980068,37.6407107927142],[127.1034642938223,37.6338333995916],[127.1127793002036,37.6343153986346],[127.11144090142281,37.6407660992359],[127.1193392970437,37.6422381988234],[127.1150516992926,37.6306929002862],[127.12122209961039,37.6299174996834],[127.1241155004819,37.6356506970526],[127.1317243021217,37.6369224985965],[127.1330650001542,37.644343898070204],[127.14230019942819,37.636580299064796],[127.14032780133209,37.6419545991332],[127.148137396814,37.6410202994505],[127.1526772006831,37.6541561980596],[127.156810298224,37.6505165998542],[127.1619380993436,37.656255697858],[127.1571886019784,37.655481301178796],[127.1591252019795,37.6588354986036],[127.16323269787199,37.658859998579096],[127.1479511046841,37.6647604001582],[127.1515125981042,37.6546587984398],[127.146076301671,37.6515930015141],[127.1440519999737,37.657300800838],[127.1339071038697,37.6578000987594],[127.1394291024066,37.6689060947502],[127.1363008003705,37.667231201532005],[127.1353879016792,37.6827993998717],[127.1366265997353,37.686746998034394],[127.1399633972307,37.6849628992066],[127.1366266014136,37.686747004400694],[127.13527269955951,37.6779922012031],[127.1299054026658,37.677365003082905],[127.1314488013156,37.690545199621404],[127.1299053855204,37.677365003592904],[127.1197745956512,37.6750586058993],[127.1088967064014,37.6845083964822],[127.1128088024893,37.6964046845859],[127.10901480087429,37.706428800229695],[127.10292120054869,37.7060912006731],[127.0933748983442,37.68941850872],[127.0853310994796,37.6913523009232],[127.0876939981801,37.6860608025354],[127.0816228017989,37.688001901727404],[127.0639297017011,37.6797420047483],[127.0455470020429,37.6976782010665],[127.0420628985225,37.696466901570595],[127.0417465977,37.6908346032287],[127.0364363030103,37.6925146015487],[127.0331594995844,37.6782523005666],[127.04269089846339,37.6750263002844],[127.0298593991932,37.669845500235304],[127.0320898997018,37.660589900068096],[127.0188299005077,37.6511537028125],[127.01096920031151,37.6354554005694],[127.01471499998719,37.630619099578595],[127.01239319986121,37.6251050004525],[127.0223535982339,37.6169285001956],[127.0174642994688,37.6031291007143],[127.01981930010679,37.597383201409805],[127.001759199191,37.5907227004629],[126.9988046992781,37.5824397000549]]]}}]}